{
    "type": "FeatureCollection",
    "features": [
        {
            "type": "Feature",
            "properties": {
                "type": "site",
                "region_id": "AE_R002",
                "site_id": "AE_R002_0167",
                "version": "2.0.0",
                "status": "positive_pending",
                "mgrs": "40RCN",
                "score": 1.0,
                "start_date": "2018-07-18",
                "end_date": "2021-02-28",
                "model_content": "annotation",
                "originator": "te",
                "validated": "False",
                "misc_info": {
                    "commit_hash": "824fac44479e0c34c554c214480da6d4c14a319e"
                }
            },
            "geometry": {
                "type": "Polygon",
                "coordinates": [
                    [
                        [
                            55.280885,
                            25.01414
                        ],
                        [
                            55.282559,
                            25.012469
                        ],
                        [
                            55.282883,
                            25.012506
                        ],
                        [
                            55.285859,
                            25.01554
                        ],
                        [
                            55.285794,
                            25.01565
                        ],
                        [
                            55.285778,
                            25.016764
                        ],
                        [
                            55.284977,
                            25.017504
                        ],
                        [
                            55.284589,
                            25.017115
                        ],
                        [
                            55.284096,
                            25.017108
                        ],
                        [
                            55.280885,
                            25.01414
                        ]
                    ]
                ]
            }
        },
        {
            "type": "Feature",
            "properties": {
                "observation_date": "2018-07-18",
                "source": null,
                "sensor_name": null,
                "type": "observation",
                "current_phase": null,
                "is_occluded": null,
                "is_site_boundary": null,
                "score": 1.0
            },
            "geometry": {
                "type": "MultiPolygon",
                "coordinates": [
                    [
                        [
                            [
                                55.280885,
                                25.01414
                            ],
                            [
                                55.282559,
                                25.012469
                            ],
                            [
                                55.282883,
                                25.012506
                            ],
                            [
                                55.285859,
                                25.01554
                            ],
                            [
                                55.285794,
                                25.01565
                            ],
                            [
                                55.285778,
                                25.016764
                            ],
                            [
                                55.284977,
                                25.017504
                            ],
                            [
                                55.284589,
                                25.017115
                            ],
                            [
                                55.284096,
                                25.017108
                            ],
                            [
                                55.280885,
                                25.01414
                            ]
                        ]
                    ]
                ]
            }
        },
        {
            "type": "Feature",
            "properties": {
                "observation_date": "2021-02-28",
                "source": null,
                "sensor_name": null,
                "type": "observation",
                "current_phase": null,
                "is_occluded": null,
                "is_site_boundary": null,
                "score": 1.0
            },
            "geometry": {
                "type": "MultiPolygon",
                "coordinates": [
                    [
                        [
                            [
                                55.280885,
                                25.01414
                            ],
                            [
                                55.282559,
                                25.012469
                            ],
                            [
                                55.282883,
                                25.012506
                            ],
                            [
                                55.285859,
                                25.01554
                            ],
                            [
                                55.285794,
                                25.01565
                            ],
                            [
                                55.285778,
                                25.016764
                            ],
                            [
                                55.284977,
                                25.017504
                            ],
                            [
                                55.284589,
                                25.017115
                            ],
                            [
                                55.284096,
                                25.017108
                            ],
                            [
                                55.280885,
                                25.01414
                            ]
                        ]
                    ]
                ]
            }
        }
    ]
}