{
    "type": "FeatureCollection",
    "features": [
        {
            "type": "Feature",
            "properties": {
                "type": "site",
                "region_id": "AE_R001",
                "site_id": "AE_R001_0500",
                "version": "2.0.0",
                "status": "positive_pending",
                "mgrs": "40RBN",
                "score": 1.0,
                "start_date": "2014-01-16",
                "end_date": "2017-05-30",
                "model_content": "annotation",
                "originator": "te",
                "validated": "True",
                "misc_info": {
                    "commit_hash": "8e2cc701facd37559ed12647d70a5e5b3622c6ca"
                }
            },
            "geometry": {
                "type": "Polygon",
                "coordinates": [
                    [
                        [
                            55.012386,
                            24.92033
                        ],
                        [
                            55.013673,
                            24.920765
                        ],
                        [
                            55.013402,
                            24.921693
                        ],
                        [
                            55.014332,
                            24.921974
                        ],
                        [
                            55.014622,
                            24.921481
                        ],
                        [
                            55.014508,
                            24.920839
                        ],
                        [
                            55.014427,
                            24.920157
                        ],
                        [
                            55.014441,
                            24.919521
                        ],
                        [
                            55.014507,
                            24.919339
                        ],
                        [
                            55.013523,
                            24.919014
                        ],
                        [
                            55.013304,
                            24.91849
                        ],
                        [
                            55.01334,
                            24.918058
                        ],
                        [
                            55.013072,
                            24.917329
                        ],
                        [
                            55.012358,
                            24.917194
                        ],
                        [
                            55.011972,
                            24.916384
                        ],
                        [
                            55.011949,
                            24.916239
                        ],
                        [
                            55.012154,
                            24.915856
                        ],
                        [
                            55.012207,
                            24.915733
                        ],
                        [
                            55.011943,
                            24.915749
                        ],
                        [
                            55.011893,
                            24.915938
                        ],
                        [
                            55.011765,
                            24.916129
                        ],
                        [
                            55.011822,
                            24.916307
                        ],
                        [
                            55.011856,
                            24.91643
                        ],
                        [
                            55.010887,
                            24.916723
                        ],
                        [
                            55.010786,
                            24.91677
                        ],
                        [
                            55.010741,
                            24.916888
                        ],
                        [
                            55.010701,
                            24.917025
                        ],
                        [
                            55.010624,
                            24.917067
                        ],
                        [
                            55.010433,
                            24.917115
                        ],
                        [
                            55.010282,
                            24.917195
                        ],
                        [
                            55.010127,
                            24.917316
                        ],
                        [
                            55.010024,
                            24.917476
                        ],
                        [
                            55.010266,
                            24.918095
                        ],
                        [
                            55.010074,
                            24.918129
                        ],
                        [
                            55.00988,
                            24.918175
                        ],
                        [
                            55.009813,
                            24.918254
                        ],
                        [
                            55.009779,
                            24.918395
                        ],
                        [
                            55.009648,
                            24.918572
                        ],
                        [
                            55.009479,
                            24.918598
                        ],
                        [
                            55.009215,
                            24.918633
                        ],
                        [
                            55.00881,
                            24.918797
                        ],
                        [
                            55.00892,
                            24.919035
                        ],
                        [
                            55.008707,
                            24.919748
                        ],
                        [
                            55.008738,
                            24.919778
                        ],
                        [
                            55.008742,
                            24.9198
                        ],
                        [
                            55.009456,
                            24.92075
                        ],
                        [
                            55.00981,
                            24.920593
                        ],
                        [
                            55.01028,
                            24.920622
                        ],
                        [
                            55.012063,
                            24.921249
                        ],
                        [
                            55.012386,
                            24.92033
                        ]
                    ]
                ]
            }
        },
        {
            "type": "Feature",
            "properties": {
                "observation_date": "2014-01-16",
                "source": null,
                "sensor_name": null,
                "type": "observation",
                "current_phase": null,
                "is_occluded": null,
                "is_site_boundary": null,
                "score": 1.0
            },
            "geometry": {
                "type": "MultiPolygon",
                "coordinates": [
                    [
                        [
                            [
                                55.012386,
                                24.92033
                            ],
                            [
                                55.013673,
                                24.920765
                            ],
                            [
                                55.013402,
                                24.921693
                            ],
                            [
                                55.014332,
                                24.921974
                            ],
                            [
                                55.014622,
                                24.921481
                            ],
                            [
                                55.014508,
                                24.920839
                            ],
                            [
                                55.014427,
                                24.920157
                            ],
                            [
                                55.014441,
                                24.919521
                            ],
                            [
                                55.014507,
                                24.919339
                            ],
                            [
                                55.013523,
                                24.919014
                            ],
                            [
                                55.013304,
                                24.91849
                            ],
                            [
                                55.01334,
                                24.918058
                            ],
                            [
                                55.013072,
                                24.917329
                            ],
                            [
                                55.012358,
                                24.917194
                            ],
                            [
                                55.011972,
                                24.916384
                            ],
                            [
                                55.011949,
                                24.916239
                            ],
                            [
                                55.012154,
                                24.915856
                            ],
                            [
                                55.012207,
                                24.915733
                            ],
                            [
                                55.011943,
                                24.915749
                            ],
                            [
                                55.011893,
                                24.915938
                            ],
                            [
                                55.011765,
                                24.916129
                            ],
                            [
                                55.011822,
                                24.916307
                            ],
                            [
                                55.011856,
                                24.91643
                            ],
                            [
                                55.010887,
                                24.916723
                            ],
                            [
                                55.010786,
                                24.91677
                            ],
                            [
                                55.010741,
                                24.916888
                            ],
                            [
                                55.010701,
                                24.917025
                            ],
                            [
                                55.010624,
                                24.917067
                            ],
                            [
                                55.010433,
                                24.917115
                            ],
                            [
                                55.010282,
                                24.917195
                            ],
                            [
                                55.010127,
                                24.917316
                            ],
                            [
                                55.010024,
                                24.917476
                            ],
                            [
                                55.010266,
                                24.918095
                            ],
                            [
                                55.010074,
                                24.918129
                            ],
                            [
                                55.00988,
                                24.918175
                            ],
                            [
                                55.009813,
                                24.918254
                            ],
                            [
                                55.009779,
                                24.918395
                            ],
                            [
                                55.009648,
                                24.918572
                            ],
                            [
                                55.009479,
                                24.918598
                            ],
                            [
                                55.009215,
                                24.918633
                            ],
                            [
                                55.00881,
                                24.918797
                            ],
                            [
                                55.00892,
                                24.919035
                            ],
                            [
                                55.008707,
                                24.919748
                            ],
                            [
                                55.008738,
                                24.919778
                            ],
                            [
                                55.008742,
                                24.9198
                            ],
                            [
                                55.009456,
                                24.92075
                            ],
                            [
                                55.00981,
                                24.920593
                            ],
                            [
                                55.01028,
                                24.920622
                            ],
                            [
                                55.012063,
                                24.921249
                            ],
                            [
                                55.012386,
                                24.92033
                            ]
                        ]
                    ]
                ]
            }
        },
        {
            "type": "Feature",
            "properties": {
                "observation_date": "2017-05-30",
                "source": null,
                "sensor_name": null,
                "type": "observation",
                "current_phase": null,
                "is_occluded": null,
                "is_site_boundary": null,
                "score": 1.0
            },
            "geometry": {
                "type": "MultiPolygon",
                "coordinates": [
                    [
                        [
                            [
                                55.012386,
                                24.92033
                            ],
                            [
                                55.013673,
                                24.920765
                            ],
                            [
                                55.013402,
                                24.921693
                            ],
                            [
                                55.014332,
                                24.921974
                            ],
                            [
                                55.014622,
                                24.921481
                            ],
                            [
                                55.014508,
                                24.920839
                            ],
                            [
                                55.014427,
                                24.920157
                            ],
                            [
                                55.014441,
                                24.919521
                            ],
                            [
                                55.014507,
                                24.919339
                            ],
                            [
                                55.013523,
                                24.919014
                            ],
                            [
                                55.013304,
                                24.91849
                            ],
                            [
                                55.01334,
                                24.918058
                            ],
                            [
                                55.013072,
                                24.917329
                            ],
                            [
                                55.012358,
                                24.917194
                            ],
                            [
                                55.011972,
                                24.916384
                            ],
                            [
                                55.011949,
                                24.916239
                            ],
                            [
                                55.012154,
                                24.915856
                            ],
                            [
                                55.012207,
                                24.915733
                            ],
                            [
                                55.011943,
                                24.915749
                            ],
                            [
                                55.011893,
                                24.915938
                            ],
                            [
                                55.011765,
                                24.916129
                            ],
                            [
                                55.011822,
                                24.916307
                            ],
                            [
                                55.011856,
                                24.91643
                            ],
                            [
                                55.010887,
                                24.916723
                            ],
                            [
                                55.010786,
                                24.91677
                            ],
                            [
                                55.010741,
                                24.916888
                            ],
                            [
                                55.010701,
                                24.917025
                            ],
                            [
                                55.010624,
                                24.917067
                            ],
                            [
                                55.010433,
                                24.917115
                            ],
                            [
                                55.010282,
                                24.917195
                            ],
                            [
                                55.010127,
                                24.917316
                            ],
                            [
                                55.010024,
                                24.917476
                            ],
                            [
                                55.010266,
                                24.918095
                            ],
                            [
                                55.010074,
                                24.918129
                            ],
                            [
                                55.00988,
                                24.918175
                            ],
                            [
                                55.009813,
                                24.918254
                            ],
                            [
                                55.009779,
                                24.918395
                            ],
                            [
                                55.009648,
                                24.918572
                            ],
                            [
                                55.009479,
                                24.918598
                            ],
                            [
                                55.009215,
                                24.918633
                            ],
                            [
                                55.00881,
                                24.918797
                            ],
                            [
                                55.00892,
                                24.919035
                            ],
                            [
                                55.008707,
                                24.919748
                            ],
                            [
                                55.008738,
                                24.919778
                            ],
                            [
                                55.008742,
                                24.9198
                            ],
                            [
                                55.009456,
                                24.92075
                            ],
                            [
                                55.00981,
                                24.920593
                            ],
                            [
                                55.01028,
                                24.920622
                            ],
                            [
                                55.012063,
                                24.921249
                            ],
                            [
                                55.012386,
                                24.92033
                            ]
                        ]
                    ]
                ]
            }
        }
    ]
}