{
    "type": "FeatureCollection",
    "features": [
        {
            "type": "Feature",
            "properties": {
                "type": "site",
                "region_id": "AE_R001",
                "site_id": "AE_R001_0537",
                "version": "2.0.0",
                "status": "negative",
                "mgrs": "40RCN",
                "score": 1.0,
                "start_date": "2016-08-18",
                "end_date": "2020-05-14",
                "model_content": "annotation",
                "originator": "te",
                "validated": "True",
                "misc_info": {
                    "commit_hash": "8e2cc701facd37559ed12647d70a5e5b3622c6ca"
                }
            },
            "geometry": {
                "type": "Polygon",
                "coordinates": [
                    [
                        [
                            55.144371,
                            24.862421
                        ],
                        [
                            55.14459,
                            24.862883
                        ],
                        [
                            55.145421,
                            24.86317
                        ],
                        [
                            55.146418,
                            24.864577
                        ],
                        [
                            55.153258,
                            24.860873
                        ],
                        [
                            55.152962,
                            24.860322
                        ],
                        [
                            55.152713,
                            24.859681
                        ],
                        [
                            55.152401,
                            24.858688
                        ],
                        [
                            55.152159,
                            24.858269
                        ],
                        [
                            55.151917,
                            24.857981
                        ],
                        [
                            55.15174,
                            24.857943
                        ],
                        [
                            55.151277,
                            24.858333
                        ],
                        [
                            55.150724,
                            24.858991
                        ],
                        [
                            55.149968,
                            24.859756
                        ],
                        [
                            55.149478,
                            24.860146
                        ],
                        [
                            55.1489,
                            24.860546
                        ],
                        [
                            55.148334,
                            24.860677
                        ],
                        [
                            55.147798,
                            24.860642
                        ],
                        [
                            55.14742,
                            24.860652
                        ],
                        [
                            55.147193,
                            24.860916
                        ],
                        [
                            55.147137,
                            24.861126
                        ],
                        [
                            55.146901,
                            24.861127
                        ],
                        [
                            55.146814,
                            24.860963
                        ],
                        [
                            55.146683,
                            24.86088
                        ],
                        [
                            55.146359,
                            24.860853
                        ],
                        [
                            55.146087,
                            24.860899
                        ],
                        [
                            55.145844,
                            24.860946
                        ],
                        [
                            55.145815,
                            24.860946
                        ],
                        [
                            55.144982,
                            24.8615
                        ],
                        [
                            55.144428,
                            24.862006
                        ],
                        [
                            55.144371,
                            24.862421
                        ]
                    ]
                ]
            }
        },
        {
            "type": "Feature",
            "properties": {
                "observation_date": "2016-08-18",
                "source": null,
                "sensor_name": null,
                "type": "observation",
                "current_phase": null,
                "is_occluded": null,
                "is_site_boundary": null,
                "score": 1.0
            },
            "geometry": {
                "type": "MultiPolygon",
                "coordinates": [
                    [
                        [
                            [
                                55.144371,
                                24.862421
                            ],
                            [
                                55.14459,
                                24.862883
                            ],
                            [
                                55.145421,
                                24.86317
                            ],
                            [
                                55.146418,
                                24.864577
                            ],
                            [
                                55.153258,
                                24.860873
                            ],
                            [
                                55.152962,
                                24.860322
                            ],
                            [
                                55.152713,
                                24.859681
                            ],
                            [
                                55.152401,
                                24.858688
                            ],
                            [
                                55.152159,
                                24.858269
                            ],
                            [
                                55.151917,
                                24.857981
                            ],
                            [
                                55.15174,
                                24.857943
                            ],
                            [
                                55.151277,
                                24.858333
                            ],
                            [
                                55.150724,
                                24.858991
                            ],
                            [
                                55.149968,
                                24.859756
                            ],
                            [
                                55.149478,
                                24.860146
                            ],
                            [
                                55.1489,
                                24.860546
                            ],
                            [
                                55.148334,
                                24.860677
                            ],
                            [
                                55.147798,
                                24.860642
                            ],
                            [
                                55.14742,
                                24.860652
                            ],
                            [
                                55.147193,
                                24.860916
                            ],
                            [
                                55.147137,
                                24.861126
                            ],
                            [
                                55.146901,
                                24.861127
                            ],
                            [
                                55.146814,
                                24.860963
                            ],
                            [
                                55.146683,
                                24.86088
                            ],
                            [
                                55.146359,
                                24.860853
                            ],
                            [
                                55.146087,
                                24.860899
                            ],
                            [
                                55.145844,
                                24.860946
                            ],
                            [
                                55.145815,
                                24.860946
                            ],
                            [
                                55.144982,
                                24.8615
                            ],
                            [
                                55.144428,
                                24.862006
                            ],
                            [
                                55.144371,
                                24.862421
                            ]
                        ]
                    ]
                ]
            }
        },
        {
            "type": "Feature",
            "properties": {
                "observation_date": "2020-05-14",
                "source": null,
                "sensor_name": null,
                "type": "observation",
                "current_phase": null,
                "is_occluded": null,
                "is_site_boundary": null,
                "score": 1.0
            },
            "geometry": {
                "type": "MultiPolygon",
                "coordinates": [
                    [
                        [
                            [
                                55.144371,
                                24.862421
                            ],
                            [
                                55.14459,
                                24.862883
                            ],
                            [
                                55.145421,
                                24.86317
                            ],
                            [
                                55.146418,
                                24.864577
                            ],
                            [
                                55.153258,
                                24.860873
                            ],
                            [
                                55.152962,
                                24.860322
                            ],
                            [
                                55.152713,
                                24.859681
                            ],
                            [
                                55.152401,
                                24.858688
                            ],
                            [
                                55.152159,
                                24.858269
                            ],
                            [
                                55.151917,
                                24.857981
                            ],
                            [
                                55.15174,
                                24.857943
                            ],
                            [
                                55.151277,
                                24.858333
                            ],
                            [
                                55.150724,
                                24.858991
                            ],
                            [
                                55.149968,
                                24.859756
                            ],
                            [
                                55.149478,
                                24.860146
                            ],
                            [
                                55.1489,
                                24.860546
                            ],
                            [
                                55.148334,
                                24.860677
                            ],
                            [
                                55.147798,
                                24.860642
                            ],
                            [
                                55.14742,
                                24.860652
                            ],
                            [
                                55.147193,
                                24.860916
                            ],
                            [
                                55.147137,
                                24.861126
                            ],
                            [
                                55.146901,
                                24.861127
                            ],
                            [
                                55.146814,
                                24.860963
                            ],
                            [
                                55.146683,
                                24.86088
                            ],
                            [
                                55.146359,
                                24.860853
                            ],
                            [
                                55.146087,
                                24.860899
                            ],
                            [
                                55.145844,
                                24.860946
                            ],
                            [
                                55.145815,
                                24.860946
                            ],
                            [
                                55.144982,
                                24.8615
                            ],
                            [
                                55.144428,
                                24.862006
                            ],
                            [
                                55.144371,
                                24.862421
                            ]
                        ]
                    ]
                ]
            }
        }
    ]
}