{
    "type": "FeatureCollection",
    "features": [
        {
            "type": "Feature",
            "properties": {
                "type": "site",
                "region_id": "AE_R001",
                "site_id": "AE_R001_0472",
                "version": "2.0.0",
                "status": "positive_pending",
                "mgrs": "40RCN",
                "score": 1.0,
                "start_date": "2014-01-16",
                "end_date": "2016-08-18",
                "model_content": "annotation",
                "originator": "te",
                "validated": "True",
                "misc_info": {
                    "commit_hash": "8e2cc701facd37559ed12647d70a5e5b3622c6ca"
                }
            },
            "geometry": {
                "type": "Polygon",
                "coordinates": [
                    [
                        [
                            55.089049,
                            24.934453
                        ],
                        [
                            55.089383,
                            24.934809
                        ],
                        [
                            55.089675,
                            24.934862
                        ],
                        [
                            55.089956,
                            24.934687
                        ],
                        [
                            55.09045,
                            24.935269
                        ],
                        [
                            55.091424,
                            24.934545
                        ],
                        [
                            55.090452,
                            24.933409
                        ],
                        [
                            55.08945,
                            24.934126
                        ],
                        [
                            55.088906,
                            24.933516
                        ],
                        [
                            55.088397,
                            24.933834
                        ],
                        [
                            55.088984,
                            24.934489
                        ],
                        [
                            55.089049,
                            24.934453
                        ]
                    ]
                ]
            }
        },
        {
            "type": "Feature",
            "properties": {
                "observation_date": "2014-01-16",
                "source": null,
                "sensor_name": null,
                "type": "observation",
                "current_phase": null,
                "is_occluded": null,
                "is_site_boundary": null,
                "score": 1.0
            },
            "geometry": {
                "type": "MultiPolygon",
                "coordinates": [
                    [
                        [
                            [
                                55.089049,
                                24.934453
                            ],
                            [
                                55.089383,
                                24.934809
                            ],
                            [
                                55.089675,
                                24.934862
                            ],
                            [
                                55.089956,
                                24.934687
                            ],
                            [
                                55.09045,
                                24.935269
                            ],
                            [
                                55.091424,
                                24.934545
                            ],
                            [
                                55.090452,
                                24.933409
                            ],
                            [
                                55.08945,
                                24.934126
                            ],
                            [
                                55.088906,
                                24.933516
                            ],
                            [
                                55.088397,
                                24.933834
                            ],
                            [
                                55.088984,
                                24.934489
                            ],
                            [
                                55.089049,
                                24.934453
                            ]
                        ]
                    ]
                ]
            }
        },
        {
            "type": "Feature",
            "properties": {
                "observation_date": "2016-08-18",
                "source": null,
                "sensor_name": null,
                "type": "observation",
                "current_phase": null,
                "is_occluded": null,
                "is_site_boundary": null,
                "score": 1.0
            },
            "geometry": {
                "type": "MultiPolygon",
                "coordinates": [
                    [
                        [
                            [
                                55.089049,
                                24.934453
                            ],
                            [
                                55.089383,
                                24.934809
                            ],
                            [
                                55.089675,
                                24.934862
                            ],
                            [
                                55.089956,
                                24.934687
                            ],
                            [
                                55.09045,
                                24.935269
                            ],
                            [
                                55.091424,
                                24.934545
                            ],
                            [
                                55.090452,
                                24.933409
                            ],
                            [
                                55.08945,
                                24.934126
                            ],
                            [
                                55.088906,
                                24.933516
                            ],
                            [
                                55.088397,
                                24.933834
                            ],
                            [
                                55.088984,
                                24.934489
                            ],
                            [
                                55.089049,
                                24.934453
                            ]
                        ]
                    ]
                ]
            }
        }
    ]
}