{
    "type": "FeatureCollection",
    "features": [
        {
            "type": "Feature",
            "properties": {
                "type": "site",
                "region_id": "AE_R002",
                "site_id": "AE_R002_0076",
                "version": "2.0.0",
                "status": "positive_annotated_static",
                "mgrs": "40RCN",
                "score": 1.0,
                "start_date": "2017-10-10",
                "end_date": "2021-07-05",
                "model_content": "annotation",
                "originator": "te",
                "validated": "True",
                "misc_info": {
                    "commit_hash": "8e08692eda2dec643e6abab764d830cd0f7f4055"
                }
            },
            "geometry": {
                "type": "Polygon",
                "coordinates": [
                    [
                        [
                            55.264978,
                            25.022702
                        ],
                        [
                            55.264539,
                            25.023944
                        ],
                        [
                            55.265451,
                            25.024219
                        ],
                        [
                            55.265941,
                            25.022993
                        ],
                        [
                            55.264978,
                            25.022702
                        ]
                    ]
                ]
            }
        },
        {
            "type": "Feature",
            "properties": {
                "observation_date": "2017-10-10",
                "source": "17OCT10095421-P1BS-501638840010_01_P001",
                "sensor_name": "WorldView",
                "type": "observation",
                "current_phase": "No Activity",
                "is_occluded": "False",
                "is_site_boundary": "True",
                "score": 1.0
            },
            "geometry": {
                "type": "MultiPolygon",
                "coordinates": [
                    [
                        [
                            [
                                55.264539,
                                25.023944
                            ],
                            [
                                55.264978,
                                25.022702
                            ],
                            [
                                55.265941,
                                25.022993
                            ],
                            [
                                55.265451,
                                25.024219
                            ],
                            [
                                55.264539,
                                25.023944
                            ]
                        ]
                    ]
                ]
            }
        },
        {
            "type": "Feature",
            "properties": {
                "observation_date": "2017-10-27",
                "source": "17OCT27095604-P1BS-501683869010_01_P001",
                "sensor_name": "WorldView",
                "type": "observation",
                "current_phase": "No Activity",
                "is_occluded": "False",
                "is_site_boundary": "True",
                "score": 1.0
            },
            "geometry": {
                "type": "MultiPolygon",
                "coordinates": [
                    [
                        [
                            [
                                55.264539,
                                25.023944
                            ],
                            [
                                55.264978,
                                25.022702
                            ],
                            [
                                55.265941,
                                25.022993
                            ],
                            [
                                55.265451,
                                25.024219
                            ],
                            [
                                55.264539,
                                25.023944
                            ]
                        ]
                    ]
                ]
            }
        },
        {
            "type": "Feature",
            "properties": {
                "observation_date": "2017-11-13",
                "source": "17NOV13095918-P1BS-501764823010_01_P002",
                "sensor_name": "WorldView",
                "type": "observation",
                "current_phase": "No Activity",
                "is_occluded": "False",
                "is_site_boundary": "True",
                "score": 1.0
            },
            "geometry": {
                "type": "MultiPolygon",
                "coordinates": [
                    [
                        [
                            [
                                55.264539,
                                25.023944
                            ],
                            [
                                55.264978,
                                25.022702
                            ],
                            [
                                55.265941,
                                25.022993
                            ],
                            [
                                55.265451,
                                25.024219
                            ],
                            [
                                55.264539,
                                25.023944
                            ]
                        ]
                    ]
                ]
            }
        },
        {
            "type": "Feature",
            "properties": {
                "observation_date": "2017-12-30",
                "source": "17DEC30095332-P1BS-501824017010_01_P001",
                "sensor_name": "WorldView",
                "type": "observation",
                "current_phase": "Site Preparation",
                "is_occluded": "False",
                "is_site_boundary": "True",
                "score": 1.0
            },
            "geometry": {
                "type": "MultiPolygon",
                "coordinates": [
                    [
                        [
                            [
                                55.264539,
                                25.023944
                            ],
                            [
                                55.264978,
                                25.022702
                            ],
                            [
                                55.265941,
                                25.022993
                            ],
                            [
                                55.265451,
                                25.024219
                            ],
                            [
                                55.264539,
                                25.023944
                            ]
                        ]
                    ]
                ]
            }
        },
        {
            "type": "Feature",
            "properties": {
                "observation_date": "2018-03-08",
                "source": "18MAR08072034-M1BS-502009134020_01_P003",
                "sensor_name": "WorldView",
                "type": "observation",
                "current_phase": "Active Construction",
                "is_occluded": "False",
                "is_site_boundary": "True",
                "score": 1.0
            },
            "geometry": {
                "type": "MultiPolygon",
                "coordinates": [
                    [
                        [
                            [
                                55.264539,
                                25.023944
                            ],
                            [
                                55.264978,
                                25.022702
                            ],
                            [
                                55.265941,
                                25.022993
                            ],
                            [
                                55.265451,
                                25.024219
                            ],
                            [
                                55.264539,
                                25.023944
                            ]
                        ]
                    ]
                ]
            }
        },
        {
            "type": "Feature",
            "properties": {
                "observation_date": "2018-04-08",
                "source": "18APR08071429-M1BS-014858888010_01_P004",
                "sensor_name": "WorldView",
                "type": "observation",
                "current_phase": "Active Construction",
                "is_occluded": "False",
                "is_site_boundary": "True",
                "score": 1.0
            },
            "geometry": {
                "type": "MultiPolygon",
                "coordinates": [
                    [
                        [
                            [
                                55.264539,
                                25.023944
                            ],
                            [
                                55.264978,
                                25.022702
                            ],
                            [
                                55.265941,
                                25.022993
                            ],
                            [
                                55.265451,
                                25.024219
                            ],
                            [
                                55.264539,
                                25.023944
                            ]
                        ]
                    ]
                ]
            }
        },
        {
            "type": "Feature",
            "properties": {
                "observation_date": "2019-01-26",
                "source": "19JAN26071820-P1BS-014858848010_01_P004",
                "sensor_name": "WorldView",
                "type": "observation",
                "current_phase": "Active Construction",
                "is_occluded": "False",
                "is_site_boundary": "True",
                "score": 1.0
            },
            "geometry": {
                "type": "MultiPolygon",
                "coordinates": [
                    [
                        [
                            [
                                55.264539,
                                25.023944
                            ],
                            [
                                55.264978,
                                25.022702
                            ],
                            [
                                55.265941,
                                25.022993
                            ],
                            [
                                55.265451,
                                25.024219
                            ],
                            [
                                55.264539,
                                25.023944
                            ]
                        ]
                    ]
                ]
            }
        },
        {
            "type": "Feature",
            "properties": {
                "observation_date": "2019-06-24",
                "source": "19JUN24095635-P1BS_R4C1-502704253040_02_P001",
                "sensor_name": "WorldView",
                "type": "observation",
                "current_phase": "Active Construction",
                "is_occluded": "False",
                "is_site_boundary": "True",
                "score": 1.0
            },
            "geometry": {
                "type": "MultiPolygon",
                "coordinates": [
                    [
                        [
                            [
                                55.264539,
                                25.023944
                            ],
                            [
                                55.264978,
                                25.022702
                            ],
                            [
                                55.265941,
                                25.022993
                            ],
                            [
                                55.265451,
                                25.024219
                            ],
                            [
                                55.264539,
                                25.023944
                            ]
                        ]
                    ]
                ]
            }
        },
        {
            "type": "Feature",
            "properties": {
                "observation_date": "2019-08-24",
                "source": "19AUG24072402-P1BS-014858702010_01_P009",
                "sensor_name": "WorldView",
                "type": "observation",
                "current_phase": "Active Construction",
                "is_occluded": "False",
                "is_site_boundary": "True",
                "score": 1.0
            },
            "geometry": {
                "type": "MultiPolygon",
                "coordinates": [
                    [
                        [
                            [
                                55.264539,
                                25.023944
                            ],
                            [
                                55.264978,
                                25.022702
                            ],
                            [
                                55.265941,
                                25.022993
                            ],
                            [
                                55.265451,
                                25.024219
                            ],
                            [
                                55.264539,
                                25.023944
                            ]
                        ]
                    ]
                ]
            }
        },
        {
            "type": "Feature",
            "properties": {
                "observation_date": "2019-10-08",
                "source": "19OCT08100746-P1BS_R4C1-502704253040_06_P001",
                "sensor_name": "WorldView",
                "type": "observation",
                "current_phase": "Active Construction",
                "is_occluded": "False",
                "is_site_boundary": "True",
                "score": 1.0
            },
            "geometry": {
                "type": "MultiPolygon",
                "coordinates": [
                    [
                        [
                            [
                                55.264539,
                                25.023944
                            ],
                            [
                                55.264978,
                                25.022702
                            ],
                            [
                                55.265941,
                                25.022993
                            ],
                            [
                                55.265451,
                                25.024219
                            ],
                            [
                                55.264539,
                                25.023944
                            ]
                        ]
                    ]
                ]
            }
        },
        {
            "type": "Feature",
            "properties": {
                "observation_date": "2020-08-23",
                "source": "20AUG23095637-P1BS-014469613010_01_P001",
                "sensor_name": "WorldView",
                "type": "observation",
                "current_phase": "Post Construction",
                "is_occluded": "False",
                "is_site_boundary": "True",
                "score": 1.0
            },
            "geometry": {
                "type": "MultiPolygon",
                "coordinates": [
                    [
                        [
                            [
                                55.264539,
                                25.023944
                            ],
                            [
                                55.264978,
                                25.022702
                            ],
                            [
                                55.265941,
                                25.022993
                            ],
                            [
                                55.265451,
                                25.024219
                            ],
                            [
                                55.264539,
                                25.023944
                            ]
                        ]
                    ]
                ]
            }
        },
        {
            "type": "Feature",
            "properties": {
                "observation_date": "2020-09-10",
                "source": "20SEP10064315-P1BS-014464473010_01_P004",
                "sensor_name": "WorldView",
                "type": "observation",
                "current_phase": "Post Construction",
                "is_occluded": "False",
                "is_site_boundary": "True",
                "score": 1.0
            },
            "geometry": {
                "type": "MultiPolygon",
                "coordinates": [
                    [
                        [
                            [
                                55.264539,
                                25.023944
                            ],
                            [
                                55.264978,
                                25.022702
                            ],
                            [
                                55.265941,
                                25.022993
                            ],
                            [
                                55.265451,
                                25.024219
                            ],
                            [
                                55.264539,
                                25.023944
                            ]
                        ]
                    ]
                ]
            }
        },
        {
            "type": "Feature",
            "properties": {
                "observation_date": "2020-09-18",
                "source": "20SEP18064937-P1BS-014496294010_01_P001",
                "sensor_name": "WorldView",
                "type": "observation",
                "current_phase": "Post Construction",
                "is_occluded": "False",
                "is_site_boundary": "True",
                "score": 1.0
            },
            "geometry": {
                "type": "MultiPolygon",
                "coordinates": [
                    [
                        [
                            [
                                55.264539,
                                25.023944
                            ],
                            [
                                55.264978,
                                25.022702
                            ],
                            [
                                55.265941,
                                25.022993
                            ],
                            [
                                55.265451,
                                25.024219
                            ],
                            [
                                55.264539,
                                25.023944
                            ]
                        ]
                    ]
                ]
            }
        },
        {
            "type": "Feature",
            "properties": {
                "observation_date": "2020-10-07",
                "source": "20OCT07071051-M1BS-014466698010_01_P002",
                "sensor_name": "WorldView",
                "type": "observation",
                "current_phase": "Post Construction",
                "is_occluded": "False",
                "is_site_boundary": "True",
                "score": 1.0
            },
            "geometry": {
                "type": "MultiPolygon",
                "coordinates": [
                    [
                        [
                            [
                                55.264539,
                                25.023944
                            ],
                            [
                                55.264978,
                                25.022702
                            ],
                            [
                                55.265941,
                                25.022993
                            ],
                            [
                                55.265451,
                                25.024219
                            ],
                            [
                                55.264539,
                                25.023944
                            ]
                        ]
                    ]
                ]
            }
        },
        {
            "type": "Feature",
            "properties": {
                "observation_date": "2020-10-13",
                "source": "20OCT13095755-P1BS-014469632010_01_P001",
                "sensor_name": "WorldView",
                "type": "observation",
                "current_phase": "Post Construction",
                "is_occluded": "False",
                "is_site_boundary": "True",
                "score": 1.0
            },
            "geometry": {
                "type": "MultiPolygon",
                "coordinates": [
                    [
                        [
                            [
                                55.264539,
                                25.023944
                            ],
                            [
                                55.264978,
                                25.022702
                            ],
                            [
                                55.265941,
                                25.022993
                            ],
                            [
                                55.265451,
                                25.024219
                            ],
                            [
                                55.264539,
                                25.023944
                            ]
                        ]
                    ]
                ]
            }
        },
        {
            "type": "Feature",
            "properties": {
                "observation_date": "2021-02-24",
                "source": "21FEB24071354-P1BS-014466653010_01_P001",
                "sensor_name": "WorldView",
                "type": "observation",
                "current_phase": "Post Construction",
                "is_occluded": "False",
                "is_site_boundary": "True",
                "score": 1.0
            },
            "geometry": {
                "type": "MultiPolygon",
                "coordinates": [
                    [
                        [
                            [
                                55.264539,
                                25.023944
                            ],
                            [
                                55.264978,
                                25.022702
                            ],
                            [
                                55.265941,
                                25.022993
                            ],
                            [
                                55.265451,
                                25.024219
                            ],
                            [
                                55.264539,
                                25.023944
                            ]
                        ]
                    ]
                ]
            }
        },
        {
            "type": "Feature",
            "properties": {
                "observation_date": "2021-03-15",
                "source": "21MAR15071150-P1BS-014466652010_01_P005",
                "sensor_name": "WorldView",
                "type": "observation",
                "current_phase": "Post Construction",
                "is_occluded": "False",
                "is_site_boundary": "True",
                "score": 1.0
            },
            "geometry": {
                "type": "MultiPolygon",
                "coordinates": [
                    [
                        [
                            [
                                55.264539,
                                25.023944
                            ],
                            [
                                55.264978,
                                25.022702
                            ],
                            [
                                55.265941,
                                25.022993
                            ],
                            [
                                55.265451,
                                25.024219
                            ],
                            [
                                55.264539,
                                25.023944
                            ]
                        ]
                    ]
                ]
            }
        },
        {
            "type": "Feature",
            "properties": {
                "observation_date": "2021-03-27",
                "source": "21MAR27070110-M1BS-014466598010_01_P005",
                "sensor_name": "WorldView",
                "type": "observation",
                "current_phase": "Post Construction",
                "is_occluded": "False",
                "is_site_boundary": "True",
                "score": 1.0
            },
            "geometry": {
                "type": "MultiPolygon",
                "coordinates": [
                    [
                        [
                            [
                                55.264539,
                                25.023944
                            ],
                            [
                                55.264978,
                                25.022702
                            ],
                            [
                                55.265941,
                                25.022993
                            ],
                            [
                                55.265451,
                                25.024219
                            ],
                            [
                                55.264539,
                                25.023944
                            ]
                        ]
                    ]
                ]
            }
        },
        {
            "type": "Feature",
            "properties": {
                "observation_date": "2021-07-05",
                "source": "21JUL05095613-P1BS-014469473010_01_P001",
                "sensor_name": "WorldView",
                "type": "observation",
                "current_phase": "Post Construction",
                "is_occluded": "False",
                "is_site_boundary": "True",
                "score": 1.0
            },
            "geometry": {
                "type": "MultiPolygon",
                "coordinates": [
                    [
                        [
                            [
                                55.264539,
                                25.023944
                            ],
                            [
                                55.264978,
                                25.022702
                            ],
                            [
                                55.265941,
                                25.022993
                            ],
                            [
                                55.265451,
                                25.024219
                            ],
                            [
                                55.264539,
                                25.023944
                            ]
                        ]
                    ]
                ]
            }
        }
    ]
}