{
    "type": "FeatureCollection",
    "features": [
        {
            "type": "Feature",
            "properties": {
                "type": "site",
                "region_id": "AE_R001",
                "site_id": "AE_R001_0590",
                "version": "2.0.0",
                "status": "positive_pending",
                "mgrs": "40RCN",
                "score": 1.0,
                "start_date": "2015-04-27",
                "end_date": "2016-06-23",
                "model_content": "annotation",
                "originator": "te",
                "validated": "True",
                "misc_info": {
                    "commit_hash": "8e2cc701facd37559ed12647d70a5e5b3622c6ca"
                }
            },
            "geometry": {
                "type": "Polygon",
                "coordinates": [
                    [
                        [
                            55.113769,
                            24.977093
                        ],
                        [
                            55.114064,
                            24.977978
                        ],
                        [
                            55.114092,
                            24.977977
                        ],
                        [
                            55.114779,
                            24.977749
                        ],
                        [
                            55.114486,
                            24.976819
                        ],
                        [
                            55.113769,
                            24.977093
                        ]
                    ]
                ]
            }
        },
        {
            "type": "Feature",
            "properties": {
                "observation_date": "2015-04-27",
                "source": null,
                "sensor_name": null,
                "type": "observation",
                "current_phase": null,
                "is_occluded": null,
                "is_site_boundary": null,
                "score": 1.0
            },
            "geometry": {
                "type": "MultiPolygon",
                "coordinates": [
                    [
                        [
                            [
                                55.113769,
                                24.977093
                            ],
                            [
                                55.114064,
                                24.977978
                            ],
                            [
                                55.114092,
                                24.977977
                            ],
                            [
                                55.114779,
                                24.977749
                            ],
                            [
                                55.114486,
                                24.976819
                            ],
                            [
                                55.113769,
                                24.977093
                            ]
                        ]
                    ]
                ]
            }
        },
        {
            "type": "Feature",
            "properties": {
                "observation_date": "2016-06-23",
                "source": null,
                "sensor_name": null,
                "type": "observation",
                "current_phase": null,
                "is_occluded": null,
                "is_site_boundary": null,
                "score": 1.0
            },
            "geometry": {
                "type": "MultiPolygon",
                "coordinates": [
                    [
                        [
                            [
                                55.113769,
                                24.977093
                            ],
                            [
                                55.114064,
                                24.977978
                            ],
                            [
                                55.114092,
                                24.977977
                            ],
                            [
                                55.114779,
                                24.977749
                            ],
                            [
                                55.114486,
                                24.976819
                            ],
                            [
                                55.113769,
                                24.977093
                            ]
                        ]
                    ]
                ]
            }
        }
    ]
}