{
    "type": "FeatureCollection",
    "features": [
        {
            "type": "Feature",
            "properties": {
                "type": "site",
                "region_id": "AE_R002",
                "site_id": "AE_R002_0100",
                "version": "2.0.0",
                "status": "positive_annotated_static",
                "mgrs": "40RCN",
                "score": 1.0,
                "start_date": "2016-06-05",
                "end_date": "2019-11-26",
                "model_content": "annotation",
                "originator": "te",
                "validated": "True",
                "misc_info": {
                    "commit_hash": "dbdea3485a8eb34730f81ec01861c62e6358b0b5"
                }
            },
            "geometry": {
                "type": "Polygon",
                "coordinates": [
                    [
                        [
                            55.201378,
                            25.098692
                        ],
                        [
                            55.200143,
                            25.098622
                        ],
                        [
                            55.199818,
                            25.099618
                        ],
                        [
                            55.199854,
                            25.099745
                        ],
                        [
                            55.199966,
                            25.0998
                        ],
                        [
                            55.201285,
                            25.099871
                        ],
                        [
                            55.201378,
                            25.098692
                        ]
                    ]
                ]
            }
        },
        {
            "type": "Feature",
            "properties": {
                "observation_date": "2016-06-05",
                "source": "16JUN05100242-P1BS-500718481010_01_P008",
                "sensor_name": "WorldView",
                "type": "observation",
                "current_phase": "No Activity",
                "is_occluded": "False",
                "is_site_boundary": "True",
                "score": 1.0
            },
            "geometry": {
                "type": "MultiPolygon",
                "coordinates": [
                    [
                        [
                            [
                                55.200143,
                                25.098622
                            ],
                            [
                                55.201378,
                                25.098692
                            ],
                            [
                                55.201285,
                                25.099871
                            ],
                            [
                                55.199966,
                                25.0998
                            ],
                            [
                                55.199854,
                                25.099745
                            ],
                            [
                                55.199818,
                                25.099618
                            ],
                            [
                                55.200143,
                                25.098622
                            ]
                        ]
                    ]
                ]
            }
        },
        {
            "type": "Feature",
            "properties": {
                "observation_date": "2016-08-02",
                "source": "16AUG02071943-P1BS-500346924010_18_P005",
                "sensor_name": "WorldView",
                "type": "observation",
                "current_phase": "No Activity",
                "is_occluded": "False",
                "is_site_boundary": "True",
                "score": 1.0
            },
            "geometry": {
                "type": "MultiPolygon",
                "coordinates": [
                    [
                        [
                            [
                                55.200143,
                                25.098622
                            ],
                            [
                                55.201378,
                                25.098692
                            ],
                            [
                                55.201285,
                                25.099871
                            ],
                            [
                                55.199966,
                                25.0998
                            ],
                            [
                                55.199854,
                                25.099745
                            ],
                            [
                                55.199818,
                                25.099618
                            ],
                            [
                                55.200143,
                                25.098622
                            ]
                        ]
                    ]
                ]
            }
        },
        {
            "type": "Feature",
            "properties": {
                "observation_date": "2016-08-13",
                "source": "16AUG13071752-M1BS-014855172010_01_P002",
                "sensor_name": "WorldView",
                "type": "observation",
                "current_phase": "No Activity",
                "is_occluded": "False",
                "is_site_boundary": "True",
                "score": 1.0
            },
            "geometry": {
                "type": "MultiPolygon",
                "coordinates": [
                    [
                        [
                            [
                                55.200143,
                                25.098622
                            ],
                            [
                                55.201378,
                                25.098692
                            ],
                            [
                                55.201285,
                                25.099871
                            ],
                            [
                                55.199966,
                                25.0998
                            ],
                            [
                                55.199854,
                                25.099745
                            ],
                            [
                                55.199818,
                                25.099618
                            ],
                            [
                                55.200143,
                                25.098622
                            ]
                        ]
                    ]
                ]
            }
        },
        {
            "type": "Feature",
            "properties": {
                "observation_date": "2016-10-06",
                "source": "S2A_40RCN_20161006_0_L1C_TCI",
                "sensor_name": "Sentinel-2",
                "type": "observation",
                "current_phase": "No Activity",
                "is_occluded": "False",
                "is_site_boundary": "True",
                "score": 1.0
            },
            "geometry": {
                "type": "MultiPolygon",
                "coordinates": [
                    [
                        [
                            [
                                55.200143,
                                25.098622
                            ],
                            [
                                55.201378,
                                25.098692
                            ],
                            [
                                55.201285,
                                25.099871
                            ],
                            [
                                55.199966,
                                25.0998
                            ],
                            [
                                55.199854,
                                25.099745
                            ],
                            [
                                55.199818,
                                25.099618
                            ],
                            [
                                55.200143,
                                25.098622
                            ]
                        ]
                    ]
                ]
            }
        },
        {
            "type": "Feature",
            "properties": {
                "observation_date": "2016-11-05",
                "source": "S2A_40RCN_20161105_0_L1C_TCI",
                "sensor_name": "Sentinel-2",
                "type": "observation",
                "current_phase": "No Activity",
                "is_occluded": "False",
                "is_site_boundary": "True",
                "score": 1.0
            },
            "geometry": {
                "type": "MultiPolygon",
                "coordinates": [
                    [
                        [
                            [
                                55.200143,
                                25.098622
                            ],
                            [
                                55.201378,
                                25.098692
                            ],
                            [
                                55.201285,
                                25.099871
                            ],
                            [
                                55.199966,
                                25.0998
                            ],
                            [
                                55.199854,
                                25.099745
                            ],
                            [
                                55.199818,
                                25.099618
                            ],
                            [
                                55.200143,
                                25.098622
                            ]
                        ]
                    ]
                ]
            }
        },
        {
            "type": "Feature",
            "properties": {
                "observation_date": "2016-12-05",
                "source": "S2A_40RCN_20161205_0_L1C_TCI",
                "sensor_name": "Sentinel-2",
                "type": "observation",
                "current_phase": "No Activity",
                "is_occluded": "False",
                "is_site_boundary": "True",
                "score": 1.0
            },
            "geometry": {
                "type": "MultiPolygon",
                "coordinates": [
                    [
                        [
                            [
                                55.200143,
                                25.098622
                            ],
                            [
                                55.201378,
                                25.098692
                            ],
                            [
                                55.201285,
                                25.099871
                            ],
                            [
                                55.199966,
                                25.0998
                            ],
                            [
                                55.199854,
                                25.099745
                            ],
                            [
                                55.199818,
                                25.099618
                            ],
                            [
                                55.200143,
                                25.098622
                            ]
                        ]
                    ]
                ]
            }
        },
        {
            "type": "Feature",
            "properties": {
                "observation_date": "2017-01-04",
                "source": "S2A_40RCN_20170104_0_L2A_TCI",
                "sensor_name": "Sentinel-2",
                "type": "observation",
                "current_phase": "No Activity",
                "is_occluded": "False",
                "is_site_boundary": "True",
                "score": 1.0
            },
            "geometry": {
                "type": "MultiPolygon",
                "coordinates": [
                    [
                        [
                            [
                                55.200143,
                                25.098622
                            ],
                            [
                                55.201378,
                                25.098692
                            ],
                            [
                                55.201285,
                                25.099871
                            ],
                            [
                                55.199966,
                                25.0998
                            ],
                            [
                                55.199854,
                                25.099745
                            ],
                            [
                                55.199818,
                                25.099618
                            ],
                            [
                                55.200143,
                                25.098622
                            ]
                        ]
                    ]
                ]
            }
        },
        {
            "type": "Feature",
            "properties": {
                "observation_date": "2017-02-23",
                "source": "S2A_40RCN_20170223_0_L2A_TCI",
                "sensor_name": "Sentinel-2",
                "type": "observation",
                "current_phase": "No Activity",
                "is_occluded": "False",
                "is_site_boundary": "True",
                "score": 1.0
            },
            "geometry": {
                "type": "MultiPolygon",
                "coordinates": [
                    [
                        [
                            [
                                55.200143,
                                25.098622
                            ],
                            [
                                55.201378,
                                25.098692
                            ],
                            [
                                55.201285,
                                25.099871
                            ],
                            [
                                55.199966,
                                25.0998
                            ],
                            [
                                55.199854,
                                25.099745
                            ],
                            [
                                55.199818,
                                25.099618
                            ],
                            [
                                55.200143,
                                25.098622
                            ]
                        ]
                    ]
                ]
            }
        },
        {
            "type": "Feature",
            "properties": {
                "observation_date": "2017-03-15",
                "source": "S2A_40RCN_20170315_0_L2A_TCI",
                "sensor_name": "Sentinel-2",
                "type": "observation",
                "current_phase": "Site Preparation",
                "is_occluded": "False",
                "is_site_boundary": "True",
                "score": 1.0
            },
            "geometry": {
                "type": "MultiPolygon",
                "coordinates": [
                    [
                        [
                            [
                                55.200143,
                                25.098622
                            ],
                            [
                                55.201378,
                                25.098692
                            ],
                            [
                                55.201285,
                                25.099871
                            ],
                            [
                                55.199966,
                                25.0998
                            ],
                            [
                                55.199854,
                                25.099745
                            ],
                            [
                                55.199818,
                                25.099618
                            ],
                            [
                                55.200143,
                                25.098622
                            ]
                        ]
                    ]
                ]
            }
        },
        {
            "type": "Feature",
            "properties": {
                "observation_date": "2017-07-28",
                "source": "S2B_40RCN_20170728_0_L2A_TCI",
                "sensor_name": "Sentinel-2",
                "type": "observation",
                "current_phase": "Active Construction",
                "is_occluded": "False",
                "is_site_boundary": "True",
                "score": 1.0
            },
            "geometry": {
                "type": "MultiPolygon",
                "coordinates": [
                    [
                        [
                            [
                                55.200143,
                                25.098622
                            ],
                            [
                                55.201378,
                                25.098692
                            ],
                            [
                                55.201285,
                                25.099871
                            ],
                            [
                                55.199966,
                                25.0998
                            ],
                            [
                                55.199854,
                                25.099745
                            ],
                            [
                                55.199818,
                                25.099618
                            ],
                            [
                                55.200143,
                                25.098622
                            ]
                        ]
                    ]
                ]
            }
        },
        {
            "type": "Feature",
            "properties": {
                "observation_date": "2017-08-07",
                "source": "S2B_40RCN_20170807_0_L2A_TCI",
                "sensor_name": "Sentinel-2",
                "type": "observation",
                "current_phase": "Active Construction",
                "is_occluded": "False",
                "is_site_boundary": "True",
                "score": 1.0
            },
            "geometry": {
                "type": "MultiPolygon",
                "coordinates": [
                    [
                        [
                            [
                                55.200143,
                                25.098622
                            ],
                            [
                                55.201378,
                                25.098692
                            ],
                            [
                                55.201285,
                                25.099871
                            ],
                            [
                                55.199966,
                                25.0998
                            ],
                            [
                                55.199854,
                                25.099745
                            ],
                            [
                                55.199818,
                                25.099618
                            ],
                            [
                                55.200143,
                                25.098622
                            ]
                        ]
                    ]
                ]
            }
        },
        {
            "type": "Feature",
            "properties": {
                "observation_date": "2017-09-26",
                "source": "S2B_40RCN_20170926_0_L2A_TCI",
                "sensor_name": "Sentinel-2",
                "type": "observation",
                "current_phase": "Active Construction",
                "is_occluded": "False",
                "is_site_boundary": "True",
                "score": 1.0
            },
            "geometry": {
                "type": "MultiPolygon",
                "coordinates": [
                    [
                        [
                            [
                                55.200143,
                                25.098622
                            ],
                            [
                                55.201378,
                                25.098692
                            ],
                            [
                                55.201285,
                                25.099871
                            ],
                            [
                                55.199966,
                                25.0998
                            ],
                            [
                                55.199854,
                                25.099745
                            ],
                            [
                                55.199818,
                                25.099618
                            ],
                            [
                                55.200143,
                                25.098622
                            ]
                        ]
                    ]
                ]
            }
        },
        {
            "type": "Feature",
            "properties": {
                "observation_date": "2017-11-13",
                "source": "17NOV13095918-P1BS-501764823010_01_P002",
                "sensor_name": "WorldView",
                "type": "observation",
                "current_phase": "Active Construction",
                "is_occluded": "False",
                "is_site_boundary": "True",
                "score": 1.0
            },
            "geometry": {
                "type": "MultiPolygon",
                "coordinates": [
                    [
                        [
                            [
                                55.200143,
                                25.098622
                            ],
                            [
                                55.201378,
                                25.098692
                            ],
                            [
                                55.201285,
                                25.099871
                            ],
                            [
                                55.199966,
                                25.0998
                            ],
                            [
                                55.199854,
                                25.099745
                            ],
                            [
                                55.199818,
                                25.099618
                            ],
                            [
                                55.200143,
                                25.098622
                            ]
                        ]
                    ]
                ]
            }
        },
        {
            "type": "Feature",
            "properties": {
                "observation_date": "2018-03-08",
                "source": "18MAR08072034-P1BS-502009134020_01_P003",
                "sensor_name": "WorldView",
                "type": "observation",
                "current_phase": "Active Construction",
                "is_occluded": "False",
                "is_site_boundary": "True",
                "score": 1.0
            },
            "geometry": {
                "type": "MultiPolygon",
                "coordinates": [
                    [
                        [
                            [
                                55.200143,
                                25.098622
                            ],
                            [
                                55.201378,
                                25.098692
                            ],
                            [
                                55.201285,
                                25.099871
                            ],
                            [
                                55.199966,
                                25.0998
                            ],
                            [
                                55.199854,
                                25.099745
                            ],
                            [
                                55.199818,
                                25.099618
                            ],
                            [
                                55.200143,
                                25.098622
                            ]
                        ]
                    ]
                ]
            }
        },
        {
            "type": "Feature",
            "properties": {
                "observation_date": "2018-03-10",
                "source": "S2A_40RCN_20180310_0_L2A_TCI",
                "sensor_name": "Sentinel-2",
                "type": "observation",
                "current_phase": "Active Construction",
                "is_occluded": "False",
                "is_site_boundary": "True",
                "score": 1.0
            },
            "geometry": {
                "type": "MultiPolygon",
                "coordinates": [
                    [
                        [
                            [
                                55.200143,
                                25.098622
                            ],
                            [
                                55.201378,
                                25.098692
                            ],
                            [
                                55.201285,
                                25.099871
                            ],
                            [
                                55.199966,
                                25.0998
                            ],
                            [
                                55.199854,
                                25.099745
                            ],
                            [
                                55.199818,
                                25.099618
                            ],
                            [
                                55.200143,
                                25.098622
                            ]
                        ]
                    ]
                ]
            }
        },
        {
            "type": "Feature",
            "properties": {
                "observation_date": "2018-06-03",
                "source": "S2B_40RCN_20180603_0_L2A_TCI",
                "sensor_name": "Sentinel-2",
                "type": "observation",
                "current_phase": "Active Construction",
                "is_occluded": "False",
                "is_site_boundary": "True",
                "score": 1.0
            },
            "geometry": {
                "type": "MultiPolygon",
                "coordinates": [
                    [
                        [
                            [
                                55.200143,
                                25.098622
                            ],
                            [
                                55.201378,
                                25.098692
                            ],
                            [
                                55.201285,
                                25.099871
                            ],
                            [
                                55.199966,
                                25.0998
                            ],
                            [
                                55.199854,
                                25.099745
                            ],
                            [
                                55.199818,
                                25.099618
                            ],
                            [
                                55.200143,
                                25.098622
                            ]
                        ]
                    ]
                ]
            }
        },
        {
            "type": "Feature",
            "properties": {
                "observation_date": "2018-07-03",
                "source": "S2B_40RCN_20180703_0_L2A_TCI",
                "sensor_name": "Sentinel-2",
                "type": "observation",
                "current_phase": "Active Construction",
                "is_occluded": "False",
                "is_site_boundary": "True",
                "score": 1.0
            },
            "geometry": {
                "type": "MultiPolygon",
                "coordinates": [
                    [
                        [
                            [
                                55.200143,
                                25.098622
                            ],
                            [
                                55.201378,
                                25.098692
                            ],
                            [
                                55.201285,
                                25.099871
                            ],
                            [
                                55.199966,
                                25.0998
                            ],
                            [
                                55.199854,
                                25.099745
                            ],
                            [
                                55.199818,
                                25.099618
                            ],
                            [
                                55.200143,
                                25.098622
                            ]
                        ]
                    ]
                ]
            }
        },
        {
            "type": "Feature",
            "properties": {
                "observation_date": "2018-12-20",
                "source": "S2B_40RCN_20181220_0_L2A_TCI",
                "sensor_name": "Sentinel-2",
                "type": "observation",
                "current_phase": "Post Construction",
                "is_occluded": "False",
                "is_site_boundary": "True",
                "score": 1.0
            },
            "geometry": {
                "type": "MultiPolygon",
                "coordinates": [
                    [
                        [
                            [
                                55.200143,
                                25.098622
                            ],
                            [
                                55.201378,
                                25.098692
                            ],
                            [
                                55.201285,
                                25.099871
                            ],
                            [
                                55.199966,
                                25.0998
                            ],
                            [
                                55.199854,
                                25.099745
                            ],
                            [
                                55.199818,
                                25.099618
                            ],
                            [
                                55.200143,
                                25.098622
                            ]
                        ]
                    ]
                ]
            }
        },
        {
            "type": "Feature",
            "properties": {
                "observation_date": "2019-01-24",
                "source": "S2A_40RCN_20190124_0_L2A_TCI",
                "sensor_name": "Sentinel-2",
                "type": "observation",
                "current_phase": "Post Construction",
                "is_occluded": "False",
                "is_site_boundary": "True",
                "score": 1.0
            },
            "geometry": {
                "type": "MultiPolygon",
                "coordinates": [
                    [
                        [
                            [
                                55.200143,
                                25.098622
                            ],
                            [
                                55.201378,
                                25.098692
                            ],
                            [
                                55.201285,
                                25.099871
                            ],
                            [
                                55.199966,
                                25.0998
                            ],
                            [
                                55.199854,
                                25.099745
                            ],
                            [
                                55.199818,
                                25.099618
                            ],
                            [
                                55.200143,
                                25.098622
                            ]
                        ]
                    ]
                ]
            }
        },
        {
            "type": "Feature",
            "properties": {
                "observation_date": "2019-01-26",
                "source": "19JAN26071819-M1BS-014858848010_01_P003",
                "sensor_name": "WorldView",
                "type": "observation",
                "current_phase": "Post Construction",
                "is_occluded": "False",
                "is_site_boundary": "True",
                "score": 1.0
            },
            "geometry": {
                "type": "MultiPolygon",
                "coordinates": [
                    [
                        [
                            [
                                55.200143,
                                25.098622
                            ],
                            [
                                55.201378,
                                25.098692
                            ],
                            [
                                55.201285,
                                25.099871
                            ],
                            [
                                55.199966,
                                25.0998
                            ],
                            [
                                55.199854,
                                25.099745
                            ],
                            [
                                55.199818,
                                25.099618
                            ],
                            [
                                55.200143,
                                25.098622
                            ]
                        ]
                    ]
                ]
            }
        },
        {
            "type": "Feature",
            "properties": {
                "observation_date": "2019-08-29",
                "source": "19AUG29070526-M1BS-502626884040_05_P001",
                "sensor_name": "WorldView",
                "type": "observation",
                "current_phase": "Post Construction",
                "is_occluded": "False",
                "is_site_boundary": "True",
                "score": 1.0
            },
            "geometry": {
                "type": "MultiPolygon",
                "coordinates": [
                    [
                        [
                            [
                                55.200143,
                                25.098622
                            ],
                            [
                                55.201378,
                                25.098692
                            ],
                            [
                                55.201285,
                                25.099871
                            ],
                            [
                                55.199966,
                                25.0998
                            ],
                            [
                                55.199854,
                                25.099745
                            ],
                            [
                                55.199818,
                                25.099618
                            ],
                            [
                                55.200143,
                                25.098622
                            ]
                        ]
                    ]
                ]
            }
        },
        {
            "type": "Feature",
            "properties": {
                "observation_date": "2019-10-08",
                "source": "19OCT08100851-P1BS_R4C1-502704253040_06_P001",
                "sensor_name": "WorldView",
                "type": "observation",
                "current_phase": "Post Construction",
                "is_occluded": "False",
                "is_site_boundary": "True",
                "score": 1.0
            },
            "geometry": {
                "type": "MultiPolygon",
                "coordinates": [
                    [
                        [
                            [
                                55.200143,
                                25.098622
                            ],
                            [
                                55.201378,
                                25.098692
                            ],
                            [
                                55.201285,
                                25.099871
                            ],
                            [
                                55.199966,
                                25.0998
                            ],
                            [
                                55.199854,
                                25.099745
                            ],
                            [
                                55.199818,
                                25.099618
                            ],
                            [
                                55.200143,
                                25.098622
                            ]
                        ]
                    ]
                ]
            }
        },
        {
            "type": "Feature",
            "properties": {
                "observation_date": "2019-11-26",
                "source": "19NOV26071557-P1BS-503743640080_01_P001",
                "sensor_name": "WorldView",
                "type": "observation",
                "current_phase": "Post Construction",
                "is_occluded": "False",
                "is_site_boundary": "True",
                "score": 1.0
            },
            "geometry": {
                "type": "MultiPolygon",
                "coordinates": [
                    [
                        [
                            [
                                55.200143,
                                25.098622
                            ],
                            [
                                55.201378,
                                25.098692
                            ],
                            [
                                55.201285,
                                25.099871
                            ],
                            [
                                55.199966,
                                25.0998
                            ],
                            [
                                55.199854,
                                25.099745
                            ],
                            [
                                55.199818,
                                25.099618
                            ],
                            [
                                55.200143,
                                25.098622
                            ]
                        ]
                    ]
                ]
            }
        }
    ]
}