{
    "type": "FeatureCollection",
    "features": [
        {
            "type": "Feature",
            "properties": {
                "type": "site",
                "region_id": "AE_R001",
                "site_id": "AE_R001_0468",
                "version": "2.0.0",
                "status": "positive_pending",
                "mgrs": "40RCN",
                "score": 1.0,
                "start_date": "2015-03-06",
                "end_date": "2016-10-25",
                "model_content": "annotation",
                "originator": "te",
                "validated": "True",
                "misc_info": {
                    "commit_hash": "8e2cc701facd37559ed12647d70a5e5b3622c6ca"
                }
            },
            "geometry": {
                "type": "Polygon",
                "coordinates": [
                    [
                        [
                            55.090647,
                            24.932059
                        ],
                        [
                            55.091485,
                            24.931518
                        ],
                        [
                            55.090616,
                            24.930298
                        ],
                        [
                            55.089764,
                            24.930835
                        ],
                        [
                            55.090647,
                            24.932059
                        ]
                    ]
                ]
            }
        },
        {
            "type": "Feature",
            "properties": {
                "observation_date": "2015-03-06",
                "source": null,
                "sensor_name": null,
                "type": "observation",
                "current_phase": null,
                "is_occluded": null,
                "is_site_boundary": null,
                "score": 1.0
            },
            "geometry": {
                "type": "MultiPolygon",
                "coordinates": [
                    [
                        [
                            [
                                55.090647,
                                24.932059
                            ],
                            [
                                55.091485,
                                24.931518
                            ],
                            [
                                55.090616,
                                24.930298
                            ],
                            [
                                55.089764,
                                24.930835
                            ],
                            [
                                55.090647,
                                24.932059
                            ]
                        ]
                    ]
                ]
            }
        },
        {
            "type": "Feature",
            "properties": {
                "observation_date": "2016-10-25",
                "source": null,
                "sensor_name": null,
                "type": "observation",
                "current_phase": null,
                "is_occluded": null,
                "is_site_boundary": null,
                "score": 1.0
            },
            "geometry": {
                "type": "MultiPolygon",
                "coordinates": [
                    [
                        [
                            [
                                55.090647,
                                24.932059
                            ],
                            [
                                55.091485,
                                24.931518
                            ],
                            [
                                55.090616,
                                24.930298
                            ],
                            [
                                55.089764,
                                24.930835
                            ],
                            [
                                55.090647,
                                24.932059
                            ]
                        ]
                    ]
                ]
            }
        }
    ]
}