{
    "type": "FeatureCollection",
    "features": [
        {
            "type": "Feature",
            "properties": {
                "type": "site",
                "region_id": "AE_R002",
                "site_id": "AE_R002_0285",
                "version": "2.0.0",
                "status": "positive_excluded",
                "mgrs": "40RCN",
                "score": 1.0,
                "start_date": "2018-10-11",
                "end_date": null,
                "model_content": "annotation",
                "originator": "te",
                "validated": "False",
                "misc_info": {
                    "commit_hash": "824fac44479e0c34c554c214480da6d4c14a319e"
                }
            },
            "geometry": {
                "type": "Polygon",
                "coordinates": [
                    [
                        [
                            55.23361,
                            25.034932
                        ],
                        [
                            55.234534,
                            25.035526
                        ],
                        [
                            55.234884,
                            25.034929
                        ],
                        [
                            55.233998,
                            25.03444
                        ],
                        [
                            55.23361,
                            25.034932
                        ]
                    ]
                ]
            }
        },
        {
            "type": "Feature",
            "properties": {
                "observation_date": "2018-10-11",
                "source": null,
                "sensor_name": null,
                "type": "observation",
                "current_phase": null,
                "is_occluded": null,
                "is_site_boundary": null,
                "score": 1.0
            },
            "geometry": {
                "type": "MultiPolygon",
                "coordinates": [
                    [
                        [
                            [
                                55.23361,
                                25.034932
                            ],
                            [
                                55.234534,
                                25.035526
                            ],
                            [
                                55.234884,
                                25.034929
                            ],
                            [
                                55.233998,
                                25.03444
                            ],
                            [
                                55.23361,
                                25.034932
                            ]
                        ]
                    ]
                ]
            }
        },
        {
            "type": "Feature",
            "properties": {
                "observation_date": null,
                "source": null,
                "sensor_name": null,
                "type": "observation",
                "current_phase": null,
                "is_occluded": null,
                "is_site_boundary": null,
                "score": 1.0
            },
            "geometry": {
                "type": "MultiPolygon",
                "coordinates": [
                    [
                        [
                            [
                                55.23361,
                                25.034932
                            ],
                            [
                                55.234534,
                                25.035526
                            ],
                            [
                                55.234884,
                                25.034929
                            ],
                            [
                                55.233998,
                                25.03444
                            ],
                            [
                                55.23361,
                                25.034932
                            ]
                        ]
                    ]
                ]
            }
        }
    ]
}