{
    "type": "FeatureCollection",
    "features": [
        {
            "type": "Feature",
            "properties": {
                "type": "site",
                "region_id": "AE_R002",
                "site_id": "AE_R002_0088",
                "version": "2.0.0",
                "status": "positive_pending",
                "mgrs": "40RCN",
                "score": 1.0,
                "start_date": "2016-09-23",
                "end_date": "2020-03-04",
                "model_content": "annotation",
                "originator": "te",
                "validated": "False",
                "misc_info": {
                    "commit_hash": "824fac44479e0c34c554c214480da6d4c14a319e"
                }
            },
            "geometry": {
                "type": "Polygon",
                "coordinates": [
                    [
                        [
                            55.188681,
                            25.104837
                        ],
                        [
                            55.189696,
                            25.10531
                        ],
                        [
                            55.18943,
                            25.106773
                        ],
                        [
                            55.188464,
                            25.106648
                        ],
                        [
                            55.188681,
                            25.104837
                        ]
                    ]
                ]
            }
        },
        {
            "type": "Feature",
            "properties": {
                "observation_date": "2016-09-23",
                "source": null,
                "sensor_name": null,
                "type": "observation",
                "current_phase": null,
                "is_occluded": null,
                "is_site_boundary": null,
                "score": 1.0
            },
            "geometry": {
                "type": "MultiPolygon",
                "coordinates": [
                    [
                        [
                            [
                                55.188681,
                                25.104837
                            ],
                            [
                                55.189696,
                                25.10531
                            ],
                            [
                                55.18943,
                                25.106773
                            ],
                            [
                                55.188464,
                                25.106648
                            ],
                            [
                                55.188681,
                                25.104837
                            ]
                        ]
                    ]
                ]
            }
        },
        {
            "type": "Feature",
            "properties": {
                "observation_date": "2020-03-04",
                "source": null,
                "sensor_name": null,
                "type": "observation",
                "current_phase": null,
                "is_occluded": null,
                "is_site_boundary": null,
                "score": 1.0
            },
            "geometry": {
                "type": "MultiPolygon",
                "coordinates": [
                    [
                        [
                            [
                                55.188681,
                                25.104837
                            ],
                            [
                                55.189696,
                                25.10531
                            ],
                            [
                                55.18943,
                                25.106773
                            ],
                            [
                                55.188464,
                                25.106648
                            ],
                            [
                                55.188681,
                                25.104837
                            ]
                        ]
                    ]
                ]
            }
        }
    ]
}