{
    "type": "FeatureCollection",
    "features": [
        {
            "type": "Feature",
            "properties": {
                "type": "site",
                "region_id": "AE_R001",
                "site_id": "AE_R001_0589",
                "version": "2.0.0",
                "status": "positive_pending",
                "mgrs": "40RCN",
                "score": 1.0,
                "start_date": "2014-07-06",
                "end_date": null,
                "model_content": "annotation",
                "originator": "te",
                "validated": "True",
                "misc_info": {
                    "commit_hash": "8e2cc701facd37559ed12647d70a5e5b3622c6ca"
                }
            },
            "geometry": {
                "type": "Polygon",
                "coordinates": [
                    [
                        [
                            55.133499,
                            24.984332
                        ],
                        [
                            55.133682,
                            24.985073
                        ],
                        [
                            55.134429,
                            24.984917
                        ],
                        [
                            55.134574,
                            24.985512
                        ],
                        [
                            55.135485,
                            24.985218
                        ],
                        [
                            55.135312,
                            24.984399
                        ],
                        [
                            55.13614,
                            24.984138
                        ],
                        [
                            55.136876,
                            24.984052
                        ],
                        [
                            55.13671,
                            24.983106
                        ],
                        [
                            55.13697,
                            24.982977
                        ],
                        [
                            55.13678,
                            24.982097
                        ],
                        [
                            55.136959,
                            24.982038
                        ],
                        [
                            55.136794,
                            24.981194
                        ],
                        [
                            55.136302,
                            24.981208
                        ],
                        [
                            55.13619,
                            24.98072
                        ],
                        [
                            55.137104,
                            24.98043
                        ],
                        [
                            55.136761,
                            24.979052
                        ],
                        [
                            55.134076,
                            24.979596
                        ],
                        [
                            55.134205,
                            24.980482
                        ],
                        [
                            55.134443,
                            24.981454
                        ],
                        [
                            55.134946,
                            24.981404
                        ],
                        [
                            55.134759,
                            24.980465
                        ],
                        [
                            55.135447,
                            24.980354
                        ],
                        [
                            55.135648,
                            24.981292
                        ],
                        [
                            55.133938,
                            24.981603
                        ],
                        [
                            55.13447,
                            24.984111
                        ],
                        [
                            55.133499,
                            24.984332
                        ]
                    ]
                ]
            }
        },
        {
            "type": "Feature",
            "properties": {
                "observation_date": "2014-07-06",
                "source": null,
                "sensor_name": null,
                "type": "observation",
                "current_phase": null,
                "is_occluded": null,
                "is_site_boundary": null,
                "score": 1.0
            },
            "geometry": {
                "type": "MultiPolygon",
                "coordinates": [
                    [
                        [
                            [
                                55.133499,
                                24.984332
                            ],
                            [
                                55.133682,
                                24.985073
                            ],
                            [
                                55.134429,
                                24.984917
                            ],
                            [
                                55.134574,
                                24.985512
                            ],
                            [
                                55.135485,
                                24.985218
                            ],
                            [
                                55.135312,
                                24.984399
                            ],
                            [
                                55.13614,
                                24.984138
                            ],
                            [
                                55.136876,
                                24.984052
                            ],
                            [
                                55.13671,
                                24.983106
                            ],
                            [
                                55.13697,
                                24.982977
                            ],
                            [
                                55.13678,
                                24.982097
                            ],
                            [
                                55.136959,
                                24.982038
                            ],
                            [
                                55.136794,
                                24.981194
                            ],
                            [
                                55.136302,
                                24.981208
                            ],
                            [
                                55.13619,
                                24.98072
                            ],
                            [
                                55.137104,
                                24.98043
                            ],
                            [
                                55.136761,
                                24.979052
                            ],
                            [
                                55.134076,
                                24.979596
                            ],
                            [
                                55.134205,
                                24.980482
                            ],
                            [
                                55.134443,
                                24.981454
                            ],
                            [
                                55.134946,
                                24.981404
                            ],
                            [
                                55.134759,
                                24.980465
                            ],
                            [
                                55.135447,
                                24.980354
                            ],
                            [
                                55.135648,
                                24.981292
                            ],
                            [
                                55.133938,
                                24.981603
                            ],
                            [
                                55.13447,
                                24.984111
                            ],
                            [
                                55.133499,
                                24.984332
                            ]
                        ]
                    ]
                ]
            }
        },
        {
            "type": "Feature",
            "properties": {
                "observation_date": null,
                "source": null,
                "sensor_name": null,
                "type": "observation",
                "current_phase": null,
                "is_occluded": null,
                "is_site_boundary": null,
                "score": 1.0
            },
            "geometry": {
                "type": "MultiPolygon",
                "coordinates": [
                    [
                        [
                            [
                                55.133499,
                                24.984332
                            ],
                            [
                                55.133682,
                                24.985073
                            ],
                            [
                                55.134429,
                                24.984917
                            ],
                            [
                                55.134574,
                                24.985512
                            ],
                            [
                                55.135485,
                                24.985218
                            ],
                            [
                                55.135312,
                                24.984399
                            ],
                            [
                                55.13614,
                                24.984138
                            ],
                            [
                                55.136876,
                                24.984052
                            ],
                            [
                                55.13671,
                                24.983106
                            ],
                            [
                                55.13697,
                                24.982977
                            ],
                            [
                                55.13678,
                                24.982097
                            ],
                            [
                                55.136959,
                                24.982038
                            ],
                            [
                                55.136794,
                                24.981194
                            ],
                            [
                                55.136302,
                                24.981208
                            ],
                            [
                                55.13619,
                                24.98072
                            ],
                            [
                                55.137104,
                                24.98043
                            ],
                            [
                                55.136761,
                                24.979052
                            ],
                            [
                                55.134076,
                                24.979596
                            ],
                            [
                                55.134205,
                                24.980482
                            ],
                            [
                                55.134443,
                                24.981454
                            ],
                            [
                                55.134946,
                                24.981404
                            ],
                            [
                                55.134759,
                                24.980465
                            ],
                            [
                                55.135447,
                                24.980354
                            ],
                            [
                                55.135648,
                                24.981292
                            ],
                            [
                                55.133938,
                                24.981603
                            ],
                            [
                                55.13447,
                                24.984111
                            ],
                            [
                                55.133499,
                                24.984332
                            ]
                        ]
                    ]
                ]
            }
        }
    ]
}