{
    "type": "FeatureCollection",
    "features": [
        {
            "type": "Feature",
            "properties": {
                "type": "site",
                "region_id": "AE_R002",
                "site_id": "AE_R002_0038",
                "version": "2.0.0",
                "status": "positive_annotated_static",
                "mgrs": "40RCN",
                "score": 1.0,
                "start_date": "2014-11-07",
                "end_date": "2021-04-12",
                "model_content": "annotation",
                "originator": "te",
                "validated": "True",
                "misc_info": {
                    "commit_hash": "8e08692eda2dec643e6abab764d830cd0f7f4055"
                }
            },
            "geometry": {
                "type": "Polygon",
                "coordinates": [
                    [
                        [
                            55.407336,
                            25.092695
                        ],
                        [
                            55.406286,
                            25.093992
                        ],
                        [
                            55.407194,
                            25.094645
                        ],
                        [
                            55.409464,
                            25.09473
                        ],
                        [
                            55.409438,
                            25.092889
                        ],
                        [
                            55.407336,
                            25.092695
                        ]
                    ]
                ]
            }
        },
        {
            "type": "Feature",
            "properties": {
                "observation_date": "2014-11-07",
                "source": "14NOV07071512-P1BS-500185007020_01_P002",
                "sensor_name": "WorldView",
                "type": "observation",
                "current_phase": "No Activity",
                "is_occluded": "False",
                "is_site_boundary": "True",
                "score": 1.0
            },
            "geometry": {
                "type": "MultiPolygon",
                "coordinates": [
                    [
                        [
                            [
                                55.406286,
                                25.093992
                            ],
                            [
                                55.407336,
                                25.092695
                            ],
                            [
                                55.409438,
                                25.092889
                            ],
                            [
                                55.409464,
                                25.09473
                            ],
                            [
                                55.407194,
                                25.094645
                            ],
                            [
                                55.406286,
                                25.093992
                            ]
                        ]
                    ]
                ]
            }
        },
        {
            "type": "Feature",
            "properties": {
                "observation_date": "2015-02-08",
                "source": "15FEB08073731-P1BS-500247201020_01_P002",
                "sensor_name": "WorldView",
                "type": "observation",
                "current_phase": "No Activity",
                "is_occluded": "False",
                "is_site_boundary": "True",
                "score": 1.0
            },
            "geometry": {
                "type": "MultiPolygon",
                "coordinates": [
                    [
                        [
                            [
                                55.406286,
                                25.093992
                            ],
                            [
                                55.407336,
                                25.092695
                            ],
                            [
                                55.409438,
                                25.092889
                            ],
                            [
                                55.409464,
                                25.09473
                            ],
                            [
                                55.407194,
                                25.094645
                            ],
                            [
                                55.406286,
                                25.093992
                            ]
                        ]
                    ]
                ]
            }
        },
        {
            "type": "Feature",
            "properties": {
                "observation_date": "2016-06-07",
                "source": "16JUN07064619-P1BS-014855234010_01_P004",
                "sensor_name": "WorldView",
                "type": "observation",
                "current_phase": "Site Preparation",
                "is_occluded": "False",
                "is_site_boundary": "True",
                "score": 1.0
            },
            "geometry": {
                "type": "MultiPolygon",
                "coordinates": [
                    [
                        [
                            [
                                55.406286,
                                25.093992
                            ],
                            [
                                55.407336,
                                25.092695
                            ],
                            [
                                55.409438,
                                25.092889
                            ],
                            [
                                55.409464,
                                25.09473
                            ],
                            [
                                55.407194,
                                25.094645
                            ],
                            [
                                55.406286,
                                25.093992
                            ]
                        ]
                    ]
                ]
            }
        },
        {
            "type": "Feature",
            "properties": {
                "observation_date": "2016-08-07",
                "source": "16AUG07072018-M1BS-014855224010_01_P009",
                "sensor_name": "WorldView",
                "type": "observation",
                "current_phase": "Site Preparation",
                "is_occluded": "False",
                "is_site_boundary": "True",
                "score": 1.0
            },
            "geometry": {
                "type": "MultiPolygon",
                "coordinates": [
                    [
                        [
                            [
                                55.406286,
                                25.093992
                            ],
                            [
                                55.407336,
                                25.092695
                            ],
                            [
                                55.409438,
                                25.092889
                            ],
                            [
                                55.409464,
                                25.09473
                            ],
                            [
                                55.407194,
                                25.094645
                            ],
                            [
                                55.406286,
                                25.093992
                            ]
                        ]
                    ]
                ]
            }
        },
        {
            "type": "Feature",
            "properties": {
                "observation_date": "2017-10-10",
                "source": "17OCT10095421-P1BS-500836369050_01_P001",
                "sensor_name": "WorldView",
                "type": "observation",
                "current_phase": "Active Construction",
                "is_occluded": "False",
                "is_site_boundary": "True",
                "score": 1.0
            },
            "geometry": {
                "type": "MultiPolygon",
                "coordinates": [
                    [
                        [
                            [
                                55.406286,
                                25.093992
                            ],
                            [
                                55.407336,
                                25.092695
                            ],
                            [
                                55.409438,
                                25.092889
                            ],
                            [
                                55.409464,
                                25.09473
                            ],
                            [
                                55.407194,
                                25.094645
                            ],
                            [
                                55.406286,
                                25.093992
                            ]
                        ]
                    ]
                ]
            }
        },
        {
            "type": "Feature",
            "properties": {
                "observation_date": "2017-12-30",
                "source": "17DEC30095332-P1BS-501824017010_01_P001",
                "sensor_name": "WorldView",
                "type": "observation",
                "current_phase": "Active Construction",
                "is_occluded": "False",
                "is_site_boundary": "True",
                "score": 1.0
            },
            "geometry": {
                "type": "MultiPolygon",
                "coordinates": [
                    [
                        [
                            [
                                55.406286,
                                25.093992
                            ],
                            [
                                55.407336,
                                25.092695
                            ],
                            [
                                55.409438,
                                25.092889
                            ],
                            [
                                55.409464,
                                25.09473
                            ],
                            [
                                55.407194,
                                25.094645
                            ],
                            [
                                55.406286,
                                25.093992
                            ]
                        ]
                    ]
                ]
            }
        },
        {
            "type": "Feature",
            "properties": {
                "observation_date": "2018-05-04",
                "source": "18MAY04072739-P1BS-014858843010_01_P006",
                "sensor_name": "WorldView",
                "type": "observation",
                "current_phase": "Active Construction",
                "is_occluded": "False",
                "is_site_boundary": "True",
                "score": 1.0
            },
            "geometry": {
                "type": "MultiPolygon",
                "coordinates": [
                    [
                        [
                            [
                                55.406286,
                                25.093992
                            ],
                            [
                                55.407336,
                                25.092695
                            ],
                            [
                                55.409438,
                                25.092889
                            ],
                            [
                                55.409464,
                                25.09473
                            ],
                            [
                                55.407194,
                                25.094645
                            ],
                            [
                                55.406286,
                                25.093992
                            ]
                        ]
                    ]
                ]
            }
        },
        {
            "type": "Feature",
            "properties": {
                "observation_date": "2019-06-24",
                "source": "19JUN24095635-P1BS_R4C1-502704253040_02_P001",
                "sensor_name": "WorldView",
                "type": "observation",
                "current_phase": "Active Construction",
                "is_occluded": "False",
                "is_site_boundary": "True",
                "score": 1.0
            },
            "geometry": {
                "type": "MultiPolygon",
                "coordinates": [
                    [
                        [
                            [
                                55.406286,
                                25.093992
                            ],
                            [
                                55.407336,
                                25.092695
                            ],
                            [
                                55.409438,
                                25.092889
                            ],
                            [
                                55.409464,
                                25.09473
                            ],
                            [
                                55.407194,
                                25.094645
                            ],
                            [
                                55.406286,
                                25.093992
                            ]
                        ]
                    ]
                ]
            }
        },
        {
            "type": "Feature",
            "properties": {
                "observation_date": "2020-05-15",
                "source": "20MAY15072040-M1BS-014466685010_01_P002",
                "sensor_name": "WorldView",
                "type": "observation",
                "current_phase": "Post Construction",
                "is_occluded": "False",
                "is_site_boundary": "True",
                "score": 1.0
            },
            "geometry": {
                "type": "MultiPolygon",
                "coordinates": [
                    [
                        [
                            [
                                55.406286,
                                25.093992
                            ],
                            [
                                55.407336,
                                25.092695
                            ],
                            [
                                55.409438,
                                25.092889
                            ],
                            [
                                55.409464,
                                25.09473
                            ],
                            [
                                55.407194,
                                25.094645
                            ],
                            [
                                55.406286,
                                25.093992
                            ]
                        ]
                    ]
                ]
            }
        },
        {
            "type": "Feature",
            "properties": {
                "observation_date": "2020-09-10",
                "source": "20SEP10064315-P1BS-014464473010_01_P004",
                "sensor_name": "WorldView",
                "type": "observation",
                "current_phase": "Post Construction",
                "is_occluded": "False",
                "is_site_boundary": "True",
                "score": 1.0
            },
            "geometry": {
                "type": "MultiPolygon",
                "coordinates": [
                    [
                        [
                            [
                                55.406286,
                                25.093992
                            ],
                            [
                                55.407336,
                                25.092695
                            ],
                            [
                                55.409438,
                                25.092889
                            ],
                            [
                                55.409464,
                                25.09473
                            ],
                            [
                                55.407194,
                                25.094645
                            ],
                            [
                                55.406286,
                                25.093992
                            ]
                        ]
                    ]
                ]
            }
        },
        {
            "type": "Feature",
            "properties": {
                "observation_date": "2020-10-13",
                "source": "20OCT13095755-P1BS-014469632010_01_P002",
                "sensor_name": "WorldView",
                "type": "observation",
                "current_phase": "Post Construction",
                "is_occluded": "False",
                "is_site_boundary": "True",
                "score": 1.0
            },
            "geometry": {
                "type": "MultiPolygon",
                "coordinates": [
                    [
                        [
                            [
                                55.406286,
                                25.093992
                            ],
                            [
                                55.407336,
                                25.092695
                            ],
                            [
                                55.409438,
                                25.092889
                            ],
                            [
                                55.409464,
                                25.09473
                            ],
                            [
                                55.407194,
                                25.094645
                            ],
                            [
                                55.406286,
                                25.093992
                            ]
                        ]
                    ]
                ]
            }
        },
        {
            "type": "Feature",
            "properties": {
                "observation_date": "2021-03-01",
                "source": "21MAR01065228-M1BS-014466660010_01_P005",
                "sensor_name": "WorldView",
                "type": "observation",
                "current_phase": "Post Construction",
                "is_occluded": "False",
                "is_site_boundary": "True",
                "score": 1.0
            },
            "geometry": {
                "type": "MultiPolygon",
                "coordinates": [
                    [
                        [
                            [
                                55.406286,
                                25.093992
                            ],
                            [
                                55.407336,
                                25.092695
                            ],
                            [
                                55.409438,
                                25.092889
                            ],
                            [
                                55.409464,
                                25.09473
                            ],
                            [
                                55.407194,
                                25.094645
                            ],
                            [
                                55.406286,
                                25.093992
                            ]
                        ]
                    ]
                ]
            }
        },
        {
            "type": "Feature",
            "properties": {
                "observation_date": "2021-04-12",
                "source": "21APR12065451-P1BS-014464520010_01_P002",
                "sensor_name": "WorldView",
                "type": "observation",
                "current_phase": "Post Construction",
                "is_occluded": "False",
                "is_site_boundary": "True",
                "score": 1.0
            },
            "geometry": {
                "type": "MultiPolygon",
                "coordinates": [
                    [
                        [
                            [
                                55.406286,
                                25.093992
                            ],
                            [
                                55.407336,
                                25.092695
                            ],
                            [
                                55.409438,
                                25.092889
                            ],
                            [
                                55.409464,
                                25.09473
                            ],
                            [
                                55.407194,
                                25.094645
                            ],
                            [
                                55.406286,
                                25.093992
                            ]
                        ]
                    ]
                ]
            }
        }
    ]
}