{
    "type": "FeatureCollection",
    "features": [
        {
            "type": "Feature",
            "properties": {
                "type": "site",
                "region_id": "AE_R002",
                "site_id": "AE_R002_0275",
                "version": "2.0.0",
                "status": "ignore",
                "mgrs": "40RCN",
                "score": 1.0,
                "start_date": "2013-09-02",
                "end_date": null,
                "model_content": "annotation",
                "originator": "te",
                "validated": "False",
                "misc_info": {
                    "commit_hash": "824fac44479e0c34c554c214480da6d4c14a319e"
                }
            },
            "geometry": {
                "type": "Polygon",
                "coordinates": [
                    [
                        [
                            55.298323,
                            25.007077
                        ],
                        [
                            55.298358,
                            25.00627
                        ],
                        [
                            55.299958,
                            25.004925
                        ],
                        [
                            55.300311,
                            25.005421
                        ],
                        [
                            55.300172,
                            25.007536
                        ],
                        [
                            55.300967,
                            25.008429
                        ],
                        [
                            55.300214,
                            25.009021
                        ],
                        [
                            55.298323,
                            25.007077
                        ]
                    ]
                ]
            }
        },
        {
            "type": "Feature",
            "properties": {
                "observation_date": "2013-09-02",
                "source": null,
                "sensor_name": null,
                "type": "observation",
                "current_phase": null,
                "is_occluded": null,
                "is_site_boundary": null,
                "score": 1.0
            },
            "geometry": {
                "type": "MultiPolygon",
                "coordinates": [
                    [
                        [
                            [
                                55.298323,
                                25.007077
                            ],
                            [
                                55.298358,
                                25.00627
                            ],
                            [
                                55.299958,
                                25.004925
                            ],
                            [
                                55.300311,
                                25.005421
                            ],
                            [
                                55.300172,
                                25.007536
                            ],
                            [
                                55.300967,
                                25.008429
                            ],
                            [
                                55.300214,
                                25.009021
                            ],
                            [
                                55.298323,
                                25.007077
                            ]
                        ]
                    ]
                ]
            }
        },
        {
            "type": "Feature",
            "properties": {
                "observation_date": null,
                "source": null,
                "sensor_name": null,
                "type": "observation",
                "current_phase": null,
                "is_occluded": null,
                "is_site_boundary": null,
                "score": 1.0
            },
            "geometry": {
                "type": "MultiPolygon",
                "coordinates": [
                    [
                        [
                            [
                                55.298323,
                                25.007077
                            ],
                            [
                                55.298358,
                                25.00627
                            ],
                            [
                                55.299958,
                                25.004925
                            ],
                            [
                                55.300311,
                                25.005421
                            ],
                            [
                                55.300172,
                                25.007536
                            ],
                            [
                                55.300967,
                                25.008429
                            ],
                            [
                                55.300214,
                                25.009021
                            ],
                            [
                                55.298323,
                                25.007077
                            ]
                        ]
                    ]
                ]
            }
        }
    ]
}