{
    "type": "FeatureCollection",
    "features": [
        {
            "type": "Feature",
            "properties": {
                "type": "site",
                "region_id": "AE_R002",
                "site_id": "AE_R002_0190",
                "version": "2.0.0",
                "status": "positive_pending",
                "mgrs": "40RCN",
                "score": 1.0,
                "start_date": "2014-07-07",
                "end_date": "2019-07-31",
                "model_content": "annotation",
                "originator": "te",
                "validated": "False",
                "misc_info": {
                    "commit_hash": "824fac44479e0c34c554c214480da6d4c14a319e"
                }
            },
            "geometry": {
                "type": "Polygon",
                "coordinates": [
                    [
                        [
                            55.206874,
                            25.05459
                        ],
                        [
                            55.206153,
                            25.054158
                        ],
                        [
                            55.205849,
                            25.052737
                        ],
                        [
                            55.206925,
                            25.052425
                        ],
                        [
                            55.207351,
                            25.054499
                        ],
                        [
                            55.206874,
                            25.05459
                        ]
                    ]
                ]
            }
        },
        {
            "type": "Feature",
            "properties": {
                "observation_date": "2014-07-07",
                "source": null,
                "sensor_name": null,
                "type": "observation",
                "current_phase": null,
                "is_occluded": null,
                "is_site_boundary": null,
                "score": 1.0
            },
            "geometry": {
                "type": "MultiPolygon",
                "coordinates": [
                    [
                        [
                            [
                                55.206874,
                                25.05459
                            ],
                            [
                                55.206153,
                                25.054158
                            ],
                            [
                                55.205849,
                                25.052737
                            ],
                            [
                                55.206925,
                                25.052425
                            ],
                            [
                                55.207351,
                                25.054499
                            ],
                            [
                                55.206874,
                                25.05459
                            ]
                        ]
                    ]
                ]
            }
        },
        {
            "type": "Feature",
            "properties": {
                "observation_date": "2019-07-31",
                "source": null,
                "sensor_name": null,
                "type": "observation",
                "current_phase": null,
                "is_occluded": null,
                "is_site_boundary": null,
                "score": 1.0
            },
            "geometry": {
                "type": "MultiPolygon",
                "coordinates": [
                    [
                        [
                            [
                                55.206874,
                                25.05459
                            ],
                            [
                                55.206153,
                                25.054158
                            ],
                            [
                                55.205849,
                                25.052737
                            ],
                            [
                                55.206925,
                                25.052425
                            ],
                            [
                                55.207351,
                                25.054499
                            ],
                            [
                                55.206874,
                                25.05459
                            ]
                        ]
                    ]
                ]
            }
        }
    ]
}