{
    "type": "FeatureCollection",
    "features": [
        {
            "type": "Feature",
            "properties": {
                "type": "site",
                "region_id": "AE_R002",
                "site_id": "AE_R002_0052",
                "version": "2.0.0",
                "status": "positive_annotated_static",
                "mgrs": "40RCN",
                "score": 1.0,
                "start_date": "2013-12-22",
                "end_date": "2018-04-08",
                "model_content": "annotation",
                "originator": "te",
                "validated": "True",
                "misc_info": {
                    "commit_hash": "8e08692eda2dec643e6abab764d830cd0f7f4055"
                }
            },
            "geometry": {
                "type": "Polygon",
                "coordinates": [
                    [
                        [
                            55.240048,
                            25.079179
                        ],
                        [
                            55.240233,
                            25.079591
                        ],
                        [
                            55.24146,
                            25.07959
                        ],
                        [
                            55.241471,
                            25.079014
                        ],
                        [
                            55.240045,
                            25.078979
                        ],
                        [
                            55.240048,
                            25.079179
                        ]
                    ]
                ]
            }
        },
        {
            "type": "Feature",
            "properties": {
                "observation_date": "2013-12-22",
                "source": "13DEC22071121-P1BS-014464567010_01_P001",
                "sensor_name": "WorldView",
                "type": "observation",
                "current_phase": "No Activity",
                "is_occluded": "False",
                "is_site_boundary": "True",
                "score": 1.0
            },
            "geometry": {
                "type": "MultiPolygon",
                "coordinates": [
                    [
                        [
                            [
                                55.240233,
                                25.079591
                            ],
                            [
                                55.240048,
                                25.079179
                            ],
                            [
                                55.240045,
                                25.078979
                            ],
                            [
                                55.241471,
                                25.079014
                            ],
                            [
                                55.24146,
                                25.07959
                            ],
                            [
                                55.240233,
                                25.079591
                            ]
                        ]
                    ]
                ]
            }
        },
        {
            "type": "Feature",
            "properties": {
                "observation_date": "2014-11-07",
                "source": "14NOV07071512-P1BS-500185007020_01_P002",
                "sensor_name": "WorldView",
                "type": "observation",
                "current_phase": "Site Preparation",
                "is_occluded": "False",
                "is_site_boundary": "True",
                "score": 1.0
            },
            "geometry": {
                "type": "MultiPolygon",
                "coordinates": [
                    [
                        [
                            [
                                55.240233,
                                25.079591
                            ],
                            [
                                55.240048,
                                25.079179
                            ],
                            [
                                55.240045,
                                25.078979
                            ],
                            [
                                55.241471,
                                25.079014
                            ],
                            [
                                55.24146,
                                25.07959
                            ],
                            [
                                55.240233,
                                25.079591
                            ]
                        ]
                    ]
                ]
            }
        },
        {
            "type": "Feature",
            "properties": {
                "observation_date": "2016-02-19",
                "source": "S2A_40RCN_20160219_0_L1C_TCI",
                "sensor_name": "Sentinel-2",
                "type": "observation",
                "current_phase": "Active Construction",
                "is_occluded": "False",
                "is_site_boundary": "True",
                "score": 1.0
            },
            "geometry": {
                "type": "MultiPolygon",
                "coordinates": [
                    [
                        [
                            [
                                55.240233,
                                25.079591
                            ],
                            [
                                55.240048,
                                25.079179
                            ],
                            [
                                55.240045,
                                25.078979
                            ],
                            [
                                55.241471,
                                25.079014
                            ],
                            [
                                55.24146,
                                25.07959
                            ],
                            [
                                55.240233,
                                25.079591
                            ]
                        ]
                    ]
                ]
            }
        },
        {
            "type": "Feature",
            "properties": {
                "observation_date": "2016-03-20",
                "source": "S2A_40RCN_20160320_0_L1C_TCI",
                "sensor_name": "Sentinel-2",
                "type": "observation",
                "current_phase": "Active Construction",
                "is_occluded": "False",
                "is_site_boundary": "True",
                "score": 1.0
            },
            "geometry": {
                "type": "MultiPolygon",
                "coordinates": [
                    [
                        [
                            [
                                55.240233,
                                25.079591
                            ],
                            [
                                55.240048,
                                25.079179
                            ],
                            [
                                55.240045,
                                25.078979
                            ],
                            [
                                55.241471,
                                25.079014
                            ],
                            [
                                55.24146,
                                25.07959
                            ],
                            [
                                55.240233,
                                25.079591
                            ]
                        ]
                    ]
                ]
            }
        },
        {
            "type": "Feature",
            "properties": {
                "observation_date": "2016-04-29",
                "source": "S2A_40RCN_20160429_0_L1C_TCI",
                "sensor_name": "Sentinel-2",
                "type": "observation",
                "current_phase": "Active Construction",
                "is_occluded": "False",
                "is_site_boundary": "True",
                "score": 1.0
            },
            "geometry": {
                "type": "MultiPolygon",
                "coordinates": [
                    [
                        [
                            [
                                55.240233,
                                25.079591
                            ],
                            [
                                55.240048,
                                25.079179
                            ],
                            [
                                55.240045,
                                25.078979
                            ],
                            [
                                55.241471,
                                25.079014
                            ],
                            [
                                55.24146,
                                25.07959
                            ],
                            [
                                55.240233,
                                25.079591
                            ]
                        ]
                    ]
                ]
            }
        },
        {
            "type": "Feature",
            "properties": {
                "observation_date": "2016-06-05",
                "source": "16JUN05100242-P1BS-500346917010_05_P005",
                "sensor_name": "WorldView",
                "type": "observation",
                "current_phase": "Active Construction",
                "is_occluded": "False",
                "is_site_boundary": "True",
                "score": 1.0
            },
            "geometry": {
                "type": "MultiPolygon",
                "coordinates": [
                    [
                        [
                            [
                                55.240233,
                                25.079591
                            ],
                            [
                                55.240048,
                                25.079179
                            ],
                            [
                                55.240045,
                                25.078979
                            ],
                            [
                                55.241471,
                                25.079014
                            ],
                            [
                                55.24146,
                                25.07959
                            ],
                            [
                                55.240233,
                                25.079591
                            ]
                        ]
                    ]
                ]
            }
        },
        {
            "type": "Feature",
            "properties": {
                "observation_date": "2016-08-13",
                "source": "16AUG13071752-M1BS-014855184010_01_P002",
                "sensor_name": "WorldView",
                "type": "observation",
                "current_phase": "Active Construction",
                "is_occluded": "False",
                "is_site_boundary": "True",
                "score": 1.0
            },
            "geometry": {
                "type": "MultiPolygon",
                "coordinates": [
                    [
                        [
                            [
                                55.240233,
                                25.079591
                            ],
                            [
                                55.240048,
                                25.079179
                            ],
                            [
                                55.240045,
                                25.078979
                            ],
                            [
                                55.241471,
                                25.079014
                            ],
                            [
                                55.24146,
                                25.07959
                            ],
                            [
                                55.240233,
                                25.079591
                            ]
                        ]
                    ]
                ]
            }
        },
        {
            "type": "Feature",
            "properties": {
                "observation_date": "2016-08-27",
                "source": "S2A_40RCN_20160827_0_L1C_TCI",
                "sensor_name": "Sentinel-2",
                "type": "observation",
                "current_phase": "Active Construction",
                "is_occluded": "False",
                "is_site_boundary": "True",
                "score": 1.0
            },
            "geometry": {
                "type": "MultiPolygon",
                "coordinates": [
                    [
                        [
                            [
                                55.240233,
                                25.079591
                            ],
                            [
                                55.240048,
                                25.079179
                            ],
                            [
                                55.240045,
                                25.078979
                            ],
                            [
                                55.241471,
                                25.079014
                            ],
                            [
                                55.24146,
                                25.07959
                            ],
                            [
                                55.240233,
                                25.079591
                            ]
                        ]
                    ]
                ]
            }
        },
        {
            "type": "Feature",
            "properties": {
                "observation_date": "2016-09-26",
                "source": "S2A_40RCN_20160926_0_L1C_TCI",
                "sensor_name": "Sentinel-2",
                "type": "observation",
                "current_phase": "Active Construction",
                "is_occluded": "False",
                "is_site_boundary": "True",
                "score": 1.0
            },
            "geometry": {
                "type": "MultiPolygon",
                "coordinates": [
                    [
                        [
                            [
                                55.240233,
                                25.079591
                            ],
                            [
                                55.240048,
                                25.079179
                            ],
                            [
                                55.240045,
                                25.078979
                            ],
                            [
                                55.241471,
                                25.079014
                            ],
                            [
                                55.24146,
                                25.07959
                            ],
                            [
                                55.240233,
                                25.079591
                            ]
                        ]
                    ]
                ]
            }
        },
        {
            "type": "Feature",
            "properties": {
                "observation_date": "2017-09-06",
                "source": "S2B_40RCN_20170906_0_L2A_TCI",
                "sensor_name": "Sentinel-2",
                "type": "observation",
                "current_phase": "Post Construction",
                "is_occluded": "False",
                "is_site_boundary": "True",
                "score": 1.0
            },
            "geometry": {
                "type": "MultiPolygon",
                "coordinates": [
                    [
                        [
                            [
                                55.240233,
                                25.079591
                            ],
                            [
                                55.240048,
                                25.079179
                            ],
                            [
                                55.240045,
                                25.078979
                            ],
                            [
                                55.241471,
                                25.079014
                            ],
                            [
                                55.24146,
                                25.07959
                            ],
                            [
                                55.240233,
                                25.079591
                            ]
                        ]
                    ]
                ]
            }
        },
        {
            "type": "Feature",
            "properties": {
                "observation_date": "2017-11-10",
                "source": "S2A_40RCN_20171110_0_L2A_TCI",
                "sensor_name": "Sentinel-2",
                "type": "observation",
                "current_phase": "Post Construction",
                "is_occluded": "False",
                "is_site_boundary": "True",
                "score": 1.0
            },
            "geometry": {
                "type": "MultiPolygon",
                "coordinates": [
                    [
                        [
                            [
                                55.240233,
                                25.079591
                            ],
                            [
                                55.240048,
                                25.079179
                            ],
                            [
                                55.240045,
                                25.078979
                            ],
                            [
                                55.241471,
                                25.079014
                            ],
                            [
                                55.24146,
                                25.07959
                            ],
                            [
                                55.240233,
                                25.079591
                            ]
                        ]
                    ]
                ]
            }
        },
        {
            "type": "Feature",
            "properties": {
                "observation_date": "2018-03-08",
                "source": "18MAR08072034-P1BS-502009134020_01_P003",
                "sensor_name": "WorldView",
                "type": "observation",
                "current_phase": "Post Construction",
                "is_occluded": "False",
                "is_site_boundary": "True",
                "score": 1.0
            },
            "geometry": {
                "type": "MultiPolygon",
                "coordinates": [
                    [
                        [
                            [
                                55.240233,
                                25.079591
                            ],
                            [
                                55.240048,
                                25.079179
                            ],
                            [
                                55.240045,
                                25.078979
                            ],
                            [
                                55.241471,
                                25.079014
                            ],
                            [
                                55.24146,
                                25.07959
                            ],
                            [
                                55.240233,
                                25.079591
                            ]
                        ]
                    ]
                ]
            }
        },
        {
            "type": "Feature",
            "properties": {
                "observation_date": "2018-04-08",
                "source": "18APR08071427-M1BS-014858888010_01_P003",
                "sensor_name": "WorldView",
                "type": "observation",
                "current_phase": "Post Construction",
                "is_occluded": "False",
                "is_site_boundary": "True",
                "score": 1.0
            },
            "geometry": {
                "type": "MultiPolygon",
                "coordinates": [
                    [
                        [
                            [
                                55.240233,
                                25.079591
                            ],
                            [
                                55.240048,
                                25.079179
                            ],
                            [
                                55.240045,
                                25.078979
                            ],
                            [
                                55.241471,
                                25.079014
                            ],
                            [
                                55.24146,
                                25.07959
                            ],
                            [
                                55.240233,
                                25.079591
                            ]
                        ]
                    ]
                ]
            }
        }
    ]
}