{
    "type": "FeatureCollection",
    "features": [
        {
            "type": "Feature",
            "properties": {
                "type": "site",
                "region_id": "AE_R002",
                "site_id": "AE_R002_0336",
                "version": "2.0.0",
                "status": "negative",
                "mgrs": "40RCN",
                "score": 1.0,
                "start_date": "2021-08-01",
                "end_date": "2021-08-26",
                "model_content": "annotation",
                "originator": "te",
                "validated": "False",
                "misc_info": {
                    "commit_hash": "824fac44479e0c34c554c214480da6d4c14a319e"
                }
            },
            "geometry": {
                "type": "Polygon",
                "coordinates": [
                    [
                        [
                            55.393781,
                            25.10439
                        ],
                        [
                            55.394858,
                            25.105151
                        ],
                        [
                            55.395148,
                            25.104775
                        ],
                        [
                            55.39452,
                            25.10438
                        ],
                        [
                            55.394572,
                            25.104297
                        ],
                        [
                            55.394495,
                            25.104187
                        ],
                        [
                            55.39469,
                            25.104064
                        ],
                        [
                            55.394795,
                            25.103932
                        ],
                        [
                            55.394357,
                            25.103686
                        ],
                        [
                            55.393781,
                            25.10439
                        ]
                    ]
                ]
            }
        },
        {
            "type": "Feature",
            "properties": {
                "observation_date": "2021-08-01",
                "source": null,
                "sensor_name": null,
                "type": "observation",
                "current_phase": null,
                "is_occluded": null,
                "is_site_boundary": null,
                "score": 1.0
            },
            "geometry": {
                "type": "MultiPolygon",
                "coordinates": [
                    [
                        [
                            [
                                55.393781,
                                25.10439
                            ],
                            [
                                55.394858,
                                25.105151
                            ],
                            [
                                55.395148,
                                25.104775
                            ],
                            [
                                55.39452,
                                25.10438
                            ],
                            [
                                55.394572,
                                25.104297
                            ],
                            [
                                55.394495,
                                25.104187
                            ],
                            [
                                55.39469,
                                25.104064
                            ],
                            [
                                55.394795,
                                25.103932
                            ],
                            [
                                55.394357,
                                25.103686
                            ],
                            [
                                55.393781,
                                25.10439
                            ]
                        ]
                    ]
                ]
            }
        },
        {
            "type": "Feature",
            "properties": {
                "observation_date": "2021-08-26",
                "source": null,
                "sensor_name": null,
                "type": "observation",
                "current_phase": null,
                "is_occluded": null,
                "is_site_boundary": null,
                "score": 1.0
            },
            "geometry": {
                "type": "MultiPolygon",
                "coordinates": [
                    [
                        [
                            [
                                55.393781,
                                25.10439
                            ],
                            [
                                55.394858,
                                25.105151
                            ],
                            [
                                55.395148,
                                25.104775
                            ],
                            [
                                55.39452,
                                25.10438
                            ],
                            [
                                55.394572,
                                25.104297
                            ],
                            [
                                55.394495,
                                25.104187
                            ],
                            [
                                55.39469,
                                25.104064
                            ],
                            [
                                55.394795,
                                25.103932
                            ],
                            [
                                55.394357,
                                25.103686
                            ],
                            [
                                55.393781,
                                25.10439
                            ]
                        ]
                    ]
                ]
            }
        }
    ]
}