{
    "type": "FeatureCollection",
    "features": [
        {
            "type": "Feature",
            "properties": {
                "type": "site",
                "region_id": "AE_R001",
                "site_id": "AE_R001_0507",
                "version": "2.0.0",
                "status": "positive_pending",
                "mgrs": "40RCN",
                "score": 1.0,
                "start_date": "2014-07-06",
                "end_date": "2015-11-07",
                "model_content": "annotation",
                "originator": "te",
                "validated": "True",
                "misc_info": {
                    "commit_hash": "8e2cc701facd37559ed12647d70a5e5b3622c6ca"
                }
            },
            "geometry": {
                "type": "Polygon",
                "coordinates": [
                    [
                        [
                            55.11278,
                            24.916393
                        ],
                        [
                            55.114659,
                            24.919215
                        ],
                        [
                            55.112781,
                            24.920304
                        ],
                        [
                            55.11301,
                            24.920594
                        ],
                        [
                            55.111535,
                            24.921292
                        ],
                        [
                            55.111288,
                            24.92106
                        ],
                        [
                            55.110418,
                            24.921608
                        ],
                        [
                            55.108353,
                            24.919696
                        ],
                        [
                            55.108345,
                            24.918809
                        ],
                        [
                            55.11278,
                            24.916393
                        ]
                    ]
                ]
            }
        },
        {
            "type": "Feature",
            "properties": {
                "observation_date": "2014-07-06",
                "source": null,
                "sensor_name": null,
                "type": "observation",
                "current_phase": null,
                "is_occluded": null,
                "is_site_boundary": null,
                "score": 1.0
            },
            "geometry": {
                "type": "MultiPolygon",
                "coordinates": [
                    [
                        [
                            [
                                55.11278,
                                24.916393
                            ],
                            [
                                55.114659,
                                24.919215
                            ],
                            [
                                55.112781,
                                24.920304
                            ],
                            [
                                55.11301,
                                24.920594
                            ],
                            [
                                55.111535,
                                24.921292
                            ],
                            [
                                55.111288,
                                24.92106
                            ],
                            [
                                55.110418,
                                24.921608
                            ],
                            [
                                55.108353,
                                24.919696
                            ],
                            [
                                55.108345,
                                24.918809
                            ],
                            [
                                55.11278,
                                24.916393
                            ]
                        ]
                    ]
                ]
            }
        },
        {
            "type": "Feature",
            "properties": {
                "observation_date": "2015-11-07",
                "source": null,
                "sensor_name": null,
                "type": "observation",
                "current_phase": null,
                "is_occluded": null,
                "is_site_boundary": null,
                "score": 1.0
            },
            "geometry": {
                "type": "MultiPolygon",
                "coordinates": [
                    [
                        [
                            [
                                55.11278,
                                24.916393
                            ],
                            [
                                55.114659,
                                24.919215
                            ],
                            [
                                55.112781,
                                24.920304
                            ],
                            [
                                55.11301,
                                24.920594
                            ],
                            [
                                55.111535,
                                24.921292
                            ],
                            [
                                55.111288,
                                24.92106
                            ],
                            [
                                55.110418,
                                24.921608
                            ],
                            [
                                55.108353,
                                24.919696
                            ],
                            [
                                55.108345,
                                24.918809
                            ],
                            [
                                55.11278,
                                24.916393
                            ]
                        ]
                    ]
                ]
            }
        }
    ]
}