{
    "type": "FeatureCollection",
    "features": [
        {
            "type": "Feature",
            "properties": {
                "type": "site",
                "region_id": "AE_R002",
                "site_id": "AE_R002_0353",
                "version": "2.0.0",
                "status": "positive_pending",
                "mgrs": "40RCN",
                "score": 1.0,
                "start_date": "2013-10-20",
                "end_date": null,
                "model_content": "annotation",
                "originator": "te",
                "validated": "False",
                "misc_info": {
                    "commit_hash": "824fac44479e0c34c554c214480da6d4c14a319e"
                }
            },
            "geometry": {
                "type": "Polygon",
                "coordinates": [
                    [
                        [
                            55.234502,
                            25.068596
                        ],
                        [
                            55.233004,
                            25.068398
                        ],
                        [
                            55.231419,
                            25.067498
                        ],
                        [
                            55.228837,
                            25.064795
                        ],
                        [
                            55.2289,
                            25.064125
                        ],
                        [
                            55.231669,
                            25.061985
                        ],
                        [
                            55.232541,
                            25.062813
                        ],
                        [
                            55.233332,
                            25.062452
                        ],
                        [
                            55.23352,
                            25.061485
                        ],
                        [
                            55.232994,
                            25.060906
                        ],
                        [
                            55.23408,
                            25.059997
                        ],
                        [
                            55.234096,
                            25.059742
                        ],
                        [
                            55.233399,
                            25.058955
                        ],
                        [
                            55.234997,
                            25.057612
                        ],
                        [
                            55.235034,
                            25.056937
                        ],
                        [
                            55.235366,
                            25.056935
                        ],
                        [
                            55.235832,
                            25.057599
                        ],
                        [
                            55.236867,
                            25.058198
                        ],
                        [
                            55.237444,
                            25.058413
                        ],
                        [
                            55.237512,
                            25.058374
                        ],
                        [
                            55.237746,
                            25.058524
                        ],
                        [
                            55.237816,
                            25.058691
                        ],
                        [
                            55.237142,
                            25.063809
                        ],
                        [
                            55.236165,
                            25.064689
                        ],
                        [
                            55.235934,
                            25.065162
                        ],
                        [
                            55.235895,
                            25.065651
                        ],
                        [
                            55.236288,
                            25.066164
                        ],
                        [
                            55.234502,
                            25.068596
                        ]
                    ]
                ]
            }
        },
        {
            "type": "Feature",
            "properties": {
                "observation_date": "2013-10-20",
                "source": null,
                "sensor_name": null,
                "type": "observation",
                "current_phase": null,
                "is_occluded": null,
                "is_site_boundary": null,
                "score": 1.0
            },
            "geometry": {
                "type": "MultiPolygon",
                "coordinates": [
                    [
                        [
                            [
                                55.234502,
                                25.068596
                            ],
                            [
                                55.233004,
                                25.068398
                            ],
                            [
                                55.231419,
                                25.067498
                            ],
                            [
                                55.228837,
                                25.064795
                            ],
                            [
                                55.2289,
                                25.064125
                            ],
                            [
                                55.231669,
                                25.061985
                            ],
                            [
                                55.232541,
                                25.062813
                            ],
                            [
                                55.233332,
                                25.062452
                            ],
                            [
                                55.23352,
                                25.061485
                            ],
                            [
                                55.232994,
                                25.060906
                            ],
                            [
                                55.23408,
                                25.059997
                            ],
                            [
                                55.234096,
                                25.059742
                            ],
                            [
                                55.233399,
                                25.058955
                            ],
                            [
                                55.234997,
                                25.057612
                            ],
                            [
                                55.235034,
                                25.056937
                            ],
                            [
                                55.235366,
                                25.056935
                            ],
                            [
                                55.235832,
                                25.057599
                            ],
                            [
                                55.236867,
                                25.058198
                            ],
                            [
                                55.237444,
                                25.058413
                            ],
                            [
                                55.237512,
                                25.058374
                            ],
                            [
                                55.237746,
                                25.058524
                            ],
                            [
                                55.237816,
                                25.058691
                            ],
                            [
                                55.237142,
                                25.063809
                            ],
                            [
                                55.236165,
                                25.064689
                            ],
                            [
                                55.235934,
                                25.065162
                            ],
                            [
                                55.235895,
                                25.065651
                            ],
                            [
                                55.236288,
                                25.066164
                            ],
                            [
                                55.234502,
                                25.068596
                            ]
                        ]
                    ]
                ]
            }
        },
        {
            "type": "Feature",
            "properties": {
                "observation_date": null,
                "source": null,
                "sensor_name": null,
                "type": "observation",
                "current_phase": null,
                "is_occluded": null,
                "is_site_boundary": null,
                "score": 1.0
            },
            "geometry": {
                "type": "MultiPolygon",
                "coordinates": [
                    [
                        [
                            [
                                55.234502,
                                25.068596
                            ],
                            [
                                55.233004,
                                25.068398
                            ],
                            [
                                55.231419,
                                25.067498
                            ],
                            [
                                55.228837,
                                25.064795
                            ],
                            [
                                55.2289,
                                25.064125
                            ],
                            [
                                55.231669,
                                25.061985
                            ],
                            [
                                55.232541,
                                25.062813
                            ],
                            [
                                55.233332,
                                25.062452
                            ],
                            [
                                55.23352,
                                25.061485
                            ],
                            [
                                55.232994,
                                25.060906
                            ],
                            [
                                55.23408,
                                25.059997
                            ],
                            [
                                55.234096,
                                25.059742
                            ],
                            [
                                55.233399,
                                25.058955
                            ],
                            [
                                55.234997,
                                25.057612
                            ],
                            [
                                55.235034,
                                25.056937
                            ],
                            [
                                55.235366,
                                25.056935
                            ],
                            [
                                55.235832,
                                25.057599
                            ],
                            [
                                55.236867,
                                25.058198
                            ],
                            [
                                55.237444,
                                25.058413
                            ],
                            [
                                55.237512,
                                25.058374
                            ],
                            [
                                55.237746,
                                25.058524
                            ],
                            [
                                55.237816,
                                25.058691
                            ],
                            [
                                55.237142,
                                25.063809
                            ],
                            [
                                55.236165,
                                25.064689
                            ],
                            [
                                55.235934,
                                25.065162
                            ],
                            [
                                55.235895,
                                25.065651
                            ],
                            [
                                55.236288,
                                25.066164
                            ],
                            [
                                55.234502,
                                25.068596
                            ]
                        ]
                    ]
                ]
            }
        }
    ]
}