{
    "type": "FeatureCollection",
    "features": [
        {
            "type": "Feature",
            "properties": {
                "type": "site",
                "region_id": "AE_R001",
                "site_id": "AE_R001_0542",
                "version": "2.0.0",
                "status": "positive_pending",
                "mgrs": "40RCN",
                "score": 1.0,
                "start_date": "2014-01-16",
                "end_date": "2015-09-09",
                "model_content": "annotation",
                "originator": "te",
                "validated": "True",
                "misc_info": {
                    "commit_hash": "8e2cc701facd37559ed12647d70a5e5b3622c6ca"
                }
            },
            "geometry": {
                "type": "Polygon",
                "coordinates": [
                    [
                        [
                            55.073891,
                            24.830393
                        ],
                        [
                            55.072369,
                            24.829291
                        ],
                        [
                            55.073332,
                            24.828243
                        ],
                        [
                            55.074679,
                            24.829101
                        ],
                        [
                            55.074734,
                            24.829445
                        ],
                        [
                            55.073891,
                            24.830393
                        ]
                    ]
                ]
            }
        },
        {
            "type": "Feature",
            "properties": {
                "observation_date": "2014-01-16",
                "source": null,
                "sensor_name": null,
                "type": "observation",
                "current_phase": null,
                "is_occluded": null,
                "is_site_boundary": null,
                "score": 1.0
            },
            "geometry": {
                "type": "MultiPolygon",
                "coordinates": [
                    [
                        [
                            [
                                55.073891,
                                24.830393
                            ],
                            [
                                55.072369,
                                24.829291
                            ],
                            [
                                55.073332,
                                24.828243
                            ],
                            [
                                55.074679,
                                24.829101
                            ],
                            [
                                55.074734,
                                24.829445
                            ],
                            [
                                55.073891,
                                24.830393
                            ]
                        ]
                    ]
                ]
            }
        },
        {
            "type": "Feature",
            "properties": {
                "observation_date": "2015-09-09",
                "source": null,
                "sensor_name": null,
                "type": "observation",
                "current_phase": null,
                "is_occluded": null,
                "is_site_boundary": null,
                "score": 1.0
            },
            "geometry": {
                "type": "MultiPolygon",
                "coordinates": [
                    [
                        [
                            [
                                55.073891,
                                24.830393
                            ],
                            [
                                55.072369,
                                24.829291
                            ],
                            [
                                55.073332,
                                24.828243
                            ],
                            [
                                55.074679,
                                24.829101
                            ],
                            [
                                55.074734,
                                24.829445
                            ],
                            [
                                55.073891,
                                24.830393
                            ]
                        ]
                    ]
                ]
            }
        }
    ]
}