{
    "type": "FeatureCollection",
    "features": [
        {
            "type": "Feature",
            "properties": {
                "type": "site",
                "region_id": "AE_R002",
                "site_id": "AE_R002_0242",
                "version": "2.0.0",
                "status": "positive_pending",
                "mgrs": "40RCN",
                "score": 1.0,
                "start_date": "2016-04-05",
                "end_date": "2018-12-15",
                "model_content": "annotation",
                "originator": "te",
                "validated": "True",
                "misc_info": {
                    "commit_hash": "824fac44479e0c34c554c214480da6d4c14a319e"
                }
            },
            "geometry": {
                "type": "Polygon",
                "coordinates": [
                    [
                        [
                            55.312877,
                            25.064074
                        ],
                        [
                            55.314156,
                            25.064796
                        ],
                        [
                            55.314888,
                            25.063784
                        ],
                        [
                            55.314952,
                            25.063293
                        ],
                        [
                            55.314821,
                            25.063017
                        ],
                        [
                            55.314681,
                            25.062941
                        ],
                        [
                            55.314369,
                            25.062913
                        ],
                        [
                            55.314149,
                            25.062962
                        ],
                        [
                            55.314012,
                            25.063501
                        ],
                        [
                            55.31348,
                            25.063231
                        ],
                        [
                            55.312877,
                            25.064074
                        ]
                    ]
                ]
            }
        },
        {
            "type": "Feature",
            "properties": {
                "observation_date": "2016-04-05",
                "source": null,
                "sensor_name": null,
                "type": "observation",
                "current_phase": null,
                "is_occluded": null,
                "is_site_boundary": null,
                "score": 1.0
            },
            "geometry": {
                "type": "MultiPolygon",
                "coordinates": [
                    [
                        [
                            [
                                55.312877,
                                25.064074
                            ],
                            [
                                55.314156,
                                25.064796
                            ],
                            [
                                55.314888,
                                25.063784
                            ],
                            [
                                55.314952,
                                25.063293
                            ],
                            [
                                55.314821,
                                25.063017
                            ],
                            [
                                55.314681,
                                25.062941
                            ],
                            [
                                55.314369,
                                25.062913
                            ],
                            [
                                55.314149,
                                25.062962
                            ],
                            [
                                55.314012,
                                25.063501
                            ],
                            [
                                55.31348,
                                25.063231
                            ],
                            [
                                55.312877,
                                25.064074
                            ]
                        ]
                    ]
                ]
            }
        },
        {
            "type": "Feature",
            "properties": {
                "observation_date": "2018-12-15",
                "source": null,
                "sensor_name": null,
                "type": "observation",
                "current_phase": null,
                "is_occluded": null,
                "is_site_boundary": null,
                "score": 1.0
            },
            "geometry": {
                "type": "MultiPolygon",
                "coordinates": [
                    [
                        [
                            [
                                55.312877,
                                25.064074
                            ],
                            [
                                55.314156,
                                25.064796
                            ],
                            [
                                55.314888,
                                25.063784
                            ],
                            [
                                55.314952,
                                25.063293
                            ],
                            [
                                55.314821,
                                25.063017
                            ],
                            [
                                55.314681,
                                25.062941
                            ],
                            [
                                55.314369,
                                25.062913
                            ],
                            [
                                55.314149,
                                25.062962
                            ],
                            [
                                55.314012,
                                25.063501
                            ],
                            [
                                55.31348,
                                25.063231
                            ],
                            [
                                55.312877,
                                25.064074
                            ]
                        ]
                    ]
                ]
            }
        }
    ]
}