{
    "type": "FeatureCollection",
    "features": [
        {
            "type": "Feature",
            "properties": {
                "type": "site",
                "region_id": "AE_R001",
                "site_id": "AE_R001_0464",
                "version": "2.0.0",
                "status": "positive_pending",
                "mgrs": "40RCN",
                "score": 1.0,
                "start_date": "2013-04-17",
                "end_date": "2015-03-06",
                "model_content": "annotation",
                "originator": "te",
                "validated": "True",
                "misc_info": {
                    "commit_hash": "8e2cc701facd37559ed12647d70a5e5b3622c6ca"
                }
            },
            "geometry": {
                "type": "Polygon",
                "coordinates": [
                    [
                        [
                            55.105111,
                            24.935358
                        ],
                        [
                            55.103581,
                            24.933808
                        ],
                        [
                            55.102588,
                            24.934663
                        ],
                        [
                            55.103963,
                            24.936225
                        ],
                        [
                            55.105111,
                            24.935358
                        ]
                    ]
                ]
            }
        },
        {
            "type": "Feature",
            "properties": {
                "observation_date": "2013-04-17",
                "source": null,
                "sensor_name": null,
                "type": "observation",
                "current_phase": null,
                "is_occluded": null,
                "is_site_boundary": null,
                "score": 1.0
            },
            "geometry": {
                "type": "MultiPolygon",
                "coordinates": [
                    [
                        [
                            [
                                55.105111,
                                24.935358
                            ],
                            [
                                55.103581,
                                24.933808
                            ],
                            [
                                55.102588,
                                24.934663
                            ],
                            [
                                55.103963,
                                24.936225
                            ],
                            [
                                55.105111,
                                24.935358
                            ]
                        ]
                    ]
                ]
            }
        },
        {
            "type": "Feature",
            "properties": {
                "observation_date": "2015-03-06",
                "source": null,
                "sensor_name": null,
                "type": "observation",
                "current_phase": null,
                "is_occluded": null,
                "is_site_boundary": null,
                "score": 1.0
            },
            "geometry": {
                "type": "MultiPolygon",
                "coordinates": [
                    [
                        [
                            [
                                55.105111,
                                24.935358
                            ],
                            [
                                55.103581,
                                24.933808
                            ],
                            [
                                55.102588,
                                24.934663
                            ],
                            [
                                55.103963,
                                24.936225
                            ],
                            [
                                55.105111,
                                24.935358
                            ]
                        ]
                    ]
                ]
            }
        }
    ]
}