{
    "type": "FeatureCollection",
    "features": [
        {
            "type": "Feature",
            "properties": {
                "type": "site",
                "region_id": "AE_R002",
                "site_id": "AE_R002_0024",
                "version": "2.0.0",
                "status": "positive_pending",
                "mgrs": "40RCN",
                "score": 1.0,
                "start_date": "2003-06-06",
                "end_date": null,
                "model_content": "annotation",
                "originator": "te",
                "validated": "False",
                "misc_info": {
                    "commit_hash": "824fac44479e0c34c554c214480da6d4c14a319e"
                }
            },
            "geometry": {
                "type": "Polygon",
                "coordinates": [
                    [
                        [
                            55.299894,
                            25.06045
                        ],
                        [
                            55.29544,
                            25.065121
                        ],
                        [
                            55.308674,
                            25.076973
                        ],
                        [
                            55.315466,
                            25.069133
                        ],
                        [
                            55.299894,
                            25.06045
                        ]
                    ]
                ]
            }
        },
        {
            "type": "Feature",
            "properties": {
                "observation_date": "2003-06-06",
                "source": null,
                "sensor_name": null,
                "type": "observation",
                "current_phase": null,
                "is_occluded": null,
                "is_site_boundary": null,
                "score": 1.0
            },
            "geometry": {
                "type": "MultiPolygon",
                "coordinates": [
                    [
                        [
                            [
                                55.299894,
                                25.06045
                            ],
                            [
                                55.29544,
                                25.065121
                            ],
                            [
                                55.308674,
                                25.076973
                            ],
                            [
                                55.315466,
                                25.069133
                            ],
                            [
                                55.299894,
                                25.06045
                            ]
                        ]
                    ]
                ]
            }
        },
        {
            "type": "Feature",
            "properties": {
                "observation_date": null,
                "source": null,
                "sensor_name": null,
                "type": "observation",
                "current_phase": null,
                "is_occluded": null,
                "is_site_boundary": null,
                "score": 1.0
            },
            "geometry": {
                "type": "MultiPolygon",
                "coordinates": [
                    [
                        [
                            [
                                55.299894,
                                25.06045
                            ],
                            [
                                55.29544,
                                25.065121
                            ],
                            [
                                55.308674,
                                25.076973
                            ],
                            [
                                55.315466,
                                25.069133
                            ],
                            [
                                55.299894,
                                25.06045
                            ]
                        ]
                    ]
                ]
            }
        }
    ]
}