{
    "type": "FeatureCollection",
    "features": [
        {
            "type": "Feature",
            "properties": {
                "type": "site",
                "region_id": "AE_R001",
                "site_id": "AE_R001_0626",
                "version": "2.0.0",
                "status": "positive_pending",
                "mgrs": "40RCN",
                "score": 1.0,
                "start_date": "2014-07-06",
                "end_date": "2017-03-30",
                "model_content": "annotation",
                "originator": "te",
                "validated": "True",
                "misc_info": {
                    "commit_hash": "8e2cc701facd37559ed12647d70a5e5b3622c6ca"
                }
            },
            "geometry": {
                "type": "Polygon",
                "coordinates": [
                    [
                        [
                            55.092223,
                            24.959524
                        ],
                        [
                            55.093148,
                            24.959663
                        ],
                        [
                            55.093199,
                            24.959139
                        ],
                        [
                            55.092823,
                            24.958594
                        ],
                        [
                            55.093381,
                            24.958199
                        ],
                        [
                            55.093062,
                            24.957629
                        ],
                        [
                            55.092415,
                            24.958047
                        ],
                        [
                            55.092756,
                            24.958573
                        ],
                        [
                            55.091982,
                            24.959074
                        ],
                        [
                            55.092223,
                            24.959524
                        ]
                    ]
                ]
            }
        },
        {
            "type": "Feature",
            "properties": {
                "observation_date": "2014-07-06",
                "source": null,
                "sensor_name": null,
                "type": "observation",
                "current_phase": null,
                "is_occluded": null,
                "is_site_boundary": null,
                "score": 1.0
            },
            "geometry": {
                "type": "MultiPolygon",
                "coordinates": [
                    [
                        [
                            [
                                55.092223,
                                24.959524
                            ],
                            [
                                55.093148,
                                24.959663
                            ],
                            [
                                55.093199,
                                24.959139
                            ],
                            [
                                55.092823,
                                24.958594
                            ],
                            [
                                55.093381,
                                24.958199
                            ],
                            [
                                55.093062,
                                24.957629
                            ],
                            [
                                55.092415,
                                24.958047
                            ],
                            [
                                55.092756,
                                24.958573
                            ],
                            [
                                55.091982,
                                24.959074
                            ],
                            [
                                55.092223,
                                24.959524
                            ]
                        ]
                    ]
                ]
            }
        },
        {
            "type": "Feature",
            "properties": {
                "observation_date": "2017-03-30",
                "source": null,
                "sensor_name": null,
                "type": "observation",
                "current_phase": null,
                "is_occluded": null,
                "is_site_boundary": null,
                "score": 1.0
            },
            "geometry": {
                "type": "MultiPolygon",
                "coordinates": [
                    [
                        [
                            [
                                55.092223,
                                24.959524
                            ],
                            [
                                55.093148,
                                24.959663
                            ],
                            [
                                55.093199,
                                24.959139
                            ],
                            [
                                55.092823,
                                24.958594
                            ],
                            [
                                55.093381,
                                24.958199
                            ],
                            [
                                55.093062,
                                24.957629
                            ],
                            [
                                55.092415,
                                24.958047
                            ],
                            [
                                55.092756,
                                24.958573
                            ],
                            [
                                55.091982,
                                24.959074
                            ],
                            [
                                55.092223,
                                24.959524
                            ]
                        ]
                    ]
                ]
            }
        }
    ]
}