{
    "type": "FeatureCollection",
    "features": [
        {
            "type": "Feature",
            "properties": {
                "type": "site",
                "region_id": "AE_R002",
                "site_id": "AE_R002_0362",
                "version": "2.0.0",
                "status": "positive_excluded",
                "mgrs": "40RCN",
                "score": 1.0,
                "start_date": "2018-04-24",
                "end_date": "2022-12-29",
                "model_content": "annotation",
                "originator": "te",
                "validated": "False",
                "misc_info": {
                    "commit_hash": "824fac44479e0c34c554c214480da6d4c14a319e"
                }
            },
            "geometry": {
                "type": "Polygon",
                "coordinates": [
                    [
                        [
                            55.202023,
                            25.098894
                        ],
                        [
                            55.203081,
                            25.098942
                        ],
                        [
                            55.202857,
                            25.098219
                        ],
                        [
                            55.202055,
                            25.09817
                        ],
                        [
                            55.202023,
                            25.098894
                        ]
                    ]
                ]
            }
        },
        {
            "type": "Feature",
            "properties": {
                "observation_date": "2018-04-24",
                "source": null,
                "sensor_name": null,
                "type": "observation",
                "current_phase": null,
                "is_occluded": null,
                "is_site_boundary": null,
                "score": 1.0
            },
            "geometry": {
                "type": "MultiPolygon",
                "coordinates": [
                    [
                        [
                            [
                                55.202023,
                                25.098894
                            ],
                            [
                                55.203081,
                                25.098942
                            ],
                            [
                                55.202857,
                                25.098219
                            ],
                            [
                                55.202055,
                                25.09817
                            ],
                            [
                                55.202023,
                                25.098894
                            ]
                        ]
                    ]
                ]
            }
        },
        {
            "type": "Feature",
            "properties": {
                "observation_date": "2022-12-29",
                "source": null,
                "sensor_name": null,
                "type": "observation",
                "current_phase": null,
                "is_occluded": null,
                "is_site_boundary": null,
                "score": 1.0
            },
            "geometry": {
                "type": "MultiPolygon",
                "coordinates": [
                    [
                        [
                            [
                                55.202023,
                                25.098894
                            ],
                            [
                                55.203081,
                                25.098942
                            ],
                            [
                                55.202857,
                                25.098219
                            ],
                            [
                                55.202055,
                                25.09817
                            ],
                            [
                                55.202023,
                                25.098894
                            ]
                        ]
                    ]
                ]
            }
        }
    ]
}