{
    "type": "FeatureCollection",
    "features": [
        {
            "type": "Feature",
            "properties": {
                "type": "site",
                "region_id": "AE_R002",
                "site_id": "AE_R002_0181",
                "version": "2.0.0",
                "status": "positive_annotated_static",
                "mgrs": "40RCN",
                "score": 1.0,
                "start_date": "2013-12-22",
                "end_date": "2019-05-29",
                "model_content": "annotation",
                "originator": "te",
                "validated": "True",
                "misc_info": {
                    "commit_hash": "dbdea3485a8eb34730f81ec01861c62e6358b0b5"
                }
            },
            "geometry": {
                "type": "Polygon",
                "coordinates": [
                    [
                        [
                            55.198781,
                            25.046906
                        ],
                        [
                            55.198083,
                            25.047946
                        ],
                        [
                            55.198863,
                            25.048541
                        ],
                        [
                            55.199469,
                            25.047566
                        ],
                        [
                            55.198781,
                            25.046906
                        ]
                    ]
                ]
            }
        },
        {
            "type": "Feature",
            "properties": {
                "observation_date": "2013-12-22",
                "source": "13DEC22071121-P1BS-014464567010_01_P001",
                "sensor_name": "WorldView",
                "type": "observation",
                "current_phase": "No Activity",
                "is_occluded": "False",
                "is_site_boundary": "True",
                "score": 1.0
            },
            "geometry": {
                "type": "MultiPolygon",
                "coordinates": [
                    [
                        [
                            [
                                55.198083,
                                25.047946
                            ],
                            [
                                55.198781,
                                25.046906
                            ],
                            [
                                55.199469,
                                25.047566
                            ],
                            [
                                55.198863,
                                25.048541
                            ],
                            [
                                55.198083,
                                25.047946
                            ]
                        ]
                    ]
                ]
            }
        },
        {
            "type": "Feature",
            "properties": {
                "observation_date": "2016-03-20",
                "source": "S2A_40RCN_20160320_0_L1C_TCI",
                "sensor_name": "Sentinel-2",
                "type": "observation",
                "current_phase": "Active Construction",
                "is_occluded": "False",
                "is_site_boundary": "True",
                "score": 1.0
            },
            "geometry": {
                "type": "MultiPolygon",
                "coordinates": [
                    [
                        [
                            [
                                55.198083,
                                25.047946
                            ],
                            [
                                55.198781,
                                25.046906
                            ],
                            [
                                55.199469,
                                25.047566
                            ],
                            [
                                55.198863,
                                25.048541
                            ],
                            [
                                55.198083,
                                25.047946
                            ]
                        ]
                    ]
                ]
            }
        },
        {
            "type": "Feature",
            "properties": {
                "observation_date": "2016-04-29",
                "source": "S2A_40RCN_20160429_0_L1C_TCI",
                "sensor_name": "Sentinel-2",
                "type": "observation",
                "current_phase": "Active Construction",
                "is_occluded": "False",
                "is_site_boundary": "True",
                "score": 1.0
            },
            "geometry": {
                "type": "MultiPolygon",
                "coordinates": [
                    [
                        [
                            [
                                55.198083,
                                25.047946
                            ],
                            [
                                55.198781,
                                25.046906
                            ],
                            [
                                55.199469,
                                25.047566
                            ],
                            [
                                55.198863,
                                25.048541
                            ],
                            [
                                55.198083,
                                25.047946
                            ]
                        ]
                    ]
                ]
            }
        },
        {
            "type": "Feature",
            "properties": {
                "observation_date": "2016-05-29",
                "source": "S2A_40RCN_20160529_0_L1C_TCI",
                "sensor_name": "Sentinel-2",
                "type": "observation",
                "current_phase": "Active Construction",
                "is_occluded": "False",
                "is_site_boundary": "True",
                "score": 1.0
            },
            "geometry": {
                "type": "MultiPolygon",
                "coordinates": [
                    [
                        [
                            [
                                55.198083,
                                25.047946
                            ],
                            [
                                55.198781,
                                25.046906
                            ],
                            [
                                55.199469,
                                25.047566
                            ],
                            [
                                55.198863,
                                25.048541
                            ],
                            [
                                55.198083,
                                25.047946
                            ]
                        ]
                    ]
                ]
            }
        },
        {
            "type": "Feature",
            "properties": {
                "observation_date": "2016-06-05",
                "source": "16JUN05100242-P1BS-500718481010_01_P008",
                "sensor_name": "WorldView",
                "type": "observation",
                "current_phase": "Active Construction",
                "is_occluded": "False",
                "is_site_boundary": "True",
                "score": 1.0
            },
            "geometry": {
                "type": "MultiPolygon",
                "coordinates": [
                    [
                        [
                            [
                                55.198083,
                                25.047946
                            ],
                            [
                                55.198781,
                                25.046906
                            ],
                            [
                                55.199469,
                                25.047566
                            ],
                            [
                                55.198863,
                                25.048541
                            ],
                            [
                                55.198083,
                                25.047946
                            ]
                        ]
                    ]
                ]
            }
        },
        {
            "type": "Feature",
            "properties": {
                "observation_date": "2016-08-02",
                "source": "16AUG02071943-P1BS-500346924010_18_P005",
                "sensor_name": "WorldView",
                "type": "observation",
                "current_phase": "Active Construction",
                "is_occluded": "False",
                "is_site_boundary": "True",
                "score": 1.0
            },
            "geometry": {
                "type": "MultiPolygon",
                "coordinates": [
                    [
                        [
                            [
                                55.198083,
                                25.047946
                            ],
                            [
                                55.198781,
                                25.046906
                            ],
                            [
                                55.199469,
                                25.047566
                            ],
                            [
                                55.198863,
                                25.048541
                            ],
                            [
                                55.198083,
                                25.047946
                            ]
                        ]
                    ]
                ]
            }
        },
        {
            "type": "Feature",
            "properties": {
                "observation_date": "2016-09-26",
                "source": "S2A_40RCN_20160926_0_L1C_TCI",
                "sensor_name": "Sentinel-2",
                "type": "observation",
                "current_phase": "Active Construction",
                "is_occluded": "False",
                "is_site_boundary": "True",
                "score": 1.0
            },
            "geometry": {
                "type": "MultiPolygon",
                "coordinates": [
                    [
                        [
                            [
                                55.198083,
                                25.047946
                            ],
                            [
                                55.198781,
                                25.046906
                            ],
                            [
                                55.199469,
                                25.047566
                            ],
                            [
                                55.198863,
                                25.048541
                            ],
                            [
                                55.198083,
                                25.047946
                            ]
                        ]
                    ]
                ]
            }
        },
        {
            "type": "Feature",
            "properties": {
                "observation_date": "2017-07-18",
                "source": "S2B_40RCN_20170718_0_L2A_TCI",
                "sensor_name": "Sentinel-2",
                "type": "observation",
                "current_phase": "Active Construction",
                "is_occluded": "False",
                "is_site_boundary": "True",
                "score": 1.0
            },
            "geometry": {
                "type": "MultiPolygon",
                "coordinates": [
                    [
                        [
                            [
                                55.198083,
                                25.047946
                            ],
                            [
                                55.198781,
                                25.046906
                            ],
                            [
                                55.199469,
                                25.047566
                            ],
                            [
                                55.198863,
                                25.048541
                            ],
                            [
                                55.198083,
                                25.047946
                            ]
                        ]
                    ]
                ]
            }
        },
        {
            "type": "Feature",
            "properties": {
                "observation_date": "2017-09-21",
                "source": "S2A_40RCN_20170921_0_L2A_TCI",
                "sensor_name": "Sentinel-2",
                "type": "observation",
                "current_phase": "Active Construction",
                "is_occluded": "False",
                "is_site_boundary": "True",
                "score": 1.0
            },
            "geometry": {
                "type": "MultiPolygon",
                "coordinates": [
                    [
                        [
                            [
                                55.198083,
                                25.047946
                            ],
                            [
                                55.198781,
                                25.046906
                            ],
                            [
                                55.199469,
                                25.047566
                            ],
                            [
                                55.198863,
                                25.048541
                            ],
                            [
                                55.198083,
                                25.047946
                            ]
                        ]
                    ]
                ]
            }
        },
        {
            "type": "Feature",
            "properties": {
                "observation_date": "2017-11-13",
                "source": "17NOV13095918-P1BS-501764823010_01_P002",
                "sensor_name": "WorldView",
                "type": "observation",
                "current_phase": "Active Construction",
                "is_occluded": "False",
                "is_site_boundary": "True",
                "score": 1.0
            },
            "geometry": {
                "type": "MultiPolygon",
                "coordinates": [
                    [
                        [
                            [
                                55.198083,
                                25.047946
                            ],
                            [
                                55.198781,
                                25.046906
                            ],
                            [
                                55.199469,
                                25.047566
                            ],
                            [
                                55.198863,
                                25.048541
                            ],
                            [
                                55.198083,
                                25.047946
                            ]
                        ]
                    ]
                ]
            }
        },
        {
            "type": "Feature",
            "properties": {
                "observation_date": "2018-03-08",
                "source": "18MAR08072034-M1BS-502009134020_01_P003",
                "sensor_name": "WorldView",
                "type": "observation",
                "current_phase": "Active Construction",
                "is_occluded": "False",
                "is_site_boundary": "True",
                "score": 1.0
            },
            "geometry": {
                "type": "MultiPolygon",
                "coordinates": [
                    [
                        [
                            [
                                55.198083,
                                25.047946
                            ],
                            [
                                55.198781,
                                25.046906
                            ],
                            [
                                55.199469,
                                25.047566
                            ],
                            [
                                55.198863,
                                25.048541
                            ],
                            [
                                55.198083,
                                25.047946
                            ]
                        ]
                    ]
                ]
            }
        },
        {
            "type": "Feature",
            "properties": {
                "observation_date": "2019-01-26",
                "source": "19JAN26071820-P1BS-014858848010_01_P004",
                "sensor_name": "WorldView",
                "type": "observation",
                "current_phase": "Post Construction",
                "is_occluded": "False",
                "is_site_boundary": "True",
                "score": 1.0
            },
            "geometry": {
                "type": "MultiPolygon",
                "coordinates": [
                    [
                        [
                            [
                                55.198083,
                                25.047946
                            ],
                            [
                                55.198781,
                                25.046906
                            ],
                            [
                                55.199469,
                                25.047566
                            ],
                            [
                                55.198863,
                                25.048541
                            ],
                            [
                                55.198083,
                                25.047946
                            ]
                        ]
                    ]
                ]
            }
        },
        {
            "type": "Feature",
            "properties": {
                "observation_date": "2019-02-18",
                "source": "S2B_40RCN_20190218_0_L2A_TCI",
                "sensor_name": "Sentinel-2",
                "type": "observation",
                "current_phase": "Post Construction",
                "is_occluded": "False",
                "is_site_boundary": "True",
                "score": 1.0
            },
            "geometry": {
                "type": "MultiPolygon",
                "coordinates": [
                    [
                        [
                            [
                                55.198083,
                                25.047946
                            ],
                            [
                                55.198781,
                                25.046906
                            ],
                            [
                                55.199469,
                                25.047566
                            ],
                            [
                                55.198863,
                                25.048541
                            ],
                            [
                                55.198083,
                                25.047946
                            ]
                        ]
                    ]
                ]
            }
        },
        {
            "type": "Feature",
            "properties": {
                "observation_date": "2019-04-09",
                "source": "S2B_40RCN_20190409_0_L2A_TCI",
                "sensor_name": "Sentinel-2",
                "type": "observation",
                "current_phase": "Post Construction",
                "is_occluded": "False",
                "is_site_boundary": "True",
                "score": 1.0
            },
            "geometry": {
                "type": "MultiPolygon",
                "coordinates": [
                    [
                        [
                            [
                                55.198083,
                                25.047946
                            ],
                            [
                                55.198781,
                                25.046906
                            ],
                            [
                                55.199469,
                                25.047566
                            ],
                            [
                                55.198863,
                                25.048541
                            ],
                            [
                                55.198083,
                                25.047946
                            ]
                        ]
                    ]
                ]
            }
        },
        {
            "type": "Feature",
            "properties": {
                "observation_date": "2019-05-29",
                "source": "S2B_40RCN_20190529_0_L2A_TCI",
                "sensor_name": "Sentinel-2",
                "type": "observation",
                "current_phase": "Post Construction",
                "is_occluded": "False",
                "is_site_boundary": "True",
                "score": 1.0
            },
            "geometry": {
                "type": "MultiPolygon",
                "coordinates": [
                    [
                        [
                            [
                                55.198083,
                                25.047946
                            ],
                            [
                                55.198781,
                                25.046906
                            ],
                            [
                                55.199469,
                                25.047566
                            ],
                            [
                                55.198863,
                                25.048541
                            ],
                            [
                                55.198083,
                                25.047946
                            ]
                        ]
                    ]
                ]
            }
        }
    ]
}