{
    "type": "FeatureCollection",
    "features": [
        {
            "type": "Feature",
            "properties": {
                "type": "site",
                "region_id": "AE_R001",
                "site_id": "AE_R001_0457",
                "version": "2.0.0",
                "status": "positive_pending",
                "mgrs": "40RCN",
                "score": 1.0,
                "start_date": "2014-07-06",
                "end_date": "2015-09-09",
                "model_content": "annotation",
                "originator": "te",
                "validated": "True",
                "misc_info": {
                    "commit_hash": "8e2cc701facd37559ed12647d70a5e5b3622c6ca"
                }
            },
            "geometry": {
                "type": "Polygon",
                "coordinates": [
                    [
                        [
                            55.065226,
                            24.942399
                        ],
                        [
                            55.065147,
                            24.941934
                        ],
                        [
                            55.064361,
                            24.942057
                        ],
                        [
                            55.064242,
                            24.941608
                        ],
                        [
                            55.063896,
                            24.941663
                        ],
                        [
                            55.064054,
                            24.942589
                        ],
                        [
                            55.065226,
                            24.942399
                        ]
                    ]
                ]
            }
        },
        {
            "type": "Feature",
            "properties": {
                "observation_date": "2014-07-06",
                "source": null,
                "sensor_name": null,
                "type": "observation",
                "current_phase": null,
                "is_occluded": null,
                "is_site_boundary": null,
                "score": 1.0
            },
            "geometry": {
                "type": "MultiPolygon",
                "coordinates": [
                    [
                        [
                            [
                                55.065226,
                                24.942399
                            ],
                            [
                                55.065147,
                                24.941934
                            ],
                            [
                                55.064361,
                                24.942057
                            ],
                            [
                                55.064242,
                                24.941608
                            ],
                            [
                                55.063896,
                                24.941663
                            ],
                            [
                                55.064054,
                                24.942589
                            ],
                            [
                                55.065226,
                                24.942399
                            ]
                        ]
                    ]
                ]
            }
        },
        {
            "type": "Feature",
            "properties": {
                "observation_date": "2015-09-09",
                "source": null,
                "sensor_name": null,
                "type": "observation",
                "current_phase": null,
                "is_occluded": null,
                "is_site_boundary": null,
                "score": 1.0
            },
            "geometry": {
                "type": "MultiPolygon",
                "coordinates": [
                    [
                        [
                            [
                                55.065226,
                                24.942399
                            ],
                            [
                                55.065147,
                                24.941934
                            ],
                            [
                                55.064361,
                                24.942057
                            ],
                            [
                                55.064242,
                                24.941608
                            ],
                            [
                                55.063896,
                                24.941663
                            ],
                            [
                                55.064054,
                                24.942589
                            ],
                            [
                                55.065226,
                                24.942399
                            ]
                        ]
                    ]
                ]
            }
        }
    ]
}