{
    "type": "FeatureCollection",
    "features": [
        {
            "type": "Feature",
            "properties": {
                "type": "site",
                "region_id": "AE_R002",
                "site_id": "AE_R002_0117",
                "version": "2.0.0",
                "status": "positive_pending",
                "mgrs": "40RCN",
                "score": 1.0,
                "start_date": "2014-07-07",
                "end_date": "2019-04-14",
                "model_content": "annotation",
                "originator": "te",
                "validated": "False",
                "misc_info": {
                    "commit_hash": "824fac44479e0c34c554c214480da6d4c14a319e"
                }
            },
            "geometry": {
                "type": "Polygon",
                "coordinates": [
                    [
                        [
                            55.248657,
                            25.110438
                        ],
                        [
                            55.247436,
                            25.109642
                        ],
                        [
                            55.246544,
                            25.108745
                        ],
                        [
                            55.245509,
                            25.107571
                        ],
                        [
                            55.246544,
                            25.106826
                        ],
                        [
                            55.247485,
                            25.107921
                        ],
                        [
                            55.24829,
                            25.108717
                        ],
                        [
                            55.249237,
                            25.109326
                        ],
                        [
                            55.250334,
                            25.109795
                        ],
                        [
                            55.250409,
                            25.109998
                        ],
                        [
                            55.250035,
                            25.110969
                        ],
                        [
                            55.248657,
                            25.110438
                        ]
                    ]
                ]
            }
        },
        {
            "type": "Feature",
            "properties": {
                "observation_date": "2014-07-07",
                "source": null,
                "sensor_name": null,
                "type": "observation",
                "current_phase": null,
                "is_occluded": null,
                "is_site_boundary": null,
                "score": 1.0
            },
            "geometry": {
                "type": "MultiPolygon",
                "coordinates": [
                    [
                        [
                            [
                                55.248657,
                                25.110438
                            ],
                            [
                                55.247436,
                                25.109642
                            ],
                            [
                                55.246544,
                                25.108745
                            ],
                            [
                                55.245509,
                                25.107571
                            ],
                            [
                                55.246544,
                                25.106826
                            ],
                            [
                                55.247485,
                                25.107921
                            ],
                            [
                                55.24829,
                                25.108717
                            ],
                            [
                                55.249237,
                                25.109326
                            ],
                            [
                                55.250334,
                                25.109795
                            ],
                            [
                                55.250409,
                                25.109998
                            ],
                            [
                                55.250035,
                                25.110969
                            ],
                            [
                                55.248657,
                                25.110438
                            ]
                        ]
                    ]
                ]
            }
        },
        {
            "type": "Feature",
            "properties": {
                "observation_date": "2019-04-14",
                "source": null,
                "sensor_name": null,
                "type": "observation",
                "current_phase": null,
                "is_occluded": null,
                "is_site_boundary": null,
                "score": 1.0
            },
            "geometry": {
                "type": "MultiPolygon",
                "coordinates": [
                    [
                        [
                            [
                                55.248657,
                                25.110438
                            ],
                            [
                                55.247436,
                                25.109642
                            ],
                            [
                                55.246544,
                                25.108745
                            ],
                            [
                                55.245509,
                                25.107571
                            ],
                            [
                                55.246544,
                                25.106826
                            ],
                            [
                                55.247485,
                                25.107921
                            ],
                            [
                                55.24829,
                                25.108717
                            ],
                            [
                                55.249237,
                                25.109326
                            ],
                            [
                                55.250334,
                                25.109795
                            ],
                            [
                                55.250409,
                                25.109998
                            ],
                            [
                                55.250035,
                                25.110969
                            ],
                            [
                                55.248657,
                                25.110438
                            ]
                        ]
                    ]
                ]
            }
        }
    ]
}