{
    "type": "FeatureCollection",
    "features": [
        {
            "type": "Feature",
            "properties": {
                "type": "site",
                "region_id": "AE_R002",
                "site_id": "AE_R002_0197",
                "version": "2.0.0",
                "status": "positive_pending",
                "mgrs": "40RCN",
                "score": 1.0,
                "start_date": "2014-07-07",
                "end_date": null,
                "model_content": "annotation",
                "originator": "te",
                "validated": "False",
                "misc_info": {
                    "commit_hash": "824fac44479e0c34c554c214480da6d4c14a319e"
                }
            },
            "geometry": {
                "type": "Polygon",
                "coordinates": [
                    [
                        [
                            55.200783,
                            25.052778
                        ],
                        [
                            55.20161,
                            25.05305
                        ],
                        [
                            55.201241,
                            25.053966
                        ],
                        [
                            55.200459,
                            25.053704
                        ],
                        [
                            55.200783,
                            25.052778
                        ]
                    ]
                ]
            }
        },
        {
            "type": "Feature",
            "properties": {
                "observation_date": "2014-07-07",
                "source": null,
                "sensor_name": null,
                "type": "observation",
                "current_phase": null,
                "is_occluded": null,
                "is_site_boundary": null,
                "score": 1.0
            },
            "geometry": {
                "type": "MultiPolygon",
                "coordinates": [
                    [
                        [
                            [
                                55.200783,
                                25.052778
                            ],
                            [
                                55.20161,
                                25.05305
                            ],
                            [
                                55.201241,
                                25.053966
                            ],
                            [
                                55.200459,
                                25.053704
                            ],
                            [
                                55.200783,
                                25.052778
                            ]
                        ]
                    ]
                ]
            }
        },
        {
            "type": "Feature",
            "properties": {
                "observation_date": null,
                "source": null,
                "sensor_name": null,
                "type": "observation",
                "current_phase": null,
                "is_occluded": null,
                "is_site_boundary": null,
                "score": 1.0
            },
            "geometry": {
                "type": "MultiPolygon",
                "coordinates": [
                    [
                        [
                            [
                                55.200783,
                                25.052778
                            ],
                            [
                                55.20161,
                                25.05305
                            ],
                            [
                                55.201241,
                                25.053966
                            ],
                            [
                                55.200459,
                                25.053704
                            ],
                            [
                                55.200783,
                                25.052778
                            ]
                        ]
                    ]
                ]
            }
        }
    ]
}