{
    "type": "FeatureCollection",
    "features": [
        {
            "type": "Feature",
            "properties": {
                "type": "site",
                "region_id": "AE_R001",
                "site_id": "AE_R001_0604",
                "version": "2.0.0",
                "status": "positive_pending",
                "mgrs": "40RCN",
                "score": 1.0,
                "start_date": "2016-08-23",
                "end_date": "2017-11-21",
                "model_content": "annotation",
                "originator": "te",
                "validated": "True",
                "misc_info": {
                    "commit_hash": "8e2cc701facd37559ed12647d70a5e5b3622c6ca"
                }
            },
            "geometry": {
                "type": "Polygon",
                "coordinates": [
                    [
                        [
                            55.208952,
                            24.975465
                        ],
                        [
                            55.208679,
                            24.974935
                        ],
                        [
                            55.207204,
                            24.975381
                        ],
                        [
                            55.207144,
                            24.975966
                        ],
                        [
                            55.208952,
                            24.975465
                        ]
                    ]
                ]
            }
        },
        {
            "type": "Feature",
            "properties": {
                "observation_date": "2016-08-23",
                "source": null,
                "sensor_name": null,
                "type": "observation",
                "current_phase": null,
                "is_occluded": null,
                "is_site_boundary": null,
                "score": 1.0
            },
            "geometry": {
                "type": "MultiPolygon",
                "coordinates": [
                    [
                        [
                            [
                                55.208952,
                                24.975465
                            ],
                            [
                                55.208679,
                                24.974935
                            ],
                            [
                                55.207204,
                                24.975381
                            ],
                            [
                                55.207144,
                                24.975966
                            ],
                            [
                                55.208952,
                                24.975465
                            ]
                        ]
                    ]
                ]
            }
        },
        {
            "type": "Feature",
            "properties": {
                "observation_date": "2017-11-21",
                "source": null,
                "sensor_name": null,
                "type": "observation",
                "current_phase": null,
                "is_occluded": null,
                "is_site_boundary": null,
                "score": 1.0
            },
            "geometry": {
                "type": "MultiPolygon",
                "coordinates": [
                    [
                        [
                            [
                                55.208952,
                                24.975465
                            ],
                            [
                                55.208679,
                                24.974935
                            ],
                            [
                                55.207204,
                                24.975381
                            ],
                            [
                                55.207144,
                                24.975966
                            ],
                            [
                                55.208952,
                                24.975465
                            ]
                        ]
                    ]
                ]
            }
        }
    ]
}