{
    "type": "FeatureCollection",
    "features": [
        {
            "type": "Feature",
            "properties": {
                "type": "site",
                "region_id": "AE_R002",
                "site_id": "AE_R002_0260",
                "version": "2.0.0",
                "status": "negative",
                "mgrs": "40RCN",
                "score": 1.0,
                "start_date": "2020-10-05",
                "end_date": "2021-01-08",
                "model_content": "annotation",
                "originator": "te",
                "validated": "False",
                "misc_info": {
                    "commit_hash": "824fac44479e0c34c554c214480da6d4c14a319e"
                }
            },
            "geometry": {
                "type": "Polygon",
                "coordinates": [
                    [
                        [
                            55.419223,
                            25.131811
                        ],
                        [
                            55.41919,
                            25.13135
                        ],
                        [
                            55.419687,
                            25.131283
                        ],
                        [
                            55.419906,
                            25.131339
                        ],
                        [
                            55.42018,
                            25.131546
                        ],
                        [
                            55.42031,
                            25.131868
                        ],
                        [
                            55.420366,
                            25.132549
                        ],
                        [
                            55.419975,
                            25.132581
                        ],
                        [
                            55.419958,
                            25.132427
                        ],
                        [
                            55.419828,
                            25.132423
                        ],
                        [
                            55.419762,
                            25.131801
                        ],
                        [
                            55.419493,
                            25.131777
                        ],
                        [
                            55.419223,
                            25.131811
                        ]
                    ]
                ]
            }
        },
        {
            "type": "Feature",
            "properties": {
                "observation_date": "2020-10-05",
                "source": null,
                "sensor_name": null,
                "type": "observation",
                "current_phase": null,
                "is_occluded": null,
                "is_site_boundary": null,
                "score": 1.0
            },
            "geometry": {
                "type": "MultiPolygon",
                "coordinates": [
                    [
                        [
                            [
                                55.419223,
                                25.131811
                            ],
                            [
                                55.41919,
                                25.13135
                            ],
                            [
                                55.419687,
                                25.131283
                            ],
                            [
                                55.419906,
                                25.131339
                            ],
                            [
                                55.42018,
                                25.131546
                            ],
                            [
                                55.42031,
                                25.131868
                            ],
                            [
                                55.420366,
                                25.132549
                            ],
                            [
                                55.419975,
                                25.132581
                            ],
                            [
                                55.419958,
                                25.132427
                            ],
                            [
                                55.419828,
                                25.132423
                            ],
                            [
                                55.419762,
                                25.131801
                            ],
                            [
                                55.419493,
                                25.131777
                            ],
                            [
                                55.419223,
                                25.131811
                            ]
                        ]
                    ]
                ]
            }
        },
        {
            "type": "Feature",
            "properties": {
                "observation_date": "2021-01-08",
                "source": null,
                "sensor_name": null,
                "type": "observation",
                "current_phase": null,
                "is_occluded": null,
                "is_site_boundary": null,
                "score": 1.0
            },
            "geometry": {
                "type": "MultiPolygon",
                "coordinates": [
                    [
                        [
                            [
                                55.419223,
                                25.131811
                            ],
                            [
                                55.41919,
                                25.13135
                            ],
                            [
                                55.419687,
                                25.131283
                            ],
                            [
                                55.419906,
                                25.131339
                            ],
                            [
                                55.42018,
                                25.131546
                            ],
                            [
                                55.42031,
                                25.131868
                            ],
                            [
                                55.420366,
                                25.132549
                            ],
                            [
                                55.419975,
                                25.132581
                            ],
                            [
                                55.419958,
                                25.132427
                            ],
                            [
                                55.419828,
                                25.132423
                            ],
                            [
                                55.419762,
                                25.131801
                            ],
                            [
                                55.419493,
                                25.131777
                            ],
                            [
                                55.419223,
                                25.131811
                            ]
                        ]
                    ]
                ]
            }
        }
    ]
}