{
    "type": "FeatureCollection",
    "features": [
        {
            "type": "Feature",
            "properties": {
                "type": "site",
                "region_id": "AE_R001",
                "site_id": "AE_R001_0639",
                "version": "2.0.0",
                "status": "positive_pending",
                "mgrs": "40RCN",
                "score": 1.0,
                "start_date": "2020-01-08",
                "end_date": "2021-01-09",
                "model_content": "annotation",
                "originator": "te",
                "validated": "True",
                "misc_info": {
                    "commit_hash": "8e2cc701facd37559ed12647d70a5e5b3622c6ca"
                }
            },
            "geometry": {
                "type": "Polygon",
                "coordinates": [
                    [
                        [
                            55.081419,
                            24.953981
                        ],
                        [
                            55.080671,
                            24.954487
                        ],
                        [
                            55.081415,
                            24.955343
                        ],
                        [
                            55.082155,
                            24.954845
                        ],
                        [
                            55.081419,
                            24.953981
                        ]
                    ]
                ]
            }
        },
        {
            "type": "Feature",
            "properties": {
                "observation_date": "2020-01-08",
                "source": null,
                "sensor_name": null,
                "type": "observation",
                "current_phase": null,
                "is_occluded": null,
                "is_site_boundary": null,
                "score": 1.0
            },
            "geometry": {
                "type": "MultiPolygon",
                "coordinates": [
                    [
                        [
                            [
                                55.081419,
                                24.953981
                            ],
                            [
                                55.080671,
                                24.954487
                            ],
                            [
                                55.081415,
                                24.955343
                            ],
                            [
                                55.082155,
                                24.954845
                            ],
                            [
                                55.081419,
                                24.953981
                            ]
                        ]
                    ]
                ]
            }
        },
        {
            "type": "Feature",
            "properties": {
                "observation_date": "2021-01-09",
                "source": null,
                "sensor_name": null,
                "type": "observation",
                "current_phase": null,
                "is_occluded": null,
                "is_site_boundary": null,
                "score": 1.0
            },
            "geometry": {
                "type": "MultiPolygon",
                "coordinates": [
                    [
                        [
                            [
                                55.081419,
                                24.953981
                            ],
                            [
                                55.080671,
                                24.954487
                            ],
                            [
                                55.081415,
                                24.955343
                            ],
                            [
                                55.082155,
                                24.954845
                            ],
                            [
                                55.081419,
                                24.953981
                            ]
                        ]
                    ]
                ]
            }
        }
    ]
}