{
    "type": "FeatureCollection",
    "features": [
        {
            "type": "Feature",
            "properties": {
                "type": "site",
                "region_id": "AE_R002",
                "site_id": "AE_R002_0107",
                "version": "2.0.0",
                "status": "positive_annotated_static",
                "mgrs": "40RCN",
                "score": 1.0,
                "start_date": "2017-07-29",
                "end_date": "2021-03-27",
                "model_content": "annotation",
                "originator": "te",
                "validated": "True",
                "misc_info": {
                    "commit_hash": "dbdea3485a8eb34730f81ec01861c62e6358b0b5"
                }
            },
            "geometry": {
                "type": "Polygon",
                "coordinates": [
                    [
                        [
                            55.281562,
                            25.129519
                        ],
                        [
                            55.280315,
                            25.129425
                        ],
                        [
                            55.280352,
                            25.130859
                        ],
                        [
                            55.281154,
                            25.130878
                        ],
                        [
                            55.281562,
                            25.129519
                        ]
                    ]
                ]
            }
        },
        {
            "type": "Feature",
            "properties": {
                "observation_date": "2017-07-29",
                "source": "17JUL29100422-P1BS-501481408010_01_P001",
                "sensor_name": "WorldView",
                "type": "observation",
                "current_phase": "No Activity",
                "is_occluded": "False",
                "is_site_boundary": "True",
                "score": 1.0
            },
            "geometry": {
                "type": "MultiPolygon",
                "coordinates": [
                    [
                        [
                            [
                                55.280315,
                                25.129425
                            ],
                            [
                                55.281562,
                                25.129519
                            ],
                            [
                                55.281154,
                                25.130878
                            ],
                            [
                                55.280352,
                                25.130859
                            ],
                            [
                                55.280315,
                                25.129425
                            ]
                        ]
                    ]
                ]
            }
        },
        {
            "type": "Feature",
            "properties": {
                "observation_date": "2017-10-10",
                "source": "17OCT10095421-P1BS-500836369050_01_P001",
                "sensor_name": "WorldView",
                "type": "observation",
                "current_phase": "No Activity",
                "is_occluded": "False",
                "is_site_boundary": "True",
                "score": 1.0
            },
            "geometry": {
                "type": "MultiPolygon",
                "coordinates": [
                    [
                        [
                            [
                                55.280315,
                                25.129425
                            ],
                            [
                                55.281562,
                                25.129519
                            ],
                            [
                                55.281154,
                                25.130878
                            ],
                            [
                                55.280352,
                                25.130859
                            ],
                            [
                                55.280315,
                                25.129425
                            ]
                        ]
                    ]
                ]
            }
        },
        {
            "type": "Feature",
            "properties": {
                "observation_date": "2018-04-08",
                "source": "18APR08071427-P1BS-014858888010_01_P003",
                "sensor_name": "WorldView",
                "type": "observation",
                "current_phase": "No Activity",
                "is_occluded": "False",
                "is_site_boundary": "True",
                "score": 1.0
            },
            "geometry": {
                "type": "MultiPolygon",
                "coordinates": [
                    [
                        [
                            [
                                55.280315,
                                25.129425
                            ],
                            [
                                55.281562,
                                25.129519
                            ],
                            [
                                55.281154,
                                25.130878
                            ],
                            [
                                55.280352,
                                25.130859
                            ],
                            [
                                55.280315,
                                25.129425
                            ]
                        ]
                    ]
                ]
            }
        },
        {
            "type": "Feature",
            "properties": {
                "observation_date": "2018-04-27",
                "source": "18APR27071606-P1BS-502141050050_01_P002",
                "sensor_name": "WorldView",
                "type": "observation",
                "current_phase": "Site Preparation",
                "is_occluded": "False",
                "is_site_boundary": "True",
                "score": 1.0
            },
            "geometry": {
                "type": "MultiPolygon",
                "coordinates": [
                    [
                        [
                            [
                                55.280315,
                                25.129425
                            ],
                            [
                                55.281562,
                                25.129519
                            ],
                            [
                                55.281154,
                                25.130878
                            ],
                            [
                                55.280352,
                                25.130859
                            ],
                            [
                                55.280315,
                                25.129425
                            ]
                        ]
                    ]
                ]
            }
        },
        {
            "type": "Feature",
            "properties": {
                "observation_date": "2018-06-11",
                "source": "18JUN11073424-M1BS-014858692010_01_P002",
                "sensor_name": "WorldView",
                "type": "observation",
                "current_phase": "Active Construction",
                "is_occluded": "False",
                "is_site_boundary": "True",
                "score": 1.0
            },
            "geometry": {
                "type": "MultiPolygon",
                "coordinates": [
                    [
                        [
                            [
                                55.280315,
                                25.129425
                            ],
                            [
                                55.281562,
                                25.129519
                            ],
                            [
                                55.281154,
                                25.130878
                            ],
                            [
                                55.280352,
                                25.130859
                            ],
                            [
                                55.280315,
                                25.129425
                            ]
                        ]
                    ]
                ]
            }
        },
        {
            "type": "Feature",
            "properties": {
                "observation_date": "2019-01-26",
                "source": "19JAN26071819-M1BS-014858848010_01_P003",
                "sensor_name": "WorldView",
                "type": "observation",
                "current_phase": "Active Construction",
                "is_occluded": "False",
                "is_site_boundary": "True",
                "score": 1.0
            },
            "geometry": {
                "type": "MultiPolygon",
                "coordinates": [
                    [
                        [
                            [
                                55.280315,
                                25.129425
                            ],
                            [
                                55.281562,
                                25.129519
                            ],
                            [
                                55.281154,
                                25.130878
                            ],
                            [
                                55.280352,
                                25.130859
                            ],
                            [
                                55.280315,
                                25.129425
                            ]
                        ]
                    ]
                ]
            }
        },
        {
            "type": "Feature",
            "properties": {
                "observation_date": "2019-06-24",
                "source": "19JUN24095543-P1BS_R4C1-502704253040_02_P001",
                "sensor_name": "WorldView",
                "type": "observation",
                "current_phase": "Active Construction",
                "is_occluded": "False",
                "is_site_boundary": "True",
                "score": 1.0
            },
            "geometry": {
                "type": "MultiPolygon",
                "coordinates": [
                    [
                        [
                            [
                                55.280315,
                                25.129425
                            ],
                            [
                                55.281562,
                                25.129519
                            ],
                            [
                                55.281154,
                                25.130878
                            ],
                            [
                                55.280352,
                                25.130859
                            ],
                            [
                                55.280315,
                                25.129425
                            ]
                        ]
                    ]
                ]
            }
        },
        {
            "type": "Feature",
            "properties": {
                "observation_date": "2019-08-24",
                "source": "19AUG24072400-P1BS-014858702010_01_P008",
                "sensor_name": "WorldView",
                "type": "observation",
                "current_phase": "Post Construction",
                "is_occluded": "False",
                "is_site_boundary": "True",
                "score": 1.0
            },
            "geometry": {
                "type": "MultiPolygon",
                "coordinates": [
                    [
                        [
                            [
                                55.280315,
                                25.129425
                            ],
                            [
                                55.281562,
                                25.129519
                            ],
                            [
                                55.281154,
                                25.130878
                            ],
                            [
                                55.280352,
                                25.130859
                            ],
                            [
                                55.280315,
                                25.129425
                            ]
                        ]
                    ]
                ]
            }
        },
        {
            "type": "Feature",
            "properties": {
                "observation_date": "2019-10-08",
                "source": "19OCT08100746-P1BS_R4C1-502704253040_06_P001",
                "sensor_name": "WorldView",
                "type": "observation",
                "current_phase": "Post Construction",
                "is_occluded": "False",
                "is_site_boundary": "True",
                "score": 1.0
            },
            "geometry": {
                "type": "MultiPolygon",
                "coordinates": [
                    [
                        [
                            [
                                55.280315,
                                25.129425
                            ],
                            [
                                55.281562,
                                25.129519
                            ],
                            [
                                55.281154,
                                25.130878
                            ],
                            [
                                55.280352,
                                25.130859
                            ],
                            [
                                55.280315,
                                25.129425
                            ]
                        ]
                    ]
                ]
            }
        },
        {
            "type": "Feature",
            "properties": {
                "observation_date": "2020-07-09",
                "source": "20JUL09070336-M1BS-014496274010_01_P001",
                "sensor_name": "WorldView",
                "type": "observation",
                "current_phase": "Post Construction",
                "is_occluded": "False",
                "is_site_boundary": "True",
                "score": 1.0
            },
            "geometry": {
                "type": "MultiPolygon",
                "coordinates": [
                    [
                        [
                            [
                                55.280315,
                                25.129425
                            ],
                            [
                                55.281562,
                                25.129519
                            ],
                            [
                                55.281154,
                                25.130878
                            ],
                            [
                                55.280352,
                                25.130859
                            ],
                            [
                                55.280315,
                                25.129425
                            ]
                        ]
                    ]
                ]
            }
        },
        {
            "type": "Feature",
            "properties": {
                "observation_date": "2020-09-10",
                "source": "20SEP10064316-P1BS-014464473010_01_P005",
                "sensor_name": "WorldView",
                "type": "observation",
                "current_phase": "Post Construction",
                "is_occluded": "False",
                "is_site_boundary": "True",
                "score": 1.0
            },
            "geometry": {
                "type": "MultiPolygon",
                "coordinates": [
                    [
                        [
                            [
                                55.280315,
                                25.129425
                            ],
                            [
                                55.281562,
                                25.129519
                            ],
                            [
                                55.281154,
                                25.130878
                            ],
                            [
                                55.280352,
                                25.130859
                            ],
                            [
                                55.280315,
                                25.129425
                            ]
                        ]
                    ]
                ]
            }
        },
        {
            "type": "Feature",
            "properties": {
                "observation_date": "2020-10-07",
                "source": "20OCT07071050-P1BS-014466698010_01_P001",
                "sensor_name": "WorldView",
                "type": "observation",
                "current_phase": "Post Construction",
                "is_occluded": "False",
                "is_site_boundary": "True",
                "score": 1.0
            },
            "geometry": {
                "type": "MultiPolygon",
                "coordinates": [
                    [
                        [
                            [
                                55.280315,
                                25.129425
                            ],
                            [
                                55.281562,
                                25.129519
                            ],
                            [
                                55.281154,
                                25.130878
                            ],
                            [
                                55.280352,
                                25.130859
                            ],
                            [
                                55.280315,
                                25.129425
                            ]
                        ]
                    ]
                ]
            }
        },
        {
            "type": "Feature",
            "properties": {
                "observation_date": "2020-10-13",
                "source": "20OCT13095755-P1BS-014469632010_01_P001",
                "sensor_name": "WorldView",
                "type": "observation",
                "current_phase": "Post Construction",
                "is_occluded": "False",
                "is_site_boundary": "True",
                "score": 1.0
            },
            "geometry": {
                "type": "MultiPolygon",
                "coordinates": [
                    [
                        [
                            [
                                55.280315,
                                25.129425
                            ],
                            [
                                55.281562,
                                25.129519
                            ],
                            [
                                55.281154,
                                25.130878
                            ],
                            [
                                55.280352,
                                25.130859
                            ],
                            [
                                55.280315,
                                25.129425
                            ]
                        ]
                    ]
                ]
            }
        },
        {
            "type": "Feature",
            "properties": {
                "observation_date": "2021-02-24",
                "source": "21FEB24071355-P1BS-014466653010_01_P002",
                "sensor_name": "WorldView",
                "type": "observation",
                "current_phase": "Post Construction",
                "is_occluded": "False",
                "is_site_boundary": "True",
                "score": 1.0
            },
            "geometry": {
                "type": "MultiPolygon",
                "coordinates": [
                    [
                        [
                            [
                                55.280315,
                                25.129425
                            ],
                            [
                                55.281562,
                                25.129519
                            ],
                            [
                                55.281154,
                                25.130878
                            ],
                            [
                                55.280352,
                                25.130859
                            ],
                            [
                                55.280315,
                                25.129425
                            ]
                        ]
                    ]
                ]
            }
        },
        {
            "type": "Feature",
            "properties": {
                "observation_date": "2021-03-27",
                "source": "21MAR27070023-M1BS-014466658010_01_P005",
                "sensor_name": "WorldView",
                "type": "observation",
                "current_phase": "Post Construction",
                "is_occluded": "False",
                "is_site_boundary": "True",
                "score": 1.0
            },
            "geometry": {
                "type": "MultiPolygon",
                "coordinates": [
                    [
                        [
                            [
                                55.280315,
                                25.129425
                            ],
                            [
                                55.281562,
                                25.129519
                            ],
                            [
                                55.281154,
                                25.130878
                            ],
                            [
                                55.280352,
                                25.130859
                            ],
                            [
                                55.280315,
                                25.129425
                            ]
                        ]
                    ]
                ]
            }
        }
    ]
}