{
    "type": "FeatureCollection",
    "features": [
        {
            "type": "Feature",
            "properties": {
                "type": "site",
                "region_id": "AE_R001",
                "site_id": "AE_R001_0559",
                "version": "2.0.0",
                "status": "negative",
                "mgrs": "40RCN",
                "score": 1.0,
                "start_date": "2019-03-19",
                "end_date": "2022-08-22",
                "model_content": "annotation",
                "originator": "te",
                "validated": "True",
                "misc_info": {
                    "commit_hash": "8e2cc701facd37559ed12647d70a5e5b3622c6ca"
                }
            },
            "geometry": {
                "type": "Polygon",
                "coordinates": [
                    [
                        [
                            55.12668,
                            25.010956
                        ],
                        [
                            55.126739,
                            25.011114
                        ],
                        [
                            55.12684,
                            25.01139
                        ],
                        [
                            55.128371,
                            25.010871
                        ],
                        [
                            55.128336,
                            25.010435
                        ],
                        [
                            55.12668,
                            25.010956
                        ]
                    ]
                ]
            }
        },
        {
            "type": "Feature",
            "properties": {
                "observation_date": "2019-03-19",
                "source": null,
                "sensor_name": null,
                "type": "observation",
                "current_phase": null,
                "is_occluded": null,
                "is_site_boundary": null,
                "score": 1.0
            },
            "geometry": {
                "type": "MultiPolygon",
                "coordinates": [
                    [
                        [
                            [
                                55.12668,
                                25.010956
                            ],
                            [
                                55.126739,
                                25.011114
                            ],
                            [
                                55.12684,
                                25.01139
                            ],
                            [
                                55.128371,
                                25.010871
                            ],
                            [
                                55.128336,
                                25.010435
                            ],
                            [
                                55.12668,
                                25.010956
                            ]
                        ]
                    ]
                ]
            }
        },
        {
            "type": "Feature",
            "properties": {
                "observation_date": "2022-08-22",
                "source": null,
                "sensor_name": null,
                "type": "observation",
                "current_phase": null,
                "is_occluded": null,
                "is_site_boundary": null,
                "score": 1.0
            },
            "geometry": {
                "type": "MultiPolygon",
                "coordinates": [
                    [
                        [
                            [
                                55.12668,
                                25.010956
                            ],
                            [
                                55.126739,
                                25.011114
                            ],
                            [
                                55.12684,
                                25.01139
                            ],
                            [
                                55.128371,
                                25.010871
                            ],
                            [
                                55.128336,
                                25.010435
                            ],
                            [
                                55.12668,
                                25.010956
                            ]
                        ]
                    ]
                ]
            }
        }
    ]
}