{
    "type": "FeatureCollection",
    "features": [
        {
            "type": "Feature",
            "properties": {
                "type": "site",
                "region_id": "AE_R001",
                "site_id": "AE_R001_0452",
                "version": "2.0.0",
                "status": "positive_pending",
                "mgrs": "40RCN",
                "score": 1.0,
                "start_date": "2014-11-07",
                "end_date": "2023-04-27",
                "model_content": "annotation",
                "originator": "te",
                "validated": "True",
                "misc_info": {
                    "commit_hash": "8e2cc701facd37559ed12647d70a5e5b3622c6ca"
                }
            },
            "geometry": {
                "type": "Polygon",
                "coordinates": [
                    [
                        [
                            55.219859,
                            24.940074
                        ],
                        [
                            55.218659,
                            24.939903
                        ],
                        [
                            55.218731,
                            24.939086
                        ],
                        [
                            55.217915,
                            24.938977
                        ],
                        [
                            55.218386,
                            24.93815
                        ],
                        [
                            55.219003,
                            24.937542
                        ],
                        [
                            55.220148,
                            24.93702
                        ],
                        [
                            55.220632,
                            24.937026
                        ],
                        [
                            55.220909,
                            24.937437
                        ],
                        [
                            55.220735,
                            24.939031
                        ],
                        [
                            55.220076,
                            24.93909
                        ],
                        [
                            55.219859,
                            24.940074
                        ]
                    ]
                ]
            }
        },
        {
            "type": "Feature",
            "properties": {
                "observation_date": "2014-11-07",
                "source": null,
                "sensor_name": null,
                "type": "observation",
                "current_phase": null,
                "is_occluded": null,
                "is_site_boundary": null,
                "score": 1.0
            },
            "geometry": {
                "type": "MultiPolygon",
                "coordinates": [
                    [
                        [
                            [
                                55.219859,
                                24.940074
                            ],
                            [
                                55.218659,
                                24.939903
                            ],
                            [
                                55.218731,
                                24.939086
                            ],
                            [
                                55.217915,
                                24.938977
                            ],
                            [
                                55.218386,
                                24.93815
                            ],
                            [
                                55.219003,
                                24.937542
                            ],
                            [
                                55.220148,
                                24.93702
                            ],
                            [
                                55.220632,
                                24.937026
                            ],
                            [
                                55.220909,
                                24.937437
                            ],
                            [
                                55.220735,
                                24.939031
                            ],
                            [
                                55.220076,
                                24.93909
                            ],
                            [
                                55.219859,
                                24.940074
                            ]
                        ]
                    ]
                ]
            }
        },
        {
            "type": "Feature",
            "properties": {
                "observation_date": "2023-04-27",
                "source": null,
                "sensor_name": null,
                "type": "observation",
                "current_phase": null,
                "is_occluded": null,
                "is_site_boundary": null,
                "score": 1.0
            },
            "geometry": {
                "type": "MultiPolygon",
                "coordinates": [
                    [
                        [
                            [
                                55.219859,
                                24.940074
                            ],
                            [
                                55.218659,
                                24.939903
                            ],
                            [
                                55.218731,
                                24.939086
                            ],
                            [
                                55.217915,
                                24.938977
                            ],
                            [
                                55.218386,
                                24.93815
                            ],
                            [
                                55.219003,
                                24.937542
                            ],
                            [
                                55.220148,
                                24.93702
                            ],
                            [
                                55.220632,
                                24.937026
                            ],
                            [
                                55.220909,
                                24.937437
                            ],
                            [
                                55.220735,
                                24.939031
                            ],
                            [
                                55.220076,
                                24.93909
                            ],
                            [
                                55.219859,
                                24.940074
                            ]
                        ]
                    ]
                ]
            }
        }
    ]
}