{
    "type": "FeatureCollection",
    "features": [
        {
            "type": "Feature",
            "properties": {
                "type": "site",
                "region_id": "AE_R002",
                "site_id": "AE_R002_0313",
                "version": "2.0.0",
                "status": "positive_pending",
                "mgrs": "40RCN",
                "score": 1.0,
                "start_date": "2018-01-19",
                "end_date": null,
                "model_content": "annotation",
                "originator": "te",
                "validated": "False",
                "misc_info": {
                    "commit_hash": "824fac44479e0c34c554c214480da6d4c14a319e"
                }
            },
            "geometry": {
                "type": "Polygon",
                "coordinates": [
                    [
                        [
                            55.242129,
                            25.062059
                        ],
                        [
                            55.242493,
                            25.062366
                        ],
                        [
                            55.243568,
                            25.062905
                        ],
                        [
                            55.244041,
                            25.063001
                        ],
                        [
                            55.244329,
                            25.062871
                        ],
                        [
                            55.244447,
                            25.06263
                        ],
                        [
                            55.244429,
                            25.061977
                        ],
                        [
                            55.244311,
                            25.061901
                        ],
                        [
                            55.243864,
                            25.061847
                        ],
                        [
                            55.24342,
                            25.061667
                        ],
                        [
                            55.243018,
                            25.061416
                        ],
                        [
                            55.242591,
                            25.061859
                        ],
                        [
                            55.242497,
                            25.061784
                        ],
                        [
                            55.242129,
                            25.062059
                        ]
                    ]
                ]
            }
        },
        {
            "type": "Feature",
            "properties": {
                "observation_date": "2018-01-19",
                "source": null,
                "sensor_name": null,
                "type": "observation",
                "current_phase": null,
                "is_occluded": null,
                "is_site_boundary": null,
                "score": 1.0
            },
            "geometry": {
                "type": "MultiPolygon",
                "coordinates": [
                    [
                        [
                            [
                                55.242129,
                                25.062059
                            ],
                            [
                                55.242493,
                                25.062366
                            ],
                            [
                                55.243568,
                                25.062905
                            ],
                            [
                                55.244041,
                                25.063001
                            ],
                            [
                                55.244329,
                                25.062871
                            ],
                            [
                                55.244447,
                                25.06263
                            ],
                            [
                                55.244429,
                                25.061977
                            ],
                            [
                                55.244311,
                                25.061901
                            ],
                            [
                                55.243864,
                                25.061847
                            ],
                            [
                                55.24342,
                                25.061667
                            ],
                            [
                                55.243018,
                                25.061416
                            ],
                            [
                                55.242591,
                                25.061859
                            ],
                            [
                                55.242497,
                                25.061784
                            ],
                            [
                                55.242129,
                                25.062059
                            ]
                        ]
                    ]
                ]
            }
        },
        {
            "type": "Feature",
            "properties": {
                "observation_date": null,
                "source": null,
                "sensor_name": null,
                "type": "observation",
                "current_phase": null,
                "is_occluded": null,
                "is_site_boundary": null,
                "score": 1.0
            },
            "geometry": {
                "type": "MultiPolygon",
                "coordinates": [
                    [
                        [
                            [
                                55.242129,
                                25.062059
                            ],
                            [
                                55.242493,
                                25.062366
                            ],
                            [
                                55.243568,
                                25.062905
                            ],
                            [
                                55.244041,
                                25.063001
                            ],
                            [
                                55.244329,
                                25.062871
                            ],
                            [
                                55.244447,
                                25.06263
                            ],
                            [
                                55.244429,
                                25.061977
                            ],
                            [
                                55.244311,
                                25.061901
                            ],
                            [
                                55.243864,
                                25.061847
                            ],
                            [
                                55.24342,
                                25.061667
                            ],
                            [
                                55.243018,
                                25.061416
                            ],
                            [
                                55.242591,
                                25.061859
                            ],
                            [
                                55.242497,
                                25.061784
                            ],
                            [
                                55.242129,
                                25.062059
                            ]
                        ]
                    ]
                ]
            }
        }
    ]
}