{
    "type": "FeatureCollection",
    "features": [
        {
            "type": "Feature",
            "properties": {
                "type": "site",
                "region_id": "AE_R002",
                "site_id": "AE_R002_0073",
                "version": "2.0.0",
                "status": "negative",
                "mgrs": "40RCN",
                "score": 1.0,
                "start_date": "2012-11-01",
                "end_date": "2017-08-31",
                "model_content": "annotation",
                "originator": "te",
                "validated": "True",
                "misc_info": {
                    "commit_hash": "dbdea3485a8eb34730f81ec01861c62e6358b0b5"
                }
            },
            "geometry": {
                "type": "Polygon",
                "coordinates": [
                    [
                        [
                            55.267228,
                            25.026523
                        ],
                        [
                            55.272836,
                            25.022392
                        ],
                        [
                            55.27383,
                            25.021447
                        ],
                        [
                            55.273843,
                            25.020582
                        ],
                        [
                            55.273136,
                            25.019923
                        ],
                        [
                            55.270842,
                            25.019679
                        ],
                        [
                            55.270529,
                            25.02063
                        ],
                        [
                            55.26954,
                            25.02173
                        ],
                        [
                            55.268297,
                            25.022195
                        ],
                        [
                            55.266617,
                            25.022187
                        ],
                        [
                            55.266476,
                            25.024033
                        ],
                        [
                            55.266189,
                            25.0253
                        ],
                        [
                            55.267228,
                            25.026523
                        ]
                    ]
                ]
            }
        },
        {
            "type": "Feature",
            "properties": {
                "observation_date": "2012-11-01",
                "source": null,
                "sensor_name": null,
                "type": "observation",
                "current_phase": null,
                "is_occluded": null,
                "is_site_boundary": null,
                "score": 1.0
            },
            "geometry": {
                "type": "MultiPolygon",
                "coordinates": [
                    [
                        [
                            [
                                55.267228,
                                25.026523
                            ],
                            [
                                55.266189,
                                25.0253
                            ],
                            [
                                55.266476,
                                25.024033
                            ],
                            [
                                55.266617,
                                25.022187
                            ],
                            [
                                55.268297,
                                25.022195
                            ],
                            [
                                55.26954,
                                25.02173
                            ],
                            [
                                55.270529,
                                25.02063
                            ],
                            [
                                55.270842,
                                25.019679
                            ],
                            [
                                55.273136,
                                25.019923
                            ],
                            [
                                55.273843,
                                25.020582
                            ],
                            [
                                55.27383,
                                25.021447
                            ],
                            [
                                55.272836,
                                25.022392
                            ],
                            [
                                55.267228,
                                25.026523
                            ]
                        ]
                    ]
                ]
            }
        },
        {
            "type": "Feature",
            "properties": {
                "observation_date": "2017-08-31",
                "source": null,
                "sensor_name": null,
                "type": "observation",
                "current_phase": null,
                "is_occluded": null,
                "is_site_boundary": null,
                "score": 1.0
            },
            "geometry": {
                "type": "MultiPolygon",
                "coordinates": [
                    [
                        [
                            [
                                55.267228,
                                25.026523
                            ],
                            [
                                55.266189,
                                25.0253
                            ],
                            [
                                55.266476,
                                25.024033
                            ],
                            [
                                55.266617,
                                25.022187
                            ],
                            [
                                55.268297,
                                25.022195
                            ],
                            [
                                55.26954,
                                25.02173
                            ],
                            [
                                55.270529,
                                25.02063
                            ],
                            [
                                55.270842,
                                25.019679
                            ],
                            [
                                55.273136,
                                25.019923
                            ],
                            [
                                55.273843,
                                25.020582
                            ],
                            [
                                55.27383,
                                25.021447
                            ],
                            [
                                55.272836,
                                25.022392
                            ],
                            [
                                55.267228,
                                25.026523
                            ]
                        ]
                    ]
                ]
            }
        }
    ]
}