{
    "type": "FeatureCollection",
    "features": [
        {
            "type": "Feature",
            "properties": {
                "type": "site",
                "region_id": "AE_R002",
                "site_id": "AE_R002_0089",
                "version": "2.0.0",
                "status": "negative",
                "mgrs": "40RCN",
                "score": 1.0,
                "start_date": "2014-07-01",
                "end_date": "2018-03-31",
                "model_content": "annotation",
                "originator": "te",
                "validated": "True",
                "misc_info": {
                    "commit_hash": "dbdea3485a8eb34730f81ec01861c62e6358b0b5"
                }
            },
            "geometry": {
                "type": "Polygon",
                "coordinates": [
                    [
                        [
                            55.187456,
                            25.109602
                        ],
                        [
                            55.186962,
                            25.110181
                        ],
                        [
                            55.187661,
                            25.110693
                        ],
                        [
                            55.187865,
                            25.110649
                        ],
                        [
                            55.188344,
                            25.110056
                        ],
                        [
                            55.188616,
                            25.109344
                        ],
                        [
                            55.188553,
                            25.10923
                        ],
                        [
                            55.187801,
                            25.109051
                        ],
                        [
                            55.187612,
                            25.109138
                        ],
                        [
                            55.187456,
                            25.109602
                        ]
                    ]
                ]
            }
        },
        {
            "type": "Feature",
            "properties": {
                "observation_date": "2014-07-01",
                "source": null,
                "sensor_name": null,
                "type": "observation",
                "current_phase": null,
                "is_occluded": null,
                "is_site_boundary": null,
                "score": 1.0
            },
            "geometry": {
                "type": "MultiPolygon",
                "coordinates": [
                    [
                        [
                            [
                                55.187456,
                                25.109602
                            ],
                            [
                                55.187612,
                                25.109138
                            ],
                            [
                                55.187801,
                                25.109051
                            ],
                            [
                                55.188553,
                                25.10923
                            ],
                            [
                                55.188616,
                                25.109344
                            ],
                            [
                                55.188344,
                                25.110056
                            ],
                            [
                                55.187865,
                                25.110649
                            ],
                            [
                                55.187661,
                                25.110693
                            ],
                            [
                                55.186962,
                                25.110181
                            ],
                            [
                                55.187456,
                                25.109602
                            ]
                        ]
                    ]
                ]
            }
        },
        {
            "type": "Feature",
            "properties": {
                "observation_date": "2018-03-31",
                "source": null,
                "sensor_name": null,
                "type": "observation",
                "current_phase": null,
                "is_occluded": null,
                "is_site_boundary": null,
                "score": 1.0
            },
            "geometry": {
                "type": "MultiPolygon",
                "coordinates": [
                    [
                        [
                            [
                                55.187456,
                                25.109602
                            ],
                            [
                                55.187612,
                                25.109138
                            ],
                            [
                                55.187801,
                                25.109051
                            ],
                            [
                                55.188553,
                                25.10923
                            ],
                            [
                                55.188616,
                                25.109344
                            ],
                            [
                                55.188344,
                                25.110056
                            ],
                            [
                                55.187865,
                                25.110649
                            ],
                            [
                                55.187661,
                                25.110693
                            ],
                            [
                                55.186962,
                                25.110181
                            ],
                            [
                                55.187456,
                                25.109602
                            ]
                        ]
                    ]
                ]
            }
        }
    ]
}