{
    "type": "FeatureCollection",
    "features": [
        {
            "type": "Feature",
            "properties": {
                "type": "site",
                "region_id": "AE_R001",
                "site_id": "AE_R001_0564",
                "version": "2.0.0",
                "status": "positive_pending",
                "mgrs": "40RCN",
                "score": 1.0,
                "start_date": "2014-07-06",
                "end_date": "2021-01-09",
                "model_content": "annotation",
                "originator": "te",
                "validated": "True",
                "misc_info": {
                    "commit_hash": "8e2cc701facd37559ed12647d70a5e5b3622c6ca"
                }
            },
            "geometry": {
                "type": "Polygon",
                "coordinates": [
                    [
                        [
                            55.200596,
                            24.990208
                        ],
                        [
                            55.200899,
                            24.990126
                        ],
                        [
                            55.200847,
                            24.989353
                        ],
                        [
                            55.2042,
                            24.988963
                        ],
                        [
                            55.204228,
                            24.989383
                        ],
                        [
                            55.204137,
                            24.989556
                        ],
                        [
                            55.203883,
                            24.989777
                        ],
                        [
                            55.202876,
                            24.989946
                        ],
                        [
                            55.202945,
                            24.990803
                        ],
                        [
                            55.200633,
                            24.990995
                        ],
                        [
                            55.200596,
                            24.990208
                        ]
                    ]
                ]
            }
        },
        {
            "type": "Feature",
            "properties": {
                "observation_date": "2014-07-06",
                "source": null,
                "sensor_name": null,
                "type": "observation",
                "current_phase": null,
                "is_occluded": null,
                "is_site_boundary": null,
                "score": 1.0
            },
            "geometry": {
                "type": "MultiPolygon",
                "coordinates": [
                    [
                        [
                            [
                                55.200596,
                                24.990208
                            ],
                            [
                                55.200899,
                                24.990126
                            ],
                            [
                                55.200847,
                                24.989353
                            ],
                            [
                                55.2042,
                                24.988963
                            ],
                            [
                                55.204228,
                                24.989383
                            ],
                            [
                                55.204137,
                                24.989556
                            ],
                            [
                                55.203883,
                                24.989777
                            ],
                            [
                                55.202876,
                                24.989946
                            ],
                            [
                                55.202945,
                                24.990803
                            ],
                            [
                                55.200633,
                                24.990995
                            ],
                            [
                                55.200596,
                                24.990208
                            ]
                        ]
                    ]
                ]
            }
        },
        {
            "type": "Feature",
            "properties": {
                "observation_date": "2021-01-09",
                "source": null,
                "sensor_name": null,
                "type": "observation",
                "current_phase": null,
                "is_occluded": null,
                "is_site_boundary": null,
                "score": 1.0
            },
            "geometry": {
                "type": "MultiPolygon",
                "coordinates": [
                    [
                        [
                            [
                                55.200596,
                                24.990208
                            ],
                            [
                                55.200899,
                                24.990126
                            ],
                            [
                                55.200847,
                                24.989353
                            ],
                            [
                                55.2042,
                                24.988963
                            ],
                            [
                                55.204228,
                                24.989383
                            ],
                            [
                                55.204137,
                                24.989556
                            ],
                            [
                                55.203883,
                                24.989777
                            ],
                            [
                                55.202876,
                                24.989946
                            ],
                            [
                                55.202945,
                                24.990803
                            ],
                            [
                                55.200633,
                                24.990995
                            ],
                            [
                                55.200596,
                                24.990208
                            ]
                        ]
                    ]
                ]
            }
        }
    ]
}