{
    "type": "FeatureCollection",
    "features": [
        {
            "type": "Feature",
            "properties": {
                "type": "site",
                "region_id": "AE_R002",
                "site_id": "AE_R002_0110",
                "version": "2.0.0",
                "status": "positive_pending",
                "mgrs": "40RCN",
                "score": 1.0,
                "start_date": "2013-09-01",
                "end_date": "2018-04-30",
                "model_content": "annotation",
                "originator": "te",
                "validated": "False",
                "misc_info": {
                    "commit_hash": "824fac44479e0c34c554c214480da6d4c14a319e"
                }
            },
            "geometry": {
                "type": "Polygon",
                "coordinates": [
                    [
                        [
                            55.291985,
                            25.101257
                        ],
                        [
                            55.293864,
                            25.100038
                        ],
                        [
                            55.295578,
                            25.102226
                        ],
                        [
                            55.293731,
                            25.103502
                        ],
                        [
                            55.291985,
                            25.101257
                        ]
                    ]
                ]
            }
        },
        {
            "type": "Feature",
            "properties": {
                "observation_date": "2013-09-01",
                "source": null,
                "sensor_name": null,
                "type": "observation",
                "current_phase": null,
                "is_occluded": null,
                "is_site_boundary": null,
                "score": 1.0
            },
            "geometry": {
                "type": "MultiPolygon",
                "coordinates": [
                    [
                        [
                            [
                                55.291985,
                                25.101257
                            ],
                            [
                                55.293864,
                                25.100038
                            ],
                            [
                                55.295578,
                                25.102226
                            ],
                            [
                                55.293731,
                                25.103502
                            ],
                            [
                                55.291985,
                                25.101257
                            ]
                        ]
                    ]
                ]
            }
        },
        {
            "type": "Feature",
            "properties": {
                "observation_date": "2018-04-30",
                "source": null,
                "sensor_name": null,
                "type": "observation",
                "current_phase": null,
                "is_occluded": null,
                "is_site_boundary": null,
                "score": 1.0
            },
            "geometry": {
                "type": "MultiPolygon",
                "coordinates": [
                    [
                        [
                            [
                                55.291985,
                                25.101257
                            ],
                            [
                                55.293864,
                                25.100038
                            ],
                            [
                                55.295578,
                                25.102226
                            ],
                            [
                                55.293731,
                                25.103502
                            ],
                            [
                                55.291985,
                                25.101257
                            ]
                        ]
                    ]
                ]
            }
        }
    ]
}