{
    "type": "FeatureCollection",
    "features": [
        {
            "type": "Feature",
            "properties": {
                "type": "site",
                "region_id": "AE_R002",
                "site_id": "AE_R002_0299",
                "version": "2.0.0",
                "status": "positive_pending",
                "mgrs": "40RCN",
                "score": 1.0,
                "start_date": "2016-08-13",
                "end_date": "2018-09-11",
                "model_content": "annotation",
                "originator": "te",
                "validated": "False",
                "misc_info": {
                    "commit_hash": "824fac44479e0c34c554c214480da6d4c14a319e"
                }
            },
            "geometry": {
                "type": "Polygon",
                "coordinates": [
                    [
                        [
                            55.322421,
                            25.095863
                        ],
                        [
                            55.322863,
                            25.09597
                        ],
                        [
                            55.322914,
                            25.095896
                        ],
                        [
                            55.322671,
                            25.095545
                        ],
                        [
                            55.322379,
                            25.095379
                        ],
                        [
                            55.321169,
                            25.094921
                        ],
                        [
                            55.320942,
                            25.09539
                        ],
                        [
                            55.321293,
                            25.095554
                        ],
                        [
                            55.321269,
                            25.095683
                        ],
                        [
                            55.322308,
                            25.095695
                        ],
                        [
                            55.322471,
                            25.09564
                        ],
                        [
                            55.322421,
                            25.095863
                        ]
                    ]
                ]
            }
        },
        {
            "type": "Feature",
            "properties": {
                "observation_date": "2016-08-13",
                "source": null,
                "sensor_name": null,
                "type": "observation",
                "current_phase": null,
                "is_occluded": null,
                "is_site_boundary": null,
                "score": 1.0
            },
            "geometry": {
                "type": "MultiPolygon",
                "coordinates": [
                    [
                        [
                            [
                                55.322421,
                                25.095863
                            ],
                            [
                                55.322863,
                                25.09597
                            ],
                            [
                                55.322914,
                                25.095896
                            ],
                            [
                                55.322671,
                                25.095545
                            ],
                            [
                                55.322379,
                                25.095379
                            ],
                            [
                                55.321169,
                                25.094921
                            ],
                            [
                                55.320942,
                                25.09539
                            ],
                            [
                                55.321293,
                                25.095554
                            ],
                            [
                                55.321269,
                                25.095683
                            ],
                            [
                                55.322308,
                                25.095695
                            ],
                            [
                                55.322471,
                                25.09564
                            ],
                            [
                                55.322421,
                                25.095863
                            ]
                        ]
                    ]
                ]
            }
        },
        {
            "type": "Feature",
            "properties": {
                "observation_date": "2018-09-11",
                "source": null,
                "sensor_name": null,
                "type": "observation",
                "current_phase": null,
                "is_occluded": null,
                "is_site_boundary": null,
                "score": 1.0
            },
            "geometry": {
                "type": "MultiPolygon",
                "coordinates": [
                    [
                        [
                            [
                                55.322421,
                                25.095863
                            ],
                            [
                                55.322863,
                                25.09597
                            ],
                            [
                                55.322914,
                                25.095896
                            ],
                            [
                                55.322671,
                                25.095545
                            ],
                            [
                                55.322379,
                                25.095379
                            ],
                            [
                                55.321169,
                                25.094921
                            ],
                            [
                                55.320942,
                                25.09539
                            ],
                            [
                                55.321293,
                                25.095554
                            ],
                            [
                                55.321269,
                                25.095683
                            ],
                            [
                                55.322308,
                                25.095695
                            ],
                            [
                                55.322471,
                                25.09564
                            ],
                            [
                                55.322421,
                                25.095863
                            ]
                        ]
                    ]
                ]
            }
        }
    ]
}