{
    "type": "FeatureCollection",
    "features": [
        {
            "type": "Feature",
            "properties": {
                "type": "site",
                "region_id": "AE_R002",
                "site_id": "AE_R002_0078",
                "version": "2.0.0",
                "status": "positive_pending",
                "mgrs": "40RCN",
                "score": 1.0,
                "start_date": "2017-05-14",
                "end_date": "2022-03-09",
                "model_content": "annotation",
                "originator": "te",
                "validated": "False",
                "misc_info": {
                    "commit_hash": "824fac44479e0c34c554c214480da6d4c14a319e"
                }
            },
            "geometry": {
                "type": "Polygon",
                "coordinates": [
                    [
                        [
                            55.199237,
                            25.114789
                        ],
                        [
                            55.200833,
                            25.115054
                        ],
                        [
                            55.202175,
                            25.115135
                        ],
                        [
                            55.20262,
                            25.115895
                        ],
                        [
                            55.202735,
                            25.115932
                        ],
                        [
                            55.202624,
                            25.116133
                        ],
                        [
                            55.20081,
                            25.116093
                        ],
                        [
                            55.198654,
                            25.115743
                        ],
                        [
                            55.19857,
                            25.11563
                        ],
                        [
                            55.199237,
                            25.114789
                        ]
                    ]
                ]
            }
        },
        {
            "type": "Feature",
            "properties": {
                "observation_date": "2017-05-14",
                "source": null,
                "sensor_name": null,
                "type": "observation",
                "current_phase": null,
                "is_occluded": null,
                "is_site_boundary": null,
                "score": 1.0
            },
            "geometry": {
                "type": "MultiPolygon",
                "coordinates": [
                    [
                        [
                            [
                                55.199237,
                                25.114789
                            ],
                            [
                                55.200833,
                                25.115054
                            ],
                            [
                                55.202175,
                                25.115135
                            ],
                            [
                                55.20262,
                                25.115895
                            ],
                            [
                                55.202735,
                                25.115932
                            ],
                            [
                                55.202624,
                                25.116133
                            ],
                            [
                                55.20081,
                                25.116093
                            ],
                            [
                                55.198654,
                                25.115743
                            ],
                            [
                                55.19857,
                                25.11563
                            ],
                            [
                                55.199237,
                                25.114789
                            ]
                        ]
                    ]
                ]
            }
        },
        {
            "type": "Feature",
            "properties": {
                "observation_date": "2022-03-09",
                "source": null,
                "sensor_name": null,
                "type": "observation",
                "current_phase": null,
                "is_occluded": null,
                "is_site_boundary": null,
                "score": 1.0
            },
            "geometry": {
                "type": "MultiPolygon",
                "coordinates": [
                    [
                        [
                            [
                                55.199237,
                                25.114789
                            ],
                            [
                                55.200833,
                                25.115054
                            ],
                            [
                                55.202175,
                                25.115135
                            ],
                            [
                                55.20262,
                                25.115895
                            ],
                            [
                                55.202735,
                                25.115932
                            ],
                            [
                                55.202624,
                                25.116133
                            ],
                            [
                                55.20081,
                                25.116093
                            ],
                            [
                                55.198654,
                                25.115743
                            ],
                            [
                                55.19857,
                                25.11563
                            ],
                            [
                                55.199237,
                                25.114789
                            ]
                        ]
                    ]
                ]
            }
        }
    ]
}