{
    "type": "FeatureCollection",
    "features": [
        {
            "type": "Feature",
            "properties": {
                "type": "site",
                "region_id": "AE_R001",
                "site_id": "AE_R001_0490",
                "version": "2.0.0",
                "status": "positive_pending",
                "mgrs": "40RCN",
                "score": 1.0,
                "start_date": "2018-07-04",
                "end_date": "2024-04-02",
                "model_content": "annotation",
                "originator": "te",
                "validated": "True",
                "misc_info": {
                    "commit_hash": "8e2cc701facd37559ed12647d70a5e5b3622c6ca"
                }
            },
            "geometry": {
                "type": "Polygon",
                "coordinates": [
                    [
                        [
                            55.124833,
                            25.017879
                        ],
                        [
                            55.127243,
                            25.017804
                        ],
                        [
                            55.127237,
                            25.018529
                        ],
                        [
                            55.124851,
                            25.018615
                        ],
                        [
                            55.124833,
                            25.017879
                        ]
                    ]
                ]
            }
        },
        {
            "type": "Feature",
            "properties": {
                "observation_date": "2018-07-04",
                "source": null,
                "sensor_name": null,
                "type": "observation",
                "current_phase": null,
                "is_occluded": null,
                "is_site_boundary": null,
                "score": 1.0
            },
            "geometry": {
                "type": "MultiPolygon",
                "coordinates": [
                    [
                        [
                            [
                                55.124833,
                                25.017879
                            ],
                            [
                                55.127243,
                                25.017804
                            ],
                            [
                                55.127237,
                                25.018529
                            ],
                            [
                                55.124851,
                                25.018615
                            ],
                            [
                                55.124833,
                                25.017879
                            ]
                        ]
                    ]
                ]
            }
        },
        {
            "type": "Feature",
            "properties": {
                "observation_date": "2024-04-02",
                "source": null,
                "sensor_name": null,
                "type": "observation",
                "current_phase": null,
                "is_occluded": null,
                "is_site_boundary": null,
                "score": 1.0
            },
            "geometry": {
                "type": "MultiPolygon",
                "coordinates": [
                    [
                        [
                            [
                                55.124833,
                                25.017879
                            ],
                            [
                                55.127243,
                                25.017804
                            ],
                            [
                                55.127237,
                                25.018529
                            ],
                            [
                                55.124851,
                                25.018615
                            ],
                            [
                                55.124833,
                                25.017879
                            ]
                        ]
                    ]
                ]
            }
        }
    ]
}