{
    "type": "FeatureCollection",
    "features": [
        {
            "type": "Feature",
            "properties": {
                "type": "site",
                "region_id": "AE_R001",
                "site_id": "AE_R001_0575",
                "version": "2.0.0",
                "status": "positive_pending",
                "mgrs": "40RCN",
                "score": 1.0,
                "start_date": "2015-04-27",
                "end_date": "2018-03-07",
                "model_content": "annotation",
                "originator": "te",
                "validated": "True",
                "misc_info": {
                    "commit_hash": "8e2cc701facd37559ed12647d70a5e5b3622c6ca"
                }
            },
            "geometry": {
                "type": "Polygon",
                "coordinates": [
                    [
                        [
                            55.171338,
                            24.984242
                        ],
                        [
                            55.170905,
                            24.983924
                        ],
                        [
                            55.171641,
                            24.98347
                        ],
                        [
                            55.17223,
                            24.983831
                        ],
                        [
                            55.172935,
                            24.983162
                        ],
                        [
                            55.172604,
                            24.982942
                        ],
                        [
                            55.172143,
                            24.982957
                        ],
                        [
                            55.171766,
                            24.983179
                        ],
                        [
                            55.170896,
                            24.983793
                        ],
                        [
                            55.170175,
                            24.984195
                        ],
                        [
                            55.170329,
                            24.984704
                        ],
                        [
                            55.171338,
                            24.984242
                        ]
                    ]
                ]
            }
        },
        {
            "type": "Feature",
            "properties": {
                "observation_date": "2015-04-27",
                "source": null,
                "sensor_name": null,
                "type": "observation",
                "current_phase": null,
                "is_occluded": null,
                "is_site_boundary": null,
                "score": 1.0
            },
            "geometry": {
                "type": "MultiPolygon",
                "coordinates": [
                    [
                        [
                            [
                                55.171338,
                                24.984242
                            ],
                            [
                                55.170905,
                                24.983924
                            ],
                            [
                                55.171641,
                                24.98347
                            ],
                            [
                                55.17223,
                                24.983831
                            ],
                            [
                                55.172935,
                                24.983162
                            ],
                            [
                                55.172604,
                                24.982942
                            ],
                            [
                                55.172143,
                                24.982957
                            ],
                            [
                                55.171766,
                                24.983179
                            ],
                            [
                                55.170896,
                                24.983793
                            ],
                            [
                                55.170175,
                                24.984195
                            ],
                            [
                                55.170329,
                                24.984704
                            ],
                            [
                                55.171338,
                                24.984242
                            ]
                        ]
                    ]
                ]
            }
        },
        {
            "type": "Feature",
            "properties": {
                "observation_date": "2018-03-07",
                "source": null,
                "sensor_name": null,
                "type": "observation",
                "current_phase": null,
                "is_occluded": null,
                "is_site_boundary": null,
                "score": 1.0
            },
            "geometry": {
                "type": "MultiPolygon",
                "coordinates": [
                    [
                        [
                            [
                                55.171338,
                                24.984242
                            ],
                            [
                                55.170905,
                                24.983924
                            ],
                            [
                                55.171641,
                                24.98347
                            ],
                            [
                                55.17223,
                                24.983831
                            ],
                            [
                                55.172935,
                                24.983162
                            ],
                            [
                                55.172604,
                                24.982942
                            ],
                            [
                                55.172143,
                                24.982957
                            ],
                            [
                                55.171766,
                                24.983179
                            ],
                            [
                                55.170896,
                                24.983793
                            ],
                            [
                                55.170175,
                                24.984195
                            ],
                            [
                                55.170329,
                                24.984704
                            ],
                            [
                                55.171338,
                                24.984242
                            ]
                        ]
                    ]
                ]
            }
        }
    ]
}