{
    "type": "FeatureCollection",
    "features": [
        {
            "type": "Feature",
            "properties": {
                "type": "site",
                "region_id": "AE_R002",
                "site_id": "AE_R002_0066",
                "version": "2.0.0",
                "status": "positive_pending",
                "mgrs": "40RCN",
                "score": 1.0,
                "start_date": "2014-12-12",
                "end_date": "2023-12-04",
                "model_content": "annotation",
                "originator": "te",
                "validated": "False",
                "misc_info": {
                    "commit_hash": "824fac44479e0c34c554c214480da6d4c14a319e"
                }
            },
            "geometry": {
                "type": "Polygon",
                "coordinates": [
                    [
                        [
                            55.241318,
                            25.068135
                        ],
                        [
                            55.241535,
                            25.06625
                        ],
                        [
                            55.241675,
                            25.065981
                        ],
                        [
                            55.241907,
                            25.065912
                        ],
                        [
                            55.243018,
                            25.066056
                        ],
                        [
                            55.242937,
                            25.066717
                        ],
                        [
                            55.243337,
                            25.066896
                        ],
                        [
                            55.244335,
                            25.066903
                        ],
                        [
                            55.244365,
                            25.068129
                        ],
                        [
                            55.244278,
                            25.06833
                        ],
                        [
                            55.244105,
                            25.068401
                        ],
                        [
                            55.241583,
                            25.068433
                        ],
                        [
                            55.241373,
                            25.06834
                        ],
                        [
                            55.241318,
                            25.068135
                        ]
                    ]
                ]
            }
        },
        {
            "type": "Feature",
            "properties": {
                "observation_date": "2014-12-12",
                "source": null,
                "sensor_name": null,
                "type": "observation",
                "current_phase": null,
                "is_occluded": null,
                "is_site_boundary": null,
                "score": 1.0
            },
            "geometry": {
                "type": "MultiPolygon",
                "coordinates": [
                    [
                        [
                            [
                                55.241318,
                                25.068135
                            ],
                            [
                                55.241535,
                                25.06625
                            ],
                            [
                                55.241675,
                                25.065981
                            ],
                            [
                                55.241907,
                                25.065912
                            ],
                            [
                                55.243018,
                                25.066056
                            ],
                            [
                                55.242937,
                                25.066717
                            ],
                            [
                                55.243337,
                                25.066896
                            ],
                            [
                                55.244335,
                                25.066903
                            ],
                            [
                                55.244365,
                                25.068129
                            ],
                            [
                                55.244278,
                                25.06833
                            ],
                            [
                                55.244105,
                                25.068401
                            ],
                            [
                                55.241583,
                                25.068433
                            ],
                            [
                                55.241373,
                                25.06834
                            ],
                            [
                                55.241318,
                                25.068135
                            ]
                        ]
                    ]
                ]
            }
        },
        {
            "type": "Feature",
            "properties": {
                "observation_date": "2023-12-04",
                "source": null,
                "sensor_name": null,
                "type": "observation",
                "current_phase": null,
                "is_occluded": null,
                "is_site_boundary": null,
                "score": 1.0
            },
            "geometry": {
                "type": "MultiPolygon",
                "coordinates": [
                    [
                        [
                            [
                                55.241318,
                                25.068135
                            ],
                            [
                                55.241535,
                                25.06625
                            ],
                            [
                                55.241675,
                                25.065981
                            ],
                            [
                                55.241907,
                                25.065912
                            ],
                            [
                                55.243018,
                                25.066056
                            ],
                            [
                                55.242937,
                                25.066717
                            ],
                            [
                                55.243337,
                                25.066896
                            ],
                            [
                                55.244335,
                                25.066903
                            ],
                            [
                                55.244365,
                                25.068129
                            ],
                            [
                                55.244278,
                                25.06833
                            ],
                            [
                                55.244105,
                                25.068401
                            ],
                            [
                                55.241583,
                                25.068433
                            ],
                            [
                                55.241373,
                                25.06834
                            ],
                            [
                                55.241318,
                                25.068135
                            ]
                        ]
                    ]
                ]
            }
        }
    ]
}