{
    "type": "FeatureCollection",
    "features": [
        {
            "type": "Feature",
            "properties": {
                "type": "site",
                "region_id": "AE_R002",
                "site_id": "AE_R002_0003",
                "version": "2.0.0",
                "status": "positive_pending",
                "mgrs": "40RCN",
                "score": 1.0,
                "start_date": "2005-11-25",
                "end_date": null,
                "model_content": "annotation",
                "originator": "te",
                "validated": "False",
                "misc_info": {
                    "commit_hash": "824fac44479e0c34c554c214480da6d4c14a319e"
                }
            },
            "geometry": {
                "type": "Polygon",
                "coordinates": [
                    [
                        [
                            55.261654,
                            25.034367
                        ],
                        [
                            55.261525,
                            25.035338
                        ],
                        [
                            55.261836,
                            25.036044
                        ],
                        [
                            55.300921,
                            25.057556
                        ],
                        [
                            55.301254,
                            25.057624
                        ],
                        [
                            55.301551,
                            25.05754
                        ],
                        [
                            55.302041,
                            25.056983
                        ],
                        [
                            55.306368,
                            25.051722
                        ],
                        [
                            55.306748,
                            25.051223
                        ],
                        [
                            55.306809,
                            25.050533
                        ],
                        [
                            55.306827,
                            25.04825
                        ],
                        [
                            55.306564,
                            25.047755
                        ],
                        [
                            55.305284,
                            25.046464
                        ],
                        [
                            55.281004,
                            25.022379
                        ],
                        [
                            55.276843,
                            25.024954
                        ],
                        [
                            55.269106,
                            25.02905
                        ],
                        [
                            55.265431,
                            25.031285
                        ],
                        [
                            55.26269,
                            25.033396
                        ],
                        [
                            55.261654,
                            25.034367
                        ]
                    ]
                ]
            }
        },
        {
            "type": "Feature",
            "properties": {
                "observation_date": "2005-11-25",
                "source": null,
                "sensor_name": null,
                "type": "observation",
                "current_phase": null,
                "is_occluded": null,
                "is_site_boundary": null,
                "score": 1.0
            },
            "geometry": {
                "type": "MultiPolygon",
                "coordinates": [
                    [
                        [
                            [
                                55.261654,
                                25.034367
                            ],
                            [
                                55.261525,
                                25.035338
                            ],
                            [
                                55.261836,
                                25.036044
                            ],
                            [
                                55.300921,
                                25.057556
                            ],
                            [
                                55.301254,
                                25.057624
                            ],
                            [
                                55.301551,
                                25.05754
                            ],
                            [
                                55.302041,
                                25.056983
                            ],
                            [
                                55.306368,
                                25.051722
                            ],
                            [
                                55.306748,
                                25.051223
                            ],
                            [
                                55.306809,
                                25.050533
                            ],
                            [
                                55.306827,
                                25.04825
                            ],
                            [
                                55.306564,
                                25.047755
                            ],
                            [
                                55.305284,
                                25.046464
                            ],
                            [
                                55.281004,
                                25.022379
                            ],
                            [
                                55.276843,
                                25.024954
                            ],
                            [
                                55.269106,
                                25.02905
                            ],
                            [
                                55.265431,
                                25.031285
                            ],
                            [
                                55.26269,
                                25.033396
                            ],
                            [
                                55.261654,
                                25.034367
                            ]
                        ]
                    ]
                ]
            }
        },
        {
            "type": "Feature",
            "properties": {
                "observation_date": null,
                "source": null,
                "sensor_name": null,
                "type": "observation",
                "current_phase": null,
                "is_occluded": null,
                "is_site_boundary": null,
                "score": 1.0
            },
            "geometry": {
                "type": "MultiPolygon",
                "coordinates": [
                    [
                        [
                            [
                                55.261654,
                                25.034367
                            ],
                            [
                                55.261525,
                                25.035338
                            ],
                            [
                                55.261836,
                                25.036044
                            ],
                            [
                                55.300921,
                                25.057556
                            ],
                            [
                                55.301254,
                                25.057624
                            ],
                            [
                                55.301551,
                                25.05754
                            ],
                            [
                                55.302041,
                                25.056983
                            ],
                            [
                                55.306368,
                                25.051722
                            ],
                            [
                                55.306748,
                                25.051223
                            ],
                            [
                                55.306809,
                                25.050533
                            ],
                            [
                                55.306827,
                                25.04825
                            ],
                            [
                                55.306564,
                                25.047755
                            ],
                            [
                                55.305284,
                                25.046464
                            ],
                            [
                                55.281004,
                                25.022379
                            ],
                            [
                                55.276843,
                                25.024954
                            ],
                            [
                                55.269106,
                                25.02905
                            ],
                            [
                                55.265431,
                                25.031285
                            ],
                            [
                                55.26269,
                                25.033396
                            ],
                            [
                                55.261654,
                                25.034367
                            ]
                        ]
                    ]
                ]
            }
        }
    ]
}