{
    "type": "FeatureCollection",
    "features": [
        {
            "type": "Feature",
            "properties": {
                "type": "site",
                "region_id": "AE_R002",
                "site_id": "AE_R002_0184",
                "version": "2.0.0",
                "status": "negative",
                "mgrs": "40RCN",
                "score": 1.0,
                "start_date": "2013-10-20",
                "end_date": "2021-03-14",
                "model_content": "annotation",
                "originator": "te",
                "validated": "True",
                "misc_info": {
                    "commit_hash": "824fac44479e0c34c554c214480da6d4c14a319e"
                }
            },
            "geometry": {
                "type": "Polygon",
                "coordinates": [
                    [
                        [
                            55.200278,
                            25.048272
                        ],
                        [
                            55.20106,
                            25.047615
                        ],
                        [
                            55.200762,
                            25.04722
                        ],
                        [
                            55.202679,
                            25.04677
                        ],
                        [
                            55.202878,
                            25.047404
                        ],
                        [
                            55.20245,
                            25.047725
                        ],
                        [
                            55.201971,
                            25.048515
                        ],
                        [
                            55.201107,
                            25.049114
                        ],
                        [
                            55.200278,
                            25.048272
                        ]
                    ]
                ]
            }
        },
        {
            "type": "Feature",
            "properties": {
                "observation_date": "2013-10-20",
                "source": null,
                "sensor_name": null,
                "type": "observation",
                "current_phase": null,
                "is_occluded": null,
                "is_site_boundary": null,
                "score": 1.0
            },
            "geometry": {
                "type": "MultiPolygon",
                "coordinates": [
                    [
                        [
                            [
                                55.200278,
                                25.048272
                            ],
                            [
                                55.20106,
                                25.047615
                            ],
                            [
                                55.200762,
                                25.04722
                            ],
                            [
                                55.202679,
                                25.04677
                            ],
                            [
                                55.202878,
                                25.047404
                            ],
                            [
                                55.20245,
                                25.047725
                            ],
                            [
                                55.201971,
                                25.048515
                            ],
                            [
                                55.201107,
                                25.049114
                            ],
                            [
                                55.200278,
                                25.048272
                            ]
                        ]
                    ]
                ]
            }
        },
        {
            "type": "Feature",
            "properties": {
                "observation_date": "2021-03-14",
                "source": null,
                "sensor_name": null,
                "type": "observation",
                "current_phase": null,
                "is_occluded": null,
                "is_site_boundary": null,
                "score": 1.0
            },
            "geometry": {
                "type": "MultiPolygon",
                "coordinates": [
                    [
                        [
                            [
                                55.200278,
                                25.048272
                            ],
                            [
                                55.20106,
                                25.047615
                            ],
                            [
                                55.200762,
                                25.04722
                            ],
                            [
                                55.202679,
                                25.04677
                            ],
                            [
                                55.202878,
                                25.047404
                            ],
                            [
                                55.20245,
                                25.047725
                            ],
                            [
                                55.201971,
                                25.048515
                            ],
                            [
                                55.201107,
                                25.049114
                            ],
                            [
                                55.200278,
                                25.048272
                            ]
                        ]
                    ]
                ]
            }
        }
    ]
}