{
    "type": "FeatureCollection",
    "features": [
        {
            "type": "Feature",
            "properties": {
                "type": "site",
                "region_id": "AE_R002",
                "site_id": "AE_R002_0360",
                "version": "2.0.0",
                "status": "positive_pending",
                "mgrs": "40RCN",
                "score": 1.0,
                "start_date": "2020-12-14",
                "end_date": null,
                "model_content": "annotation",
                "originator": "te",
                "validated": "False",
                "misc_info": {
                    "commit_hash": "824fac44479e0c34c554c214480da6d4c14a319e"
                }
            },
            "geometry": {
                "type": "Polygon",
                "coordinates": [
                    [
                        [
                            55.381507,
                            25.121057
                        ],
                        [
                            55.380883,
                            25.120329
                        ],
                        [
                            55.381222,
                            25.120161
                        ],
                        [
                            55.381466,
                            25.119989
                        ],
                        [
                            55.381664,
                            25.119723
                        ],
                        [
                            55.381729,
                            25.119574
                        ],
                        [
                            55.381816,
                            25.119523
                        ],
                        [
                            55.382213,
                            25.119568
                        ],
                        [
                            55.38262,
                            25.119572
                        ],
                        [
                            55.382855,
                            25.119482
                        ],
                        [
                            55.38304,
                            25.119284
                        ],
                        [
                            55.383107,
                            25.119188
                        ],
                        [
                            55.383127,
                            25.118924
                        ],
                        [
                            55.383073,
                            25.118794
                        ],
                        [
                            55.383518,
                            25.118677
                        ],
                        [
                            55.383626,
                            25.118384
                        ],
                        [
                            55.384028,
                            25.118418
                        ],
                        [
                            55.384194,
                            25.11873
                        ],
                        [
                            55.384212,
                            25.119144
                        ],
                        [
                            55.384098,
                            25.119487
                        ],
                        [
                            55.383844,
                            25.11982
                        ],
                        [
                            55.383528,
                            25.120105
                        ],
                        [
                            55.383226,
                            25.12024
                        ],
                        [
                            55.382319,
                            25.12062
                        ],
                        [
                            55.381507,
                            25.121057
                        ]
                    ]
                ]
            }
        },
        {
            "type": "Feature",
            "properties": {
                "observation_date": "2020-12-14",
                "source": null,
                "sensor_name": null,
                "type": "observation",
                "current_phase": null,
                "is_occluded": null,
                "is_site_boundary": null,
                "score": 1.0
            },
            "geometry": {
                "type": "MultiPolygon",
                "coordinates": [
                    [
                        [
                            [
                                55.381507,
                                25.121057
                            ],
                            [
                                55.380883,
                                25.120329
                            ],
                            [
                                55.381222,
                                25.120161
                            ],
                            [
                                55.381466,
                                25.119989
                            ],
                            [
                                55.381664,
                                25.119723
                            ],
                            [
                                55.381729,
                                25.119574
                            ],
                            [
                                55.381816,
                                25.119523
                            ],
                            [
                                55.382213,
                                25.119568
                            ],
                            [
                                55.38262,
                                25.119572
                            ],
                            [
                                55.382855,
                                25.119482
                            ],
                            [
                                55.38304,
                                25.119284
                            ],
                            [
                                55.383107,
                                25.119188
                            ],
                            [
                                55.383127,
                                25.118924
                            ],
                            [
                                55.383073,
                                25.118794
                            ],
                            [
                                55.383518,
                                25.118677
                            ],
                            [
                                55.383626,
                                25.118384
                            ],
                            [
                                55.384028,
                                25.118418
                            ],
                            [
                                55.384194,
                                25.11873
                            ],
                            [
                                55.384212,
                                25.119144
                            ],
                            [
                                55.384098,
                                25.119487
                            ],
                            [
                                55.383844,
                                25.11982
                            ],
                            [
                                55.383528,
                                25.120105
                            ],
                            [
                                55.383226,
                                25.12024
                            ],
                            [
                                55.382319,
                                25.12062
                            ],
                            [
                                55.381507,
                                25.121057
                            ]
                        ]
                    ]
                ]
            }
        },
        {
            "type": "Feature",
            "properties": {
                "observation_date": null,
                "source": null,
                "sensor_name": null,
                "type": "observation",
                "current_phase": null,
                "is_occluded": null,
                "is_site_boundary": null,
                "score": 1.0
            },
            "geometry": {
                "type": "MultiPolygon",
                "coordinates": [
                    [
                        [
                            [
                                55.381507,
                                25.121057
                            ],
                            [
                                55.380883,
                                25.120329
                            ],
                            [
                                55.381222,
                                25.120161
                            ],
                            [
                                55.381466,
                                25.119989
                            ],
                            [
                                55.381664,
                                25.119723
                            ],
                            [
                                55.381729,
                                25.119574
                            ],
                            [
                                55.381816,
                                25.119523
                            ],
                            [
                                55.382213,
                                25.119568
                            ],
                            [
                                55.38262,
                                25.119572
                            ],
                            [
                                55.382855,
                                25.119482
                            ],
                            [
                                55.38304,
                                25.119284
                            ],
                            [
                                55.383107,
                                25.119188
                            ],
                            [
                                55.383127,
                                25.118924
                            ],
                            [
                                55.383073,
                                25.118794
                            ],
                            [
                                55.383518,
                                25.118677
                            ],
                            [
                                55.383626,
                                25.118384
                            ],
                            [
                                55.384028,
                                25.118418
                            ],
                            [
                                55.384194,
                                25.11873
                            ],
                            [
                                55.384212,
                                25.119144
                            ],
                            [
                                55.384098,
                                25.119487
                            ],
                            [
                                55.383844,
                                25.11982
                            ],
                            [
                                55.383528,
                                25.120105
                            ],
                            [
                                55.383226,
                                25.12024
                            ],
                            [
                                55.382319,
                                25.12062
                            ],
                            [
                                55.381507,
                                25.121057
                            ]
                        ]
                    ]
                ]
            }
        }
    ]
}