{
    "type": "FeatureCollection",
    "features": [
        {
            "type": "Feature",
            "properties": {
                "type": "site",
                "region_id": "AE_R001",
                "site_id": "AE_R001_0547",
                "version": "2.0.0",
                "status": "positive_pending",
                "mgrs": "40RCN",
                "score": 1.0,
                "start_date": "2014-12-03",
                "end_date": "2018-09-30",
                "model_content": "annotation",
                "originator": "te",
                "validated": "True",
                "misc_info": {
                    "commit_hash": "8e2cc701facd37559ed12647d70a5e5b3622c6ca"
                }
            },
            "geometry": {
                "type": "Polygon",
                "coordinates": [
                    [
                        [
                            55.086981,
                            24.854078
                        ],
                        [
                            55.085936,
                            24.855374
                        ],
                        [
                            55.085711,
                            24.855418
                        ],
                        [
                            55.083247,
                            24.853822
                        ],
                        [
                            55.08439,
                            24.852217
                        ],
                        [
                            55.086949,
                            24.853896
                        ],
                        [
                            55.086981,
                            24.854078
                        ]
                    ]
                ]
            }
        },
        {
            "type": "Feature",
            "properties": {
                "observation_date": "2014-12-03",
                "source": null,
                "sensor_name": null,
                "type": "observation",
                "current_phase": null,
                "is_occluded": null,
                "is_site_boundary": null,
                "score": 1.0
            },
            "geometry": {
                "type": "MultiPolygon",
                "coordinates": [
                    [
                        [
                            [
                                55.086981,
                                24.854078
                            ],
                            [
                                55.085936,
                                24.855374
                            ],
                            [
                                55.085711,
                                24.855418
                            ],
                            [
                                55.083247,
                                24.853822
                            ],
                            [
                                55.08439,
                                24.852217
                            ],
                            [
                                55.086949,
                                24.853896
                            ],
                            [
                                55.086981,
                                24.854078
                            ]
                        ]
                    ]
                ]
            }
        },
        {
            "type": "Feature",
            "properties": {
                "observation_date": "2018-09-30",
                "source": null,
                "sensor_name": null,
                "type": "observation",
                "current_phase": null,
                "is_occluded": null,
                "is_site_boundary": null,
                "score": 1.0
            },
            "geometry": {
                "type": "MultiPolygon",
                "coordinates": [
                    [
                        [
                            [
                                55.086981,
                                24.854078
                            ],
                            [
                                55.085936,
                                24.855374
                            ],
                            [
                                55.085711,
                                24.855418
                            ],
                            [
                                55.083247,
                                24.853822
                            ],
                            [
                                55.08439,
                                24.852217
                            ],
                            [
                                55.086949,
                                24.853896
                            ],
                            [
                                55.086981,
                                24.854078
                            ]
                        ]
                    ]
                ]
            }
        }
    ]
}