{
    "type": "FeatureCollection",
    "features": [
        {
            "type": "Feature",
            "properties": {
                "type": "site",
                "region_id": "AE_R002",
                "site_id": "AE_R002_0229",
                "version": "2.0.0",
                "status": "positive_annotated_static",
                "mgrs": "40RCN",
                "score": 1.0,
                "start_date": "2017-03-15",
                "end_date": "2021-01-10",
                "model_content": "annotation",
                "originator": "te",
                "validated": "True",
                "misc_info": {
                    "commit_hash": "dbdea3485a8eb34730f81ec01861c62e6358b0b5"
                }
            },
            "geometry": {
                "type": "Polygon",
                "coordinates": [
                    [
                        [
                            55.214053,
                            25.079288
                        ],
                        [
                            55.214812,
                            25.080124
                        ],
                        [
                            55.216369,
                            25.07897
                        ],
                        [
                            55.215556,
                            25.078086
                        ],
                        [
                            55.214053,
                            25.079288
                        ]
                    ]
                ]
            }
        },
        {
            "type": "Feature",
            "properties": {
                "observation_date": "2017-03-15",
                "source": "S2A_40RCN_20170315_0_L2A_TCI",
                "sensor_name": "Sentinel-2",
                "type": "observation",
                "current_phase": "No Activity",
                "is_occluded": "False",
                "is_site_boundary": "True",
                "score": 1.0
            },
            "geometry": {
                "type": "MultiPolygon",
                "coordinates": [
                    [
                        [
                            [
                                55.214812,
                                25.080124
                            ],
                            [
                                55.214053,
                                25.079288
                            ],
                            [
                                55.215556,
                                25.078086
                            ],
                            [
                                55.216369,
                                25.07897
                            ],
                            [
                                55.214812,
                                25.080124
                            ]
                        ]
                    ]
                ]
            }
        },
        {
            "type": "Feature",
            "properties": {
                "observation_date": "2017-04-04",
                "source": "S2A_40RCN_20170404_0_L2A_TCI",
                "sensor_name": "Sentinel-2",
                "type": "observation",
                "current_phase": "No Activity",
                "is_occluded": "False",
                "is_site_boundary": "True",
                "score": 1.0
            },
            "geometry": {
                "type": "MultiPolygon",
                "coordinates": [
                    [
                        [
                            [
                                55.214812,
                                25.080124
                            ],
                            [
                                55.214053,
                                25.079288
                            ],
                            [
                                55.215556,
                                25.078086
                            ],
                            [
                                55.216369,
                                25.07897
                            ],
                            [
                                55.214812,
                                25.080124
                            ]
                        ]
                    ]
                ]
            }
        },
        {
            "type": "Feature",
            "properties": {
                "observation_date": "2017-05-24",
                "source": "S2A_40RCN_20170524_0_L2A_TCI",
                "sensor_name": "Sentinel-2",
                "type": "observation",
                "current_phase": "No Activity",
                "is_occluded": "False",
                "is_site_boundary": "True",
                "score": 1.0
            },
            "geometry": {
                "type": "MultiPolygon",
                "coordinates": [
                    [
                        [
                            [
                                55.214812,
                                25.080124
                            ],
                            [
                                55.214053,
                                25.079288
                            ],
                            [
                                55.215556,
                                25.078086
                            ],
                            [
                                55.216369,
                                25.07897
                            ],
                            [
                                55.214812,
                                25.080124
                            ]
                        ]
                    ]
                ]
            }
        },
        {
            "type": "Feature",
            "properties": {
                "observation_date": "2017-06-13",
                "source": "S2A_40RCN_20170613_0_L2A_TCI",
                "sensor_name": "Sentinel-2",
                "type": "observation",
                "current_phase": "No Activity",
                "is_occluded": "False",
                "is_site_boundary": "True",
                "score": 1.0
            },
            "geometry": {
                "type": "MultiPolygon",
                "coordinates": [
                    [
                        [
                            [
                                55.214812,
                                25.080124
                            ],
                            [
                                55.214053,
                                25.079288
                            ],
                            [
                                55.215556,
                                25.078086
                            ],
                            [
                                55.216369,
                                25.07897
                            ],
                            [
                                55.214812,
                                25.080124
                            ]
                        ]
                    ]
                ]
            }
        },
        {
            "type": "Feature",
            "properties": {
                "observation_date": "2017-07-13",
                "source": "S2A_40RCN_20170713_0_L2A_TCI",
                "sensor_name": "Sentinel-2",
                "type": "observation",
                "current_phase": "No Activity",
                "is_occluded": "False",
                "is_site_boundary": "True",
                "score": 1.0
            },
            "geometry": {
                "type": "MultiPolygon",
                "coordinates": [
                    [
                        [
                            [
                                55.214812,
                                25.080124
                            ],
                            [
                                55.214053,
                                25.079288
                            ],
                            [
                                55.215556,
                                25.078086
                            ],
                            [
                                55.216369,
                                25.07897
                            ],
                            [
                                55.214812,
                                25.080124
                            ]
                        ]
                    ]
                ]
            }
        },
        {
            "type": "Feature",
            "properties": {
                "observation_date": "2017-08-12",
                "source": "S2A_40RCN_20170812_0_L2A_TCI",
                "sensor_name": "Sentinel-2",
                "type": "observation",
                "current_phase": "No Activity",
                "is_occluded": "False",
                "is_site_boundary": "True",
                "score": 1.0
            },
            "geometry": {
                "type": "MultiPolygon",
                "coordinates": [
                    [
                        [
                            [
                                55.214812,
                                25.080124
                            ],
                            [
                                55.214053,
                                25.079288
                            ],
                            [
                                55.215556,
                                25.078086
                            ],
                            [
                                55.216369,
                                25.07897
                            ],
                            [
                                55.214812,
                                25.080124
                            ]
                        ]
                    ]
                ]
            }
        },
        {
            "type": "Feature",
            "properties": {
                "observation_date": "2017-09-11",
                "source": "S2A_40RCN_20170911_0_L2A_TCI",
                "sensor_name": "Sentinel-2",
                "type": "observation",
                "current_phase": "No Activity",
                "is_occluded": "False",
                "is_site_boundary": "True",
                "score": 1.0
            },
            "geometry": {
                "type": "MultiPolygon",
                "coordinates": [
                    [
                        [
                            [
                                55.214812,
                                25.080124
                            ],
                            [
                                55.214053,
                                25.079288
                            ],
                            [
                                55.215556,
                                25.078086
                            ],
                            [
                                55.216369,
                                25.07897
                            ],
                            [
                                55.214812,
                                25.080124
                            ]
                        ]
                    ]
                ]
            }
        },
        {
            "type": "Feature",
            "properties": {
                "observation_date": "2017-10-16",
                "source": "S2B_40RCN_20171016_0_L2A_TCI",
                "sensor_name": "Sentinel-2",
                "type": "observation",
                "current_phase": "No Activity",
                "is_occluded": "False",
                "is_site_boundary": "True",
                "score": 1.0
            },
            "geometry": {
                "type": "MultiPolygon",
                "coordinates": [
                    [
                        [
                            [
                                55.214812,
                                25.080124
                            ],
                            [
                                55.214053,
                                25.079288
                            ],
                            [
                                55.215556,
                                25.078086
                            ],
                            [
                                55.216369,
                                25.07897
                            ],
                            [
                                55.214812,
                                25.080124
                            ]
                        ]
                    ]
                ]
            }
        },
        {
            "type": "Feature",
            "properties": {
                "observation_date": "2017-11-13",
                "source": "17NOV13095918-P1BS-501764823010_01_P002",
                "sensor_name": "WorldView",
                "type": "observation",
                "current_phase": "No Activity",
                "is_occluded": "False",
                "is_site_boundary": "True",
                "score": 1.0
            },
            "geometry": {
                "type": "MultiPolygon",
                "coordinates": [
                    [
                        [
                            [
                                55.214812,
                                25.080124
                            ],
                            [
                                55.214053,
                                25.079288
                            ],
                            [
                                55.215556,
                                25.078086
                            ],
                            [
                                55.216369,
                                25.07897
                            ],
                            [
                                55.214812,
                                25.080124
                            ]
                        ]
                    ]
                ]
            }
        },
        {
            "type": "Feature",
            "properties": {
                "observation_date": "2017-11-20",
                "source": "S2A_40RCN_20171120_0_L2A_TCI",
                "sensor_name": "Sentinel-2",
                "type": "observation",
                "current_phase": "No Activity",
                "is_occluded": "False",
                "is_site_boundary": "True",
                "score": 1.0
            },
            "geometry": {
                "type": "MultiPolygon",
                "coordinates": [
                    [
                        [
                            [
                                55.214812,
                                25.080124
                            ],
                            [
                                55.214053,
                                25.079288
                            ],
                            [
                                55.215556,
                                25.078086
                            ],
                            [
                                55.216369,
                                25.07897
                            ],
                            [
                                55.214812,
                                25.080124
                            ]
                        ]
                    ]
                ]
            }
        },
        {
            "type": "Feature",
            "properties": {
                "observation_date": "2017-12-30",
                "source": "S2A_40RCN_20171230_0_L2A_TCI",
                "sensor_name": "Sentinel-2",
                "type": "observation",
                "current_phase": "No Activity",
                "is_occluded": "False",
                "is_site_boundary": "True",
                "score": 1.0
            },
            "geometry": {
                "type": "MultiPolygon",
                "coordinates": [
                    [
                        [
                            [
                                55.214812,
                                25.080124
                            ],
                            [
                                55.214053,
                                25.079288
                            ],
                            [
                                55.215556,
                                25.078086
                            ],
                            [
                                55.216369,
                                25.07897
                            ],
                            [
                                55.214812,
                                25.080124
                            ]
                        ]
                    ]
                ]
            }
        },
        {
            "type": "Feature",
            "properties": {
                "observation_date": "2018-01-14",
                "source": "S2B_40RCN_20180114_0_L2A_TCI",
                "sensor_name": "Sentinel-2",
                "type": "observation",
                "current_phase": "No Activity",
                "is_occluded": "False",
                "is_site_boundary": "True",
                "score": 1.0
            },
            "geometry": {
                "type": "MultiPolygon",
                "coordinates": [
                    [
                        [
                            [
                                55.214812,
                                25.080124
                            ],
                            [
                                55.214053,
                                25.079288
                            ],
                            [
                                55.215556,
                                25.078086
                            ],
                            [
                                55.216369,
                                25.07897
                            ],
                            [
                                55.214812,
                                25.080124
                            ]
                        ]
                    ]
                ]
            }
        },
        {
            "type": "Feature",
            "properties": {
                "observation_date": "2018-02-18",
                "source": "S2A_40RCN_20180218_0_L2A_TCI",
                "sensor_name": "Sentinel-2",
                "type": "observation",
                "current_phase": "No Activity",
                "is_occluded": "False",
                "is_site_boundary": "True",
                "score": 1.0
            },
            "geometry": {
                "type": "MultiPolygon",
                "coordinates": [
                    [
                        [
                            [
                                55.214812,
                                25.080124
                            ],
                            [
                                55.214053,
                                25.079288
                            ],
                            [
                                55.215556,
                                25.078086
                            ],
                            [
                                55.216369,
                                25.07897
                            ],
                            [
                                55.214812,
                                25.080124
                            ]
                        ]
                    ]
                ]
            }
        },
        {
            "type": "Feature",
            "properties": {
                "observation_date": "2018-03-08",
                "source": "18MAR08072034-P1BS-502009134020_01_P003",
                "sensor_name": "WorldView",
                "type": "observation",
                "current_phase": "No Activity",
                "is_occluded": "False",
                "is_site_boundary": "True",
                "score": 1.0
            },
            "geometry": {
                "type": "MultiPolygon",
                "coordinates": [
                    [
                        [
                            [
                                55.214812,
                                25.080124
                            ],
                            [
                                55.214053,
                                25.079288
                            ],
                            [
                                55.215556,
                                25.078086
                            ],
                            [
                                55.216369,
                                25.07897
                            ],
                            [
                                55.214812,
                                25.080124
                            ]
                        ]
                    ]
                ]
            }
        },
        {
            "type": "Feature",
            "properties": {
                "observation_date": "2018-06-13",
                "source": "S2B_40RCN_20180613_0_L2A_TCI",
                "sensor_name": "Sentinel-2",
                "type": "observation",
                "current_phase": "Active Construction",
                "is_occluded": "False",
                "is_site_boundary": "True",
                "score": 1.0
            },
            "geometry": {
                "type": "MultiPolygon",
                "coordinates": [
                    [
                        [
                            [
                                55.214812,
                                25.080124
                            ],
                            [
                                55.214053,
                                25.079288
                            ],
                            [
                                55.215556,
                                25.078086
                            ],
                            [
                                55.216369,
                                25.07897
                            ],
                            [
                                55.214812,
                                25.080124
                            ]
                        ]
                    ]
                ]
            }
        },
        {
            "type": "Feature",
            "properties": {
                "observation_date": "2018-07-03",
                "source": "S2B_40RCN_20180703_0_L2A_TCI",
                "sensor_name": "Sentinel-2",
                "type": "observation",
                "current_phase": "Active Construction",
                "is_occluded": "False",
                "is_site_boundary": "True",
                "score": 1.0
            },
            "geometry": {
                "type": "MultiPolygon",
                "coordinates": [
                    [
                        [
                            [
                                55.214812,
                                25.080124
                            ],
                            [
                                55.214053,
                                25.079288
                            ],
                            [
                                55.215556,
                                25.078086
                            ],
                            [
                                55.216369,
                                25.07897
                            ],
                            [
                                55.214812,
                                25.080124
                            ]
                        ]
                    ]
                ]
            }
        },
        {
            "type": "Feature",
            "properties": {
                "observation_date": "2018-08-17",
                "source": "S2A_40RCN_20180817_0_L2A_TCI",
                "sensor_name": "Sentinel-2",
                "type": "observation",
                "current_phase": "Active Construction",
                "is_occluded": "False",
                "is_site_boundary": "True",
                "score": 1.0
            },
            "geometry": {
                "type": "MultiPolygon",
                "coordinates": [
                    [
                        [
                            [
                                55.214812,
                                25.080124
                            ],
                            [
                                55.214053,
                                25.079288
                            ],
                            [
                                55.215556,
                                25.078086
                            ],
                            [
                                55.216369,
                                25.07897
                            ],
                            [
                                55.214812,
                                25.080124
                            ]
                        ]
                    ]
                ]
            }
        },
        {
            "type": "Feature",
            "properties": {
                "observation_date": "2018-09-06",
                "source": "S2A_40RCN_20180906_0_L2A_TCI",
                "sensor_name": "Sentinel-2",
                "type": "observation",
                "current_phase": "Active Construction",
                "is_occluded": "False",
                "is_site_boundary": "True",
                "score": 1.0
            },
            "geometry": {
                "type": "MultiPolygon",
                "coordinates": [
                    [
                        [
                            [
                                55.214812,
                                25.080124
                            ],
                            [
                                55.214053,
                                25.079288
                            ],
                            [
                                55.215556,
                                25.078086
                            ],
                            [
                                55.216369,
                                25.07897
                            ],
                            [
                                55.214812,
                                25.080124
                            ]
                        ]
                    ]
                ]
            }
        },
        {
            "type": "Feature",
            "properties": {
                "observation_date": "2018-10-26",
                "source": "S2A_40RCN_20181026_0_L2A_TCI",
                "sensor_name": "Sentinel-2",
                "type": "observation",
                "current_phase": "Active Construction",
                "is_occluded": "False",
                "is_site_boundary": "True",
                "score": 1.0
            },
            "geometry": {
                "type": "MultiPolygon",
                "coordinates": [
                    [
                        [
                            [
                                55.214812,
                                25.080124
                            ],
                            [
                                55.214053,
                                25.079288
                            ],
                            [
                                55.215556,
                                25.078086
                            ],
                            [
                                55.216369,
                                25.07897
                            ],
                            [
                                55.214812,
                                25.080124
                            ]
                        ]
                    ]
                ]
            }
        },
        {
            "type": "Feature",
            "properties": {
                "observation_date": "2018-11-20",
                "source": "S2B_40RCN_20181120_0_L2A_TCI",
                "sensor_name": "Sentinel-2",
                "type": "observation",
                "current_phase": "Active Construction",
                "is_occluded": "False",
                "is_site_boundary": "True",
                "score": 1.0
            },
            "geometry": {
                "type": "MultiPolygon",
                "coordinates": [
                    [
                        [
                            [
                                55.214812,
                                25.080124
                            ],
                            [
                                55.214053,
                                25.079288
                            ],
                            [
                                55.215556,
                                25.078086
                            ],
                            [
                                55.216369,
                                25.07897
                            ],
                            [
                                55.214812,
                                25.080124
                            ]
                        ]
                    ]
                ]
            }
        },
        {
            "type": "Feature",
            "properties": {
                "observation_date": "2018-12-25",
                "source": "S2A_40RCN_20181225_0_L2A_TCI",
                "sensor_name": "Sentinel-2",
                "type": "observation",
                "current_phase": "Active Construction",
                "is_occluded": "False",
                "is_site_boundary": "True",
                "score": 1.0
            },
            "geometry": {
                "type": "MultiPolygon",
                "coordinates": [
                    [
                        [
                            [
                                55.214812,
                                25.080124
                            ],
                            [
                                55.214053,
                                25.079288
                            ],
                            [
                                55.215556,
                                25.078086
                            ],
                            [
                                55.216369,
                                25.07897
                            ],
                            [
                                55.214812,
                                25.080124
                            ]
                        ]
                    ]
                ]
            }
        },
        {
            "type": "Feature",
            "properties": {
                "observation_date": "2019-01-24",
                "source": "S2A_40RCN_20190124_0_L2A_TCI",
                "sensor_name": "Sentinel-2",
                "type": "observation",
                "current_phase": "Active Construction",
                "is_occluded": "False",
                "is_site_boundary": "True",
                "score": 1.0
            },
            "geometry": {
                "type": "MultiPolygon",
                "coordinates": [
                    [
                        [
                            [
                                55.214812,
                                25.080124
                            ],
                            [
                                55.214053,
                                25.079288
                            ],
                            [
                                55.215556,
                                25.078086
                            ],
                            [
                                55.216369,
                                25.07897
                            ],
                            [
                                55.214812,
                                25.080124
                            ]
                        ]
                    ]
                ]
            }
        },
        {
            "type": "Feature",
            "properties": {
                "observation_date": "2019-01-26",
                "source": "19JAN26071819-P1BS-014858848010_01_P003",
                "sensor_name": "WorldView",
                "type": "observation",
                "current_phase": "Active Construction",
                "is_occluded": "False",
                "is_site_boundary": "True",
                "score": 1.0
            },
            "geometry": {
                "type": "MultiPolygon",
                "coordinates": [
                    [
                        [
                            [
                                55.214812,
                                25.080124
                            ],
                            [
                                55.214053,
                                25.079288
                            ],
                            [
                                55.215556,
                                25.078086
                            ],
                            [
                                55.216369,
                                25.07897
                            ],
                            [
                                55.214812,
                                25.080124
                            ]
                        ]
                    ]
                ]
            }
        },
        {
            "type": "Feature",
            "properties": {
                "observation_date": "2019-02-08",
                "source": "S2B_40RCN_20190208_0_L2A_TCI",
                "sensor_name": "Sentinel-2",
                "type": "observation",
                "current_phase": "Active Construction",
                "is_occluded": "False",
                "is_site_boundary": "True",
                "score": 1.0
            },
            "geometry": {
                "type": "MultiPolygon",
                "coordinates": [
                    [
                        [
                            [
                                55.214812,
                                25.080124
                            ],
                            [
                                55.214053,
                                25.079288
                            ],
                            [
                                55.215556,
                                25.078086
                            ],
                            [
                                55.216369,
                                25.07897
                            ],
                            [
                                55.214812,
                                25.080124
                            ]
                        ]
                    ]
                ]
            }
        },
        {
            "type": "Feature",
            "properties": {
                "observation_date": "2019-03-10",
                "source": "S2B_40RCN_20190310_0_L2A_TCI",
                "sensor_name": "Sentinel-2",
                "type": "observation",
                "current_phase": "Active Construction",
                "is_occluded": "False",
                "is_site_boundary": "True",
                "score": 1.0
            },
            "geometry": {
                "type": "MultiPolygon",
                "coordinates": [
                    [
                        [
                            [
                                55.214812,
                                25.080124
                            ],
                            [
                                55.214053,
                                25.079288
                            ],
                            [
                                55.215556,
                                25.078086
                            ],
                            [
                                55.216369,
                                25.07897
                            ],
                            [
                                55.214812,
                                25.080124
                            ]
                        ]
                    ]
                ]
            }
        },
        {
            "type": "Feature",
            "properties": {
                "observation_date": "2019-04-24",
                "source": "S2A_40RCN_20190424_0_L2A_TCI",
                "sensor_name": "Sentinel-2",
                "type": "observation",
                "current_phase": "Active Construction",
                "is_occluded": "False",
                "is_site_boundary": "True",
                "score": 1.0
            },
            "geometry": {
                "type": "MultiPolygon",
                "coordinates": [
                    [
                        [
                            [
                                55.214812,
                                25.080124
                            ],
                            [
                                55.214053,
                                25.079288
                            ],
                            [
                                55.215556,
                                25.078086
                            ],
                            [
                                55.216369,
                                25.07897
                            ],
                            [
                                55.214812,
                                25.080124
                            ]
                        ]
                    ]
                ]
            }
        },
        {
            "type": "Feature",
            "properties": {
                "observation_date": "2019-05-09",
                "source": "S2B_40RCN_20190509_1_L2A_TCI",
                "sensor_name": "Sentinel-2",
                "type": "observation",
                "current_phase": "Active Construction",
                "is_occluded": "False",
                "is_site_boundary": "True",
                "score": 1.0
            },
            "geometry": {
                "type": "MultiPolygon",
                "coordinates": [
                    [
                        [
                            [
                                55.214812,
                                25.080124
                            ],
                            [
                                55.214053,
                                25.079288
                            ],
                            [
                                55.215556,
                                25.078086
                            ],
                            [
                                55.216369,
                                25.07897
                            ],
                            [
                                55.214812,
                                25.080124
                            ]
                        ]
                    ]
                ]
            }
        },
        {
            "type": "Feature",
            "properties": {
                "observation_date": "2019-06-03",
                "source": "S2A_40RCN_20190603_0_L2A_TCI",
                "sensor_name": "Sentinel-2",
                "type": "observation",
                "current_phase": "Active Construction",
                "is_occluded": "False",
                "is_site_boundary": "True",
                "score": 1.0
            },
            "geometry": {
                "type": "MultiPolygon",
                "coordinates": [
                    [
                        [
                            [
                                55.214812,
                                25.080124
                            ],
                            [
                                55.214053,
                                25.079288
                            ],
                            [
                                55.215556,
                                25.078086
                            ],
                            [
                                55.216369,
                                25.07897
                            ],
                            [
                                55.214812,
                                25.080124
                            ]
                        ]
                    ]
                ]
            }
        },
        {
            "type": "Feature",
            "properties": {
                "observation_date": "2019-07-03",
                "source": "S2A_40RCN_20190703_0_L2A_TCI",
                "sensor_name": "Sentinel-2",
                "type": "observation",
                "current_phase": "Active Construction",
                "is_occluded": "False",
                "is_site_boundary": "True",
                "score": 1.0
            },
            "geometry": {
                "type": "MultiPolygon",
                "coordinates": [
                    [
                        [
                            [
                                55.214812,
                                25.080124
                            ],
                            [
                                55.214053,
                                25.079288
                            ],
                            [
                                55.215556,
                                25.078086
                            ],
                            [
                                55.216369,
                                25.07897
                            ],
                            [
                                55.214812,
                                25.080124
                            ]
                        ]
                    ]
                ]
            }
        },
        {
            "type": "Feature",
            "properties": {
                "observation_date": "2019-08-22",
                "source": "S2A_40RCN_20190822_0_L2A_TCI",
                "sensor_name": "Sentinel-2",
                "type": "observation",
                "current_phase": "Active Construction",
                "is_occluded": "False",
                "is_site_boundary": "True",
                "score": 1.0
            },
            "geometry": {
                "type": "MultiPolygon",
                "coordinates": [
                    [
                        [
                            [
                                55.214812,
                                25.080124
                            ],
                            [
                                55.214053,
                                25.079288
                            ],
                            [
                                55.215556,
                                25.078086
                            ],
                            [
                                55.216369,
                                25.07897
                            ],
                            [
                                55.214812,
                                25.080124
                            ]
                        ]
                    ]
                ]
            }
        },
        {
            "type": "Feature",
            "properties": {
                "observation_date": "2019-08-29",
                "source": "19AUG29070526-P1BS-503470871010_01_P010",
                "sensor_name": "WorldView",
                "type": "observation",
                "current_phase": "Active Construction",
                "is_occluded": "False",
                "is_site_boundary": "True",
                "score": 1.0
            },
            "geometry": {
                "type": "MultiPolygon",
                "coordinates": [
                    [
                        [
                            [
                                55.214812,
                                25.080124
                            ],
                            [
                                55.214053,
                                25.079288
                            ],
                            [
                                55.215556,
                                25.078086
                            ],
                            [
                                55.216369,
                                25.07897
                            ],
                            [
                                55.214812,
                                25.080124
                            ]
                        ]
                    ]
                ]
            }
        },
        {
            "type": "Feature",
            "properties": {
                "observation_date": "2019-09-01",
                "source": "S2A_40RCN_20190901_0_L2A_TCI",
                "sensor_name": "Sentinel-2",
                "type": "observation",
                "current_phase": "Active Construction",
                "is_occluded": "False",
                "is_site_boundary": "True",
                "score": 1.0
            },
            "geometry": {
                "type": "MultiPolygon",
                "coordinates": [
                    [
                        [
                            [
                                55.214812,
                                25.080124
                            ],
                            [
                                55.214053,
                                25.079288
                            ],
                            [
                                55.215556,
                                25.078086
                            ],
                            [
                                55.216369,
                                25.07897
                            ],
                            [
                                55.214812,
                                25.080124
                            ]
                        ]
                    ]
                ]
            }
        },
        {
            "type": "Feature",
            "properties": {
                "observation_date": "2019-10-01",
                "source": "S2A_40RCN_20191001_0_L2A_TCI",
                "sensor_name": "Sentinel-2",
                "type": "observation",
                "current_phase": "Active Construction",
                "is_occluded": "False",
                "is_site_boundary": "True",
                "score": 1.0
            },
            "geometry": {
                "type": "MultiPolygon",
                "coordinates": [
                    [
                        [
                            [
                                55.214812,
                                25.080124
                            ],
                            [
                                55.214053,
                                25.079288
                            ],
                            [
                                55.215556,
                                25.078086
                            ],
                            [
                                55.216369,
                                25.07897
                            ],
                            [
                                55.214812,
                                25.080124
                            ]
                        ]
                    ]
                ]
            }
        },
        {
            "type": "Feature",
            "properties": {
                "observation_date": "2019-10-08",
                "source": "19OCT08100746-P1BS_R4C1-502704253040_06_P001",
                "sensor_name": "WorldView",
                "type": "observation",
                "current_phase": "Active Construction",
                "is_occluded": "False",
                "is_site_boundary": "True",
                "score": 1.0
            },
            "geometry": {
                "type": "MultiPolygon",
                "coordinates": [
                    [
                        [
                            [
                                55.214812,
                                25.080124
                            ],
                            [
                                55.214053,
                                25.079288
                            ],
                            [
                                55.215556,
                                25.078086
                            ],
                            [
                                55.216369,
                                25.07897
                            ],
                            [
                                55.214812,
                                25.080124
                            ]
                        ]
                    ]
                ]
            }
        },
        {
            "type": "Feature",
            "properties": {
                "observation_date": "2019-11-05",
                "source": "S2B_40RCN_20191105_0_L2A_TCI",
                "sensor_name": "Sentinel-2",
                "type": "observation",
                "current_phase": "Active Construction",
                "is_occluded": "False",
                "is_site_boundary": "True",
                "score": 1.0
            },
            "geometry": {
                "type": "MultiPolygon",
                "coordinates": [
                    [
                        [
                            [
                                55.214812,
                                25.080124
                            ],
                            [
                                55.214053,
                                25.079288
                            ],
                            [
                                55.215556,
                                25.078086
                            ],
                            [
                                55.216369,
                                25.07897
                            ],
                            [
                                55.214812,
                                25.080124
                            ]
                        ]
                    ]
                ]
            }
        },
        {
            "type": "Feature",
            "properties": {
                "observation_date": "2019-12-30",
                "source": "S2A_40RCN_20191230_0_L2A_TCI",
                "sensor_name": "Sentinel-2",
                "type": "observation",
                "current_phase": "Active Construction",
                "is_occluded": "False",
                "is_site_boundary": "True",
                "score": 1.0
            },
            "geometry": {
                "type": "MultiPolygon",
                "coordinates": [
                    [
                        [
                            [
                                55.214812,
                                25.080124
                            ],
                            [
                                55.214053,
                                25.079288
                            ],
                            [
                                55.215556,
                                25.078086
                            ],
                            [
                                55.216369,
                                25.07897
                            ],
                            [
                                55.214812,
                                25.080124
                            ]
                        ]
                    ]
                ]
            }
        },
        {
            "type": "Feature",
            "properties": {
                "observation_date": "2020-01-09",
                "source": "S2A_40RCN_20200109_0_L2A_TCI",
                "sensor_name": "Sentinel-2",
                "type": "observation",
                "current_phase": "Active Construction",
                "is_occluded": "False",
                "is_site_boundary": "True",
                "score": 1.0
            },
            "geometry": {
                "type": "MultiPolygon",
                "coordinates": [
                    [
                        [
                            [
                                55.214812,
                                25.080124
                            ],
                            [
                                55.214053,
                                25.079288
                            ],
                            [
                                55.215556,
                                25.078086
                            ],
                            [
                                55.216369,
                                25.07897
                            ],
                            [
                                55.214812,
                                25.080124
                            ]
                        ]
                    ]
                ]
            }
        },
        {
            "type": "Feature",
            "properties": {
                "observation_date": "2020-02-08",
                "source": "S2A_40RCN_20200208_0_L2A_TCI",
                "sensor_name": "Sentinel-2",
                "type": "observation",
                "current_phase": "Active Construction",
                "is_occluded": "False",
                "is_site_boundary": "True",
                "score": 1.0
            },
            "geometry": {
                "type": "MultiPolygon",
                "coordinates": [
                    [
                        [
                            [
                                55.214812,
                                25.080124
                            ],
                            [
                                55.214053,
                                25.079288
                            ],
                            [
                                55.215556,
                                25.078086
                            ],
                            [
                                55.216369,
                                25.07897
                            ],
                            [
                                55.214812,
                                25.080124
                            ]
                        ]
                    ]
                ]
            }
        },
        {
            "type": "Feature",
            "properties": {
                "observation_date": "2020-09-10",
                "source": "20SEP10064315-M1BS-014464473010_01_P004",
                "sensor_name": "WorldView",
                "type": "observation",
                "current_phase": "Post Construction",
                "is_occluded": "False",
                "is_site_boundary": "True",
                "score": 1.0
            },
            "geometry": {
                "type": "MultiPolygon",
                "coordinates": [
                    [
                        [
                            [
                                55.214812,
                                25.080124
                            ],
                            [
                                55.214053,
                                25.079288
                            ],
                            [
                                55.215556,
                                25.078086
                            ],
                            [
                                55.216369,
                                25.07897
                            ],
                            [
                                55.214812,
                                25.080124
                            ]
                        ]
                    ]
                ]
            }
        },
        {
            "type": "Feature",
            "properties": {
                "observation_date": "2020-09-20",
                "source": "S2B_40RCN_20200920_0_L2A_TCI",
                "sensor_name": "Sentinel-2",
                "type": "observation",
                "current_phase": "Post Construction",
                "is_occluded": "False",
                "is_site_boundary": "True",
                "score": 1.0
            },
            "geometry": {
                "type": "MultiPolygon",
                "coordinates": [
                    [
                        [
                            [
                                55.214812,
                                25.080124
                            ],
                            [
                                55.214053,
                                25.079288
                            ],
                            [
                                55.215556,
                                25.078086
                            ],
                            [
                                55.216369,
                                25.07897
                            ],
                            [
                                55.214812,
                                25.080124
                            ]
                        ]
                    ]
                ]
            }
        },
        {
            "type": "Feature",
            "properties": {
                "observation_date": "2020-10-07",
                "source": "20OCT07071050-P1BS-014466698010_01_P001",
                "sensor_name": "WorldView",
                "type": "observation",
                "current_phase": "Post Construction",
                "is_occluded": "False",
                "is_site_boundary": "True",
                "score": 1.0
            },
            "geometry": {
                "type": "MultiPolygon",
                "coordinates": [
                    [
                        [
                            [
                                55.214812,
                                25.080124
                            ],
                            [
                                55.214053,
                                25.079288
                            ],
                            [
                                55.215556,
                                25.078086
                            ],
                            [
                                55.216369,
                                25.07897
                            ],
                            [
                                55.214812,
                                25.080124
                            ]
                        ]
                    ]
                ]
            }
        },
        {
            "type": "Feature",
            "properties": {
                "observation_date": "2020-10-30",
                "source": "S2B_40RCN_20201030_0_L2A_TCI",
                "sensor_name": "Sentinel-2",
                "type": "observation",
                "current_phase": "Post Construction",
                "is_occluded": "False",
                "is_site_boundary": "True",
                "score": 1.0
            },
            "geometry": {
                "type": "MultiPolygon",
                "coordinates": [
                    [
                        [
                            [
                                55.214812,
                                25.080124
                            ],
                            [
                                55.214053,
                                25.079288
                            ],
                            [
                                55.215556,
                                25.078086
                            ],
                            [
                                55.216369,
                                25.07897
                            ],
                            [
                                55.214812,
                                25.080124
                            ]
                        ]
                    ]
                ]
            }
        },
        {
            "type": "Feature",
            "properties": {
                "observation_date": "2020-11-19",
                "source": "S2B_40RCN_20201119_0_L2A_TCI",
                "sensor_name": "Sentinel-2",
                "type": "observation",
                "current_phase": "Post Construction",
                "is_occluded": "False",
                "is_site_boundary": "True",
                "score": 1.0
            },
            "geometry": {
                "type": "MultiPolygon",
                "coordinates": [
                    [
                        [
                            [
                                55.214812,
                                25.080124
                            ],
                            [
                                55.214053,
                                25.079288
                            ],
                            [
                                55.215556,
                                25.078086
                            ],
                            [
                                55.216369,
                                25.07897
                            ],
                            [
                                55.214812,
                                25.080124
                            ]
                        ]
                    ]
                ]
            }
        },
        {
            "type": "Feature",
            "properties": {
                "observation_date": "2020-12-09",
                "source": "S2B_40RCN_20201209_0_L2A_TCI",
                "sensor_name": "Sentinel-2",
                "type": "observation",
                "current_phase": "Post Construction",
                "is_occluded": "False",
                "is_site_boundary": "True",
                "score": 1.0
            },
            "geometry": {
                "type": "MultiPolygon",
                "coordinates": [
                    [
                        [
                            [
                                55.214812,
                                25.080124
                            ],
                            [
                                55.214053,
                                25.079288
                            ],
                            [
                                55.215556,
                                25.078086
                            ],
                            [
                                55.216369,
                                25.07897
                            ],
                            [
                                55.214812,
                                25.080124
                            ]
                        ]
                    ]
                ]
            }
        },
        {
            "type": "Feature",
            "properties": {
                "observation_date": "2021-01-10",
                "source": "21JAN10070716-M1BS-014466701010_01_P004",
                "sensor_name": "WorldView",
                "type": "observation",
                "current_phase": "Post Construction",
                "is_occluded": "False",
                "is_site_boundary": "True",
                "score": 1.0
            },
            "geometry": {
                "type": "MultiPolygon",
                "coordinates": [
                    [
                        [
                            [
                                55.214812,
                                25.080124
                            ],
                            [
                                55.214053,
                                25.079288
                            ],
                            [
                                55.215556,
                                25.078086
                            ],
                            [
                                55.216369,
                                25.07897
                            ],
                            [
                                55.214812,
                                25.080124
                            ]
                        ]
                    ]
                ]
            }
        }
    ]
}