{
    "type": "FeatureCollection",
    "features": [
        {
            "type": "Feature",
            "properties": {
                "type": "site",
                "region_id": "AE_R001",
                "site_id": "AE_R001_0539",
                "version": "2.0.0",
                "status": "positive_pending",
                "mgrs": "40RCN",
                "score": 1.0,
                "start_date": "2017-07-17",
                "end_date": "2021-02-23",
                "model_content": "annotation",
                "originator": "te",
                "validated": "True",
                "misc_info": {
                    "commit_hash": "8e2cc701facd37559ed12647d70a5e5b3622c6ca"
                }
            },
            "geometry": {
                "type": "Polygon",
                "coordinates": [
                    [
                        [
                            55.044906,
                            24.874807
                        ],
                        [
                            55.045159,
                            24.874753
                        ],
                        [
                            55.045659,
                            24.875177
                        ],
                        [
                            55.045539,
                            24.875325
                        ],
                        [
                            55.045511,
                            24.875558
                        ],
                        [
                            55.04524,
                            24.875909
                        ],
                        [
                            55.044418,
                            24.875422
                        ],
                        [
                            55.044906,
                            24.874807
                        ]
                    ]
                ]
            }
        },
        {
            "type": "Feature",
            "properties": {
                "observation_date": "2017-07-17",
                "source": null,
                "sensor_name": null,
                "type": "observation",
                "current_phase": null,
                "is_occluded": null,
                "is_site_boundary": null,
                "score": 1.0
            },
            "geometry": {
                "type": "MultiPolygon",
                "coordinates": [
                    [
                        [
                            [
                                55.044906,
                                24.874807
                            ],
                            [
                                55.045159,
                                24.874753
                            ],
                            [
                                55.045659,
                                24.875177
                            ],
                            [
                                55.045539,
                                24.875325
                            ],
                            [
                                55.045511,
                                24.875558
                            ],
                            [
                                55.04524,
                                24.875909
                            ],
                            [
                                55.044418,
                                24.875422
                            ],
                            [
                                55.044906,
                                24.874807
                            ]
                        ]
                    ]
                ]
            }
        },
        {
            "type": "Feature",
            "properties": {
                "observation_date": "2021-02-23",
                "source": null,
                "sensor_name": null,
                "type": "observation",
                "current_phase": null,
                "is_occluded": null,
                "is_site_boundary": null,
                "score": 1.0
            },
            "geometry": {
                "type": "MultiPolygon",
                "coordinates": [
                    [
                        [
                            [
                                55.044906,
                                24.874807
                            ],
                            [
                                55.045159,
                                24.874753
                            ],
                            [
                                55.045659,
                                24.875177
                            ],
                            [
                                55.045539,
                                24.875325
                            ],
                            [
                                55.045511,
                                24.875558
                            ],
                            [
                                55.04524,
                                24.875909
                            ],
                            [
                                55.044418,
                                24.875422
                            ],
                            [
                                55.044906,
                                24.874807
                            ]
                        ]
                    ]
                ]
            }
        }
    ]
}