{
    "type": "FeatureCollection",
    "features": [
        {
            "type": "Feature",
            "properties": {
                "type": "site",
                "region_id": "AE_R002",
                "site_id": "AE_R002_0045",
                "version": "2.0.0",
                "status": "positive_excluded",
                "mgrs": "40RCN",
                "score": 1.0,
                "start_date": "2013-10-16",
                "end_date": "2019-10-16",
                "model_content": "annotation",
                "originator": "te",
                "validated": "False",
                "misc_info": {
                    "commit_hash": "824fac44479e0c34c554c214480da6d4c14a319e"
                }
            },
            "geometry": {
                "type": "Polygon",
                "coordinates": [
                    [
                        [
                            55.37219,
                            25.094954
                        ],
                        [
                            55.372515,
                            25.094544
                        ],
                        [
                            55.372946,
                            25.094813
                        ],
                        [
                            55.373125,
                            25.094984
                        ],
                        [
                            55.373273,
                            25.094891
                        ],
                        [
                            55.37358,
                            25.095232
                        ],
                        [
                            55.372788,
                            25.095515
                        ],
                        [
                            55.37219,
                            25.094954
                        ]
                    ]
                ]
            }
        },
        {
            "type": "Feature",
            "properties": {
                "observation_date": "2013-10-16",
                "source": null,
                "sensor_name": null,
                "type": "observation",
                "current_phase": null,
                "is_occluded": null,
                "is_site_boundary": null,
                "score": 1.0
            },
            "geometry": {
                "type": "MultiPolygon",
                "coordinates": [
                    [
                        [
                            [
                                55.37219,
                                25.094954
                            ],
                            [
                                55.372515,
                                25.094544
                            ],
                            [
                                55.372946,
                                25.094813
                            ],
                            [
                                55.373125,
                                25.094984
                            ],
                            [
                                55.373273,
                                25.094891
                            ],
                            [
                                55.37358,
                                25.095232
                            ],
                            [
                                55.372788,
                                25.095515
                            ],
                            [
                                55.37219,
                                25.094954
                            ]
                        ]
                    ]
                ]
            }
        },
        {
            "type": "Feature",
            "properties": {
                "observation_date": "2019-10-16",
                "source": null,
                "sensor_name": null,
                "type": "observation",
                "current_phase": null,
                "is_occluded": null,
                "is_site_boundary": null,
                "score": 1.0
            },
            "geometry": {
                "type": "MultiPolygon",
                "coordinates": [
                    [
                        [
                            [
                                55.37219,
                                25.094954
                            ],
                            [
                                55.372515,
                                25.094544
                            ],
                            [
                                55.372946,
                                25.094813
                            ],
                            [
                                55.373125,
                                25.094984
                            ],
                            [
                                55.373273,
                                25.094891
                            ],
                            [
                                55.37358,
                                25.095232
                            ],
                            [
                                55.372788,
                                25.095515
                            ],
                            [
                                55.37219,
                                25.094954
                            ]
                        ]
                    ]
                ]
            }
        }
    ]
}