{
    "type": "FeatureCollection",
    "features": [
        {
            "type": "Feature",
            "properties": {
                "type": "site",
                "region_id": "AE_R002",
                "site_id": "AE_R002_0284",
                "version": "2.0.0",
                "status": "positive_pending",
                "mgrs": "40RCN",
                "score": 1.0,
                "start_date": "2014-01-05",
                "end_date": null,
                "model_content": "annotation",
                "originator": "te",
                "validated": "False",
                "misc_info": {
                    "commit_hash": "824fac44479e0c34c554c214480da6d4c14a319e"
                }
            },
            "geometry": {
                "type": "Polygon",
                "coordinates": [
                    [
                        [
                            55.275329,
                            25.011474
                        ],
                        [
                            55.283398,
                            25.019823
                        ],
                        [
                            55.285204,
                            25.018227
                        ],
                        [
                            55.280448,
                            25.014047
                        ],
                        [
                            55.282652,
                            25.011865
                        ],
                        [
                            55.283823,
                            25.013036
                        ],
                        [
                            55.284349,
                            25.013069
                        ],
                        [
                            55.287195,
                            25.010505
                        ],
                        [
                            55.285649,
                            25.009011
                        ],
                        [
                            55.287109,
                            25.007939
                        ],
                        [
                            55.283182,
                            25.003888
                        ],
                        [
                            55.275329,
                            25.011474
                        ]
                    ]
                ]
            }
        },
        {
            "type": "Feature",
            "properties": {
                "observation_date": "2014-01-05",
                "source": null,
                "sensor_name": null,
                "type": "observation",
                "current_phase": null,
                "is_occluded": null,
                "is_site_boundary": null,
                "score": 1.0
            },
            "geometry": {
                "type": "MultiPolygon",
                "coordinates": [
                    [
                        [
                            [
                                55.275329,
                                25.011474
                            ],
                            [
                                55.283398,
                                25.019823
                            ],
                            [
                                55.285204,
                                25.018227
                            ],
                            [
                                55.280448,
                                25.014047
                            ],
                            [
                                55.282652,
                                25.011865
                            ],
                            [
                                55.283823,
                                25.013036
                            ],
                            [
                                55.284349,
                                25.013069
                            ],
                            [
                                55.287195,
                                25.010505
                            ],
                            [
                                55.285649,
                                25.009011
                            ],
                            [
                                55.287109,
                                25.007939
                            ],
                            [
                                55.283182,
                                25.003888
                            ],
                            [
                                55.275329,
                                25.011474
                            ]
                        ]
                    ]
                ]
            }
        },
        {
            "type": "Feature",
            "properties": {
                "observation_date": null,
                "source": null,
                "sensor_name": null,
                "type": "observation",
                "current_phase": null,
                "is_occluded": null,
                "is_site_boundary": null,
                "score": 1.0
            },
            "geometry": {
                "type": "MultiPolygon",
                "coordinates": [
                    [
                        [
                            [
                                55.275329,
                                25.011474
                            ],
                            [
                                55.283398,
                                25.019823
                            ],
                            [
                                55.285204,
                                25.018227
                            ],
                            [
                                55.280448,
                                25.014047
                            ],
                            [
                                55.282652,
                                25.011865
                            ],
                            [
                                55.283823,
                                25.013036
                            ],
                            [
                                55.284349,
                                25.013069
                            ],
                            [
                                55.287195,
                                25.010505
                            ],
                            [
                                55.285649,
                                25.009011
                            ],
                            [
                                55.287109,
                                25.007939
                            ],
                            [
                                55.283182,
                                25.003888
                            ],
                            [
                                55.275329,
                                25.011474
                            ]
                        ]
                    ]
                ]
            }
        }
    ]
}