{
    "type": "FeatureCollection",
    "features": [
        {
            "type": "Feature",
            "properties": {
                "type": "site",
                "region_id": "AE_R002",
                "site_id": "AE_R002_0129",
                "version": "2.0.0",
                "status": "positive_annotated_static",
                "mgrs": "40RCN",
                "score": 1.0,
                "start_date": "2013-10-01",
                "end_date": "2018-04-08",
                "model_content": "annotation",
                "originator": "te",
                "validated": "True",
                "misc_info": {
                    "commit_hash": "dbdea3485a8eb34730f81ec01861c62e6358b0b5"
                }
            },
            "geometry": {
                "type": "Polygon",
                "coordinates": [
                    [
                        [
                            55.383572,
                            25.131442
                        ],
                        [
                            55.382245,
                            25.132044
                        ],
                        [
                            55.382649,
                            25.132886
                        ],
                        [
                            55.383998,
                            25.132175
                        ],
                        [
                            55.383572,
                            25.131442
                        ]
                    ]
                ]
            }
        },
        {
            "type": "Feature",
            "properties": {
                "observation_date": "2013-10-01",
                "source": "13OCT01072847-P1BS-014464576010_01_P005",
                "sensor_name": "WorldView",
                "type": "observation",
                "current_phase": "No Activity",
                "is_occluded": "False",
                "is_site_boundary": "True",
                "score": 1.0
            },
            "geometry": {
                "type": "MultiPolygon",
                "coordinates": [
                    [
                        [
                            [
                                55.382245,
                                25.132044
                            ],
                            [
                                55.383572,
                                25.131442
                            ],
                            [
                                55.383998,
                                25.132175
                            ],
                            [
                                55.382649,
                                25.132886
                            ],
                            [
                                55.382245,
                                25.132044
                            ]
                        ]
                    ]
                ]
            }
        },
        {
            "type": "Feature",
            "properties": {
                "observation_date": "2014-08-30",
                "source": "14AUG30065030-M1BS-014855435010_01_P003",
                "sensor_name": "WorldView",
                "type": "observation",
                "current_phase": "No Activity",
                "is_occluded": "False",
                "is_site_boundary": "True",
                "score": 1.0
            },
            "geometry": {
                "type": "MultiPolygon",
                "coordinates": [
                    [
                        [
                            [
                                55.382245,
                                25.132044
                            ],
                            [
                                55.383572,
                                25.131442
                            ],
                            [
                                55.383998,
                                25.132175
                            ],
                            [
                                55.382649,
                                25.132886
                            ],
                            [
                                55.382245,
                                25.132044
                            ]
                        ]
                    ]
                ]
            }
        },
        {
            "type": "Feature",
            "properties": {
                "observation_date": "2014-09-18",
                "source": "14SEP18065106-P1BS-014855403010_01_P003",
                "sensor_name": "WorldView",
                "type": "observation",
                "current_phase": "No Activity",
                "is_occluded": "False",
                "is_site_boundary": "True",
                "score": 1.0
            },
            "geometry": {
                "type": "MultiPolygon",
                "coordinates": [
                    [
                        [
                            [
                                55.382245,
                                25.132044
                            ],
                            [
                                55.383572,
                                25.131442
                            ],
                            [
                                55.383998,
                                25.132175
                            ],
                            [
                                55.382649,
                                25.132886
                            ],
                            [
                                55.382245,
                                25.132044
                            ]
                        ]
                    ]
                ]
            }
        },
        {
            "type": "Feature",
            "properties": {
                "observation_date": "2014-11-07",
                "source": "14NOV07071512-P1BS-500185007020_01_P002",
                "sensor_name": "WorldView",
                "type": "observation",
                "current_phase": "Site Preparation",
                "is_occluded": "False",
                "is_site_boundary": "True",
                "score": 1.0
            },
            "geometry": {
                "type": "MultiPolygon",
                "coordinates": [
                    [
                        [
                            [
                                55.382245,
                                25.132044
                            ],
                            [
                                55.383572,
                                25.131442
                            ],
                            [
                                55.383998,
                                25.132175
                            ],
                            [
                                55.382649,
                                25.132886
                            ],
                            [
                                55.382245,
                                25.132044
                            ]
                        ]
                    ]
                ]
            }
        },
        {
            "type": "Feature",
            "properties": {
                "observation_date": "2014-11-27",
                "source": "14NOV27074336-P1BS-500171678030_01_P025",
                "sensor_name": "WorldView",
                "type": "observation",
                "current_phase": "Site Preparation",
                "is_occluded": "False",
                "is_site_boundary": "True",
                "score": 1.0
            },
            "geometry": {
                "type": "MultiPolygon",
                "coordinates": [
                    [
                        [
                            [
                                55.382245,
                                25.132044
                            ],
                            [
                                55.383572,
                                25.131442
                            ],
                            [
                                55.383998,
                                25.132175
                            ],
                            [
                                55.382649,
                                25.132886
                            ],
                            [
                                55.382245,
                                25.132044
                            ]
                        ]
                    ]
                ]
            }
        },
        {
            "type": "Feature",
            "properties": {
                "observation_date": "2014-12-07",
                "source": "14DEC07070308-P1BS-500205167020_01_P002",
                "sensor_name": "WorldView",
                "type": "observation",
                "current_phase": "Site Preparation",
                "is_occluded": "False",
                "is_site_boundary": "True",
                "score": 1.0
            },
            "geometry": {
                "type": "MultiPolygon",
                "coordinates": [
                    [
                        [
                            [
                                55.382245,
                                25.132044
                            ],
                            [
                                55.383572,
                                25.131442
                            ],
                            [
                                55.383998,
                                25.132175
                            ],
                            [
                                55.382649,
                                25.132886
                            ],
                            [
                                55.382245,
                                25.132044
                            ]
                        ]
                    ]
                ]
            }
        },
        {
            "type": "Feature",
            "properties": {
                "observation_date": "2015-02-08",
                "source": "15FEB08073731-P1BS-500247201020_01_P002",
                "sensor_name": "WorldView",
                "type": "observation",
                "current_phase": "Site Preparation",
                "is_occluded": "False",
                "is_site_boundary": "True",
                "score": 1.0
            },
            "geometry": {
                "type": "MultiPolygon",
                "coordinates": [
                    [
                        [
                            [
                                55.382245,
                                25.132044
                            ],
                            [
                                55.383572,
                                25.131442
                            ],
                            [
                                55.383998,
                                25.132175
                            ],
                            [
                                55.382649,
                                25.132886
                            ],
                            [
                                55.382245,
                                25.132044
                            ]
                        ]
                    ]
                ]
            }
        },
        {
            "type": "Feature",
            "properties": {
                "observation_date": "2015-03-05",
                "source": "15MAR05075151-P1BS-500171678030_01_P015",
                "sensor_name": "WorldView",
                "type": "observation",
                "current_phase": "Active Construction",
                "is_occluded": "False",
                "is_site_boundary": "True",
                "score": 1.0
            },
            "geometry": {
                "type": "MultiPolygon",
                "coordinates": [
                    [
                        [
                            [
                                55.382245,
                                25.132044
                            ],
                            [
                                55.383572,
                                25.131442
                            ],
                            [
                                55.383998,
                                25.132175
                            ],
                            [
                                55.382649,
                                25.132886
                            ],
                            [
                                55.382245,
                                25.132044
                            ]
                        ]
                    ]
                ]
            }
        },
        {
            "type": "Feature",
            "properties": {
                "observation_date": "2016-06-07",
                "source": "16JUN07064619-M1BS-014855234010_01_P004",
                "sensor_name": "WorldView",
                "type": "observation",
                "current_phase": "Active Construction",
                "is_occluded": "False",
                "is_site_boundary": "True",
                "score": 1.0
            },
            "geometry": {
                "type": "MultiPolygon",
                "coordinates": [
                    [
                        [
                            [
                                55.382245,
                                25.132044
                            ],
                            [
                                55.383572,
                                25.131442
                            ],
                            [
                                55.383998,
                                25.132175
                            ],
                            [
                                55.382649,
                                25.132886
                            ],
                            [
                                55.382245,
                                25.132044
                            ]
                        ]
                    ]
                ]
            }
        },
        {
            "type": "Feature",
            "properties": {
                "observation_date": "2016-08-07",
                "source": "16AUG07072018-M1BS-014855224010_01_P009",
                "sensor_name": "WorldView",
                "type": "observation",
                "current_phase": "Active Construction",
                "is_occluded": "False",
                "is_site_boundary": "True",
                "score": 1.0
            },
            "geometry": {
                "type": "MultiPolygon",
                "coordinates": [
                    [
                        [
                            [
                                55.382245,
                                25.132044
                            ],
                            [
                                55.383572,
                                25.131442
                            ],
                            [
                                55.383998,
                                25.132175
                            ],
                            [
                                55.382649,
                                25.132886
                            ],
                            [
                                55.382245,
                                25.132044
                            ]
                        ]
                    ]
                ]
            }
        },
        {
            "type": "Feature",
            "properties": {
                "observation_date": "2017-07-29",
                "source": "17JUL29100422-P1BS-501481408010_01_P001",
                "sensor_name": "WorldView",
                "type": "observation",
                "current_phase": "Post Construction",
                "is_occluded": "False",
                "is_site_boundary": "True",
                "score": 1.0
            },
            "geometry": {
                "type": "MultiPolygon",
                "coordinates": [
                    [
                        [
                            [
                                55.382245,
                                25.132044
                            ],
                            [
                                55.383572,
                                25.131442
                            ],
                            [
                                55.383998,
                                25.132175
                            ],
                            [
                                55.382649,
                                25.132886
                            ],
                            [
                                55.382245,
                                25.132044
                            ]
                        ]
                    ]
                ]
            }
        },
        {
            "type": "Feature",
            "properties": {
                "observation_date": "2017-10-10",
                "source": "17OCT10095421-P1BS-500836369050_01_P001",
                "sensor_name": "WorldView",
                "type": "observation",
                "current_phase": "Post Construction",
                "is_occluded": "False",
                "is_site_boundary": "True",
                "score": 1.0
            },
            "geometry": {
                "type": "MultiPolygon",
                "coordinates": [
                    [
                        [
                            [
                                55.382245,
                                25.132044
                            ],
                            [
                                55.383572,
                                25.131442
                            ],
                            [
                                55.383998,
                                25.132175
                            ],
                            [
                                55.382649,
                                25.132886
                            ],
                            [
                                55.382245,
                                25.132044
                            ]
                        ]
                    ]
                ]
            }
        },
        {
            "type": "Feature",
            "properties": {
                "observation_date": "2018-04-08",
                "source": "18APR08071427-P1BS-014858888010_01_P003",
                "sensor_name": "WorldView",
                "type": "observation",
                "current_phase": "Post Construction",
                "is_occluded": "False",
                "is_site_boundary": "True",
                "score": 1.0
            },
            "geometry": {
                "type": "MultiPolygon",
                "coordinates": [
                    [
                        [
                            [
                                55.382245,
                                25.132044
                            ],
                            [
                                55.383572,
                                25.131442
                            ],
                            [
                                55.383998,
                                25.132175
                            ],
                            [
                                55.382649,
                                25.132886
                            ],
                            [
                                55.382245,
                                25.132044
                            ]
                        ]
                    ]
                ]
            }
        }
    ]
}