{
    "type": "FeatureCollection",
    "features": [
        {
            "type": "Feature",
            "properties": {
                "type": "site",
                "region_id": "AE_R002",
                "site_id": "AE_R002_0126",
                "version": "2.0.0",
                "status": "positive_annotated_static",
                "mgrs": "40RCN",
                "score": 1.0,
                "start_date": "2013-12-22",
                "end_date": "2018-04-27",
                "model_content": "annotation",
                "originator": "te",
                "validated": "True",
                "misc_info": {
                    "commit_hash": "dbdea3485a8eb34730f81ec01861c62e6358b0b5"
                }
            },
            "geometry": {
                "type": "Polygon",
                "coordinates": [
                    [
                        [
                            55.358461,
                            25.123675
                        ],
                        [
                            55.356686,
                            25.12584
                        ],
                        [
                            55.358071,
                            25.126873
                        ],
                        [
                            55.359928,
                            25.124661
                        ],
                        [
                            55.358461,
                            25.123675
                        ]
                    ]
                ]
            }
        },
        {
            "type": "Feature",
            "properties": {
                "observation_date": "2013-12-22",
                "source": "13DEC22071121-P1BS-014464567010_01_P002",
                "sensor_name": "WorldView",
                "type": "observation",
                "current_phase": "No Activity",
                "is_occluded": "False",
                "is_site_boundary": "True",
                "score": 1.0
            },
            "geometry": {
                "type": "MultiPolygon",
                "coordinates": [
                    [
                        [
                            [
                                55.356686,
                                25.12584
                            ],
                            [
                                55.358461,
                                25.123675
                            ],
                            [
                                55.359928,
                                25.124661
                            ],
                            [
                                55.358071,
                                25.126873
                            ],
                            [
                                55.356686,
                                25.12584
                            ]
                        ]
                    ]
                ]
            }
        },
        {
            "type": "Feature",
            "properties": {
                "observation_date": "2014-04-22",
                "source": "14APR22064648-P1BS-500115566020_01_P002",
                "sensor_name": "WorldView",
                "type": "observation",
                "current_phase": "No Activity",
                "is_occluded": "False",
                "is_site_boundary": "True",
                "score": 1.0
            },
            "geometry": {
                "type": "MultiPolygon",
                "coordinates": [
                    [
                        [
                            [
                                55.356686,
                                25.12584
                            ],
                            [
                                55.358461,
                                25.123675
                            ],
                            [
                                55.359928,
                                25.124661
                            ],
                            [
                                55.358071,
                                25.126873
                            ],
                            [
                                55.356686,
                                25.12584
                            ]
                        ]
                    ]
                ]
            }
        },
        {
            "type": "Feature",
            "properties": {
                "observation_date": "2014-07-11",
                "source": "14JUL11070447-P1BS-500136902020_01_P002",
                "sensor_name": "WorldView",
                "type": "observation",
                "current_phase": "No Activity",
                "is_occluded": "False",
                "is_site_boundary": "True",
                "score": 1.0
            },
            "geometry": {
                "type": "MultiPolygon",
                "coordinates": [
                    [
                        [
                            [
                                55.356686,
                                25.12584
                            ],
                            [
                                55.358461,
                                25.123675
                            ],
                            [
                                55.359928,
                                25.124661
                            ],
                            [
                                55.358071,
                                25.126873
                            ],
                            [
                                55.356686,
                                25.12584
                            ]
                        ]
                    ]
                ]
            }
        },
        {
            "type": "Feature",
            "properties": {
                "observation_date": "2014-08-30",
                "source": "14AUG30065106-M1BS-501122743060_01_P002",
                "sensor_name": "WorldView",
                "type": "observation",
                "current_phase": "No Activity",
                "is_occluded": "False",
                "is_site_boundary": "True",
                "score": 1.0
            },
            "geometry": {
                "type": "MultiPolygon",
                "coordinates": [
                    [
                        [
                            [
                                55.356686,
                                25.12584
                            ],
                            [
                                55.358461,
                                25.123675
                            ],
                            [
                                55.359928,
                                25.124661
                            ],
                            [
                                55.358071,
                                25.126873
                            ],
                            [
                                55.356686,
                                25.12584
                            ]
                        ]
                    ]
                ]
            }
        },
        {
            "type": "Feature",
            "properties": {
                "observation_date": "2014-09-18",
                "source": "14SEP18065045-M1BS-014855434010_01_P003",
                "sensor_name": "WorldView",
                "type": "observation",
                "current_phase": "No Activity",
                "is_occluded": "False",
                "is_site_boundary": "True",
                "score": 1.0
            },
            "geometry": {
                "type": "MultiPolygon",
                "coordinates": [
                    [
                        [
                            [
                                55.356686,
                                25.12584
                            ],
                            [
                                55.358461,
                                25.123675
                            ],
                            [
                                55.359928,
                                25.124661
                            ],
                            [
                                55.358071,
                                25.126873
                            ],
                            [
                                55.356686,
                                25.12584
                            ]
                        ]
                    ]
                ]
            }
        },
        {
            "type": "Feature",
            "properties": {
                "observation_date": "2014-11-07",
                "source": "14NOV07071512-P1BS-500185007020_01_P002",
                "sensor_name": "WorldView",
                "type": "observation",
                "current_phase": "No Activity",
                "is_occluded": "False",
                "is_site_boundary": "True",
                "score": 1.0
            },
            "geometry": {
                "type": "MultiPolygon",
                "coordinates": [
                    [
                        [
                            [
                                55.356686,
                                25.12584
                            ],
                            [
                                55.358461,
                                25.123675
                            ],
                            [
                                55.359928,
                                25.124661
                            ],
                            [
                                55.358071,
                                25.126873
                            ],
                            [
                                55.356686,
                                25.12584
                            ]
                        ]
                    ]
                ]
            }
        },
        {
            "type": "Feature",
            "properties": {
                "observation_date": "2014-11-27",
                "source": "14NOV27074336-P1BS-500171678030_01_P025",
                "sensor_name": "WorldView",
                "type": "observation",
                "current_phase": "No Activity",
                "is_occluded": "False",
                "is_site_boundary": "True",
                "score": 1.0
            },
            "geometry": {
                "type": "MultiPolygon",
                "coordinates": [
                    [
                        [
                            [
                                55.356686,
                                25.12584
                            ],
                            [
                                55.358461,
                                25.123675
                            ],
                            [
                                55.359928,
                                25.124661
                            ],
                            [
                                55.358071,
                                25.126873
                            ],
                            [
                                55.356686,
                                25.12584
                            ]
                        ]
                    ]
                ]
            }
        },
        {
            "type": "Feature",
            "properties": {
                "observation_date": "2015-02-08",
                "source": "15FEB08073731-P1BS-500242474020_01_P002",
                "sensor_name": "WorldView",
                "type": "observation",
                "current_phase": "No Activity",
                "is_occluded": "False",
                "is_site_boundary": "True",
                "score": 1.0
            },
            "geometry": {
                "type": "MultiPolygon",
                "coordinates": [
                    [
                        [
                            [
                                55.356686,
                                25.12584
                            ],
                            [
                                55.358461,
                                25.123675
                            ],
                            [
                                55.359928,
                                25.124661
                            ],
                            [
                                55.358071,
                                25.126873
                            ],
                            [
                                55.356686,
                                25.12584
                            ]
                        ]
                    ]
                ]
            }
        },
        {
            "type": "Feature",
            "properties": {
                "observation_date": "2016-06-07",
                "source": "16JUN07064619-M1BS-014855234010_01_P004",
                "sensor_name": "WorldView",
                "type": "observation",
                "current_phase": "Active Construction",
                "is_occluded": "False",
                "is_site_boundary": "True",
                "score": 1.0
            },
            "geometry": {
                "type": "MultiPolygon",
                "coordinates": [
                    [
                        [
                            [
                                55.356686,
                                25.12584
                            ],
                            [
                                55.358461,
                                25.123675
                            ],
                            [
                                55.359928,
                                25.124661
                            ],
                            [
                                55.358071,
                                25.126873
                            ],
                            [
                                55.356686,
                                25.12584
                            ]
                        ]
                    ]
                ]
            }
        },
        {
            "type": "Feature",
            "properties": {
                "observation_date": "2016-08-07",
                "source": "16AUG07072018-M1BS-014855224010_01_P009",
                "sensor_name": "WorldView",
                "type": "observation",
                "current_phase": "Active Construction",
                "is_occluded": "False",
                "is_site_boundary": "True",
                "score": 1.0
            },
            "geometry": {
                "type": "MultiPolygon",
                "coordinates": [
                    [
                        [
                            [
                                55.356686,
                                25.12584
                            ],
                            [
                                55.358461,
                                25.123675
                            ],
                            [
                                55.359928,
                                25.124661
                            ],
                            [
                                55.358071,
                                25.126873
                            ],
                            [
                                55.356686,
                                25.12584
                            ]
                        ]
                    ]
                ]
            }
        },
        {
            "type": "Feature",
            "properties": {
                "observation_date": "2017-07-29",
                "source": "17JUL29100422-P1BS-501481408010_01_P001",
                "sensor_name": "WorldView",
                "type": "observation",
                "current_phase": "Post Construction",
                "is_occluded": "False",
                "is_site_boundary": "True",
                "score": 1.0
            },
            "geometry": {
                "type": "MultiPolygon",
                "coordinates": [
                    [
                        [
                            [
                                55.356686,
                                25.12584
                            ],
                            [
                                55.358461,
                                25.123675
                            ],
                            [
                                55.359928,
                                25.124661
                            ],
                            [
                                55.358071,
                                25.126873
                            ],
                            [
                                55.356686,
                                25.12584
                            ]
                        ]
                    ]
                ]
            }
        },
        {
            "type": "Feature",
            "properties": {
                "observation_date": "2017-10-10",
                "source": "17OCT10095421-P1BS-500836369050_01_P001",
                "sensor_name": "WorldView",
                "type": "observation",
                "current_phase": "Post Construction",
                "is_occluded": "False",
                "is_site_boundary": "True",
                "score": 1.0
            },
            "geometry": {
                "type": "MultiPolygon",
                "coordinates": [
                    [
                        [
                            [
                                55.356686,
                                25.12584
                            ],
                            [
                                55.358461,
                                25.123675
                            ],
                            [
                                55.359928,
                                25.124661
                            ],
                            [
                                55.358071,
                                25.126873
                            ],
                            [
                                55.356686,
                                25.12584
                            ]
                        ]
                    ]
                ]
            }
        },
        {
            "type": "Feature",
            "properties": {
                "observation_date": "2018-04-08",
                "source": "18APR08071427-P1BS-014858888010_01_P003",
                "sensor_name": "WorldView",
                "type": "observation",
                "current_phase": "Post Construction",
                "is_occluded": "False",
                "is_site_boundary": "True",
                "score": 1.0
            },
            "geometry": {
                "type": "MultiPolygon",
                "coordinates": [
                    [
                        [
                            [
                                55.356686,
                                25.12584
                            ],
                            [
                                55.358461,
                                25.123675
                            ],
                            [
                                55.359928,
                                25.124661
                            ],
                            [
                                55.358071,
                                25.126873
                            ],
                            [
                                55.356686,
                                25.12584
                            ]
                        ]
                    ]
                ]
            }
        },
        {
            "type": "Feature",
            "properties": {
                "observation_date": "2018-04-27",
                "source": "18APR27071606-M1BS-502141050050_01_P002",
                "sensor_name": "WorldView",
                "type": "observation",
                "current_phase": "Post Construction",
                "is_occluded": "False",
                "is_site_boundary": "True",
                "score": 1.0
            },
            "geometry": {
                "type": "MultiPolygon",
                "coordinates": [
                    [
                        [
                            [
                                55.356686,
                                25.12584
                            ],
                            [
                                55.358461,
                                25.123675
                            ],
                            [
                                55.359928,
                                25.124661
                            ],
                            [
                                55.358071,
                                25.126873
                            ],
                            [
                                55.356686,
                                25.12584
                            ]
                        ]
                    ]
                ]
            }
        }
    ]
}