{
    "type": "FeatureCollection",
    "features": [
        {
            "type": "Feature",
            "properties": {
                "type": "site",
                "region_id": "AE_R002",
                "site_id": "AE_R002_0289",
                "version": "2.0.0",
                "status": "positive_pending",
                "mgrs": "40RCN",
                "score": 1.0,
                "start_date": "2013-07-23",
                "end_date": null,
                "model_content": "annotation",
                "originator": "te",
                "validated": "False",
                "misc_info": {
                    "commit_hash": "824fac44479e0c34c554c214480da6d4c14a319e"
                }
            },
            "geometry": {
                "type": "Polygon",
                "coordinates": [
                    [
                        [
                            55.244697,
                            25.0209
                        ],
                        [
                            55.24387,
                            25.020258
                        ],
                        [
                            55.242265,
                            25.021899
                        ],
                        [
                            55.241894,
                            25.023731
                        ],
                        [
                            55.242387,
                            25.024707
                        ],
                        [
                            55.2452,
                            25.026571
                        ],
                        [
                            55.245517,
                            25.026282
                        ],
                        [
                            55.245181,
                            25.025459
                        ],
                        [
                            55.244851,
                            25.025118
                        ],
                        [
                            55.243816,
                            25.024487
                        ],
                        [
                            55.243299,
                            25.023916
                        ],
                        [
                            55.243095,
                            25.023442
                        ],
                        [
                            55.243073,
                            25.022517
                        ],
                        [
                            55.243338,
                            25.021955
                        ],
                        [
                            55.244188,
                            25.02139
                        ],
                        [
                            55.244697,
                            25.0209
                        ]
                    ]
                ]
            }
        },
        {
            "type": "Feature",
            "properties": {
                "observation_date": "2013-07-23",
                "source": null,
                "sensor_name": null,
                "type": "observation",
                "current_phase": null,
                "is_occluded": null,
                "is_site_boundary": null,
                "score": 1.0
            },
            "geometry": {
                "type": "MultiPolygon",
                "coordinates": [
                    [
                        [
                            [
                                55.244697,
                                25.0209
                            ],
                            [
                                55.24387,
                                25.020258
                            ],
                            [
                                55.242265,
                                25.021899
                            ],
                            [
                                55.241894,
                                25.023731
                            ],
                            [
                                55.242387,
                                25.024707
                            ],
                            [
                                55.2452,
                                25.026571
                            ],
                            [
                                55.245517,
                                25.026282
                            ],
                            [
                                55.245181,
                                25.025459
                            ],
                            [
                                55.244851,
                                25.025118
                            ],
                            [
                                55.243816,
                                25.024487
                            ],
                            [
                                55.243299,
                                25.023916
                            ],
                            [
                                55.243095,
                                25.023442
                            ],
                            [
                                55.243073,
                                25.022517
                            ],
                            [
                                55.243338,
                                25.021955
                            ],
                            [
                                55.244188,
                                25.02139
                            ],
                            [
                                55.244697,
                                25.0209
                            ]
                        ]
                    ]
                ]
            }
        },
        {
            "type": "Feature",
            "properties": {
                "observation_date": null,
                "source": null,
                "sensor_name": null,
                "type": "observation",
                "current_phase": null,
                "is_occluded": null,
                "is_site_boundary": null,
                "score": 1.0
            },
            "geometry": {
                "type": "MultiPolygon",
                "coordinates": [
                    [
                        [
                            [
                                55.244697,
                                25.0209
                            ],
                            [
                                55.24387,
                                25.020258
                            ],
                            [
                                55.242265,
                                25.021899
                            ],
                            [
                                55.241894,
                                25.023731
                            ],
                            [
                                55.242387,
                                25.024707
                            ],
                            [
                                55.2452,
                                25.026571
                            ],
                            [
                                55.245517,
                                25.026282
                            ],
                            [
                                55.245181,
                                25.025459
                            ],
                            [
                                55.244851,
                                25.025118
                            ],
                            [
                                55.243816,
                                25.024487
                            ],
                            [
                                55.243299,
                                25.023916
                            ],
                            [
                                55.243095,
                                25.023442
                            ],
                            [
                                55.243073,
                                25.022517
                            ],
                            [
                                55.243338,
                                25.021955
                            ],
                            [
                                55.244188,
                                25.02139
                            ],
                            [
                                55.244697,
                                25.0209
                            ]
                        ]
                    ]
                ]
            }
        }
    ]
}