{
    "type": "FeatureCollection",
    "features": [
        {
            "type": "Feature",
            "properties": {
                "type": "site",
                "region_id": "AE_R002",
                "site_id": "AE_R002_0147",
                "version": "2.0.0",
                "status": "positive_pending",
                "mgrs": "40RCN",
                "score": 1.0,
                "start_date": "2013-10-01",
                "end_date": "2017-07-23",
                "model_content": "annotation",
                "originator": "te",
                "validated": "False",
                "misc_info": {
                    "commit_hash": "824fac44479e0c34c554c214480da6d4c14a319e"
                }
            },
            "geometry": {
                "type": "Polygon",
                "coordinates": [
                    [
                        [
                            55.418012,
                            25.122613
                        ],
                        [
                            55.419608,
                            25.120977
                        ],
                        [
                            55.421589,
                            25.122317
                        ],
                        [
                            55.421995,
                            25.123995
                        ],
                        [
                            55.421622,
                            25.124121
                        ],
                        [
                            55.419712,
                            25.124466
                        ],
                        [
                            55.41932,
                            25.124252
                        ],
                        [
                            55.419055,
                            25.123642
                        ],
                        [
                            55.418397,
                            25.122951
                        ],
                        [
                            55.418012,
                            25.122613
                        ]
                    ]
                ]
            }
        },
        {
            "type": "Feature",
            "properties": {
                "observation_date": "2013-10-01",
                "source": null,
                "sensor_name": null,
                "type": "observation",
                "current_phase": null,
                "is_occluded": null,
                "is_site_boundary": null,
                "score": 1.0
            },
            "geometry": {
                "type": "MultiPolygon",
                "coordinates": [
                    [
                        [
                            [
                                55.418012,
                                25.122613
                            ],
                            [
                                55.419608,
                                25.120977
                            ],
                            [
                                55.421589,
                                25.122317
                            ],
                            [
                                55.421995,
                                25.123995
                            ],
                            [
                                55.421622,
                                25.124121
                            ],
                            [
                                55.419712,
                                25.124466
                            ],
                            [
                                55.41932,
                                25.124252
                            ],
                            [
                                55.419055,
                                25.123642
                            ],
                            [
                                55.418397,
                                25.122951
                            ],
                            [
                                55.418012,
                                25.122613
                            ]
                        ]
                    ]
                ]
            }
        },
        {
            "type": "Feature",
            "properties": {
                "observation_date": "2017-07-23",
                "source": null,
                "sensor_name": null,
                "type": "observation",
                "current_phase": null,
                "is_occluded": null,
                "is_site_boundary": null,
                "score": 1.0
            },
            "geometry": {
                "type": "MultiPolygon",
                "coordinates": [
                    [
                        [
                            [
                                55.418012,
                                25.122613
                            ],
                            [
                                55.419608,
                                25.120977
                            ],
                            [
                                55.421589,
                                25.122317
                            ],
                            [
                                55.421995,
                                25.123995
                            ],
                            [
                                55.421622,
                                25.124121
                            ],
                            [
                                55.419712,
                                25.124466
                            ],
                            [
                                55.41932,
                                25.124252
                            ],
                            [
                                55.419055,
                                25.123642
                            ],
                            [
                                55.418397,
                                25.122951
                            ],
                            [
                                55.418012,
                                25.122613
                            ]
                        ]
                    ]
                ]
            }
        }
    ]
}