{
    "type": "FeatureCollection",
    "features": [
        {
            "type": "Feature",
            "properties": {
                "type": "site",
                "region_id": "AE_R001",
                "site_id": "AE_R001_0449",
                "version": "2.0.0",
                "status": "positive_pending",
                "mgrs": "40RCN",
                "score": 1.0,
                "start_date": "2016-10-07",
                "end_date": "2019-03-19",
                "model_content": "annotation",
                "originator": "te",
                "validated": "True",
                "misc_info": {
                    "commit_hash": "8e2cc701facd37559ed12647d70a5e5b3622c6ca"
                }
            },
            "geometry": {
                "type": "Polygon",
                "coordinates": [
                    [
                        [
                            55.115306,
                            25.019379
                        ],
                        [
                            55.118761,
                            25.019113
                        ],
                        [
                            55.118316,
                            25.018235
                        ],
                        [
                            55.121085,
                            25.018033
                        ],
                        [
                            55.121187,
                            25.019332
                        ],
                        [
                            55.11907,
                            25.019424
                        ],
                        [
                            55.119169,
                            25.020113
                        ],
                        [
                            55.115386,
                            25.020406
                        ],
                        [
                            55.115306,
                            25.019379
                        ]
                    ]
                ]
            }
        },
        {
            "type": "Feature",
            "properties": {
                "observation_date": "2016-10-07",
                "source": null,
                "sensor_name": null,
                "type": "observation",
                "current_phase": null,
                "is_occluded": null,
                "is_site_boundary": null,
                "score": 1.0
            },
            "geometry": {
                "type": "MultiPolygon",
                "coordinates": [
                    [
                        [
                            [
                                55.115306,
                                25.019379
                            ],
                            [
                                55.118761,
                                25.019113
                            ],
                            [
                                55.118316,
                                25.018235
                            ],
                            [
                                55.121085,
                                25.018033
                            ],
                            [
                                55.121187,
                                25.019332
                            ],
                            [
                                55.11907,
                                25.019424
                            ],
                            [
                                55.119169,
                                25.020113
                            ],
                            [
                                55.115386,
                                25.020406
                            ],
                            [
                                55.115306,
                                25.019379
                            ]
                        ]
                    ]
                ]
            }
        },
        {
            "type": "Feature",
            "properties": {
                "observation_date": "2019-03-19",
                "source": null,
                "sensor_name": null,
                "type": "observation",
                "current_phase": null,
                "is_occluded": null,
                "is_site_boundary": null,
                "score": 1.0
            },
            "geometry": {
                "type": "MultiPolygon",
                "coordinates": [
                    [
                        [
                            [
                                55.115306,
                                25.019379
                            ],
                            [
                                55.118761,
                                25.019113
                            ],
                            [
                                55.118316,
                                25.018235
                            ],
                            [
                                55.121085,
                                25.018033
                            ],
                            [
                                55.121187,
                                25.019332
                            ],
                            [
                                55.11907,
                                25.019424
                            ],
                            [
                                55.119169,
                                25.020113
                            ],
                            [
                                55.115386,
                                25.020406
                            ],
                            [
                                55.115306,
                                25.019379
                            ]
                        ]
                    ]
                ]
            }
        }
    ]
}