{
    "type": "FeatureCollection",
    "features": [
        {
            "type": "Feature",
            "properties": {
                "type": "site",
                "region_id": "AE_R001",
                "site_id": "AE_R001_0510",
                "version": "2.0.0",
                "status": "positive_pending",
                "mgrs": "40RBN",
                "score": 1.0,
                "start_date": "2017-08-18",
                "end_date": "2021-09-13",
                "model_content": "annotation",
                "originator": "te",
                "validated": "True",
                "misc_info": {
                    "commit_hash": "8e2cc701facd37559ed12647d70a5e5b3622c6ca"
                }
            },
            "geometry": {
                "type": "Polygon",
                "coordinates": [
                    [
                        [
                            54.971785,
                            24.910887
                        ],
                        [
                            54.972176,
                            24.91094
                        ],
                        [
                            54.973253,
                            24.910399
                        ],
                        [
                            54.97389,
                            24.909886
                        ],
                        [
                            54.974198,
                            24.910177
                        ],
                        [
                            54.974434,
                            24.909874
                        ],
                        [
                            54.974122,
                            24.90963
                        ],
                        [
                            54.974382,
                            24.909305
                        ],
                        [
                            54.974431,
                            24.909204
                        ],
                        [
                            54.974352,
                            24.909184
                        ],
                        [
                            54.973729,
                            24.908906
                        ],
                        [
                            54.972943,
                            24.909682
                        ],
                        [
                            54.972001,
                            24.910212
                        ],
                        [
                            54.971156,
                            24.910401
                        ],
                        [
                            54.971317,
                            24.910971
                        ],
                        [
                            54.971785,
                            24.910887
                        ]
                    ]
                ]
            }
        },
        {
            "type": "Feature",
            "properties": {
                "observation_date": "2017-08-18",
                "source": null,
                "sensor_name": null,
                "type": "observation",
                "current_phase": null,
                "is_occluded": null,
                "is_site_boundary": null,
                "score": 1.0
            },
            "geometry": {
                "type": "MultiPolygon",
                "coordinates": [
                    [
                        [
                            [
                                54.971785,
                                24.910887
                            ],
                            [
                                54.972176,
                                24.91094
                            ],
                            [
                                54.973253,
                                24.910399
                            ],
                            [
                                54.97389,
                                24.909886
                            ],
                            [
                                54.974198,
                                24.910177
                            ],
                            [
                                54.974434,
                                24.909874
                            ],
                            [
                                54.974122,
                                24.90963
                            ],
                            [
                                54.974382,
                                24.909305
                            ],
                            [
                                54.974431,
                                24.909204
                            ],
                            [
                                54.974352,
                                24.909184
                            ],
                            [
                                54.973729,
                                24.908906
                            ],
                            [
                                54.972943,
                                24.909682
                            ],
                            [
                                54.972001,
                                24.910212
                            ],
                            [
                                54.971156,
                                24.910401
                            ],
                            [
                                54.971317,
                                24.910971
                            ],
                            [
                                54.971785,
                                24.910887
                            ]
                        ]
                    ]
                ]
            }
        },
        {
            "type": "Feature",
            "properties": {
                "observation_date": "2021-09-13",
                "source": null,
                "sensor_name": null,
                "type": "observation",
                "current_phase": null,
                "is_occluded": null,
                "is_site_boundary": null,
                "score": 1.0
            },
            "geometry": {
                "type": "MultiPolygon",
                "coordinates": [
                    [
                        [
                            [
                                54.971785,
                                24.910887
                            ],
                            [
                                54.972176,
                                24.91094
                            ],
                            [
                                54.973253,
                                24.910399
                            ],
                            [
                                54.97389,
                                24.909886
                            ],
                            [
                                54.974198,
                                24.910177
                            ],
                            [
                                54.974434,
                                24.909874
                            ],
                            [
                                54.974122,
                                24.90963
                            ],
                            [
                                54.974382,
                                24.909305
                            ],
                            [
                                54.974431,
                                24.909204
                            ],
                            [
                                54.974352,
                                24.909184
                            ],
                            [
                                54.973729,
                                24.908906
                            ],
                            [
                                54.972943,
                                24.909682
                            ],
                            [
                                54.972001,
                                24.910212
                            ],
                            [
                                54.971156,
                                24.910401
                            ],
                            [
                                54.971317,
                                24.910971
                            ],
                            [
                                54.971785,
                                24.910887
                            ]
                        ]
                    ]
                ]
            }
        }
    ]
}