{
    "type": "FeatureCollection",
    "features": [
        {
            "type": "Feature",
            "properties": {
                "type": "site",
                "region_id": "AE_R002",
                "site_id": "AE_R002_0135",
                "version": "2.0.0",
                "status": "positive_annotated_static",
                "mgrs": "40RCN",
                "score": 1.0,
                "start_date": "2016-06-07",
                "end_date": "2018-09-11",
                "model_content": "annotation",
                "originator": "te",
                "validated": "True",
                "misc_info": {
                    "commit_hash": "dbdea3485a8eb34730f81ec01861c62e6358b0b5"
                }
            },
            "geometry": {
                "type": "Polygon",
                "coordinates": [
                    [
                        [
                            55.392806,
                            25.127813
                        ],
                        [
                            55.391963,
                            25.128405
                        ],
                        [
                            55.392631,
                            25.129237
                        ],
                        [
                            55.393588,
                            25.128625
                        ],
                        [
                            55.392806,
                            25.127813
                        ]
                    ]
                ]
            }
        },
        {
            "type": "Feature",
            "properties": {
                "observation_date": "2016-06-07",
                "source": "16JUN07064618-M1BS-014855234010_01_P003",
                "sensor_name": "WorldView",
                "type": "observation",
                "current_phase": "No Activity",
                "is_occluded": "False",
                "is_site_boundary": "True",
                "score": 1.0
            },
            "geometry": {
                "type": "MultiPolygon",
                "coordinates": [
                    [
                        [
                            [
                                55.391963,
                                25.128405
                            ],
                            [
                                55.392806,
                                25.127813
                            ],
                            [
                                55.393588,
                                25.128625
                            ],
                            [
                                55.392631,
                                25.129237
                            ],
                            [
                                55.391963,
                                25.128405
                            ]
                        ]
                    ]
                ]
            }
        },
        {
            "type": "Feature",
            "properties": {
                "observation_date": "2016-08-07",
                "source": "16AUG07072018-P1BS-014855224010_01_P009",
                "sensor_name": "WorldView",
                "type": "observation",
                "current_phase": "No Activity",
                "is_occluded": "False",
                "is_site_boundary": "True",
                "score": 1.0
            },
            "geometry": {
                "type": "MultiPolygon",
                "coordinates": [
                    [
                        [
                            [
                                55.391963,
                                25.128405
                            ],
                            [
                                55.392806,
                                25.127813
                            ],
                            [
                                55.393588,
                                25.128625
                            ],
                            [
                                55.392631,
                                25.129237
                            ],
                            [
                                55.391963,
                                25.128405
                            ]
                        ]
                    ]
                ]
            }
        },
        {
            "type": "Feature",
            "properties": {
                "observation_date": "2017-07-29",
                "source": "17JUL29100422-P1BS-501481408010_01_P001",
                "sensor_name": "WorldView",
                "type": "observation",
                "current_phase": "Active Construction",
                "is_occluded": "False",
                "is_site_boundary": "True",
                "score": 1.0
            },
            "geometry": {
                "type": "MultiPolygon",
                "coordinates": [
                    [
                        [
                            [
                                55.391963,
                                25.128405
                            ],
                            [
                                55.392806,
                                25.127813
                            ],
                            [
                                55.393588,
                                25.128625
                            ],
                            [
                                55.392631,
                                25.129237
                            ],
                            [
                                55.391963,
                                25.128405
                            ]
                        ]
                    ]
                ]
            }
        },
        {
            "type": "Feature",
            "properties": {
                "observation_date": "2017-10-10",
                "source": "17OCT10095421-P1BS-500836369050_01_P001",
                "sensor_name": "WorldView",
                "type": "observation",
                "current_phase": "Active Construction",
                "is_occluded": "False",
                "is_site_boundary": "True",
                "score": 1.0
            },
            "geometry": {
                "type": "MultiPolygon",
                "coordinates": [
                    [
                        [
                            [
                                55.391963,
                                25.128405
                            ],
                            [
                                55.392806,
                                25.127813
                            ],
                            [
                                55.393588,
                                25.128625
                            ],
                            [
                                55.392631,
                                25.129237
                            ],
                            [
                                55.391963,
                                25.128405
                            ]
                        ]
                    ]
                ]
            }
        },
        {
            "type": "Feature",
            "properties": {
                "observation_date": "2018-04-08",
                "source": "18APR08071427-M1BS-014858888010_01_P003",
                "sensor_name": "WorldView",
                "type": "observation",
                "current_phase": "Active Construction",
                "is_occluded": "False",
                "is_site_boundary": "True",
                "score": 1.0
            },
            "geometry": {
                "type": "MultiPolygon",
                "coordinates": [
                    [
                        [
                            [
                                55.391963,
                                25.128405
                            ],
                            [
                                55.392806,
                                25.127813
                            ],
                            [
                                55.393588,
                                25.128625
                            ],
                            [
                                55.392631,
                                25.129237
                            ],
                            [
                                55.391963,
                                25.128405
                            ]
                        ]
                    ]
                ]
            }
        },
        {
            "type": "Feature",
            "properties": {
                "observation_date": "2018-05-04",
                "source": "18MAY04072737-M1BS-014858843010_01_P005",
                "sensor_name": "WorldView",
                "type": "observation",
                "current_phase": "Active Construction",
                "is_occluded": "False",
                "is_site_boundary": "True",
                "score": 1.0
            },
            "geometry": {
                "type": "MultiPolygon",
                "coordinates": [
                    [
                        [
                            [
                                55.391963,
                                25.128405
                            ],
                            [
                                55.392806,
                                25.127813
                            ],
                            [
                                55.393588,
                                25.128625
                            ],
                            [
                                55.392631,
                                25.129237
                            ],
                            [
                                55.391963,
                                25.128405
                            ]
                        ]
                    ]
                ]
            }
        },
        {
            "type": "Feature",
            "properties": {
                "observation_date": "2018-09-11",
                "source": "S2B_40RCN_20180911_0_L2A_TCI",
                "sensor_name": "Sentinel-2",
                "type": "observation",
                "current_phase": "Post Construction",
                "is_occluded": "False",
                "is_site_boundary": "True",
                "score": 1.0
            },
            "geometry": {
                "type": "MultiPolygon",
                "coordinates": [
                    [
                        [
                            [
                                55.391963,
                                25.128405
                            ],
                            [
                                55.392806,
                                25.127813
                            ],
                            [
                                55.393588,
                                25.128625
                            ],
                            [
                                55.392631,
                                25.129237
                            ],
                            [
                                55.391963,
                                25.128405
                            ]
                        ]
                    ]
                ]
            }
        }
    ]
}