{
    "type": "FeatureCollection",
    "features": [
        {
            "type": "Feature",
            "properties": {
                "type": "site",
                "region_id": "AE_R001",
                "site_id": "AE_R001_0491",
                "version": "2.0.0",
                "status": "positive_pending",
                "mgrs": "40RCN",
                "score": 1.0,
                "start_date": "2016-11-23",
                "end_date": "2024-04-02",
                "model_content": "annotation",
                "originator": "te",
                "validated": "True",
                "misc_info": {
                    "commit_hash": "8e2cc701facd37559ed12647d70a5e5b3622c6ca"
                }
            },
            "geometry": {
                "type": "Polygon",
                "coordinates": [
                    [
                        [
                            55.04414,
                            24.929443
                        ],
                        [
                            55.044486,
                            24.930312
                        ],
                        [
                            55.045237,
                            24.929731
                        ],
                        [
                            55.047414,
                            24.92674
                        ],
                        [
                            55.048141,
                            24.925661
                        ],
                        [
                            55.047623,
                            24.92473
                        ],
                        [
                            55.046161,
                            24.925403
                        ],
                        [
                            55.046496,
                            24.926069
                        ],
                        [
                            55.046531,
                            24.926184
                        ],
                        [
                            55.046536,
                            24.92635
                        ],
                        [
                            55.046151,
                            24.926919
                        ],
                        [
                            55.04488,
                            24.928713
                        ],
                        [
                            55.044594,
                            24.929106
                        ],
                        [
                            55.044338,
                            24.929351
                        ],
                        [
                            55.04414,
                            24.929443
                        ]
                    ]
                ]
            }
        },
        {
            "type": "Feature",
            "properties": {
                "observation_date": "2016-11-23",
                "source": null,
                "sensor_name": null,
                "type": "observation",
                "current_phase": null,
                "is_occluded": null,
                "is_site_boundary": null,
                "score": 1.0
            },
            "geometry": {
                "type": "MultiPolygon",
                "coordinates": [
                    [
                        [
                            [
                                55.04414,
                                24.929443
                            ],
                            [
                                55.044486,
                                24.930312
                            ],
                            [
                                55.045237,
                                24.929731
                            ],
                            [
                                55.047414,
                                24.92674
                            ],
                            [
                                55.048141,
                                24.925661
                            ],
                            [
                                55.047623,
                                24.92473
                            ],
                            [
                                55.046161,
                                24.925403
                            ],
                            [
                                55.046496,
                                24.926069
                            ],
                            [
                                55.046531,
                                24.926184
                            ],
                            [
                                55.046536,
                                24.92635
                            ],
                            [
                                55.046151,
                                24.926919
                            ],
                            [
                                55.04488,
                                24.928713
                            ],
                            [
                                55.044594,
                                24.929106
                            ],
                            [
                                55.044338,
                                24.929351
                            ],
                            [
                                55.04414,
                                24.929443
                            ]
                        ]
                    ]
                ]
            }
        },
        {
            "type": "Feature",
            "properties": {
                "observation_date": "2024-04-02",
                "source": null,
                "sensor_name": null,
                "type": "observation",
                "current_phase": null,
                "is_occluded": null,
                "is_site_boundary": null,
                "score": 1.0
            },
            "geometry": {
                "type": "MultiPolygon",
                "coordinates": [
                    [
                        [
                            [
                                55.04414,
                                24.929443
                            ],
                            [
                                55.044486,
                                24.930312
                            ],
                            [
                                55.045237,
                                24.929731
                            ],
                            [
                                55.047414,
                                24.92674
                            ],
                            [
                                55.048141,
                                24.925661
                            ],
                            [
                                55.047623,
                                24.92473
                            ],
                            [
                                55.046161,
                                24.925403
                            ],
                            [
                                55.046496,
                                24.926069
                            ],
                            [
                                55.046531,
                                24.926184
                            ],
                            [
                                55.046536,
                                24.92635
                            ],
                            [
                                55.046151,
                                24.926919
                            ],
                            [
                                55.04488,
                                24.928713
                            ],
                            [
                                55.044594,
                                24.929106
                            ],
                            [
                                55.044338,
                                24.929351
                            ],
                            [
                                55.04414,
                                24.929443
                            ]
                        ]
                    ]
                ]
            }
        }
    ]
}