{
    "type": "FeatureCollection",
    "features": [
        {
            "type": "Feature",
            "properties": {
                "type": "site",
                "region_id": "AE_R001",
                "site_id": "AE_R001_0608",
                "version": "2.0.0",
                "status": "positive_pending",
                "mgrs": "40RCN",
                "score": 1.0,
                "start_date": "2013-07-22",
                "end_date": "2016-08-23",
                "model_content": "annotation",
                "originator": "te",
                "validated": "True",
                "misc_info": {
                    "commit_hash": "8e2cc701facd37559ed12647d70a5e5b3622c6ca"
                }
            },
            "geometry": {
                "type": "Polygon",
                "coordinates": [
                    [
                        [
                            55.199324,
                            24.977706
                        ],
                        [
                            55.199135,
                            24.976667
                        ],
                        [
                            55.198053,
                            24.976774
                        ],
                        [
                            55.198242,
                            24.977836
                        ],
                        [
                            55.199324,
                            24.977706
                        ]
                    ]
                ]
            }
        },
        {
            "type": "Feature",
            "properties": {
                "observation_date": "2013-07-22",
                "source": null,
                "sensor_name": null,
                "type": "observation",
                "current_phase": null,
                "is_occluded": null,
                "is_site_boundary": null,
                "score": 1.0
            },
            "geometry": {
                "type": "MultiPolygon",
                "coordinates": [
                    [
                        [
                            [
                                55.199324,
                                24.977706
                            ],
                            [
                                55.199135,
                                24.976667
                            ],
                            [
                                55.198053,
                                24.976774
                            ],
                            [
                                55.198242,
                                24.977836
                            ],
                            [
                                55.199324,
                                24.977706
                            ]
                        ]
                    ]
                ]
            }
        },
        {
            "type": "Feature",
            "properties": {
                "observation_date": "2016-08-23",
                "source": null,
                "sensor_name": null,
                "type": "observation",
                "current_phase": null,
                "is_occluded": null,
                "is_site_boundary": null,
                "score": 1.0
            },
            "geometry": {
                "type": "MultiPolygon",
                "coordinates": [
                    [
                        [
                            [
                                55.199324,
                                24.977706
                            ],
                            [
                                55.199135,
                                24.976667
                            ],
                            [
                                55.198053,
                                24.976774
                            ],
                            [
                                55.198242,
                                24.977836
                            ],
                            [
                                55.199324,
                                24.977706
                            ]
                        ]
                    ]
                ]
            }
        }
    ]
}