{
    "type": "FeatureCollection",
    "features": [
        {
            "type": "Feature",
            "properties": {
                "type": "site",
                "region_id": "AE_R001",
                "site_id": "AE_R001_0622",
                "version": "2.0.0",
                "status": "positive_pending",
                "mgrs": "40RCN",
                "score": 1.0,
                "start_date": "2017-11-21",
                "end_date": "2018-06-04",
                "model_content": "annotation",
                "originator": "te",
                "validated": "True",
                "misc_info": {
                    "commit_hash": "8e2cc701facd37559ed12647d70a5e5b3622c6ca"
                }
            },
            "geometry": {
                "type": "Polygon",
                "coordinates": [
                    [
                        [
                            55.100154,
                            24.962565
                        ],
                        [
                            55.099425,
                            24.962901
                        ],
                        [
                            55.099178,
                            24.962711
                        ],
                        [
                            55.098825,
                            24.9625
                        ],
                        [
                            55.098425,
                            24.962369
                        ],
                        [
                            55.098002,
                            24.96229
                        ],
                        [
                            55.098081,
                            24.961873
                        ],
                        [
                            55.09936,
                            24.961285
                        ],
                        [
                            55.100154,
                            24.962565
                        ]
                    ]
                ]
            }
        },
        {
            "type": "Feature",
            "properties": {
                "observation_date": "2017-11-21",
                "source": null,
                "sensor_name": null,
                "type": "observation",
                "current_phase": null,
                "is_occluded": null,
                "is_site_boundary": null,
                "score": 1.0
            },
            "geometry": {
                "type": "MultiPolygon",
                "coordinates": [
                    [
                        [
                            [
                                55.100154,
                                24.962565
                            ],
                            [
                                55.099425,
                                24.962901
                            ],
                            [
                                55.099178,
                                24.962711
                            ],
                            [
                                55.098825,
                                24.9625
                            ],
                            [
                                55.098425,
                                24.962369
                            ],
                            [
                                55.098002,
                                24.96229
                            ],
                            [
                                55.098081,
                                24.961873
                            ],
                            [
                                55.09936,
                                24.961285
                            ],
                            [
                                55.100154,
                                24.962565
                            ]
                        ]
                    ]
                ]
            }
        },
        {
            "type": "Feature",
            "properties": {
                "observation_date": "2018-06-04",
                "source": null,
                "sensor_name": null,
                "type": "observation",
                "current_phase": null,
                "is_occluded": null,
                "is_site_boundary": null,
                "score": 1.0
            },
            "geometry": {
                "type": "MultiPolygon",
                "coordinates": [
                    [
                        [
                            [
                                55.100154,
                                24.962565
                            ],
                            [
                                55.099425,
                                24.962901
                            ],
                            [
                                55.099178,
                                24.962711
                            ],
                            [
                                55.098825,
                                24.9625
                            ],
                            [
                                55.098425,
                                24.962369
                            ],
                            [
                                55.098002,
                                24.96229
                            ],
                            [
                                55.098081,
                                24.961873
                            ],
                            [
                                55.09936,
                                24.961285
                            ],
                            [
                                55.100154,
                                24.962565
                            ]
                        ]
                    ]
                ]
            }
        }
    ]
}