{
    "type": "FeatureCollection",
    "features": [
        {
            "type": "Feature",
            "properties": {
                "type": "site",
                "region_id": "AE_R002",
                "site_id": "AE_R002_0305",
                "version": "2.0.0",
                "status": "positive_excluded",
                "mgrs": "40RCN",
                "score": 1.0,
                "start_date": "2016-09-23",
                "end_date": "2021-07-02",
                "model_content": "annotation",
                "originator": "te",
                "validated": "False",
                "misc_info": {
                    "commit_hash": "824fac44479e0c34c554c214480da6d4c14a319e"
                }
            },
            "geometry": {
                "type": "Polygon",
                "coordinates": [
                    [
                        [
                            55.184982,
                            25.101943
                        ],
                        [
                            55.185443,
                            25.101606
                        ],
                        [
                            55.184915,
                            25.100972
                        ],
                        [
                            55.184854,
                            25.100962
                        ],
                        [
                            55.184385,
                            25.10124
                        ],
                        [
                            55.184982,
                            25.101943
                        ]
                    ]
                ]
            }
        },
        {
            "type": "Feature",
            "properties": {
                "observation_date": "2016-09-23",
                "source": null,
                "sensor_name": null,
                "type": "observation",
                "current_phase": null,
                "is_occluded": null,
                "is_site_boundary": null,
                "score": 1.0
            },
            "geometry": {
                "type": "MultiPolygon",
                "coordinates": [
                    [
                        [
                            [
                                55.184982,
                                25.101943
                            ],
                            [
                                55.185443,
                                25.101606
                            ],
                            [
                                55.184915,
                                25.100972
                            ],
                            [
                                55.184854,
                                25.100962
                            ],
                            [
                                55.184385,
                                25.10124
                            ],
                            [
                                55.184982,
                                25.101943
                            ]
                        ]
                    ]
                ]
            }
        },
        {
            "type": "Feature",
            "properties": {
                "observation_date": "2021-07-02",
                "source": null,
                "sensor_name": null,
                "type": "observation",
                "current_phase": null,
                "is_occluded": null,
                "is_site_boundary": null,
                "score": 1.0
            },
            "geometry": {
                "type": "MultiPolygon",
                "coordinates": [
                    [
                        [
                            [
                                55.184982,
                                25.101943
                            ],
                            [
                                55.185443,
                                25.101606
                            ],
                            [
                                55.184915,
                                25.100972
                            ],
                            [
                                55.184854,
                                25.100962
                            ],
                            [
                                55.184385,
                                25.10124
                            ],
                            [
                                55.184982,
                                25.101943
                            ]
                        ]
                    ]
                ]
            }
        }
    ]
}