{
    "type": "FeatureCollection",
    "features": [
        {
            "type": "Feature",
            "properties": {
                "type": "site",
                "region_id": "AE_R001",
                "site_id": "AE_R001_0497",
                "version": "2.0.0",
                "status": "positive_pending",
                "mgrs": "40RBN",
                "score": 1.0,
                "start_date": "2013-07-22",
                "end_date": "2016-08-18",
                "model_content": "annotation",
                "originator": "te",
                "validated": "True",
                "misc_info": {
                    "commit_hash": "8e2cc701facd37559ed12647d70a5e5b3622c6ca"
                }
            },
            "geometry": {
                "type": "Polygon",
                "coordinates": [
                    [
                        [
                            55.01355,
                            24.912138
                        ],
                        [
                            55.015049,
                            24.91178
                        ],
                        [
                            55.01542,
                            24.911944
                        ],
                        [
                            55.015781,
                            24.913155
                        ],
                        [
                            55.014093,
                            24.913603
                        ],
                        [
                            55.01355,
                            24.912138
                        ]
                    ]
                ]
            }
        },
        {
            "type": "Feature",
            "properties": {
                "observation_date": "2013-07-22",
                "source": null,
                "sensor_name": null,
                "type": "observation",
                "current_phase": null,
                "is_occluded": null,
                "is_site_boundary": null,
                "score": 1.0
            },
            "geometry": {
                "type": "MultiPolygon",
                "coordinates": [
                    [
                        [
                            [
                                55.01355,
                                24.912138
                            ],
                            [
                                55.015049,
                                24.91178
                            ],
                            [
                                55.01542,
                                24.911944
                            ],
                            [
                                55.015781,
                                24.913155
                            ],
                            [
                                55.014093,
                                24.913603
                            ],
                            [
                                55.01355,
                                24.912138
                            ]
                        ]
                    ]
                ]
            }
        },
        {
            "type": "Feature",
            "properties": {
                "observation_date": "2016-08-18",
                "source": null,
                "sensor_name": null,
                "type": "observation",
                "current_phase": null,
                "is_occluded": null,
                "is_site_boundary": null,
                "score": 1.0
            },
            "geometry": {
                "type": "MultiPolygon",
                "coordinates": [
                    [
                        [
                            [
                                55.01355,
                                24.912138
                            ],
                            [
                                55.015049,
                                24.91178
                            ],
                            [
                                55.01542,
                                24.911944
                            ],
                            [
                                55.015781,
                                24.913155
                            ],
                            [
                                55.014093,
                                24.913603
                            ],
                            [
                                55.01355,
                                24.912138
                            ]
                        ]
                    ]
                ]
            }
        }
    ]
}