{
    "type": "FeatureCollection",
    "features": [
        {
            "type": "Feature",
            "properties": {
                "type": "site",
                "region_id": "AE_R001",
                "site_id": "AE_R001_0492",
                "version": "2.0.0",
                "status": "positive_pending",
                "mgrs": "40RCN",
                "score": 1.0,
                "start_date": "2015-03-06",
                "end_date": "2016-08-18",
                "model_content": "annotation",
                "originator": "te",
                "validated": "True",
                "misc_info": {
                    "commit_hash": "8e2cc701facd37559ed12647d70a5e5b3622c6ca"
                }
            },
            "geometry": {
                "type": "Polygon",
                "coordinates": [
                    [
                        [
                            55.098424,
                            24.925357
                        ],
                        [
                            55.099203,
                            24.924882
                        ],
                        [
                            55.099272,
                            24.924972
                        ],
                        [
                            55.099376,
                            24.92491
                        ],
                        [
                            55.099572,
                            24.925149
                        ],
                        [
                            55.099462,
                            24.925253
                        ],
                        [
                            55.100161,
                            24.926192
                        ],
                        [
                            55.099394,
                            24.926648
                        ],
                        [
                            55.098424,
                            24.925357
                        ]
                    ]
                ]
            }
        },
        {
            "type": "Feature",
            "properties": {
                "observation_date": "2015-03-06",
                "source": null,
                "sensor_name": null,
                "type": "observation",
                "current_phase": null,
                "is_occluded": null,
                "is_site_boundary": null,
                "score": 1.0
            },
            "geometry": {
                "type": "MultiPolygon",
                "coordinates": [
                    [
                        [
                            [
                                55.098424,
                                24.925357
                            ],
                            [
                                55.099203,
                                24.924882
                            ],
                            [
                                55.099272,
                                24.924972
                            ],
                            [
                                55.099376,
                                24.92491
                            ],
                            [
                                55.099572,
                                24.925149
                            ],
                            [
                                55.099462,
                                24.925253
                            ],
                            [
                                55.100161,
                                24.926192
                            ],
                            [
                                55.099394,
                                24.926648
                            ],
                            [
                                55.098424,
                                24.925357
                            ]
                        ]
                    ]
                ]
            }
        },
        {
            "type": "Feature",
            "properties": {
                "observation_date": "2016-08-18",
                "source": null,
                "sensor_name": null,
                "type": "observation",
                "current_phase": null,
                "is_occluded": null,
                "is_site_boundary": null,
                "score": 1.0
            },
            "geometry": {
                "type": "MultiPolygon",
                "coordinates": [
                    [
                        [
                            [
                                55.098424,
                                24.925357
                            ],
                            [
                                55.099203,
                                24.924882
                            ],
                            [
                                55.099272,
                                24.924972
                            ],
                            [
                                55.099376,
                                24.92491
                            ],
                            [
                                55.099572,
                                24.925149
                            ],
                            [
                                55.099462,
                                24.925253
                            ],
                            [
                                55.100161,
                                24.926192
                            ],
                            [
                                55.099394,
                                24.926648
                            ],
                            [
                                55.098424,
                                24.925357
                            ]
                        ]
                    ]
                ]
            }
        }
    ]
}