{
    "type": "FeatureCollection",
    "features": [
        {
            "type": "Feature",
            "properties": {
                "type": "site",
                "region_id": "AE_R001",
                "site_id": "AE_R001_0410",
                "version": "2.0.0",
                "status": "positive_pending",
                "mgrs": "40RCN",
                "score": 1.0,
                "start_date": "2015-04-27",
                "end_date": "2017-02-03",
                "model_content": "annotation",
                "originator": "te",
                "validated": "True",
                "misc_info": {
                    "commit_hash": "8e2cc701facd37559ed12647d70a5e5b3622c6ca"
                }
            },
            "geometry": {
                "type": "Polygon",
                "coordinates": [
                    [
                        [
                            55.128508,
                            25.01324
                        ],
                        [
                            55.129545,
                            25.013186
                        ],
                        [
                            55.12947,
                            25.011779
                        ],
                        [
                            55.128481,
                            25.011826
                        ],
                        [
                            55.128508,
                            25.01324
                        ]
                    ]
                ]
            }
        },
        {
            "type": "Feature",
            "properties": {
                "observation_date": "2015-04-27",
                "source": null,
                "sensor_name": null,
                "type": "observation",
                "current_phase": null,
                "is_occluded": null,
                "is_site_boundary": null,
                "score": 1.0
            },
            "geometry": {
                "type": "MultiPolygon",
                "coordinates": [
                    [
                        [
                            [
                                55.128508,
                                25.01324
                            ],
                            [
                                55.129545,
                                25.013186
                            ],
                            [
                                55.12947,
                                25.011779
                            ],
                            [
                                55.128481,
                                25.011826
                            ],
                            [
                                55.128508,
                                25.01324
                            ]
                        ]
                    ]
                ]
            }
        },
        {
            "type": "Feature",
            "properties": {
                "observation_date": "2017-02-03",
                "source": null,
                "sensor_name": null,
                "type": "observation",
                "current_phase": null,
                "is_occluded": null,
                "is_site_boundary": null,
                "score": 1.0
            },
            "geometry": {
                "type": "MultiPolygon",
                "coordinates": [
                    [
                        [
                            [
                                55.128508,
                                25.01324
                            ],
                            [
                                55.129545,
                                25.013186
                            ],
                            [
                                55.12947,
                                25.011779
                            ],
                            [
                                55.128481,
                                25.011826
                            ],
                            [
                                55.128508,
                                25.01324
                            ]
                        ]
                    ]
                ]
            }
        }
    ]
}