{
    "type": "FeatureCollection",
    "features": [
        {
            "type": "Feature",
            "properties": {
                "type": "site",
                "region_id": "AE_R001",
                "site_id": "AE_R001_0535",
                "version": "2.0.0",
                "status": "positive_pending",
                "mgrs": "40RCN",
                "score": 1.0,
                "start_date": "2016-08-18",
                "end_date": "2021-03-14",
                "model_content": "annotation",
                "originator": "te",
                "validated": "True",
                "misc_info": {
                    "commit_hash": "8e2cc701facd37559ed12647d70a5e5b3622c6ca"
                }
            },
            "geometry": {
                "type": "Polygon",
                "coordinates": [
                    [
                        [
                            55.142509,
                            24.864726
                        ],
                        [
                            55.142843,
                            24.865219
                        ],
                        [
                            55.142995,
                            24.865126
                        ],
                        [
                            55.143457,
                            24.865792
                        ],
                        [
                            55.144139,
                            24.865336
                        ],
                        [
                            55.144309,
                            24.864816
                        ],
                        [
                            55.144052,
                            24.86425
                        ],
                        [
                            55.143211,
                            24.864332
                        ],
                        [
                            55.143212,
                            24.864339
                        ],
                        [
                            55.143206,
                            24.864377
                        ],
                        [
                            55.142715,
                            24.864599
                        ],
                        [
                            55.142509,
                            24.864726
                        ]
                    ]
                ]
            }
        },
        {
            "type": "Feature",
            "properties": {
                "observation_date": "2016-08-18",
                "source": null,
                "sensor_name": null,
                "type": "observation",
                "current_phase": null,
                "is_occluded": null,
                "is_site_boundary": null,
                "score": 1.0
            },
            "geometry": {
                "type": "MultiPolygon",
                "coordinates": [
                    [
                        [
                            [
                                55.142509,
                                24.864726
                            ],
                            [
                                55.142843,
                                24.865219
                            ],
                            [
                                55.142995,
                                24.865126
                            ],
                            [
                                55.143457,
                                24.865792
                            ],
                            [
                                55.144139,
                                24.865336
                            ],
                            [
                                55.144309,
                                24.864816
                            ],
                            [
                                55.144052,
                                24.86425
                            ],
                            [
                                55.143211,
                                24.864332
                            ],
                            [
                                55.143212,
                                24.864339
                            ],
                            [
                                55.143206,
                                24.864377
                            ],
                            [
                                55.142715,
                                24.864599
                            ],
                            [
                                55.142509,
                                24.864726
                            ]
                        ]
                    ]
                ]
            }
        },
        {
            "type": "Feature",
            "properties": {
                "observation_date": "2021-03-14",
                "source": null,
                "sensor_name": null,
                "type": "observation",
                "current_phase": null,
                "is_occluded": null,
                "is_site_boundary": null,
                "score": 1.0
            },
            "geometry": {
                "type": "MultiPolygon",
                "coordinates": [
                    [
                        [
                            [
                                55.142509,
                                24.864726
                            ],
                            [
                                55.142843,
                                24.865219
                            ],
                            [
                                55.142995,
                                24.865126
                            ],
                            [
                                55.143457,
                                24.865792
                            ],
                            [
                                55.144139,
                                24.865336
                            ],
                            [
                                55.144309,
                                24.864816
                            ],
                            [
                                55.144052,
                                24.86425
                            ],
                            [
                                55.143211,
                                24.864332
                            ],
                            [
                                55.143212,
                                24.864339
                            ],
                            [
                                55.143206,
                                24.864377
                            ],
                            [
                                55.142715,
                                24.864599
                            ],
                            [
                                55.142509,
                                24.864726
                            ]
                        ]
                    ]
                ]
            }
        }
    ]
}