{
    "type": "FeatureCollection",
    "features": [
        {
            "type": "Feature",
            "properties": {
                "type": "site",
                "region_id": "AE_R002",
                "site_id": "AE_R002_0292",
                "version": "2.0.0",
                "status": "ignore",
                "mgrs": "40RCN",
                "score": 1.0,
                "start_date": "2007-01-08",
                "end_date": null,
                "model_content": "annotation",
                "originator": "te",
                "validated": "False",
                "misc_info": {
                    "commit_hash": "824fac44479e0c34c554c214480da6d4c14a319e"
                }
            },
            "geometry": {
                "type": "Polygon",
                "coordinates": [
                    [
                        [
                            55.222687,
                            25.043693
                        ],
                        [
                            55.223043,
                            25.044253
                        ],
                        [
                            55.223123,
                            25.044558
                        ],
                        [
                            55.223093,
                            25.044883
                        ],
                        [
                            55.223191,
                            25.045136
                        ],
                        [
                            55.223444,
                            25.045422
                        ],
                        [
                            55.224171,
                            25.04681
                        ],
                        [
                            55.224861,
                            25.046464
                        ],
                        [
                            55.227046,
                            25.041657
                        ],
                        [
                            55.224339,
                            25.040536
                        ],
                        [
                            55.224013,
                            25.040614
                        ],
                        [
                            55.223774,
                            25.040936
                        ],
                        [
                            55.223596,
                            25.041255
                        ],
                        [
                            55.223432,
                            25.041638
                        ],
                        [
                            55.22334,
                            25.042005
                        ],
                        [
                            55.223273,
                            25.042482
                        ],
                        [
                            55.223112,
                            25.042897
                        ],
                        [
                            55.222984,
                            25.043232
                        ],
                        [
                            55.222687,
                            25.043693
                        ]
                    ]
                ]
            }
        },
        {
            "type": "Feature",
            "properties": {
                "observation_date": "2007-01-08",
                "source": null,
                "sensor_name": null,
                "type": "observation",
                "current_phase": null,
                "is_occluded": null,
                "is_site_boundary": null,
                "score": 1.0
            },
            "geometry": {
                "type": "MultiPolygon",
                "coordinates": [
                    [
                        [
                            [
                                55.222687,
                                25.043693
                            ],
                            [
                                55.223043,
                                25.044253
                            ],
                            [
                                55.223123,
                                25.044558
                            ],
                            [
                                55.223093,
                                25.044883
                            ],
                            [
                                55.223191,
                                25.045136
                            ],
                            [
                                55.223444,
                                25.045422
                            ],
                            [
                                55.224171,
                                25.04681
                            ],
                            [
                                55.224861,
                                25.046464
                            ],
                            [
                                55.227046,
                                25.041657
                            ],
                            [
                                55.224339,
                                25.040536
                            ],
                            [
                                55.224013,
                                25.040614
                            ],
                            [
                                55.223774,
                                25.040936
                            ],
                            [
                                55.223596,
                                25.041255
                            ],
                            [
                                55.223432,
                                25.041638
                            ],
                            [
                                55.22334,
                                25.042005
                            ],
                            [
                                55.223273,
                                25.042482
                            ],
                            [
                                55.223112,
                                25.042897
                            ],
                            [
                                55.222984,
                                25.043232
                            ],
                            [
                                55.222687,
                                25.043693
                            ]
                        ]
                    ]
                ]
            }
        },
        {
            "type": "Feature",
            "properties": {
                "observation_date": null,
                "source": null,
                "sensor_name": null,
                "type": "observation",
                "current_phase": null,
                "is_occluded": null,
                "is_site_boundary": null,
                "score": 1.0
            },
            "geometry": {
                "type": "MultiPolygon",
                "coordinates": [
                    [
                        [
                            [
                                55.222687,
                                25.043693
                            ],
                            [
                                55.223043,
                                25.044253
                            ],
                            [
                                55.223123,
                                25.044558
                            ],
                            [
                                55.223093,
                                25.044883
                            ],
                            [
                                55.223191,
                                25.045136
                            ],
                            [
                                55.223444,
                                25.045422
                            ],
                            [
                                55.224171,
                                25.04681
                            ],
                            [
                                55.224861,
                                25.046464
                            ],
                            [
                                55.227046,
                                25.041657
                            ],
                            [
                                55.224339,
                                25.040536
                            ],
                            [
                                55.224013,
                                25.040614
                            ],
                            [
                                55.223774,
                                25.040936
                            ],
                            [
                                55.223596,
                                25.041255
                            ],
                            [
                                55.223432,
                                25.041638
                            ],
                            [
                                55.22334,
                                25.042005
                            ],
                            [
                                55.223273,
                                25.042482
                            ],
                            [
                                55.223112,
                                25.042897
                            ],
                            [
                                55.222984,
                                25.043232
                            ],
                            [
                                55.222687,
                                25.043693
                            ]
                        ]
                    ]
                ]
            }
        }
    ]
}