{
    "type": "FeatureCollection",
    "features": [
        {
            "type": "Feature",
            "properties": {
                "type": "site",
                "region_id": "AE_R001",
                "site_id": "AE_R001_0621",
                "version": "2.0.0",
                "status": "positive_pending",
                "mgrs": "40RCN",
                "score": 1.0,
                "start_date": "2013-07-22",
                "end_date": "2016-06-23",
                "model_content": "annotation",
                "originator": "te",
                "validated": "True",
                "misc_info": {
                    "commit_hash": "8e2cc701facd37559ed12647d70a5e5b3622c6ca"
                }
            },
            "geometry": {
                "type": "Polygon",
                "coordinates": [
                    [
                        [
                            55.092219,
                            24.966136
                        ],
                        [
                            55.091785,
                            24.965221
                        ],
                        [
                            55.091483,
                            24.965318
                        ],
                        [
                            55.09082,
                            24.965792
                        ],
                        [
                            55.090646,
                            24.966298
                        ],
                        [
                            55.0908,
                            24.966742
                        ],
                        [
                            55.092219,
                            24.966136
                        ]
                    ]
                ]
            }
        },
        {
            "type": "Feature",
            "properties": {
                "observation_date": "2013-07-22",
                "source": null,
                "sensor_name": null,
                "type": "observation",
                "current_phase": null,
                "is_occluded": null,
                "is_site_boundary": null,
                "score": 1.0
            },
            "geometry": {
                "type": "MultiPolygon",
                "coordinates": [
                    [
                        [
                            [
                                55.092219,
                                24.966136
                            ],
                            [
                                55.091785,
                                24.965221
                            ],
                            [
                                55.091483,
                                24.965318
                            ],
                            [
                                55.09082,
                                24.965792
                            ],
                            [
                                55.090646,
                                24.966298
                            ],
                            [
                                55.0908,
                                24.966742
                            ],
                            [
                                55.092219,
                                24.966136
                            ]
                        ]
                    ]
                ]
            }
        },
        {
            "type": "Feature",
            "properties": {
                "observation_date": "2016-06-23",
                "source": null,
                "sensor_name": null,
                "type": "observation",
                "current_phase": null,
                "is_occluded": null,
                "is_site_boundary": null,
                "score": 1.0
            },
            "geometry": {
                "type": "MultiPolygon",
                "coordinates": [
                    [
                        [
                            [
                                55.092219,
                                24.966136
                            ],
                            [
                                55.091785,
                                24.965221
                            ],
                            [
                                55.091483,
                                24.965318
                            ],
                            [
                                55.09082,
                                24.965792
                            ],
                            [
                                55.090646,
                                24.966298
                            ],
                            [
                                55.0908,
                                24.966742
                            ],
                            [
                                55.092219,
                                24.966136
                            ]
                        ]
                    ]
                ]
            }
        }
    ]
}