{
    "type": "FeatureCollection",
    "features": [
        {
            "type": "Feature",
            "properties": {
                "type": "site",
                "region_id": "AE_R001",
                "site_id": "AE_R001_0445",
                "version": "2.0.0",
                "status": "positive_pending",
                "mgrs": "40RCN",
                "score": 1.0,
                "start_date": "2014-11-07",
                "end_date": "2016-05-04",
                "model_content": "annotation",
                "originator": "te",
                "validated": "True",
                "misc_info": {
                    "commit_hash": "8e2cc701facd37559ed12647d70a5e5b3622c6ca"
                }
            },
            "geometry": {
                "type": "Polygon",
                "coordinates": [
                    [
                        [
                            55.105934,
                            24.94487
                        ],
                        [
                            55.105944,
                            24.944877
                        ],
                        [
                            55.10663,
                            24.945806
                        ],
                        [
                            55.107998,
                            24.944805
                        ],
                        [
                            55.107151,
                            24.944063
                        ],
                        [
                            55.105934,
                            24.94487
                        ]
                    ]
                ]
            }
        },
        {
            "type": "Feature",
            "properties": {
                "observation_date": "2014-11-07",
                "source": null,
                "sensor_name": null,
                "type": "observation",
                "current_phase": null,
                "is_occluded": null,
                "is_site_boundary": null,
                "score": 1.0
            },
            "geometry": {
                "type": "MultiPolygon",
                "coordinates": [
                    [
                        [
                            [
                                55.105934,
                                24.94487
                            ],
                            [
                                55.105944,
                                24.944877
                            ],
                            [
                                55.10663,
                                24.945806
                            ],
                            [
                                55.107998,
                                24.944805
                            ],
                            [
                                55.107151,
                                24.944063
                            ],
                            [
                                55.105934,
                                24.94487
                            ]
                        ]
                    ]
                ]
            }
        },
        {
            "type": "Feature",
            "properties": {
                "observation_date": "2016-05-04",
                "source": null,
                "sensor_name": null,
                "type": "observation",
                "current_phase": null,
                "is_occluded": null,
                "is_site_boundary": null,
                "score": 1.0
            },
            "geometry": {
                "type": "MultiPolygon",
                "coordinates": [
                    [
                        [
                            [
                                55.105934,
                                24.94487
                            ],
                            [
                                55.105944,
                                24.944877
                            ],
                            [
                                55.10663,
                                24.945806
                            ],
                            [
                                55.107998,
                                24.944805
                            ],
                            [
                                55.107151,
                                24.944063
                            ],
                            [
                                55.105934,
                                24.94487
                            ]
                        ]
                    ]
                ]
            }
        }
    ]
}