{
    "type": "FeatureCollection",
    "features": [
        {
            "type": "Feature",
            "properties": {
                "type": "site",
                "region_id": "AE_R002",
                "site_id": "AE_R002_0134",
                "version": "2.0.0",
                "status": "positive_annotated_static",
                "mgrs": "40RCN",
                "score": 1.0,
                "start_date": "2017-07-29",
                "end_date": "2021-12-15",
                "model_content": "annotation",
                "originator": "te",
                "validated": "True",
                "misc_info": {
                    "commit_hash": "dbdea3485a8eb34730f81ec01861c62e6358b0b5"
                }
            },
            "geometry": {
                "type": "Polygon",
                "coordinates": [
                    [
                        [
                            55.387143,
                            25.129893
                        ],
                        [
                            55.388745,
                            25.132667
                        ],
                        [
                            55.389384,
                            25.132695
                        ],
                        [
                            55.392449,
                            25.130959
                        ],
                        [
                            55.389885,
                            25.127925
                        ],
                        [
                            55.387304,
                            25.129365
                        ],
                        [
                            55.387143,
                            25.129893
                        ]
                    ]
                ]
            }
        },
        {
            "type": "Feature",
            "properties": {
                "observation_date": "2017-07-29",
                "source": "17JUL29100422-P1BS-501481408010_01_P001",
                "sensor_name": "WorldView",
                "type": "observation",
                "current_phase": "No Activity",
                "is_occluded": "False",
                "is_site_boundary": "True",
                "score": 1.0
            },
            "geometry": {
                "type": "MultiPolygon",
                "coordinates": [
                    [
                        [
                            [
                                55.388745,
                                25.132667
                            ],
                            [
                                55.387143,
                                25.129893
                            ],
                            [
                                55.387304,
                                25.129365
                            ],
                            [
                                55.389885,
                                25.127925
                            ],
                            [
                                55.392449,
                                25.130959
                            ],
                            [
                                55.389384,
                                25.132695
                            ],
                            [
                                55.388745,
                                25.132667
                            ]
                        ]
                    ]
                ]
            }
        },
        {
            "type": "Feature",
            "properties": {
                "observation_date": "2019-06-24",
                "source": "19JUN24095635-P1BS_R4C1-502704253040_02_P001",
                "sensor_name": "WorldView",
                "type": "observation",
                "current_phase": "Active Construction",
                "is_occluded": "False",
                "is_site_boundary": "True",
                "score": 1.0
            },
            "geometry": {
                "type": "MultiPolygon",
                "coordinates": [
                    [
                        [
                            [
                                55.388745,
                                25.132667
                            ],
                            [
                                55.387143,
                                25.129893
                            ],
                            [
                                55.387304,
                                25.129365
                            ],
                            [
                                55.389885,
                                25.127925
                            ],
                            [
                                55.392449,
                                25.130959
                            ],
                            [
                                55.389384,
                                25.132695
                            ],
                            [
                                55.388745,
                                25.132667
                            ]
                        ]
                    ]
                ]
            }
        },
        {
            "type": "Feature",
            "properties": {
                "observation_date": "2019-08-24",
                "source": "19AUG24072402-P1BS-014858702010_01_P009",
                "sensor_name": "WorldView",
                "type": "observation",
                "current_phase": "Active Construction",
                "is_occluded": "False",
                "is_site_boundary": "True",
                "score": 1.0
            },
            "geometry": {
                "type": "MultiPolygon",
                "coordinates": [
                    [
                        [
                            [
                                55.388745,
                                25.132667
                            ],
                            [
                                55.387143,
                                25.129893
                            ],
                            [
                                55.387304,
                                25.129365
                            ],
                            [
                                55.389885,
                                25.127925
                            ],
                            [
                                55.392449,
                                25.130959
                            ],
                            [
                                55.389384,
                                25.132695
                            ],
                            [
                                55.388745,
                                25.132667
                            ]
                        ]
                    ]
                ]
            }
        },
        {
            "type": "Feature",
            "properties": {
                "observation_date": "2019-08-29",
                "source": "19AUG29070514-P1BS-502626884040_05_P017",
                "sensor_name": "WorldView",
                "type": "observation",
                "current_phase": "Active Construction",
                "is_occluded": "False",
                "is_site_boundary": "True",
                "score": 1.0
            },
            "geometry": {
                "type": "MultiPolygon",
                "coordinates": [
                    [
                        [
                            [
                                55.388745,
                                25.132667
                            ],
                            [
                                55.387143,
                                25.129893
                            ],
                            [
                                55.387304,
                                25.129365
                            ],
                            [
                                55.389885,
                                25.127925
                            ],
                            [
                                55.392449,
                                25.130959
                            ],
                            [
                                55.389384,
                                25.132695
                            ],
                            [
                                55.388745,
                                25.132667
                            ]
                        ]
                    ]
                ]
            }
        },
        {
            "type": "Feature",
            "properties": {
                "observation_date": "2020-07-09",
                "source": "20JUL09070336-P1BS-014859493010_01_P001",
                "sensor_name": "WorldView",
                "type": "observation",
                "current_phase": "Active Construction",
                "is_occluded": "False",
                "is_site_boundary": "True",
                "score": 1.0
            },
            "geometry": {
                "type": "MultiPolygon",
                "coordinates": [
                    [
                        [
                            [
                                55.388745,
                                25.132667
                            ],
                            [
                                55.387143,
                                25.129893
                            ],
                            [
                                55.387304,
                                25.129365
                            ],
                            [
                                55.389885,
                                25.127925
                            ],
                            [
                                55.392449,
                                25.130959
                            ],
                            [
                                55.389384,
                                25.132695
                            ],
                            [
                                55.388745,
                                25.132667
                            ]
                        ]
                    ]
                ]
            }
        },
        {
            "type": "Feature",
            "properties": {
                "observation_date": "2020-09-10",
                "source": "20SEP10064316-M1BS-014464473010_01_P005",
                "sensor_name": "WorldView",
                "type": "observation",
                "current_phase": "Active Construction",
                "is_occluded": "False",
                "is_site_boundary": "True",
                "score": 1.0
            },
            "geometry": {
                "type": "MultiPolygon",
                "coordinates": [
                    [
                        [
                            [
                                55.388745,
                                25.132667
                            ],
                            [
                                55.387143,
                                25.129893
                            ],
                            [
                                55.387304,
                                25.129365
                            ],
                            [
                                55.389885,
                                25.127925
                            ],
                            [
                                55.392449,
                                25.130959
                            ],
                            [
                                55.389384,
                                25.132695
                            ],
                            [
                                55.388745,
                                25.132667
                            ]
                        ]
                    ]
                ]
            }
        },
        {
            "type": "Feature",
            "properties": {
                "observation_date": "2020-10-13",
                "source": "20OCT13095755-P1BS-014469632010_01_P002",
                "sensor_name": "WorldView",
                "type": "observation",
                "current_phase": "Active Construction",
                "is_occluded": "False",
                "is_site_boundary": "True",
                "score": 1.0
            },
            "geometry": {
                "type": "MultiPolygon",
                "coordinates": [
                    [
                        [
                            [
                                55.388745,
                                25.132667
                            ],
                            [
                                55.387143,
                                25.129893
                            ],
                            [
                                55.387304,
                                25.129365
                            ],
                            [
                                55.389885,
                                25.127925
                            ],
                            [
                                55.392449,
                                25.130959
                            ],
                            [
                                55.389384,
                                25.132695
                            ],
                            [
                                55.388745,
                                25.132667
                            ]
                        ]
                    ]
                ]
            }
        },
        {
            "type": "Feature",
            "properties": {
                "observation_date": "2021-03-02",
                "source": "21MAR02100859-P1BS-014469615010_01_P001",
                "sensor_name": "WorldView",
                "type": "observation",
                "current_phase": "Active Construction",
                "is_occluded": "False",
                "is_site_boundary": "True",
                "score": 1.0
            },
            "geometry": {
                "type": "MultiPolygon",
                "coordinates": [
                    [
                        [
                            [
                                55.388745,
                                25.132667
                            ],
                            [
                                55.387143,
                                25.129893
                            ],
                            [
                                55.387304,
                                25.129365
                            ],
                            [
                                55.389885,
                                25.127925
                            ],
                            [
                                55.392449,
                                25.130959
                            ],
                            [
                                55.389384,
                                25.132695
                            ],
                            [
                                55.388745,
                                25.132667
                            ]
                        ]
                    ]
                ]
            }
        },
        {
            "type": "Feature",
            "properties": {
                "observation_date": "2021-04-12",
                "source": "21APR12065451-M1BS-014464520010_01_P002",
                "sensor_name": "WorldView",
                "type": "observation",
                "current_phase": "Active Construction",
                "is_occluded": "False",
                "is_site_boundary": "True",
                "score": 1.0
            },
            "geometry": {
                "type": "MultiPolygon",
                "coordinates": [
                    [
                        [
                            [
                                55.388745,
                                25.132667
                            ],
                            [
                                55.387143,
                                25.129893
                            ],
                            [
                                55.387304,
                                25.129365
                            ],
                            [
                                55.389885,
                                25.127925
                            ],
                            [
                                55.392449,
                                25.130959
                            ],
                            [
                                55.389384,
                                25.132695
                            ],
                            [
                                55.388745,
                                25.132667
                            ]
                        ]
                    ]
                ]
            }
        },
        {
            "type": "Feature",
            "properties": {
                "observation_date": "2021-06-24",
                "source": "21JUN24070502-P1BS-014464089010_01_P002",
                "sensor_name": "WorldView",
                "type": "observation",
                "current_phase": "Active Construction",
                "is_occluded": "False",
                "is_site_boundary": "True",
                "score": 1.0
            },
            "geometry": {
                "type": "MultiPolygon",
                "coordinates": [
                    [
                        [
                            [
                                55.388745,
                                25.132667
                            ],
                            [
                                55.387143,
                                25.129893
                            ],
                            [
                                55.387304,
                                25.129365
                            ],
                            [
                                55.389885,
                                25.127925
                            ],
                            [
                                55.392449,
                                25.130959
                            ],
                            [
                                55.389384,
                                25.132695
                            ],
                            [
                                55.388745,
                                25.132667
                            ]
                        ]
                    ]
                ]
            }
        },
        {
            "type": "Feature",
            "properties": {
                "observation_date": "2021-08-09",
                "source": "21AUG09071050-P1BS-014464068010_01_P002",
                "sensor_name": "WorldView",
                "type": "observation",
                "current_phase": "Active Construction",
                "is_occluded": "False",
                "is_site_boundary": "True",
                "score": 1.0
            },
            "geometry": {
                "type": "MultiPolygon",
                "coordinates": [
                    [
                        [
                            [
                                55.388745,
                                25.132667
                            ],
                            [
                                55.387143,
                                25.129893
                            ],
                            [
                                55.387304,
                                25.129365
                            ],
                            [
                                55.389885,
                                25.127925
                            ],
                            [
                                55.392449,
                                25.130959
                            ],
                            [
                                55.389384,
                                25.132695
                            ],
                            [
                                55.388745,
                                25.132667
                            ]
                        ]
                    ]
                ]
            }
        },
        {
            "type": "Feature",
            "properties": {
                "observation_date": "2021-12-15",
                "source": "21DEC15065416-M1BS-014859405010_01_P002",
                "sensor_name": "WorldView",
                "type": "observation",
                "current_phase": "Post Construction",
                "is_occluded": "False",
                "is_site_boundary": "True",
                "score": 1.0
            },
            "geometry": {
                "type": "MultiPolygon",
                "coordinates": [
                    [
                        [
                            [
                                55.388745,
                                25.132667
                            ],
                            [
                                55.387143,
                                25.129893
                            ],
                            [
                                55.387304,
                                25.129365
                            ],
                            [
                                55.389885,
                                25.127925
                            ],
                            [
                                55.392449,
                                25.130959
                            ],
                            [
                                55.389384,
                                25.132695
                            ],
                            [
                                55.388745,
                                25.132667
                            ]
                        ]
                    ]
                ]
            }
        }
    ]
}