{
    "type": "FeatureCollection",
    "features": [
        {
            "type": "Feature",
            "properties": {
                "type": "site",
                "region_id": "AE_R001",
                "site_id": "AE_R001_0567",
                "version": "2.0.0",
                "status": "positive_pending",
                "mgrs": "40RCN",
                "score": 1.0,
                "start_date": "2015-03-06",
                "end_date": "2019-07-03",
                "model_content": "annotation",
                "originator": "te",
                "validated": "True",
                "misc_info": {
                    "commit_hash": "8e2cc701facd37559ed12647d70a5e5b3622c6ca"
                }
            },
            "geometry": {
                "type": "Polygon",
                "coordinates": [
                    [
                        [
                            55.112393,
                            24.987499
                        ],
                        [
                            55.111811,
                            24.986242
                        ],
                        [
                            55.111086,
                            24.986522
                        ],
                        [
                            55.111564,
                            24.987885
                        ],
                        [
                            55.112393,
                            24.987499
                        ]
                    ]
                ]
            }
        },
        {
            "type": "Feature",
            "properties": {
                "observation_date": "2015-03-06",
                "source": null,
                "sensor_name": null,
                "type": "observation",
                "current_phase": null,
                "is_occluded": null,
                "is_site_boundary": null,
                "score": 1.0
            },
            "geometry": {
                "type": "MultiPolygon",
                "coordinates": [
                    [
                        [
                            [
                                55.112393,
                                24.987499
                            ],
                            [
                                55.111811,
                                24.986242
                            ],
                            [
                                55.111086,
                                24.986522
                            ],
                            [
                                55.111564,
                                24.987885
                            ],
                            [
                                55.112393,
                                24.987499
                            ]
                        ]
                    ]
                ]
            }
        },
        {
            "type": "Feature",
            "properties": {
                "observation_date": "2019-07-03",
                "source": null,
                "sensor_name": null,
                "type": "observation",
                "current_phase": null,
                "is_occluded": null,
                "is_site_boundary": null,
                "score": 1.0
            },
            "geometry": {
                "type": "MultiPolygon",
                "coordinates": [
                    [
                        [
                            [
                                55.112393,
                                24.987499
                            ],
                            [
                                55.111811,
                                24.986242
                            ],
                            [
                                55.111086,
                                24.986522
                            ],
                            [
                                55.111564,
                                24.987885
                            ],
                            [
                                55.112393,
                                24.987499
                            ]
                        ]
                    ]
                ]
            }
        }
    ]
}