{
    "type": "FeatureCollection",
    "features": [
        {
            "type": "Feature",
            "properties": {
                "type": "site",
                "region_id": "AE_R001",
                "site_id": "AE_R001_0423",
                "version": "2.0.0",
                "status": "ignore",
                "mgrs": "40RCN",
                "score": 1.0,
                "start_date": "2014-08-14",
                "end_date": null,
                "model_content": "annotation",
                "originator": "te",
                "validated": "True",
                "misc_info": {
                    "commit_hash": "8e2cc701facd37559ed12647d70a5e5b3622c6ca"
                }
            },
            "geometry": {
                "type": "Polygon",
                "coordinates": [
                    [
                        [
                            55.131686,
                            25.023004
                        ],
                        [
                            55.135916,
                            25.026627
                        ],
                        [
                            55.138201,
                            25.026753
                        ],
                        [
                            55.139511,
                            25.026046
                        ],
                        [
                            55.139295,
                            25.021221
                        ],
                        [
                            55.13871,
                            25.021241
                        ],
                        [
                            55.138695,
                            25.018617
                        ],
                        [
                            55.134587,
                            25.018489
                        ],
                        [
                            55.133745,
                            25.021413
                        ],
                        [
                            55.132076,
                            25.02143
                        ],
                        [
                            55.131686,
                            25.023004
                        ]
                    ]
                ]
            }
        },
        {
            "type": "Feature",
            "properties": {
                "observation_date": "2014-08-14",
                "source": null,
                "sensor_name": null,
                "type": "observation",
                "current_phase": null,
                "is_occluded": null,
                "is_site_boundary": null,
                "score": 1.0
            },
            "geometry": {
                "type": "MultiPolygon",
                "coordinates": [
                    [
                        [
                            [
                                55.131686,
                                25.023004
                            ],
                            [
                                55.135916,
                                25.026627
                            ],
                            [
                                55.138201,
                                25.026753
                            ],
                            [
                                55.139511,
                                25.026046
                            ],
                            [
                                55.139295,
                                25.021221
                            ],
                            [
                                55.13871,
                                25.021241
                            ],
                            [
                                55.138695,
                                25.018617
                            ],
                            [
                                55.134587,
                                25.018489
                            ],
                            [
                                55.133745,
                                25.021413
                            ],
                            [
                                55.132076,
                                25.02143
                            ],
                            [
                                55.131686,
                                25.023004
                            ]
                        ]
                    ]
                ]
            }
        },
        {
            "type": "Feature",
            "properties": {
                "observation_date": null,
                "source": null,
                "sensor_name": null,
                "type": "observation",
                "current_phase": null,
                "is_occluded": null,
                "is_site_boundary": null,
                "score": 1.0
            },
            "geometry": {
                "type": "MultiPolygon",
                "coordinates": [
                    [
                        [
                            [
                                55.131686,
                                25.023004
                            ],
                            [
                                55.135916,
                                25.026627
                            ],
                            [
                                55.138201,
                                25.026753
                            ],
                            [
                                55.139511,
                                25.026046
                            ],
                            [
                                55.139295,
                                25.021221
                            ],
                            [
                                55.13871,
                                25.021241
                            ],
                            [
                                55.138695,
                                25.018617
                            ],
                            [
                                55.134587,
                                25.018489
                            ],
                            [
                                55.133745,
                                25.021413
                            ],
                            [
                                55.132076,
                                25.02143
                            ],
                            [
                                55.131686,
                                25.023004
                            ]
                        ]
                    ]
                ]
            }
        }
    ]
}