{
    "type": "FeatureCollection",
    "features": [
        {
            "type": "Feature",
            "properties": {
                "type": "site",
                "region_id": "AE_R002",
                "site_id": "AE_R002_0294",
                "version": "2.0.0",
                "status": "positive_pending",
                "mgrs": "40RCN",
                "score": 1.0,
                "start_date": "2013-09-02",
                "end_date": null,
                "model_content": "annotation",
                "originator": "te",
                "validated": "False",
                "misc_info": {
                    "commit_hash": "824fac44479e0c34c554c214480da6d4c14a319e"
                }
            },
            "geometry": {
                "type": "Polygon",
                "coordinates": [
                    [
                        [
                            55.315321,
                            25.102357
                        ],
                        [
                            55.318422,
                            25.102033
                        ],
                        [
                            55.320938,
                            25.101636
                        ],
                        [
                            55.325365,
                            25.10148
                        ],
                        [
                            55.325365,
                            25.098452
                        ],
                        [
                            55.323789,
                            25.097105
                        ],
                        [
                            55.322818,
                            25.0965
                        ],
                        [
                            55.321314,
                            25.096333
                        ],
                        [
                            55.319832,
                            25.096949
                        ],
                        [
                            55.318422,
                            25.098014
                        ],
                        [
                            55.318934,
                            25.098901
                        ],
                        [
                            55.318558,
                            25.09912
                        ],
                        [
                            55.318579,
                            25.10054
                        ],
                        [
                            55.315207,
                            25.101062
                        ],
                        [
                            55.315321,
                            25.102357
                        ]
                    ]
                ]
            }
        },
        {
            "type": "Feature",
            "properties": {
                "observation_date": "2013-09-02",
                "source": null,
                "sensor_name": null,
                "type": "observation",
                "current_phase": null,
                "is_occluded": null,
                "is_site_boundary": null,
                "score": 1.0
            },
            "geometry": {
                "type": "MultiPolygon",
                "coordinates": [
                    [
                        [
                            [
                                55.315321,
                                25.102357
                            ],
                            [
                                55.318422,
                                25.102033
                            ],
                            [
                                55.320938,
                                25.101636
                            ],
                            [
                                55.325365,
                                25.10148
                            ],
                            [
                                55.325365,
                                25.098452
                            ],
                            [
                                55.323789,
                                25.097105
                            ],
                            [
                                55.322818,
                                25.0965
                            ],
                            [
                                55.321314,
                                25.096333
                            ],
                            [
                                55.319832,
                                25.096949
                            ],
                            [
                                55.318422,
                                25.098014
                            ],
                            [
                                55.318934,
                                25.098901
                            ],
                            [
                                55.318558,
                                25.09912
                            ],
                            [
                                55.318579,
                                25.10054
                            ],
                            [
                                55.315207,
                                25.101062
                            ],
                            [
                                55.315321,
                                25.102357
                            ]
                        ]
                    ]
                ]
            }
        },
        {
            "type": "Feature",
            "properties": {
                "observation_date": null,
                "source": null,
                "sensor_name": null,
                "type": "observation",
                "current_phase": null,
                "is_occluded": null,
                "is_site_boundary": null,
                "score": 1.0
            },
            "geometry": {
                "type": "MultiPolygon",
                "coordinates": [
                    [
                        [
                            [
                                55.315321,
                                25.102357
                            ],
                            [
                                55.318422,
                                25.102033
                            ],
                            [
                                55.320938,
                                25.101636
                            ],
                            [
                                55.325365,
                                25.10148
                            ],
                            [
                                55.325365,
                                25.098452
                            ],
                            [
                                55.323789,
                                25.097105
                            ],
                            [
                                55.322818,
                                25.0965
                            ],
                            [
                                55.321314,
                                25.096333
                            ],
                            [
                                55.319832,
                                25.096949
                            ],
                            [
                                55.318422,
                                25.098014
                            ],
                            [
                                55.318934,
                                25.098901
                            ],
                            [
                                55.318558,
                                25.09912
                            ],
                            [
                                55.318579,
                                25.10054
                            ],
                            [
                                55.315207,
                                25.101062
                            ],
                            [
                                55.315321,
                                25.102357
                            ]
                        ]
                    ]
                ]
            }
        }
    ]
}