{
    "type": "FeatureCollection",
    "features": [
        {
            "type": "Feature",
            "properties": {
                "type": "site",
                "region_id": "AE_R001",
                "site_id": "AE_R001_0503",
                "version": "2.0.0",
                "status": "positive_pending",
                "mgrs": "40RBN",
                "score": 1.0,
                "start_date": "2014-07-06",
                "end_date": "2017-05-30",
                "model_content": "annotation",
                "originator": "te",
                "validated": "True",
                "misc_info": {
                    "commit_hash": "8e2cc701facd37559ed12647d70a5e5b3622c6ca"
                }
            },
            "geometry": {
                "type": "Polygon",
                "coordinates": [
                    [
                        [
                            55.008518,
                            24.918253
                        ],
                        [
                            55.008682,
                            24.918081
                        ],
                        [
                            55.008768,
                            24.918161
                        ],
                        [
                            55.008954,
                            24.917995
                        ],
                        [
                            55.008866,
                            24.91785
                        ],
                        [
                            55.008922,
                            24.917786
                        ],
                        [
                            55.008481,
                            24.91732
                        ],
                        [
                            55.008353,
                            24.917129
                        ],
                        [
                            55.008635,
                            24.916508
                        ],
                        [
                            55.007924,
                            24.916488
                        ],
                        [
                            55.007821,
                            24.916764
                        ],
                        [
                            55.007956,
                            24.917705
                        ],
                        [
                            55.007946,
                            24.917875
                        ],
                        [
                            55.008191,
                            24.918109
                        ],
                        [
                            55.008518,
                            24.918253
                        ]
                    ]
                ]
            }
        },
        {
            "type": "Feature",
            "properties": {
                "observation_date": "2014-07-06",
                "source": null,
                "sensor_name": null,
                "type": "observation",
                "current_phase": null,
                "is_occluded": null,
                "is_site_boundary": null,
                "score": 1.0
            },
            "geometry": {
                "type": "MultiPolygon",
                "coordinates": [
                    [
                        [
                            [
                                55.008518,
                                24.918253
                            ],
                            [
                                55.008682,
                                24.918081
                            ],
                            [
                                55.008768,
                                24.918161
                            ],
                            [
                                55.008954,
                                24.917995
                            ],
                            [
                                55.008866,
                                24.91785
                            ],
                            [
                                55.008922,
                                24.917786
                            ],
                            [
                                55.008481,
                                24.91732
                            ],
                            [
                                55.008353,
                                24.917129
                            ],
                            [
                                55.008635,
                                24.916508
                            ],
                            [
                                55.007924,
                                24.916488
                            ],
                            [
                                55.007821,
                                24.916764
                            ],
                            [
                                55.007956,
                                24.917705
                            ],
                            [
                                55.007946,
                                24.917875
                            ],
                            [
                                55.008191,
                                24.918109
                            ],
                            [
                                55.008518,
                                24.918253
                            ]
                        ]
                    ]
                ]
            }
        },
        {
            "type": "Feature",
            "properties": {
                "observation_date": "2017-05-30",
                "source": null,
                "sensor_name": null,
                "type": "observation",
                "current_phase": null,
                "is_occluded": null,
                "is_site_boundary": null,
                "score": 1.0
            },
            "geometry": {
                "type": "MultiPolygon",
                "coordinates": [
                    [
                        [
                            [
                                55.008518,
                                24.918253
                            ],
                            [
                                55.008682,
                                24.918081
                            ],
                            [
                                55.008768,
                                24.918161
                            ],
                            [
                                55.008954,
                                24.917995
                            ],
                            [
                                55.008866,
                                24.91785
                            ],
                            [
                                55.008922,
                                24.917786
                            ],
                            [
                                55.008481,
                                24.91732
                            ],
                            [
                                55.008353,
                                24.917129
                            ],
                            [
                                55.008635,
                                24.916508
                            ],
                            [
                                55.007924,
                                24.916488
                            ],
                            [
                                55.007821,
                                24.916764
                            ],
                            [
                                55.007956,
                                24.917705
                            ],
                            [
                                55.007946,
                                24.917875
                            ],
                            [
                                55.008191,
                                24.918109
                            ],
                            [
                                55.008518,
                                24.918253
                            ]
                        ]
                    ]
                ]
            }
        }
    ]
}