{
    "type": "FeatureCollection",
    "features": [
        {
            "type": "Feature",
            "properties": {
                "type": "site",
                "region_id": "AE_R002",
                "site_id": "AE_R002_0144",
                "version": "2.0.0",
                "status": "positive_pending",
                "mgrs": "40RCN",
                "score": 1.0,
                "start_date": "2014-12-12",
                "end_date": "2021-08-11",
                "model_content": "annotation",
                "originator": "te",
                "validated": "False",
                "misc_info": {
                    "commit_hash": "824fac44479e0c34c554c214480da6d4c14a319e"
                }
            },
            "geometry": {
                "type": "Polygon",
                "coordinates": [
                    [
                        [
                            55.377234,
                            25.123224
                        ],
                        [
                            55.377673,
                            25.122768
                        ],
                        [
                            55.37903,
                            25.123832
                        ],
                        [
                            55.378211,
                            25.124328
                        ],
                        [
                            55.378074,
                            25.124056
                        ],
                        [
                            55.378164,
                            25.123926
                        ],
                        [
                            55.378127,
                            25.123836
                        ],
                        [
                            55.37801,
                            25.12379
                        ],
                        [
                            55.377803,
                            25.123776
                        ],
                        [
                            55.377234,
                            25.123224
                        ]
                    ]
                ]
            }
        },
        {
            "type": "Feature",
            "properties": {
                "observation_date": "2014-12-12",
                "source": null,
                "sensor_name": null,
                "type": "observation",
                "current_phase": null,
                "is_occluded": null,
                "is_site_boundary": null,
                "score": 1.0
            },
            "geometry": {
                "type": "MultiPolygon",
                "coordinates": [
                    [
                        [
                            [
                                55.377234,
                                25.123224
                            ],
                            [
                                55.377673,
                                25.122768
                            ],
                            [
                                55.37903,
                                25.123832
                            ],
                            [
                                55.378211,
                                25.124328
                            ],
                            [
                                55.378074,
                                25.124056
                            ],
                            [
                                55.378164,
                                25.123926
                            ],
                            [
                                55.378127,
                                25.123836
                            ],
                            [
                                55.37801,
                                25.12379
                            ],
                            [
                                55.377803,
                                25.123776
                            ],
                            [
                                55.377234,
                                25.123224
                            ]
                        ]
                    ]
                ]
            }
        },
        {
            "type": "Feature",
            "properties": {
                "observation_date": "2021-08-11",
                "source": null,
                "sensor_name": null,
                "type": "observation",
                "current_phase": null,
                "is_occluded": null,
                "is_site_boundary": null,
                "score": 1.0
            },
            "geometry": {
                "type": "MultiPolygon",
                "coordinates": [
                    [
                        [
                            [
                                55.377234,
                                25.123224
                            ],
                            [
                                55.377673,
                                25.122768
                            ],
                            [
                                55.37903,
                                25.123832
                            ],
                            [
                                55.378211,
                                25.124328
                            ],
                            [
                                55.378074,
                                25.124056
                            ],
                            [
                                55.378164,
                                25.123926
                            ],
                            [
                                55.378127,
                                25.123836
                            ],
                            [
                                55.37801,
                                25.12379
                            ],
                            [
                                55.377803,
                                25.123776
                            ],
                            [
                                55.377234,
                                25.123224
                            ]
                        ]
                    ]
                ]
            }
        }
    ]
}