{
    "type": "FeatureCollection",
    "features": [
        {
            "type": "Feature",
            "properties": {
                "type": "site",
                "region_id": "AE_R002",
                "site_id": "AE_R002_0093",
                "version": "2.0.0",
                "status": "positive_annotated_static",
                "mgrs": "40RCN",
                "score": 1.0,
                "start_date": "2014-04-22",
                "end_date": "2019-01-26",
                "model_content": "annotation",
                "originator": "te",
                "validated": "True",
                "misc_info": {
                    "commit_hash": "dbdea3485a8eb34730f81ec01861c62e6358b0b5"
                }
            },
            "geometry": {
                "type": "Polygon",
                "coordinates": [
                    [
                        [
                            55.184876,
                            25.105178
                        ],
                        [
                            55.185616,
                            25.10514
                        ],
                        [
                            55.18553,
                            25.104787
                        ],
                        [
                            55.185202,
                            25.104339
                        ],
                        [
                            55.184841,
                            25.104109
                        ],
                        [
                            55.184242,
                            25.103825
                        ],
                        [
                            55.18411,
                            25.103861
                        ],
                        [
                            55.183948,
                            25.104203
                        ],
                        [
                            55.183905,
                            25.10467
                        ],
                        [
                            55.184096,
                            25.105055
                        ],
                        [
                            55.184471,
                            25.10522
                        ],
                        [
                            55.184876,
                            25.105178
                        ]
                    ]
                ]
            }
        },
        {
            "type": "Feature",
            "properties": {
                "observation_date": "2014-04-22",
                "source": "14APR22064648-P1BS-500115566020_01_P002",
                "sensor_name": "WorldView",
                "type": "observation",
                "current_phase": "No Activity",
                "is_occluded": "False",
                "is_site_boundary": "True",
                "score": 1.0
            },
            "geometry": {
                "type": "MultiPolygon",
                "coordinates": [
                    [
                        [
                            [
                                55.185616,
                                25.10514
                            ],
                            [
                                55.184876,
                                25.105178
                            ],
                            [
                                55.184471,
                                25.10522
                            ],
                            [
                                55.184096,
                                25.105055
                            ],
                            [
                                55.183905,
                                25.10467
                            ],
                            [
                                55.183948,
                                25.104203
                            ],
                            [
                                55.18411,
                                25.103861
                            ],
                            [
                                55.184242,
                                25.103825
                            ],
                            [
                                55.184841,
                                25.104109
                            ],
                            [
                                55.185202,
                                25.104339
                            ],
                            [
                                55.18553,
                                25.104787
                            ],
                            [
                                55.185616,
                                25.10514
                            ]
                        ]
                    ]
                ]
            }
        },
        {
            "type": "Feature",
            "properties": {
                "observation_date": "2015-02-08",
                "source": "15FEB08073731-P1BS-500247201020_01_P002",
                "sensor_name": "WorldView",
                "type": "observation",
                "current_phase": "Site Preparation",
                "is_occluded": "False",
                "is_site_boundary": "True",
                "score": 1.0
            },
            "geometry": {
                "type": "MultiPolygon",
                "coordinates": [
                    [
                        [
                            [
                                55.185616,
                                25.10514
                            ],
                            [
                                55.184876,
                                25.105178
                            ],
                            [
                                55.184471,
                                25.10522
                            ],
                            [
                                55.184096,
                                25.105055
                            ],
                            [
                                55.183905,
                                25.10467
                            ],
                            [
                                55.183948,
                                25.104203
                            ],
                            [
                                55.18411,
                                25.103861
                            ],
                            [
                                55.184242,
                                25.103825
                            ],
                            [
                                55.184841,
                                25.104109
                            ],
                            [
                                55.185202,
                                25.104339
                            ],
                            [
                                55.18553,
                                25.104787
                            ],
                            [
                                55.185616,
                                25.10514
                            ]
                        ]
                    ]
                ]
            }
        },
        {
            "type": "Feature",
            "properties": {
                "observation_date": "2016-01-10",
                "source": "S2A_40RCN_20160110_0_L1C_TCI",
                "sensor_name": "Sentinel-2",
                "type": "observation",
                "current_phase": "Active Construction",
                "is_occluded": "False",
                "is_site_boundary": "True",
                "score": 1.0
            },
            "geometry": {
                "type": "MultiPolygon",
                "coordinates": [
                    [
                        [
                            [
                                55.185616,
                                25.10514
                            ],
                            [
                                55.184876,
                                25.105178
                            ],
                            [
                                55.184471,
                                25.10522
                            ],
                            [
                                55.184096,
                                25.105055
                            ],
                            [
                                55.183905,
                                25.10467
                            ],
                            [
                                55.183948,
                                25.104203
                            ],
                            [
                                55.18411,
                                25.103861
                            ],
                            [
                                55.184242,
                                25.103825
                            ],
                            [
                                55.184841,
                                25.104109
                            ],
                            [
                                55.185202,
                                25.104339
                            ],
                            [
                                55.18553,
                                25.104787
                            ],
                            [
                                55.185616,
                                25.10514
                            ]
                        ]
                    ]
                ]
            }
        },
        {
            "type": "Feature",
            "properties": {
                "observation_date": "2016-02-09",
                "source": "S2A_40RCN_20160209_0_L1C_TCI",
                "sensor_name": "Sentinel-2",
                "type": "observation",
                "current_phase": "Active Construction",
                "is_occluded": "False",
                "is_site_boundary": "True",
                "score": 1.0
            },
            "geometry": {
                "type": "MultiPolygon",
                "coordinates": [
                    [
                        [
                            [
                                55.185616,
                                25.10514
                            ],
                            [
                                55.184876,
                                25.105178
                            ],
                            [
                                55.184471,
                                25.10522
                            ],
                            [
                                55.184096,
                                25.105055
                            ],
                            [
                                55.183905,
                                25.10467
                            ],
                            [
                                55.183948,
                                25.104203
                            ],
                            [
                                55.18411,
                                25.103861
                            ],
                            [
                                55.184242,
                                25.103825
                            ],
                            [
                                55.184841,
                                25.104109
                            ],
                            [
                                55.185202,
                                25.104339
                            ],
                            [
                                55.18553,
                                25.104787
                            ],
                            [
                                55.185616,
                                25.10514
                            ]
                        ]
                    ]
                ]
            }
        },
        {
            "type": "Feature",
            "properties": {
                "observation_date": "2016-03-20",
                "source": "S2A_40RCN_20160320_0_L1C_TCI",
                "sensor_name": "Sentinel-2",
                "type": "observation",
                "current_phase": "Active Construction",
                "is_occluded": "False",
                "is_site_boundary": "True",
                "score": 1.0
            },
            "geometry": {
                "type": "MultiPolygon",
                "coordinates": [
                    [
                        [
                            [
                                55.185616,
                                25.10514
                            ],
                            [
                                55.184876,
                                25.105178
                            ],
                            [
                                55.184471,
                                25.10522
                            ],
                            [
                                55.184096,
                                25.105055
                            ],
                            [
                                55.183905,
                                25.10467
                            ],
                            [
                                55.183948,
                                25.104203
                            ],
                            [
                                55.18411,
                                25.103861
                            ],
                            [
                                55.184242,
                                25.103825
                            ],
                            [
                                55.184841,
                                25.104109
                            ],
                            [
                                55.185202,
                                25.104339
                            ],
                            [
                                55.18553,
                                25.104787
                            ],
                            [
                                55.185616,
                                25.10514
                            ]
                        ]
                    ]
                ]
            }
        },
        {
            "type": "Feature",
            "properties": {
                "observation_date": "2016-04-29",
                "source": "S2A_40RCN_20160429_0_L1C_TCI",
                "sensor_name": "Sentinel-2",
                "type": "observation",
                "current_phase": "Active Construction",
                "is_occluded": "False",
                "is_site_boundary": "True",
                "score": 1.0
            },
            "geometry": {
                "type": "MultiPolygon",
                "coordinates": [
                    [
                        [
                            [
                                55.185616,
                                25.10514
                            ],
                            [
                                55.184876,
                                25.105178
                            ],
                            [
                                55.184471,
                                25.10522
                            ],
                            [
                                55.184096,
                                25.105055
                            ],
                            [
                                55.183905,
                                25.10467
                            ],
                            [
                                55.183948,
                                25.104203
                            ],
                            [
                                55.18411,
                                25.103861
                            ],
                            [
                                55.184242,
                                25.103825
                            ],
                            [
                                55.184841,
                                25.104109
                            ],
                            [
                                55.185202,
                                25.104339
                            ],
                            [
                                55.18553,
                                25.104787
                            ],
                            [
                                55.185616,
                                25.10514
                            ]
                        ]
                    ]
                ]
            }
        },
        {
            "type": "Feature",
            "properties": {
                "observation_date": "2016-05-29",
                "source": "S2A_40RCN_20160529_0_L1C_TCI",
                "sensor_name": "Sentinel-2",
                "type": "observation",
                "current_phase": "Active Construction",
                "is_occluded": "False",
                "is_site_boundary": "True",
                "score": 1.0
            },
            "geometry": {
                "type": "MultiPolygon",
                "coordinates": [
                    [
                        [
                            [
                                55.185616,
                                25.10514
                            ],
                            [
                                55.184876,
                                25.105178
                            ],
                            [
                                55.184471,
                                25.10522
                            ],
                            [
                                55.184096,
                                25.105055
                            ],
                            [
                                55.183905,
                                25.10467
                            ],
                            [
                                55.183948,
                                25.104203
                            ],
                            [
                                55.18411,
                                25.103861
                            ],
                            [
                                55.184242,
                                25.103825
                            ],
                            [
                                55.184841,
                                25.104109
                            ],
                            [
                                55.185202,
                                25.104339
                            ],
                            [
                                55.18553,
                                25.104787
                            ],
                            [
                                55.185616,
                                25.10514
                            ]
                        ]
                    ]
                ]
            }
        },
        {
            "type": "Feature",
            "properties": {
                "observation_date": "2016-06-05",
                "source": "16JUN05100242-P1BS-500346917010_05_P005",
                "sensor_name": "WorldView",
                "type": "observation",
                "current_phase": "Active Construction",
                "is_occluded": "False",
                "is_site_boundary": "True",
                "score": 1.0
            },
            "geometry": {
                "type": "MultiPolygon",
                "coordinates": [
                    [
                        [
                            [
                                55.185616,
                                25.10514
                            ],
                            [
                                55.184876,
                                25.105178
                            ],
                            [
                                55.184471,
                                25.10522
                            ],
                            [
                                55.184096,
                                25.105055
                            ],
                            [
                                55.183905,
                                25.10467
                            ],
                            [
                                55.183948,
                                25.104203
                            ],
                            [
                                55.18411,
                                25.103861
                            ],
                            [
                                55.184242,
                                25.103825
                            ],
                            [
                                55.184841,
                                25.104109
                            ],
                            [
                                55.185202,
                                25.104339
                            ],
                            [
                                55.18553,
                                25.104787
                            ],
                            [
                                55.185616,
                                25.10514
                            ]
                        ]
                    ]
                ]
            }
        },
        {
            "type": "Feature",
            "properties": {
                "observation_date": "2017-11-13",
                "source": "17NOV13095918-P1BS-501764823010_01_P003",
                "sensor_name": "WorldView",
                "type": "observation",
                "current_phase": "Post Construction",
                "is_occluded": "False",
                "is_site_boundary": "True",
                "score": 1.0
            },
            "geometry": {
                "type": "MultiPolygon",
                "coordinates": [
                    [
                        [
                            [
                                55.185616,
                                25.10514
                            ],
                            [
                                55.184876,
                                25.105178
                            ],
                            [
                                55.184471,
                                25.10522
                            ],
                            [
                                55.184096,
                                25.105055
                            ],
                            [
                                55.183905,
                                25.10467
                            ],
                            [
                                55.183948,
                                25.104203
                            ],
                            [
                                55.18411,
                                25.103861
                            ],
                            [
                                55.184242,
                                25.103825
                            ],
                            [
                                55.184841,
                                25.104109
                            ],
                            [
                                55.185202,
                                25.104339
                            ],
                            [
                                55.18553,
                                25.104787
                            ],
                            [
                                55.185616,
                                25.10514
                            ]
                        ]
                    ]
                ]
            }
        },
        {
            "type": "Feature",
            "properties": {
                "observation_date": "2018-03-08",
                "source": "18MAR08072034-P1BS-502009134020_01_P003",
                "sensor_name": "WorldView",
                "type": "observation",
                "current_phase": "Post Construction",
                "is_occluded": "False",
                "is_site_boundary": "True",
                "score": 1.0
            },
            "geometry": {
                "type": "MultiPolygon",
                "coordinates": [
                    [
                        [
                            [
                                55.185616,
                                25.10514
                            ],
                            [
                                55.184876,
                                25.105178
                            ],
                            [
                                55.184471,
                                25.10522
                            ],
                            [
                                55.184096,
                                25.105055
                            ],
                            [
                                55.183905,
                                25.10467
                            ],
                            [
                                55.183948,
                                25.104203
                            ],
                            [
                                55.18411,
                                25.103861
                            ],
                            [
                                55.184242,
                                25.103825
                            ],
                            [
                                55.184841,
                                25.104109
                            ],
                            [
                                55.185202,
                                25.104339
                            ],
                            [
                                55.18553,
                                25.104787
                            ],
                            [
                                55.185616,
                                25.10514
                            ]
                        ]
                    ]
                ]
            }
        },
        {
            "type": "Feature",
            "properties": {
                "observation_date": "2019-01-26",
                "source": "19JAN26071819-M1BS-014858848010_01_P003",
                "sensor_name": "WorldView",
                "type": "observation",
                "current_phase": "Post Construction",
                "is_occluded": "False",
                "is_site_boundary": "True",
                "score": 1.0
            },
            "geometry": {
                "type": "MultiPolygon",
                "coordinates": [
                    [
                        [
                            [
                                55.185616,
                                25.10514
                            ],
                            [
                                55.184876,
                                25.105178
                            ],
                            [
                                55.184471,
                                25.10522
                            ],
                            [
                                55.184096,
                                25.105055
                            ],
                            [
                                55.183905,
                                25.10467
                            ],
                            [
                                55.183948,
                                25.104203
                            ],
                            [
                                55.18411,
                                25.103861
                            ],
                            [
                                55.184242,
                                25.103825
                            ],
                            [
                                55.184841,
                                25.104109
                            ],
                            [
                                55.185202,
                                25.104339
                            ],
                            [
                                55.18553,
                                25.104787
                            ],
                            [
                                55.185616,
                                25.10514
                            ]
                        ]
                    ]
                ]
            }
        }
    ]
}