{
    "type": "FeatureCollection",
    "features": [
        {
            "type": "Feature",
            "properties": {
                "type": "site",
                "region_id": "AE_R002",
                "site_id": "AE_R002_0291",
                "version": "2.0.0",
                "status": "positive_pending",
                "mgrs": "40RCN",
                "score": 1.0,
                "start_date": "2017-09-11",
                "end_date": "2020-10-05",
                "model_content": "annotation",
                "originator": "te",
                "validated": "True",
                "misc_info": {
                    "commit_hash": "824fac44479e0c34c554c214480da6d4c14a319e"
                }
            },
            "geometry": {
                "type": "Polygon",
                "coordinates": [
                    [
                        [
                            55.222395,
                            25.036491
                        ],
                        [
                            55.222905,
                            25.036799
                        ],
                        [
                            55.223881,
                            25.035479
                        ],
                        [
                            55.223686,
                            25.035191
                        ],
                        [
                            55.223129,
                            25.035208
                        ],
                        [
                            55.223133,
                            25.035331
                        ],
                        [
                            55.22311,
                            25.035491
                        ],
                        [
                            55.223082,
                            25.035567
                        ],
                        [
                            55.222395,
                            25.036491
                        ]
                    ]
                ]
            }
        },
        {
            "type": "Feature",
            "properties": {
                "observation_date": "2017-09-11",
                "source": null,
                "sensor_name": null,
                "type": "observation",
                "current_phase": null,
                "is_occluded": null,
                "is_site_boundary": null,
                "score": 1.0
            },
            "geometry": {
                "type": "MultiPolygon",
                "coordinates": [
                    [
                        [
                            [
                                55.222395,
                                25.036491
                            ],
                            [
                                55.222905,
                                25.036799
                            ],
                            [
                                55.223881,
                                25.035479
                            ],
                            [
                                55.223686,
                                25.035191
                            ],
                            [
                                55.223129,
                                25.035208
                            ],
                            [
                                55.223133,
                                25.035331
                            ],
                            [
                                55.22311,
                                25.035491
                            ],
                            [
                                55.223082,
                                25.035567
                            ],
                            [
                                55.222395,
                                25.036491
                            ]
                        ]
                    ]
                ]
            }
        },
        {
            "type": "Feature",
            "properties": {
                "observation_date": "2020-10-05",
                "source": null,
                "sensor_name": null,
                "type": "observation",
                "current_phase": null,
                "is_occluded": null,
                "is_site_boundary": null,
                "score": 1.0
            },
            "geometry": {
                "type": "MultiPolygon",
                "coordinates": [
                    [
                        [
                            [
                                55.222395,
                                25.036491
                            ],
                            [
                                55.222905,
                                25.036799
                            ],
                            [
                                55.223881,
                                25.035479
                            ],
                            [
                                55.223686,
                                25.035191
                            ],
                            [
                                55.223129,
                                25.035208
                            ],
                            [
                                55.223133,
                                25.035331
                            ],
                            [
                                55.22311,
                                25.035491
                            ],
                            [
                                55.223082,
                                25.035567
                            ],
                            [
                                55.222395,
                                25.036491
                            ]
                        ]
                    ]
                ]
            }
        }
    ]
}