{
    "type": "FeatureCollection",
    "features": [
        {
            "type": "Feature",
            "properties": {
                "type": "site",
                "region_id": "AE_R001",
                "site_id": "AE_R001_0605",
                "version": "2.0.0",
                "status": "positive_pending",
                "mgrs": "40RCN",
                "score": 1.0,
                "start_date": "2014-07-06",
                "end_date": "2017-11-21",
                "model_content": "annotation",
                "originator": "te",
                "validated": "True",
                "misc_info": {
                    "commit_hash": "8e2cc701facd37559ed12647d70a5e5b3622c6ca"
                }
            },
            "geometry": {
                "type": "Polygon",
                "coordinates": [
                    [
                        [
                            55.206811,
                            24.976843
                        ],
                        [
                            55.206753,
                            24.975812
                        ],
                        [
                            55.206305,
                            24.975627
                        ],
                        [
                            55.206368,
                            24.975535
                        ],
                        [
                            55.205558,
                            24.975154
                        ],
                        [
                            55.20526,
                            24.975818
                        ],
                        [
                            55.206117,
                            24.976124
                        ],
                        [
                            55.205657,
                            24.977105
                        ],
                        [
                            55.204766,
                            24.976675
                        ],
                        [
                            55.204465,
                            24.977371
                        ],
                        [
                            55.20544,
                            24.977754
                        ],
                        [
                            55.205563,
                            24.977402
                        ],
                        [
                            55.206226,
                            24.977643
                        ],
                        [
                            55.206811,
                            24.976843
                        ]
                    ]
                ]
            }
        },
        {
            "type": "Feature",
            "properties": {
                "observation_date": "2014-07-06",
                "source": null,
                "sensor_name": null,
                "type": "observation",
                "current_phase": null,
                "is_occluded": null,
                "is_site_boundary": null,
                "score": 1.0
            },
            "geometry": {
                "type": "MultiPolygon",
                "coordinates": [
                    [
                        [
                            [
                                55.206811,
                                24.976843
                            ],
                            [
                                55.206753,
                                24.975812
                            ],
                            [
                                55.206305,
                                24.975627
                            ],
                            [
                                55.206368,
                                24.975535
                            ],
                            [
                                55.205558,
                                24.975154
                            ],
                            [
                                55.20526,
                                24.975818
                            ],
                            [
                                55.206117,
                                24.976124
                            ],
                            [
                                55.205657,
                                24.977105
                            ],
                            [
                                55.204766,
                                24.976675
                            ],
                            [
                                55.204465,
                                24.977371
                            ],
                            [
                                55.20544,
                                24.977754
                            ],
                            [
                                55.205563,
                                24.977402
                            ],
                            [
                                55.206226,
                                24.977643
                            ],
                            [
                                55.206811,
                                24.976843
                            ]
                        ]
                    ]
                ]
            }
        },
        {
            "type": "Feature",
            "properties": {
                "observation_date": "2017-11-21",
                "source": null,
                "sensor_name": null,
                "type": "observation",
                "current_phase": null,
                "is_occluded": null,
                "is_site_boundary": null,
                "score": 1.0
            },
            "geometry": {
                "type": "MultiPolygon",
                "coordinates": [
                    [
                        [
                            [
                                55.206811,
                                24.976843
                            ],
                            [
                                55.206753,
                                24.975812
                            ],
                            [
                                55.206305,
                                24.975627
                            ],
                            [
                                55.206368,
                                24.975535
                            ],
                            [
                                55.205558,
                                24.975154
                            ],
                            [
                                55.20526,
                                24.975818
                            ],
                            [
                                55.206117,
                                24.976124
                            ],
                            [
                                55.205657,
                                24.977105
                            ],
                            [
                                55.204766,
                                24.976675
                            ],
                            [
                                55.204465,
                                24.977371
                            ],
                            [
                                55.20544,
                                24.977754
                            ],
                            [
                                55.205563,
                                24.977402
                            ],
                            [
                                55.206226,
                                24.977643
                            ],
                            [
                                55.206811,
                                24.976843
                            ]
                        ]
                    ]
                ]
            }
        }
    ]
}