{
    "type": "FeatureCollection",
    "features": [
        {
            "type": "Feature",
            "properties": {
                "type": "site",
                "region_id": "AE_R001",
                "site_id": "AE_R001_0442",
                "version": "2.0.0",
                "status": "positive_pending",
                "mgrs": "40RCN",
                "score": 1.0,
                "start_date": "2014-01-04",
                "end_date": "2022-10-22",
                "model_content": "annotation",
                "originator": "te",
                "validated": "True",
                "misc_info": {
                    "commit_hash": "8e2cc701facd37559ed12647d70a5e5b3622c6ca"
                }
            },
            "geometry": {
                "type": "Polygon",
                "coordinates": [
                    [
                        [
                            55.202052,
                            24.948488
                        ],
                        [
                            55.202293,
                            24.947655
                        ],
                        [
                            55.20568,
                            24.945726
                        ],
                        [
                            55.206169,
                            24.946465
                        ],
                        [
                            55.206558,
                            24.946446
                        ],
                        [
                            55.207153,
                            24.947235
                        ],
                        [
                            55.208417,
                            24.946672
                        ],
                        [
                            55.208927,
                            24.947619
                        ],
                        [
                            55.203641,
                            24.950494
                        ],
                        [
                            55.202052,
                            24.948488
                        ]
                    ]
                ]
            }
        },
        {
            "type": "Feature",
            "properties": {
                "observation_date": "2014-01-04",
                "source": null,
                "sensor_name": null,
                "type": "observation",
                "current_phase": null,
                "is_occluded": null,
                "is_site_boundary": null,
                "score": 1.0
            },
            "geometry": {
                "type": "MultiPolygon",
                "coordinates": [
                    [
                        [
                            [
                                55.202052,
                                24.948488
                            ],
                            [
                                55.202293,
                                24.947655
                            ],
                            [
                                55.20568,
                                24.945726
                            ],
                            [
                                55.206169,
                                24.946465
                            ],
                            [
                                55.206558,
                                24.946446
                            ],
                            [
                                55.207153,
                                24.947235
                            ],
                            [
                                55.208417,
                                24.946672
                            ],
                            [
                                55.208927,
                                24.947619
                            ],
                            [
                                55.203641,
                                24.950494
                            ],
                            [
                                55.202052,
                                24.948488
                            ]
                        ]
                    ]
                ]
            }
        },
        {
            "type": "Feature",
            "properties": {
                "observation_date": "2022-10-22",
                "source": null,
                "sensor_name": null,
                "type": "observation",
                "current_phase": null,
                "is_occluded": null,
                "is_site_boundary": null,
                "score": 1.0
            },
            "geometry": {
                "type": "MultiPolygon",
                "coordinates": [
                    [
                        [
                            [
                                55.202052,
                                24.948488
                            ],
                            [
                                55.202293,
                                24.947655
                            ],
                            [
                                55.20568,
                                24.945726
                            ],
                            [
                                55.206169,
                                24.946465
                            ],
                            [
                                55.206558,
                                24.946446
                            ],
                            [
                                55.207153,
                                24.947235
                            ],
                            [
                                55.208417,
                                24.946672
                            ],
                            [
                                55.208927,
                                24.947619
                            ],
                            [
                                55.203641,
                                24.950494
                            ],
                            [
                                55.202052,
                                24.948488
                            ]
                        ]
                    ]
                ]
            }
        }
    ]
}