{
    "type": "FeatureCollection",
    "features": [
        {
            "type": "Feature",
            "properties": {
                "type": "site",
                "region_id": "AE_R002",
                "site_id": "AE_R002_0311",
                "version": "2.0.0",
                "status": "positive_pending",
                "mgrs": "40RCN",
                "score": 1.0,
                "start_date": "2015-10-13",
                "end_date": "2018-10-21",
                "model_content": "annotation",
                "originator": "te",
                "validated": "True",
                "misc_info": {
                    "commit_hash": "824fac44479e0c34c554c214480da6d4c14a319e"
                }
            },
            "geometry": {
                "type": "Polygon",
                "coordinates": [
                    [
                        [
                            55.318882,
                            25.072948
                        ],
                        [
                            55.319508,
                            25.072818
                        ],
                        [
                            55.31971,
                            25.072195
                        ],
                        [
                            55.319956,
                            25.071693
                        ],
                        [
                            55.318722,
                            25.071001
                        ],
                        [
                            55.318111,
                            25.071904
                        ],
                        [
                            55.319036,
                            25.072488
                        ],
                        [
                            55.318885,
                            25.072823
                        ],
                        [
                            55.318882,
                            25.072948
                        ]
                    ]
                ]
            }
        },
        {
            "type": "Feature",
            "properties": {
                "observation_date": "2015-10-13",
                "source": null,
                "sensor_name": null,
                "type": "observation",
                "current_phase": null,
                "is_occluded": null,
                "is_site_boundary": null,
                "score": 1.0
            },
            "geometry": {
                "type": "MultiPolygon",
                "coordinates": [
                    [
                        [
                            [
                                55.318882,
                                25.072948
                            ],
                            [
                                55.319508,
                                25.072818
                            ],
                            [
                                55.31971,
                                25.072195
                            ],
                            [
                                55.319956,
                                25.071693
                            ],
                            [
                                55.318722,
                                25.071001
                            ],
                            [
                                55.318111,
                                25.071904
                            ],
                            [
                                55.319036,
                                25.072488
                            ],
                            [
                                55.318885,
                                25.072823
                            ],
                            [
                                55.318882,
                                25.072948
                            ]
                        ]
                    ]
                ]
            }
        },
        {
            "type": "Feature",
            "properties": {
                "observation_date": "2018-10-21",
                "source": null,
                "sensor_name": null,
                "type": "observation",
                "current_phase": null,
                "is_occluded": null,
                "is_site_boundary": null,
                "score": 1.0
            },
            "geometry": {
                "type": "MultiPolygon",
                "coordinates": [
                    [
                        [
                            [
                                55.318882,
                                25.072948
                            ],
                            [
                                55.319508,
                                25.072818
                            ],
                            [
                                55.31971,
                                25.072195
                            ],
                            [
                                55.319956,
                                25.071693
                            ],
                            [
                                55.318722,
                                25.071001
                            ],
                            [
                                55.318111,
                                25.071904
                            ],
                            [
                                55.319036,
                                25.072488
                            ],
                            [
                                55.318885,
                                25.072823
                            ],
                            [
                                55.318882,
                                25.072948
                            ]
                        ]
                    ]
                ]
            }
        }
    ]
}