{
    "type": "FeatureCollection",
    "features": [
        {
            "type": "Feature",
            "properties": {
                "type": "site",
                "region_id": "AE_R002",
                "site_id": "AE_R002_0145",
                "version": "2.0.0",
                "status": "positive_pending",
                "mgrs": "40RCN",
                "score": 1.0,
                "start_date": "2013-10-16",
                "end_date": "2016-06-07",
                "model_content": "annotation",
                "originator": "te",
                "validated": "False",
                "misc_info": {
                    "commit_hash": "824fac44479e0c34c554c214480da6d4c14a319e"
                }
            },
            "geometry": {
                "type": "Polygon",
                "coordinates": [
                    [
                        [
                            55.40026,
                            25.106995
                        ],
                        [
                            55.402219,
                            25.106498
                        ],
                        [
                            55.403098,
                            25.106516
                        ],
                        [
                            55.402441,
                            25.108578
                        ],
                        [
                            55.400772,
                            25.108912
                        ],
                        [
                            55.40026,
                            25.106995
                        ]
                    ]
                ]
            }
        },
        {
            "type": "Feature",
            "properties": {
                "observation_date": "2013-10-16",
                "source": null,
                "sensor_name": null,
                "type": "observation",
                "current_phase": null,
                "is_occluded": null,
                "is_site_boundary": null,
                "score": 1.0
            },
            "geometry": {
                "type": "MultiPolygon",
                "coordinates": [
                    [
                        [
                            [
                                55.40026,
                                25.106995
                            ],
                            [
                                55.402219,
                                25.106498
                            ],
                            [
                                55.403098,
                                25.106516
                            ],
                            [
                                55.402441,
                                25.108578
                            ],
                            [
                                55.400772,
                                25.108912
                            ],
                            [
                                55.40026,
                                25.106995
                            ]
                        ]
                    ]
                ]
            }
        },
        {
            "type": "Feature",
            "properties": {
                "observation_date": "2016-06-07",
                "source": null,
                "sensor_name": null,
                "type": "observation",
                "current_phase": null,
                "is_occluded": null,
                "is_site_boundary": null,
                "score": 1.0
            },
            "geometry": {
                "type": "MultiPolygon",
                "coordinates": [
                    [
                        [
                            [
                                55.40026,
                                25.106995
                            ],
                            [
                                55.402219,
                                25.106498
                            ],
                            [
                                55.403098,
                                25.106516
                            ],
                            [
                                55.402441,
                                25.108578
                            ],
                            [
                                55.400772,
                                25.108912
                            ],
                            [
                                55.40026,
                                25.106995
                            ]
                        ]
                    ]
                ]
            }
        }
    ]
}