{
    "type": "FeatureCollection",
    "features": [
        {
            "type": "Feature",
            "properties": {
                "type": "site",
                "region_id": "AE_R001",
                "site_id": "AE_R001_0634",
                "version": "2.0.0",
                "status": "positive_pending",
                "mgrs": "40RCN",
                "score": 1.0,
                "start_date": "2014-07-06",
                "end_date": "2016-08-26",
                "model_content": "annotation",
                "originator": "te",
                "validated": "True",
                "misc_info": {
                    "commit_hash": "8e2cc701facd37559ed12647d70a5e5b3622c6ca"
                }
            },
            "geometry": {
                "type": "Polygon",
                "coordinates": [
                    [
                        [
                            55.114321,
                            24.954978
                        ],
                        [
                            55.113749,
                            24.953748
                        ],
                        [
                            55.112927,
                            24.954036
                        ],
                        [
                            55.113577,
                            24.955373
                        ],
                        [
                            55.114321,
                            24.954978
                        ]
                    ]
                ]
            }
        },
        {
            "type": "Feature",
            "properties": {
                "observation_date": "2014-07-06",
                "source": null,
                "sensor_name": null,
                "type": "observation",
                "current_phase": null,
                "is_occluded": null,
                "is_site_boundary": null,
                "score": 1.0
            },
            "geometry": {
                "type": "MultiPolygon",
                "coordinates": [
                    [
                        [
                            [
                                55.114321,
                                24.954978
                            ],
                            [
                                55.113749,
                                24.953748
                            ],
                            [
                                55.112927,
                                24.954036
                            ],
                            [
                                55.113577,
                                24.955373
                            ],
                            [
                                55.114321,
                                24.954978
                            ]
                        ]
                    ]
                ]
            }
        },
        {
            "type": "Feature",
            "properties": {
                "observation_date": "2016-08-26",
                "source": null,
                "sensor_name": null,
                "type": "observation",
                "current_phase": null,
                "is_occluded": null,
                "is_site_boundary": null,
                "score": 1.0
            },
            "geometry": {
                "type": "MultiPolygon",
                "coordinates": [
                    [
                        [
                            [
                                55.114321,
                                24.954978
                            ],
                            [
                                55.113749,
                                24.953748
                            ],
                            [
                                55.112927,
                                24.954036
                            ],
                            [
                                55.113577,
                                24.955373
                            ],
                            [
                                55.114321,
                                24.954978
                            ]
                        ]
                    ]
                ]
            }
        }
    ]
}