{
    "type": "FeatureCollection",
    "features": [
        {
            "type": "Feature",
            "properties": {
                "type": "site",
                "region_id": "AE_R001",
                "site_id": "AE_R001_0513",
                "version": "2.0.0",
                "status": "positive_pending",
                "mgrs": "40RCN",
                "score": 1.0,
                "start_date": "2015-11-07",
                "end_date": "2018-09-30",
                "model_content": "annotation",
                "originator": "te",
                "validated": "True",
                "misc_info": {
                    "commit_hash": "8e2cc701facd37559ed12647d70a5e5b3622c6ca"
                }
            },
            "geometry": {
                "type": "Polygon",
                "coordinates": [
                    [
                        [
                            55.069429,
                            24.909533
                        ],
                        [
                            55.070533,
                            24.908189
                        ],
                        [
                            55.070022,
                            24.907684
                        ],
                        [
                            55.069886,
                            24.907619
                        ],
                        [
                            55.069523,
                            24.907056
                        ],
                        [
                            55.067595,
                            24.907819
                        ],
                        [
                            55.067898,
                            24.90869
                        ],
                        [
                            55.068036,
                            24.908957
                        ],
                        [
                            55.069429,
                            24.909533
                        ]
                    ]
                ]
            }
        },
        {
            "type": "Feature",
            "properties": {
                "observation_date": "2015-11-07",
                "source": null,
                "sensor_name": null,
                "type": "observation",
                "current_phase": null,
                "is_occluded": null,
                "is_site_boundary": null,
                "score": 1.0
            },
            "geometry": {
                "type": "MultiPolygon",
                "coordinates": [
                    [
                        [
                            [
                                55.069429,
                                24.909533
                            ],
                            [
                                55.070533,
                                24.908189
                            ],
                            [
                                55.070022,
                                24.907684
                            ],
                            [
                                55.069886,
                                24.907619
                            ],
                            [
                                55.069523,
                                24.907056
                            ],
                            [
                                55.067595,
                                24.907819
                            ],
                            [
                                55.067898,
                                24.90869
                            ],
                            [
                                55.068036,
                                24.908957
                            ],
                            [
                                55.069429,
                                24.909533
                            ]
                        ]
                    ]
                ]
            }
        },
        {
            "type": "Feature",
            "properties": {
                "observation_date": "2018-09-30",
                "source": null,
                "sensor_name": null,
                "type": "observation",
                "current_phase": null,
                "is_occluded": null,
                "is_site_boundary": null,
                "score": 1.0
            },
            "geometry": {
                "type": "MultiPolygon",
                "coordinates": [
                    [
                        [
                            [
                                55.069429,
                                24.909533
                            ],
                            [
                                55.070533,
                                24.908189
                            ],
                            [
                                55.070022,
                                24.907684
                            ],
                            [
                                55.069886,
                                24.907619
                            ],
                            [
                                55.069523,
                                24.907056
                            ],
                            [
                                55.067595,
                                24.907819
                            ],
                            [
                                55.067898,
                                24.90869
                            ],
                            [
                                55.068036,
                                24.908957
                            ],
                            [
                                55.069429,
                                24.909533
                            ]
                        ]
                    ]
                ]
            }
        }
    ]
}