{
    "type": "FeatureCollection",
    "features": [
        {
            "type": "Feature",
            "properties": {
                "type": "site",
                "region_id": "AE_R002",
                "site_id": "AE_R002_0119",
                "version": "2.0.0",
                "status": "negative",
                "mgrs": "40RCN",
                "score": 1.0,
                "start_date": "2015-10-01",
                "end_date": "2020-10-31",
                "model_content": "annotation",
                "originator": "te",
                "validated": "True",
                "misc_info": {
                    "commit_hash": "dbdea3485a8eb34730f81ec01861c62e6358b0b5"
                }
            },
            "geometry": {
                "type": "Polygon",
                "coordinates": [
                    [
                        [
                            55.243655,
                            25.103776
                        ],
                        [
                            55.241591,
                            25.10524
                        ],
                        [
                            55.244144,
                            25.108012
                        ],
                        [
                            55.243991,
                            25.108159
                        ],
                        [
                            55.246808,
                            25.111014
                        ],
                        [
                            55.247652,
                            25.111429
                        ],
                        [
                            55.248588,
                            25.111263
                        ],
                        [
                            55.249107,
                            25.110674
                        ],
                        [
                            55.247561,
                            25.109808
                        ],
                        [
                            55.245445,
                            25.107579
                        ],
                        [
                            55.244184,
                            25.105682
                        ],
                        [
                            55.243655,
                            25.103776
                        ]
                    ]
                ]
            }
        },
        {
            "type": "Feature",
            "properties": {
                "observation_date": "2015-10-01",
                "source": null,
                "sensor_name": null,
                "type": "observation",
                "current_phase": null,
                "is_occluded": null,
                "is_site_boundary": null,
                "score": 1.0
            },
            "geometry": {
                "type": "MultiPolygon",
                "coordinates": [
                    [
                        [
                            [
                                55.243655,
                                25.103776
                            ],
                            [
                                55.244184,
                                25.105682
                            ],
                            [
                                55.245445,
                                25.107579
                            ],
                            [
                                55.247561,
                                25.109808
                            ],
                            [
                                55.249107,
                                25.110674
                            ],
                            [
                                55.248588,
                                25.111263
                            ],
                            [
                                55.247652,
                                25.111429
                            ],
                            [
                                55.246808,
                                25.111014
                            ],
                            [
                                55.243991,
                                25.108159
                            ],
                            [
                                55.244144,
                                25.108012
                            ],
                            [
                                55.241591,
                                25.10524
                            ],
                            [
                                55.243655,
                                25.103776
                            ]
                        ]
                    ]
                ]
            }
        },
        {
            "type": "Feature",
            "properties": {
                "observation_date": "2020-10-31",
                "source": null,
                "sensor_name": null,
                "type": "observation",
                "current_phase": null,
                "is_occluded": null,
                "is_site_boundary": null,
                "score": 1.0
            },
            "geometry": {
                "type": "MultiPolygon",
                "coordinates": [
                    [
                        [
                            [
                                55.243655,
                                25.103776
                            ],
                            [
                                55.244184,
                                25.105682
                            ],
                            [
                                55.245445,
                                25.107579
                            ],
                            [
                                55.247561,
                                25.109808
                            ],
                            [
                                55.249107,
                                25.110674
                            ],
                            [
                                55.248588,
                                25.111263
                            ],
                            [
                                55.247652,
                                25.111429
                            ],
                            [
                                55.246808,
                                25.111014
                            ],
                            [
                                55.243991,
                                25.108159
                            ],
                            [
                                55.244144,
                                25.108012
                            ],
                            [
                                55.241591,
                                25.10524
                            ],
                            [
                                55.243655,
                                25.103776
                            ]
                        ]
                    ]
                ]
            }
        }
    ]
}