{
    "type": "FeatureCollection",
    "features": [
        {
            "type": "Feature",
            "properties": {
                "type": "site",
                "region_id": "AE_R001",
                "site_id": "AE_R001_0607",
                "version": "2.0.0",
                "status": "positive_pending",
                "mgrs": "40RCN",
                "score": 1.0,
                "start_date": "2014-01-16",
                "end_date": "2015-11-07",
                "model_content": "annotation",
                "originator": "te",
                "validated": "True",
                "misc_info": {
                    "commit_hash": "8e2cc701facd37559ed12647d70a5e5b3622c6ca"
                }
            },
            "geometry": {
                "type": "Polygon",
                "coordinates": [
                    [
                        [
                            55.193262,
                            24.976514
                        ],
                        [
                            55.194124,
                            24.979021
                        ],
                        [
                            55.195491,
                            24.978657
                        ],
                        [
                            55.194505,
                            24.97611
                        ],
                        [
                            55.193262,
                            24.976514
                        ]
                    ]
                ]
            }
        },
        {
            "type": "Feature",
            "properties": {
                "observation_date": "2014-01-16",
                "source": null,
                "sensor_name": null,
                "type": "observation",
                "current_phase": null,
                "is_occluded": null,
                "is_site_boundary": null,
                "score": 1.0
            },
            "geometry": {
                "type": "MultiPolygon",
                "coordinates": [
                    [
                        [
                            [
                                55.193262,
                                24.976514
                            ],
                            [
                                55.194124,
                                24.979021
                            ],
                            [
                                55.195491,
                                24.978657
                            ],
                            [
                                55.194505,
                                24.97611
                            ],
                            [
                                55.193262,
                                24.976514
                            ]
                        ]
                    ]
                ]
            }
        },
        {
            "type": "Feature",
            "properties": {
                "observation_date": "2015-11-07",
                "source": null,
                "sensor_name": null,
                "type": "observation",
                "current_phase": null,
                "is_occluded": null,
                "is_site_boundary": null,
                "score": 1.0
            },
            "geometry": {
                "type": "MultiPolygon",
                "coordinates": [
                    [
                        [
                            [
                                55.193262,
                                24.976514
                            ],
                            [
                                55.194124,
                                24.979021
                            ],
                            [
                                55.195491,
                                24.978657
                            ],
                            [
                                55.194505,
                                24.97611
                            ],
                            [
                                55.193262,
                                24.976514
                            ]
                        ]
                    ]
                ]
            }
        }
    ]
}