{
    "type": "FeatureCollection",
    "features": [
        {
            "type": "Feature",
            "properties": {
                "type": "site",
                "region_id": "AE_R002",
                "site_id": "AE_R002_0227",
                "version": "2.0.0",
                "status": "positive_annotated_static",
                "mgrs": "40RCN",
                "score": 1.0,
                "start_date": "2016-06-05",
                "end_date": "2021-04-20",
                "model_content": "annotation",
                "originator": "te",
                "validated": "True",
                "misc_info": {
                    "commit_hash": "dbdea3485a8eb34730f81ec01861c62e6358b0b5"
                }
            },
            "geometry": {
                "type": "Polygon",
                "coordinates": [
                    [
                        [
                            55.199605,
                            25.060568
                        ],
                        [
                            55.200061,
                            25.061261
                        ],
                        [
                            55.200821,
                            25.060683
                        ],
                        [
                            55.200351,
                            25.059913
                        ],
                        [
                            55.199605,
                            25.060568
                        ]
                    ]
                ]
            }
        },
        {
            "type": "Feature",
            "properties": {
                "observation_date": "2016-06-05",
                "source": "16JUN05100242-P1BS-500718481010_01_P008",
                "sensor_name": "WorldView",
                "type": "observation",
                "current_phase": "No Activity",
                "is_occluded": "False",
                "is_site_boundary": "True",
                "score": 1.0
            },
            "geometry": {
                "type": "MultiPolygon",
                "coordinates": [
                    [
                        [
                            [
                                55.200061,
                                25.061261
                            ],
                            [
                                55.199605,
                                25.060568
                            ],
                            [
                                55.200351,
                                25.059913
                            ],
                            [
                                55.200821,
                                25.060683
                            ],
                            [
                                55.200061,
                                25.061261
                            ]
                        ]
                    ]
                ]
            }
        },
        {
            "type": "Feature",
            "properties": {
                "observation_date": "2016-06-08",
                "source": "S2A_40RCN_20160608_0_L1C_TCI",
                "sensor_name": "Sentinel-2",
                "type": "observation",
                "current_phase": "No Activity",
                "is_occluded": "False",
                "is_site_boundary": "True",
                "score": 1.0
            },
            "geometry": {
                "type": "MultiPolygon",
                "coordinates": [
                    [
                        [
                            [
                                55.200061,
                                25.061261
                            ],
                            [
                                55.199605,
                                25.060568
                            ],
                            [
                                55.200351,
                                25.059913
                            ],
                            [
                                55.200821,
                                25.060683
                            ],
                            [
                                55.200061,
                                25.061261
                            ]
                        ]
                    ]
                ]
            }
        },
        {
            "type": "Feature",
            "properties": {
                "observation_date": "2016-07-18",
                "source": "S2A_40RCN_20160718_0_L1C_TCI",
                "sensor_name": "Sentinel-2",
                "type": "observation",
                "current_phase": "No Activity",
                "is_occluded": "False",
                "is_site_boundary": "True",
                "score": 1.0
            },
            "geometry": {
                "type": "MultiPolygon",
                "coordinates": [
                    [
                        [
                            [
                                55.200061,
                                25.061261
                            ],
                            [
                                55.199605,
                                25.060568
                            ],
                            [
                                55.200351,
                                25.059913
                            ],
                            [
                                55.200821,
                                25.060683
                            ],
                            [
                                55.200061,
                                25.061261
                            ]
                        ]
                    ]
                ]
            }
        },
        {
            "type": "Feature",
            "properties": {
                "observation_date": "2016-08-02",
                "source": "16AUG02071943-P1BS-500346924010_18_P005",
                "sensor_name": "WorldView",
                "type": "observation",
                "current_phase": "No Activity",
                "is_occluded": "False",
                "is_site_boundary": "True",
                "score": 1.0
            },
            "geometry": {
                "type": "MultiPolygon",
                "coordinates": [
                    [
                        [
                            [
                                55.200061,
                                25.061261
                            ],
                            [
                                55.199605,
                                25.060568
                            ],
                            [
                                55.200351,
                                25.059913
                            ],
                            [
                                55.200821,
                                25.060683
                            ],
                            [
                                55.200061,
                                25.061261
                            ]
                        ]
                    ]
                ]
            }
        },
        {
            "type": "Feature",
            "properties": {
                "observation_date": "2016-08-13",
                "source": "16AUG13071752-P1BS-014855184010_01_P002",
                "sensor_name": "WorldView",
                "type": "observation",
                "current_phase": "No Activity",
                "is_occluded": "False",
                "is_site_boundary": "True",
                "score": 1.0
            },
            "geometry": {
                "type": "MultiPolygon",
                "coordinates": [
                    [
                        [
                            [
                                55.200061,
                                25.061261
                            ],
                            [
                                55.199605,
                                25.060568
                            ],
                            [
                                55.200351,
                                25.059913
                            ],
                            [
                                55.200821,
                                25.060683
                            ],
                            [
                                55.200061,
                                25.061261
                            ]
                        ]
                    ]
                ]
            }
        },
        {
            "type": "Feature",
            "properties": {
                "observation_date": "2017-07-03",
                "source": "S2A_40RCN_20170703_0_L2A_TCI",
                "sensor_name": "Sentinel-2",
                "type": "observation",
                "current_phase": "Active Construction",
                "is_occluded": "False",
                "is_site_boundary": "True",
                "score": 1.0
            },
            "geometry": {
                "type": "MultiPolygon",
                "coordinates": [
                    [
                        [
                            [
                                55.200061,
                                25.061261
                            ],
                            [
                                55.199605,
                                25.060568
                            ],
                            [
                                55.200351,
                                25.059913
                            ],
                            [
                                55.200821,
                                25.060683
                            ],
                            [
                                55.200061,
                                25.061261
                            ]
                        ]
                    ]
                ]
            }
        },
        {
            "type": "Feature",
            "properties": {
                "observation_date": "2017-08-07",
                "source": "S2B_40RCN_20170807_0_L2A_TCI",
                "sensor_name": "Sentinel-2",
                "type": "observation",
                "current_phase": "Active Construction",
                "is_occluded": "False",
                "is_site_boundary": "True",
                "score": 1.0
            },
            "geometry": {
                "type": "MultiPolygon",
                "coordinates": [
                    [
                        [
                            [
                                55.200061,
                                25.061261
                            ],
                            [
                                55.199605,
                                25.060568
                            ],
                            [
                                55.200351,
                                25.059913
                            ],
                            [
                                55.200821,
                                25.060683
                            ],
                            [
                                55.200061,
                                25.061261
                            ]
                        ]
                    ]
                ]
            }
        },
        {
            "type": "Feature",
            "properties": {
                "observation_date": "2017-09-11",
                "source": "S2A_40RCN_20170911_0_L2A_TCI",
                "sensor_name": "Sentinel-2",
                "type": "observation",
                "current_phase": "Active Construction",
                "is_occluded": "False",
                "is_site_boundary": "True",
                "score": 1.0
            },
            "geometry": {
                "type": "MultiPolygon",
                "coordinates": [
                    [
                        [
                            [
                                55.200061,
                                25.061261
                            ],
                            [
                                55.199605,
                                25.060568
                            ],
                            [
                                55.200351,
                                25.059913
                            ],
                            [
                                55.200821,
                                25.060683
                            ],
                            [
                                55.200061,
                                25.061261
                            ]
                        ]
                    ]
                ]
            }
        },
        {
            "type": "Feature",
            "properties": {
                "observation_date": "2017-10-06",
                "source": "S2B_40RCN_20171006_0_L2A_TCI",
                "sensor_name": "Sentinel-2",
                "type": "observation",
                "current_phase": "Active Construction",
                "is_occluded": "False",
                "is_site_boundary": "True",
                "score": 1.0
            },
            "geometry": {
                "type": "MultiPolygon",
                "coordinates": [
                    [
                        [
                            [
                                55.200061,
                                25.061261
                            ],
                            [
                                55.199605,
                                25.060568
                            ],
                            [
                                55.200351,
                                25.059913
                            ],
                            [
                                55.200821,
                                25.060683
                            ],
                            [
                                55.200061,
                                25.061261
                            ]
                        ]
                    ]
                ]
            }
        },
        {
            "type": "Feature",
            "properties": {
                "observation_date": "2017-11-13",
                "source": "17NOV13095918-P1BS-501764823010_01_P002",
                "sensor_name": "WorldView",
                "type": "observation",
                "current_phase": "Active Construction",
                "is_occluded": "False",
                "is_site_boundary": "True",
                "score": 1.0
            },
            "geometry": {
                "type": "MultiPolygon",
                "coordinates": [
                    [
                        [
                            [
                                55.200061,
                                25.061261
                            ],
                            [
                                55.199605,
                                25.060568
                            ],
                            [
                                55.200351,
                                25.059913
                            ],
                            [
                                55.200821,
                                25.060683
                            ],
                            [
                                55.200061,
                                25.061261
                            ]
                        ]
                    ]
                ]
            }
        },
        {
            "type": "Feature",
            "properties": {
                "observation_date": "2017-11-15",
                "source": "S2B_40RCN_20171115_0_L2A_TCI",
                "sensor_name": "Sentinel-2",
                "type": "observation",
                "current_phase": "Active Construction",
                "is_occluded": "False",
                "is_site_boundary": "True",
                "score": 1.0
            },
            "geometry": {
                "type": "MultiPolygon",
                "coordinates": [
                    [
                        [
                            [
                                55.200061,
                                25.061261
                            ],
                            [
                                55.199605,
                                25.060568
                            ],
                            [
                                55.200351,
                                25.059913
                            ],
                            [
                                55.200821,
                                25.060683
                            ],
                            [
                                55.200061,
                                25.061261
                            ]
                        ]
                    ]
                ]
            }
        },
        {
            "type": "Feature",
            "properties": {
                "observation_date": "2018-01-24",
                "source": "S2B_40RCN_20180124_0_L2A_TCI",
                "sensor_name": "Sentinel-2",
                "type": "observation",
                "current_phase": "Active Construction",
                "is_occluded": "False",
                "is_site_boundary": "True",
                "score": 1.0
            },
            "geometry": {
                "type": "MultiPolygon",
                "coordinates": [
                    [
                        [
                            [
                                55.200061,
                                25.061261
                            ],
                            [
                                55.199605,
                                25.060568
                            ],
                            [
                                55.200351,
                                25.059913
                            ],
                            [
                                55.200821,
                                25.060683
                            ],
                            [
                                55.200061,
                                25.061261
                            ]
                        ]
                    ]
                ]
            }
        },
        {
            "type": "Feature",
            "properties": {
                "observation_date": "2018-03-08",
                "source": "18MAR08072034-M1BS-502009134020_01_P003",
                "sensor_name": "WorldView",
                "type": "observation",
                "current_phase": "Active Construction",
                "is_occluded": "False",
                "is_site_boundary": "True",
                "score": 1.0
            },
            "geometry": {
                "type": "MultiPolygon",
                "coordinates": [
                    [
                        [
                            [
                                55.200061,
                                25.061261
                            ],
                            [
                                55.199605,
                                25.060568
                            ],
                            [
                                55.200351,
                                25.059913
                            ],
                            [
                                55.200821,
                                25.060683
                            ],
                            [
                                55.200061,
                                25.061261
                            ]
                        ]
                    ]
                ]
            }
        },
        {
            "type": "Feature",
            "properties": {
                "observation_date": "2018-03-30",
                "source": "S2A_40RCN_20180330_0_L2A_TCI",
                "sensor_name": "Sentinel-2",
                "type": "observation",
                "current_phase": "Active Construction",
                "is_occluded": "False",
                "is_site_boundary": "True",
                "score": 1.0
            },
            "geometry": {
                "type": "MultiPolygon",
                "coordinates": [
                    [
                        [
                            [
                                55.200061,
                                25.061261
                            ],
                            [
                                55.199605,
                                25.060568
                            ],
                            [
                                55.200351,
                                25.059913
                            ],
                            [
                                55.200821,
                                25.060683
                            ],
                            [
                                55.200061,
                                25.061261
                            ]
                        ]
                    ]
                ]
            }
        },
        {
            "type": "Feature",
            "properties": {
                "observation_date": "2019-01-26",
                "source": "19JAN26071819-M1BS-014858848010_01_P003",
                "sensor_name": "WorldView",
                "type": "observation",
                "current_phase": "Post Construction",
                "is_occluded": "False",
                "is_site_boundary": "True",
                "score": 1.0
            },
            "geometry": {
                "type": "MultiPolygon",
                "coordinates": [
                    [
                        [
                            [
                                55.200061,
                                25.061261
                            ],
                            [
                                55.199605,
                                25.060568
                            ],
                            [
                                55.200351,
                                25.059913
                            ],
                            [
                                55.200821,
                                25.060683
                            ],
                            [
                                55.200061,
                                25.061261
                            ]
                        ]
                    ]
                ]
            }
        },
        {
            "type": "Feature",
            "properties": {
                "observation_date": "2019-03-05",
                "source": "S2A_40RCN_20190305_0_L2A_TCI",
                "sensor_name": "Sentinel-2",
                "type": "observation",
                "current_phase": "Post Construction",
                "is_occluded": "False",
                "is_site_boundary": "True",
                "score": 1.0
            },
            "geometry": {
                "type": "MultiPolygon",
                "coordinates": [
                    [
                        [
                            [
                                55.200061,
                                25.061261
                            ],
                            [
                                55.199605,
                                25.060568
                            ],
                            [
                                55.200351,
                                25.059913
                            ],
                            [
                                55.200821,
                                25.060683
                            ],
                            [
                                55.200061,
                                25.061261
                            ]
                        ]
                    ]
                ]
            }
        },
        {
            "type": "Feature",
            "properties": {
                "observation_date": "2019-08-29",
                "source": "19AUG29070526-P1BS-502626884040_05_P001",
                "sensor_name": "WorldView",
                "type": "observation",
                "current_phase": "Post Construction",
                "is_occluded": "False",
                "is_site_boundary": "True",
                "score": 1.0
            },
            "geometry": {
                "type": "MultiPolygon",
                "coordinates": [
                    [
                        [
                            [
                                55.200061,
                                25.061261
                            ],
                            [
                                55.199605,
                                25.060568
                            ],
                            [
                                55.200351,
                                25.059913
                            ],
                            [
                                55.200821,
                                25.060683
                            ],
                            [
                                55.200061,
                                25.061261
                            ]
                        ]
                    ]
                ]
            }
        },
        {
            "type": "Feature",
            "properties": {
                "observation_date": "2019-10-01",
                "source": "S2A_40RCN_20191001_0_L2A_TCI",
                "sensor_name": "Sentinel-2",
                "type": "observation",
                "current_phase": "Post Construction",
                "is_occluded": "False",
                "is_site_boundary": "True",
                "score": 1.0
            },
            "geometry": {
                "type": "MultiPolygon",
                "coordinates": [
                    [
                        [
                            [
                                55.200061,
                                25.061261
                            ],
                            [
                                55.199605,
                                25.060568
                            ],
                            [
                                55.200351,
                                25.059913
                            ],
                            [
                                55.200821,
                                25.060683
                            ],
                            [
                                55.200061,
                                25.061261
                            ]
                        ]
                    ]
                ]
            }
        },
        {
            "type": "Feature",
            "properties": {
                "observation_date": "2019-10-08",
                "source": "19OCT08100746-P1BS_R4C1-502704253040_06_P001",
                "sensor_name": "WorldView",
                "type": "observation",
                "current_phase": "Post Construction",
                "is_occluded": "False",
                "is_site_boundary": "True",
                "score": 1.0
            },
            "geometry": {
                "type": "MultiPolygon",
                "coordinates": [
                    [
                        [
                            [
                                55.200061,
                                25.061261
                            ],
                            [
                                55.199605,
                                25.060568
                            ],
                            [
                                55.200351,
                                25.059913
                            ],
                            [
                                55.200821,
                                25.060683
                            ],
                            [
                                55.200061,
                                25.061261
                            ]
                        ]
                    ]
                ]
            }
        },
        {
            "type": "Feature",
            "properties": {
                "observation_date": "2019-11-26",
                "source": "19NOV26071557-P1BS-503743640080_01_P001",
                "sensor_name": "WorldView",
                "type": "observation",
                "current_phase": "Post Construction",
                "is_occluded": "False",
                "is_site_boundary": "True",
                "score": 1.0
            },
            "geometry": {
                "type": "MultiPolygon",
                "coordinates": [
                    [
                        [
                            [
                                55.200061,
                                25.061261
                            ],
                            [
                                55.199605,
                                25.060568
                            ],
                            [
                                55.200351,
                                25.059913
                            ],
                            [
                                55.200821,
                                25.060683
                            ],
                            [
                                55.200061,
                                25.061261
                            ]
                        ]
                    ]
                ]
            }
        },
        {
            "type": "Feature",
            "properties": {
                "observation_date": "2020-01-19",
                "source": "S2A_40RCN_20200119_0_L2A_TCI",
                "sensor_name": "Sentinel-2",
                "type": "observation",
                "current_phase": "Post Construction",
                "is_occluded": "False",
                "is_site_boundary": "True",
                "score": 1.0
            },
            "geometry": {
                "type": "MultiPolygon",
                "coordinates": [
                    [
                        [
                            [
                                55.200061,
                                25.061261
                            ],
                            [
                                55.199605,
                                25.060568
                            ],
                            [
                                55.200351,
                                25.059913
                            ],
                            [
                                55.200821,
                                25.060683
                            ],
                            [
                                55.200061,
                                25.061261
                            ]
                        ]
                    ]
                ]
            }
        },
        {
            "type": "Feature",
            "properties": {
                "observation_date": "2020-02-28",
                "source": "S2A_40RCN_20200228_0_L2A_TCI",
                "sensor_name": "Sentinel-2",
                "type": "observation",
                "current_phase": "Post Construction",
                "is_occluded": "False",
                "is_site_boundary": "True",
                "score": 1.0
            },
            "geometry": {
                "type": "MultiPolygon",
                "coordinates": [
                    [
                        [
                            [
                                55.200061,
                                25.061261
                            ],
                            [
                                55.199605,
                                25.060568
                            ],
                            [
                                55.200351,
                                25.059913
                            ],
                            [
                                55.200821,
                                25.060683
                            ],
                            [
                                55.200061,
                                25.061261
                            ]
                        ]
                    ]
                ]
            }
        },
        {
            "type": "Feature",
            "properties": {
                "observation_date": "2020-04-18",
                "source": "S2A_40RCN_20200418_0_L2A_TCI",
                "sensor_name": "Sentinel-2",
                "type": "observation",
                "current_phase": "Post Construction",
                "is_occluded": "False",
                "is_site_boundary": "True",
                "score": 1.0
            },
            "geometry": {
                "type": "MultiPolygon",
                "coordinates": [
                    [
                        [
                            [
                                55.200061,
                                25.061261
                            ],
                            [
                                55.199605,
                                25.060568
                            ],
                            [
                                55.200351,
                                25.059913
                            ],
                            [
                                55.200821,
                                25.060683
                            ],
                            [
                                55.200061,
                                25.061261
                            ]
                        ]
                    ]
                ]
            }
        },
        {
            "type": "Feature",
            "properties": {
                "observation_date": "2020-05-08",
                "source": "S2A_40RCN_20200508_0_L2A_TCI",
                "sensor_name": "Sentinel-2",
                "type": "observation",
                "current_phase": "Post Construction",
                "is_occluded": "False",
                "is_site_boundary": "True",
                "score": 1.0
            },
            "geometry": {
                "type": "MultiPolygon",
                "coordinates": [
                    [
                        [
                            [
                                55.200061,
                                25.061261
                            ],
                            [
                                55.199605,
                                25.060568
                            ],
                            [
                                55.200351,
                                25.059913
                            ],
                            [
                                55.200821,
                                25.060683
                            ],
                            [
                                55.200061,
                                25.061261
                            ]
                        ]
                    ]
                ]
            }
        },
        {
            "type": "Feature",
            "properties": {
                "observation_date": "2020-06-17",
                "source": "S2A_40RCN_20200617_0_L2A_TCI",
                "sensor_name": "Sentinel-2",
                "type": "observation",
                "current_phase": "Post Construction",
                "is_occluded": "False",
                "is_site_boundary": "True",
                "score": 1.0
            },
            "geometry": {
                "type": "MultiPolygon",
                "coordinates": [
                    [
                        [
                            [
                                55.200061,
                                25.061261
                            ],
                            [
                                55.199605,
                                25.060568
                            ],
                            [
                                55.200351,
                                25.059913
                            ],
                            [
                                55.200821,
                                25.060683
                            ],
                            [
                                55.200061,
                                25.061261
                            ]
                        ]
                    ]
                ]
            }
        },
        {
            "type": "Feature",
            "properties": {
                "observation_date": "2020-09-10",
                "source": "S2B_40RCN_20200910_0_L2A_TCI",
                "sensor_name": "Sentinel-2",
                "type": "observation",
                "current_phase": "Post Construction",
                "is_occluded": "False",
                "is_site_boundary": "True",
                "score": 1.0
            },
            "geometry": {
                "type": "MultiPolygon",
                "coordinates": [
                    [
                        [
                            [
                                55.200061,
                                25.061261
                            ],
                            [
                                55.199605,
                                25.060568
                            ],
                            [
                                55.200351,
                                25.059913
                            ],
                            [
                                55.200821,
                                25.060683
                            ],
                            [
                                55.200061,
                                25.061261
                            ]
                        ]
                    ]
                ]
            }
        },
        {
            "type": "Feature",
            "properties": {
                "observation_date": "2020-09-10",
                "source": "20SEP10064325-M1BS-014464100010_01_P003",
                "sensor_name": "WorldView",
                "type": "observation",
                "current_phase": "Post Construction",
                "is_occluded": "False",
                "is_site_boundary": "True",
                "score": 1.0
            },
            "geometry": {
                "type": "MultiPolygon",
                "coordinates": [
                    [
                        [
                            [
                                55.200061,
                                25.061261
                            ],
                            [
                                55.199605,
                                25.060568
                            ],
                            [
                                55.200351,
                                25.059913
                            ],
                            [
                                55.200821,
                                25.060683
                            ],
                            [
                                55.200061,
                                25.061261
                            ]
                        ]
                    ]
                ]
            }
        },
        {
            "type": "Feature",
            "properties": {
                "observation_date": "2020-10-07",
                "source": "20OCT07071051-P1BS-014466698010_01_P002",
                "sensor_name": "WorldView",
                "type": "observation",
                "current_phase": "Post Construction",
                "is_occluded": "False",
                "is_site_boundary": "True",
                "score": 1.0
            },
            "geometry": {
                "type": "MultiPolygon",
                "coordinates": [
                    [
                        [
                            [
                                55.200061,
                                25.061261
                            ],
                            [
                                55.199605,
                                25.060568
                            ],
                            [
                                55.200351,
                                25.059913
                            ],
                            [
                                55.200821,
                                25.060683
                            ],
                            [
                                55.200061,
                                25.061261
                            ]
                        ]
                    ]
                ]
            }
        },
        {
            "type": "Feature",
            "properties": {
                "observation_date": "2020-10-20",
                "source": "S2B_40RCN_20201020_0_L2A_TCI",
                "sensor_name": "Sentinel-2",
                "type": "observation",
                "current_phase": "Post Construction",
                "is_occluded": "False",
                "is_site_boundary": "True",
                "score": 1.0
            },
            "geometry": {
                "type": "MultiPolygon",
                "coordinates": [
                    [
                        [
                            [
                                55.200061,
                                25.061261
                            ],
                            [
                                55.199605,
                                25.060568
                            ],
                            [
                                55.200351,
                                25.059913
                            ],
                            [
                                55.200821,
                                25.060683
                            ],
                            [
                                55.200061,
                                25.061261
                            ]
                        ]
                    ]
                ]
            }
        },
        {
            "type": "Feature",
            "properties": {
                "observation_date": "2020-11-19",
                "source": "S2B_40RCN_20201119_0_L2A_TCI",
                "sensor_name": "Sentinel-2",
                "type": "observation",
                "current_phase": "Post Construction",
                "is_occluded": "False",
                "is_site_boundary": "True",
                "score": 1.0
            },
            "geometry": {
                "type": "MultiPolygon",
                "coordinates": [
                    [
                        [
                            [
                                55.200061,
                                25.061261
                            ],
                            [
                                55.199605,
                                25.060568
                            ],
                            [
                                55.200351,
                                25.059913
                            ],
                            [
                                55.200821,
                                25.060683
                            ],
                            [
                                55.200061,
                                25.061261
                            ]
                        ]
                    ]
                ]
            }
        },
        {
            "type": "Feature",
            "properties": {
                "observation_date": "2021-03-15",
                "source": "21MAR15071150-M1BS-014466652010_01_P005",
                "sensor_name": "WorldView",
                "type": "observation",
                "current_phase": "Post Construction",
                "is_occluded": "False",
                "is_site_boundary": "True",
                "score": 1.0
            },
            "geometry": {
                "type": "MultiPolygon",
                "coordinates": [
                    [
                        [
                            [
                                55.200061,
                                25.061261
                            ],
                            [
                                55.199605,
                                25.060568
                            ],
                            [
                                55.200351,
                                25.059913
                            ],
                            [
                                55.200821,
                                25.060683
                            ],
                            [
                                55.200061,
                                25.061261
                            ]
                        ]
                    ]
                ]
            }
        },
        {
            "type": "Feature",
            "properties": {
                "observation_date": "2021-04-20",
                "source": "21APR20065915-M1BS-014464509010_01_P004",
                "sensor_name": "WorldView",
                "type": "observation",
                "current_phase": "Post Construction",
                "is_occluded": "False",
                "is_site_boundary": "True",
                "score": 1.0
            },
            "geometry": {
                "type": "MultiPolygon",
                "coordinates": [
                    [
                        [
                            [
                                55.200061,
                                25.061261
                            ],
                            [
                                55.199605,
                                25.060568
                            ],
                            [
                                55.200351,
                                25.059913
                            ],
                            [
                                55.200821,
                                25.060683
                            ],
                            [
                                55.200061,
                                25.061261
                            ]
                        ]
                    ]
                ]
            }
        }
    ]
}