{
    "type": "FeatureCollection",
    "features": [
        {
            "type": "Feature",
            "properties": {
                "type": "site",
                "region_id": "AE_R002",
                "site_id": "AE_R002_0319",
                "version": "2.0.0",
                "status": "ignore",
                "mgrs": "40RCN",
                "score": 1.0,
                "start_date": "2018-08-27",
                "end_date": null,
                "model_content": "annotation",
                "originator": "te",
                "validated": "False",
                "misc_info": {
                    "commit_hash": "824fac44479e0c34c554c214480da6d4c14a319e"
                }
            },
            "geometry": {
                "type": "Polygon",
                "coordinates": [
                    [
                        [
                            55.231917,
                            25.059337
                        ],
                        [
                            55.23259,
                            25.058544
                        ],
                        [
                            55.231484,
                            25.05779
                        ],
                        [
                            55.231221,
                            25.057889
                        ],
                        [
                            55.230818,
                            25.058515
                        ],
                        [
                            55.231917,
                            25.059337
                        ]
                    ]
                ]
            }
        },
        {
            "type": "Feature",
            "properties": {
                "observation_date": "2018-08-27",
                "source": null,
                "sensor_name": null,
                "type": "observation",
                "current_phase": null,
                "is_occluded": null,
                "is_site_boundary": null,
                "score": 1.0
            },
            "geometry": {
                "type": "MultiPolygon",
                "coordinates": [
                    [
                        [
                            [
                                55.231917,
                                25.059337
                            ],
                            [
                                55.23259,
                                25.058544
                            ],
                            [
                                55.231484,
                                25.05779
                            ],
                            [
                                55.231221,
                                25.057889
                            ],
                            [
                                55.230818,
                                25.058515
                            ],
                            [
                                55.231917,
                                25.059337
                            ]
                        ]
                    ]
                ]
            }
        },
        {
            "type": "Feature",
            "properties": {
                "observation_date": null,
                "source": null,
                "sensor_name": null,
                "type": "observation",
                "current_phase": null,
                "is_occluded": null,
                "is_site_boundary": null,
                "score": 1.0
            },
            "geometry": {
                "type": "MultiPolygon",
                "coordinates": [
                    [
                        [
                            [
                                55.231917,
                                25.059337
                            ],
                            [
                                55.23259,
                                25.058544
                            ],
                            [
                                55.231484,
                                25.05779
                            ],
                            [
                                55.231221,
                                25.057889
                            ],
                            [
                                55.230818,
                                25.058515
                            ],
                            [
                                55.231917,
                                25.059337
                            ]
                        ]
                    ]
                ]
            }
        }
    ]
}