{
    "type": "FeatureCollection",
    "features": [
        {
            "type": "Feature",
            "properties": {
                "type": "site",
                "region_id": "AE_R001",
                "site_id": "AE_R001_0592",
                "version": "2.0.0",
                "status": "positive_pending",
                "mgrs": "40RCN",
                "score": 1.0,
                "start_date": "2014-01-16",
                "end_date": "2016-08-18",
                "model_content": "annotation",
                "originator": "te",
                "validated": "True",
                "misc_info": {
                    "commit_hash": "8e2cc701facd37559ed12647d70a5e5b3622c6ca"
                }
            },
            "geometry": {
                "type": "Polygon",
                "coordinates": [
                    [
                        [
                            55.187083,
                            24.97932
                        ],
                        [
                            55.187206,
                            24.979539
                        ],
                        [
                            55.187401,
                            24.979667
                        ],
                        [
                            55.187392,
                            24.979677
                        ],
                        [
                            55.187713,
                            24.979718
                        ],
                        [
                            55.187549,
                            24.978942
                        ],
                        [
                            55.187617,
                            24.97892
                        ],
                        [
                            55.188111,
                            24.97881
                        ],
                        [
                            55.18836,
                            24.978767
                        ],
                        [
                            55.188162,
                            24.977988
                        ],
                        [
                            55.187349,
                            24.978141
                        ],
                        [
                            55.18749,
                            24.978843
                        ],
                        [
                            55.187035,
                            24.978936
                        ],
                        [
                            55.187083,
                            24.97932
                        ]
                    ]
                ]
            }
        },
        {
            "type": "Feature",
            "properties": {
                "observation_date": "2014-01-16",
                "source": null,
                "sensor_name": null,
                "type": "observation",
                "current_phase": null,
                "is_occluded": null,
                "is_site_boundary": null,
                "score": 1.0
            },
            "geometry": {
                "type": "MultiPolygon",
                "coordinates": [
                    [
                        [
                            [
                                55.187083,
                                24.97932
                            ],
                            [
                                55.187206,
                                24.979539
                            ],
                            [
                                55.187401,
                                24.979667
                            ],
                            [
                                55.187392,
                                24.979677
                            ],
                            [
                                55.187713,
                                24.979718
                            ],
                            [
                                55.187549,
                                24.978942
                            ],
                            [
                                55.187617,
                                24.97892
                            ],
                            [
                                55.188111,
                                24.97881
                            ],
                            [
                                55.18836,
                                24.978767
                            ],
                            [
                                55.188162,
                                24.977988
                            ],
                            [
                                55.187349,
                                24.978141
                            ],
                            [
                                55.18749,
                                24.978843
                            ],
                            [
                                55.187035,
                                24.978936
                            ],
                            [
                                55.187083,
                                24.97932
                            ]
                        ]
                    ]
                ]
            }
        },
        {
            "type": "Feature",
            "properties": {
                "observation_date": "2016-08-18",
                "source": null,
                "sensor_name": null,
                "type": "observation",
                "current_phase": null,
                "is_occluded": null,
                "is_site_boundary": null,
                "score": 1.0
            },
            "geometry": {
                "type": "MultiPolygon",
                "coordinates": [
                    [
                        [
                            [
                                55.187083,
                                24.97932
                            ],
                            [
                                55.187206,
                                24.979539
                            ],
                            [
                                55.187401,
                                24.979667
                            ],
                            [
                                55.187392,
                                24.979677
                            ],
                            [
                                55.187713,
                                24.979718
                            ],
                            [
                                55.187549,
                                24.978942
                            ],
                            [
                                55.187617,
                                24.97892
                            ],
                            [
                                55.188111,
                                24.97881
                            ],
                            [
                                55.18836,
                                24.978767
                            ],
                            [
                                55.188162,
                                24.977988
                            ],
                            [
                                55.187349,
                                24.978141
                            ],
                            [
                                55.18749,
                                24.978843
                            ],
                            [
                                55.187035,
                                24.978936
                            ],
                            [
                                55.187083,
                                24.97932
                            ]
                        ]
                    ]
                ]
            }
        }
    ]
}