{
    "type": "FeatureCollection",
    "features": [
        {
            "type": "Feature",
            "properties": {
                "type": "site",
                "region_id": "AE_R002",
                "site_id": "AE_R002_0249",
                "version": "2.0.0",
                "status": "positive_excluded",
                "mgrs": "40RCN",
                "score": 1.0,
                "start_date": "2016-05-05",
                "end_date": "2022-12-09",
                "model_content": "annotation",
                "originator": "te",
                "validated": "False",
                "misc_info": {
                    "commit_hash": "824fac44479e0c34c554c214480da6d4c14a319e"
                }
            },
            "geometry": {
                "type": "Polygon",
                "coordinates": [
                    [
                        [
                            55.208826,
                            25.0639
                        ],
                        [
                            55.209439,
                            25.063811
                        ],
                        [
                            55.209439,
                            25.063811
                        ],
                        [
                            55.20964,
                            25.064766
                        ],
                        [
                            55.209014,
                            25.064843
                        ],
                        [
                            55.209014,
                            25.064843
                        ],
                        [
                            55.208826,
                            25.0639
                        ]
                    ]
                ]
            }
        },
        {
            "type": "Feature",
            "properties": {
                "observation_date": "2016-05-05",
                "source": null,
                "sensor_name": null,
                "type": "observation",
                "current_phase": null,
                "is_occluded": null,
                "is_site_boundary": null,
                "score": 1.0
            },
            "geometry": {
                "type": "MultiPolygon",
                "coordinates": [
                    [
                        [
                            [
                                55.208826,
                                25.0639
                            ],
                            [
                                55.209439,
                                25.063811
                            ],
                            [
                                55.209439,
                                25.063811
                            ],
                            [
                                55.20964,
                                25.064766
                            ],
                            [
                                55.209014,
                                25.064843
                            ],
                            [
                                55.209014,
                                25.064843
                            ],
                            [
                                55.208826,
                                25.0639
                            ]
                        ]
                    ]
                ]
            }
        },
        {
            "type": "Feature",
            "properties": {
                "observation_date": "2022-12-09",
                "source": null,
                "sensor_name": null,
                "type": "observation",
                "current_phase": null,
                "is_occluded": null,
                "is_site_boundary": null,
                "score": 1.0
            },
            "geometry": {
                "type": "MultiPolygon",
                "coordinates": [
                    [
                        [
                            [
                                55.208826,
                                25.0639
                            ],
                            [
                                55.209439,
                                25.063811
                            ],
                            [
                                55.209439,
                                25.063811
                            ],
                            [
                                55.20964,
                                25.064766
                            ],
                            [
                                55.209014,
                                25.064843
                            ],
                            [
                                55.209014,
                                25.064843
                            ],
                            [
                                55.208826,
                                25.0639
                            ]
                        ]
                    ]
                ]
            }
        }
    ]
}