{
    "type": "FeatureCollection",
    "features": [
        {
            "type": "Feature",
            "properties": {
                "type": "site",
                "region_id": "AE_R002",
                "site_id": "AE_R002_0344",
                "version": "2.0.0",
                "status": "positive_pending",
                "mgrs": "40RCN",
                "score": 1.0,
                "start_date": "2019-07-08",
                "end_date": "2022-02-27",
                "model_content": "annotation",
                "originator": "te",
                "validated": "False",
                "misc_info": {
                    "commit_hash": "824fac44479e0c34c554c214480da6d4c14a319e"
                }
            },
            "geometry": {
                "type": "Polygon",
                "coordinates": [
                    [
                        [
                            55.378887,
                            25.088514
                        ],
                        [
                            55.379497,
                            25.088919
                        ],
                        [
                            55.380234,
                            25.088
                        ],
                        [
                            55.379663,
                            25.087619
                        ],
                        [
                            55.378887,
                            25.088514
                        ]
                    ]
                ]
            }
        },
        {
            "type": "Feature",
            "properties": {
                "observation_date": "2019-07-08",
                "source": null,
                "sensor_name": null,
                "type": "observation",
                "current_phase": null,
                "is_occluded": null,
                "is_site_boundary": null,
                "score": 1.0
            },
            "geometry": {
                "type": "MultiPolygon",
                "coordinates": [
                    [
                        [
                            [
                                55.378887,
                                25.088514
                            ],
                            [
                                55.379497,
                                25.088919
                            ],
                            [
                                55.380234,
                                25.088
                            ],
                            [
                                55.379663,
                                25.087619
                            ],
                            [
                                55.378887,
                                25.088514
                            ]
                        ]
                    ]
                ]
            }
        },
        {
            "type": "Feature",
            "properties": {
                "observation_date": "2022-02-27",
                "source": null,
                "sensor_name": null,
                "type": "observation",
                "current_phase": null,
                "is_occluded": null,
                "is_site_boundary": null,
                "score": 1.0
            },
            "geometry": {
                "type": "MultiPolygon",
                "coordinates": [
                    [
                        [
                            [
                                55.378887,
                                25.088514
                            ],
                            [
                                55.379497,
                                25.088919
                            ],
                            [
                                55.380234,
                                25.088
                            ],
                            [
                                55.379663,
                                25.087619
                            ],
                            [
                                55.378887,
                                25.088514
                            ]
                        ]
                    ]
                ]
            }
        }
    ]
}