{
    "type": "FeatureCollection",
    "features": [
        {
            "type": "Feature",
            "properties": {
                "type": "site",
                "region_id": "AE_R001",
                "site_id": "AE_R001_0583",
                "version": "2.0.0",
                "status": "positive_pending",
                "mgrs": "40RCN",
                "score": 1.0,
                "start_date": "2005-10-19",
                "end_date": "2018-01-23",
                "model_content": "annotation",
                "originator": "te",
                "validated": "True",
                "misc_info": {
                    "commit_hash": "8e2cc701facd37559ed12647d70a5e5b3622c6ca"
                }
            },
            "geometry": {
                "type": "Polygon",
                "coordinates": [
                    [
                        [
                            55.196943,
                            24.982318
                        ],
                        [
                            55.196919,
                            24.980879
                        ],
                        [
                            55.197983,
                            24.980677
                        ],
                        [
                            55.198112,
                            24.981521
                        ],
                        [
                            55.199305,
                            24.981422
                        ],
                        [
                            55.199628,
                            24.981064
                        ],
                        [
                            55.200026,
                            24.980162
                        ],
                        [
                            55.199103,
                            24.979808
                        ],
                        [
                            55.198559,
                            24.979603
                        ],
                        [
                            55.197592,
                            24.979542
                        ],
                        [
                            55.196747,
                            24.97965
                        ],
                        [
                            55.196716,
                            24.980877
                        ],
                        [
                            55.195756,
                            24.980969
                        ],
                        [
                            55.195858,
                            24.982432
                        ],
                        [
                            55.196943,
                            24.982318
                        ]
                    ]
                ]
            }
        },
        {
            "type": "Feature",
            "properties": {
                "observation_date": "2005-10-19",
                "source": null,
                "sensor_name": null,
                "type": "observation",
                "current_phase": null,
                "is_occluded": null,
                "is_site_boundary": null,
                "score": 1.0
            },
            "geometry": {
                "type": "MultiPolygon",
                "coordinates": [
                    [
                        [
                            [
                                55.196943,
                                24.982318
                            ],
                            [
                                55.196919,
                                24.980879
                            ],
                            [
                                55.197983,
                                24.980677
                            ],
                            [
                                55.198112,
                                24.981521
                            ],
                            [
                                55.199305,
                                24.981422
                            ],
                            [
                                55.199628,
                                24.981064
                            ],
                            [
                                55.200026,
                                24.980162
                            ],
                            [
                                55.199103,
                                24.979808
                            ],
                            [
                                55.198559,
                                24.979603
                            ],
                            [
                                55.197592,
                                24.979542
                            ],
                            [
                                55.196747,
                                24.97965
                            ],
                            [
                                55.196716,
                                24.980877
                            ],
                            [
                                55.195756,
                                24.980969
                            ],
                            [
                                55.195858,
                                24.982432
                            ],
                            [
                                55.196943,
                                24.982318
                            ]
                        ]
                    ]
                ]
            }
        },
        {
            "type": "Feature",
            "properties": {
                "observation_date": "2018-01-23",
                "source": null,
                "sensor_name": null,
                "type": "observation",
                "current_phase": null,
                "is_occluded": null,
                "is_site_boundary": null,
                "score": 1.0
            },
            "geometry": {
                "type": "MultiPolygon",
                "coordinates": [
                    [
                        [
                            [
                                55.196943,
                                24.982318
                            ],
                            [
                                55.196919,
                                24.980879
                            ],
                            [
                                55.197983,
                                24.980677
                            ],
                            [
                                55.198112,
                                24.981521
                            ],
                            [
                                55.199305,
                                24.981422
                            ],
                            [
                                55.199628,
                                24.981064
                            ],
                            [
                                55.200026,
                                24.980162
                            ],
                            [
                                55.199103,
                                24.979808
                            ],
                            [
                                55.198559,
                                24.979603
                            ],
                            [
                                55.197592,
                                24.979542
                            ],
                            [
                                55.196747,
                                24.97965
                            ],
                            [
                                55.196716,
                                24.980877
                            ],
                            [
                                55.195756,
                                24.980969
                            ],
                            [
                                55.195858,
                                24.982432
                            ],
                            [
                                55.196943,
                                24.982318
                            ]
                        ]
                    ]
                ]
            }
        }
    ]
}