{
    "type": "FeatureCollection",
    "features": [
        {
            "type": "Feature",
            "properties": {
                "type": "site",
                "region_id": "AE_R002",
                "site_id": "AE_R002_0342",
                "version": "2.0.0",
                "status": "positive_excluded",
                "mgrs": "40RCN",
                "score": 1.0,
                "start_date": "2016-08-07",
                "end_date": "2018-03-05",
                "model_content": "annotation",
                "originator": "te",
                "validated": "False",
                "misc_info": {
                    "commit_hash": "824fac44479e0c34c554c214480da6d4c14a319e"
                }
            },
            "geometry": {
                "type": "Polygon",
                "coordinates": [
                    [
                        [
                            55.374382,
                            25.099188
                        ],
                        [
                            55.374863,
                            25.0997
                        ],
                        [
                            55.375405,
                            25.099199
                        ],
                        [
                            55.375094,
                            25.098911
                        ],
                        [
                            55.374508,
                            25.098954
                        ],
                        [
                            55.374382,
                            25.099188
                        ]
                    ]
                ]
            }
        },
        {
            "type": "Feature",
            "properties": {
                "observation_date": "2016-08-07",
                "source": null,
                "sensor_name": null,
                "type": "observation",
                "current_phase": null,
                "is_occluded": null,
                "is_site_boundary": null,
                "score": 1.0
            },
            "geometry": {
                "type": "MultiPolygon",
                "coordinates": [
                    [
                        [
                            [
                                55.374382,
                                25.099188
                            ],
                            [
                                55.374863,
                                25.0997
                            ],
                            [
                                55.375405,
                                25.099199
                            ],
                            [
                                55.375094,
                                25.098911
                            ],
                            [
                                55.374508,
                                25.098954
                            ],
                            [
                                55.374382,
                                25.099188
                            ]
                        ]
                    ]
                ]
            }
        },
        {
            "type": "Feature",
            "properties": {
                "observation_date": "2018-03-05",
                "source": null,
                "sensor_name": null,
                "type": "observation",
                "current_phase": null,
                "is_occluded": null,
                "is_site_boundary": null,
                "score": 1.0
            },
            "geometry": {
                "type": "MultiPolygon",
                "coordinates": [
                    [
                        [
                            [
                                55.374382,
                                25.099188
                            ],
                            [
                                55.374863,
                                25.0997
                            ],
                            [
                                55.375405,
                                25.099199
                            ],
                            [
                                55.375094,
                                25.098911
                            ],
                            [
                                55.374508,
                                25.098954
                            ],
                            [
                                55.374382,
                                25.099188
                            ]
                        ]
                    ]
                ]
            }
        }
    ]
}