{
    "type": "FeatureCollection",
    "features": [
        {
            "type": "Feature",
            "properties": {
                "type": "site",
                "region_id": "AE_R002",
                "site_id": "AE_R002_0169",
                "version": "2.0.0",
                "status": "positive_annotated_static",
                "mgrs": "40RCN",
                "score": 1.0,
                "start_date": "2016-06-05",
                "end_date": "2019-10-08",
                "model_content": "annotation",
                "originator": "te",
                "validated": "True",
                "misc_info": {
                    "commit_hash": "dbdea3485a8eb34730f81ec01861c62e6358b0b5"
                }
            },
            "geometry": {
                "type": "Polygon",
                "coordinates": [
                    [
                        [
                            55.278774,
                            24.997394
                        ],
                        [
                            55.274478,
                            25.000916
                        ],
                        [
                            55.275651,
                            25.002117
                        ],
                        [
                            55.27441,
                            25.003165
                        ],
                        [
                            55.275182,
                            25.003947
                        ],
                        [
                            55.280189,
                            24.99975
                        ],
                        [
                            55.278774,
                            24.997394
                        ]
                    ]
                ]
            }
        },
        {
            "type": "Feature",
            "properties": {
                "observation_date": "2016-06-05",
                "source": "16JUN05100243-P1BS-500730186010_01_P001",
                "sensor_name": "WorldView",
                "type": "observation",
                "current_phase": "No Activity",
                "is_occluded": "False",
                "is_site_boundary": "True",
                "score": 1.0
            },
            "geometry": {
                "type": "MultiPolygon",
                "coordinates": [
                    [
                        [
                            [
                                55.274478,
                                25.000916
                            ],
                            [
                                55.278774,
                                24.997394
                            ],
                            [
                                55.280189,
                                24.99975
                            ],
                            [
                                55.275182,
                                25.003947
                            ],
                            [
                                55.27441,
                                25.003165
                            ],
                            [
                                55.275651,
                                25.002117
                            ],
                            [
                                55.274478,
                                25.000916
                            ]
                        ]
                    ]
                ]
            }
        },
        {
            "type": "Feature",
            "properties": {
                "observation_date": "2016-08-13",
                "source": "16AUG13071753-P1BS-014855172010_01_P003",
                "sensor_name": "WorldView",
                "type": "observation",
                "current_phase": "No Activity",
                "is_occluded": "False",
                "is_site_boundary": "True",
                "score": 1.0
            },
            "geometry": {
                "type": "MultiPolygon",
                "coordinates": [
                    [
                        [
                            [
                                55.274478,
                                25.000916
                            ],
                            [
                                55.278774,
                                24.997394
                            ],
                            [
                                55.280189,
                                24.99975
                            ],
                            [
                                55.275182,
                                25.003947
                            ],
                            [
                                55.27441,
                                25.003165
                            ],
                            [
                                55.275651,
                                25.002117
                            ],
                            [
                                55.274478,
                                25.000916
                            ]
                        ]
                    ]
                ]
            }
        },
        {
            "type": "Feature",
            "properties": {
                "observation_date": "2017-10-27",
                "source": "17OCT27095604-P1BS-501683869010_01_P001",
                "sensor_name": "WorldView",
                "type": "observation",
                "current_phase": "Active Construction",
                "is_occluded": "False",
                "is_site_boundary": "True",
                "score": 1.0
            },
            "geometry": {
                "type": "MultiPolygon",
                "coordinates": [
                    [
                        [
                            [
                                55.274478,
                                25.000916
                            ],
                            [
                                55.278774,
                                24.997394
                            ],
                            [
                                55.280189,
                                24.99975
                            ],
                            [
                                55.275182,
                                25.003947
                            ],
                            [
                                55.27441,
                                25.003165
                            ],
                            [
                                55.275651,
                                25.002117
                            ],
                            [
                                55.274478,
                                25.000916
                            ]
                        ]
                    ]
                ]
            }
        },
        {
            "type": "Feature",
            "properties": {
                "observation_date": "2017-12-30",
                "source": "17DEC30095332-P1BS-501824017010_01_P001",
                "sensor_name": "WorldView",
                "type": "observation",
                "current_phase": "Active Construction",
                "is_occluded": "False",
                "is_site_boundary": "True",
                "score": 1.0
            },
            "geometry": {
                "type": "MultiPolygon",
                "coordinates": [
                    [
                        [
                            [
                                55.274478,
                                25.000916
                            ],
                            [
                                55.278774,
                                24.997394
                            ],
                            [
                                55.280189,
                                24.99975
                            ],
                            [
                                55.275182,
                                25.003947
                            ],
                            [
                                55.27441,
                                25.003165
                            ],
                            [
                                55.275651,
                                25.002117
                            ],
                            [
                                55.274478,
                                25.000916
                            ]
                        ]
                    ]
                ]
            }
        },
        {
            "type": "Feature",
            "properties": {
                "observation_date": "2018-03-08",
                "source": "18MAR08072036-P1BS-502009134020_01_P004",
                "sensor_name": "WorldView",
                "type": "observation",
                "current_phase": "Active Construction",
                "is_occluded": "False",
                "is_site_boundary": "True",
                "score": 1.0
            },
            "geometry": {
                "type": "MultiPolygon",
                "coordinates": [
                    [
                        [
                            [
                                55.274478,
                                25.000916
                            ],
                            [
                                55.278774,
                                24.997394
                            ],
                            [
                                55.280189,
                                24.99975
                            ],
                            [
                                55.275182,
                                25.003947
                            ],
                            [
                                55.27441,
                                25.003165
                            ],
                            [
                                55.275651,
                                25.002117
                            ],
                            [
                                55.274478,
                                25.000916
                            ]
                        ]
                    ]
                ]
            }
        },
        {
            "type": "Feature",
            "properties": {
                "observation_date": "2018-04-08",
                "source": "18APR08071429-P1BS-014858888010_01_P004",
                "sensor_name": "WorldView",
                "type": "observation",
                "current_phase": "Active Construction",
                "is_occluded": "False",
                "is_site_boundary": "True",
                "score": 1.0
            },
            "geometry": {
                "type": "MultiPolygon",
                "coordinates": [
                    [
                        [
                            [
                                55.274478,
                                25.000916
                            ],
                            [
                                55.278774,
                                24.997394
                            ],
                            [
                                55.280189,
                                24.99975
                            ],
                            [
                                55.275182,
                                25.003947
                            ],
                            [
                                55.27441,
                                25.003165
                            ],
                            [
                                55.275651,
                                25.002117
                            ],
                            [
                                55.274478,
                                25.000916
                            ]
                        ]
                    ]
                ]
            }
        },
        {
            "type": "Feature",
            "properties": {
                "observation_date": "2019-01-26",
                "source": "19JAN26071820-M1BS-014858848010_01_P004",
                "sensor_name": "WorldView",
                "type": "observation",
                "current_phase": "Active Construction",
                "is_occluded": "False",
                "is_site_boundary": "True",
                "score": 1.0
            },
            "geometry": {
                "type": "MultiPolygon",
                "coordinates": [
                    [
                        [
                            [
                                55.274478,
                                25.000916
                            ],
                            [
                                55.278774,
                                24.997394
                            ],
                            [
                                55.280189,
                                24.99975
                            ],
                            [
                                55.275182,
                                25.003947
                            ],
                            [
                                55.27441,
                                25.003165
                            ],
                            [
                                55.275651,
                                25.002117
                            ],
                            [
                                55.274478,
                                25.000916
                            ]
                        ]
                    ]
                ]
            }
        },
        {
            "type": "Feature",
            "properties": {
                "observation_date": "2019-06-24",
                "source": "19JUN24095635-P1BS_R4C1-502704253040_02_P001",
                "sensor_name": "WorldView",
                "type": "observation",
                "current_phase": "Post Construction",
                "is_occluded": "False",
                "is_site_boundary": "True",
                "score": 1.0
            },
            "geometry": {
                "type": "MultiPolygon",
                "coordinates": [
                    [
                        [
                            [
                                55.274478,
                                25.000916
                            ],
                            [
                                55.278774,
                                24.997394
                            ],
                            [
                                55.280189,
                                24.99975
                            ],
                            [
                                55.275182,
                                25.003947
                            ],
                            [
                                55.27441,
                                25.003165
                            ],
                            [
                                55.275651,
                                25.002117
                            ],
                            [
                                55.274478,
                                25.000916
                            ]
                        ]
                    ]
                ]
            }
        },
        {
            "type": "Feature",
            "properties": {
                "observation_date": "2019-08-24",
                "source": "19AUG24072402-P1BS-502626884040_04_P009",
                "sensor_name": "WorldView",
                "type": "observation",
                "current_phase": "Post Construction",
                "is_occluded": "False",
                "is_site_boundary": "True",
                "score": 1.0
            },
            "geometry": {
                "type": "MultiPolygon",
                "coordinates": [
                    [
                        [
                            [
                                55.274478,
                                25.000916
                            ],
                            [
                                55.278774,
                                24.997394
                            ],
                            [
                                55.280189,
                                24.99975
                            ],
                            [
                                55.275182,
                                25.003947
                            ],
                            [
                                55.27441,
                                25.003165
                            ],
                            [
                                55.275651,
                                25.002117
                            ],
                            [
                                55.274478,
                                25.000916
                            ]
                        ]
                    ]
                ]
            }
        },
        {
            "type": "Feature",
            "properties": {
                "observation_date": "2019-08-29",
                "source": "19AUG29070515-M1BS-502626884040_05_P018",
                "sensor_name": "WorldView",
                "type": "observation",
                "current_phase": "Post Construction",
                "is_occluded": "False",
                "is_site_boundary": "True",
                "score": 1.0
            },
            "geometry": {
                "type": "MultiPolygon",
                "coordinates": [
                    [
                        [
                            [
                                55.274478,
                                25.000916
                            ],
                            [
                                55.278774,
                                24.997394
                            ],
                            [
                                55.280189,
                                24.99975
                            ],
                            [
                                55.275182,
                                25.003947
                            ],
                            [
                                55.27441,
                                25.003165
                            ],
                            [
                                55.275651,
                                25.002117
                            ],
                            [
                                55.274478,
                                25.000916
                            ]
                        ]
                    ]
                ]
            }
        },
        {
            "type": "Feature",
            "properties": {
                "observation_date": "2019-09-20",
                "source": "19SEP20065609-P1BS-503537999010_01_P001",
                "sensor_name": "WorldView",
                "type": "observation",
                "current_phase": "Post Construction",
                "is_occluded": "False",
                "is_site_boundary": "True",
                "score": 1.0
            },
            "geometry": {
                "type": "MultiPolygon",
                "coordinates": [
                    [
                        [
                            [
                                55.274478,
                                25.000916
                            ],
                            [
                                55.278774,
                                24.997394
                            ],
                            [
                                55.280189,
                                24.99975
                            ],
                            [
                                55.275182,
                                25.003947
                            ],
                            [
                                55.27441,
                                25.003165
                            ],
                            [
                                55.275651,
                                25.002117
                            ],
                            [
                                55.274478,
                                25.000916
                            ]
                        ]
                    ]
                ]
            }
        },
        {
            "type": "Feature",
            "properties": {
                "observation_date": "2019-10-08",
                "source": "19OCT08100851-P1BS_R4C1-502704253040_06_P001",
                "sensor_name": "WorldView",
                "type": "observation",
                "current_phase": "Post Construction",
                "is_occluded": "False",
                "is_site_boundary": "True",
                "score": 1.0
            },
            "geometry": {
                "type": "MultiPolygon",
                "coordinates": [
                    [
                        [
                            [
                                55.274478,
                                25.000916
                            ],
                            [
                                55.278774,
                                24.997394
                            ],
                            [
                                55.280189,
                                24.99975
                            ],
                            [
                                55.275182,
                                25.003947
                            ],
                            [
                                55.27441,
                                25.003165
                            ],
                            [
                                55.275651,
                                25.002117
                            ],
                            [
                                55.274478,
                                25.000916
                            ]
                        ]
                    ]
                ]
            }
        }
    ]
}