{
    "type": "FeatureCollection",
    "features": [
        {
            "type": "Feature",
            "properties": {
                "type": "site",
                "region_id": "AE_R002",
                "site_id": "AE_R002_0254",
                "version": "2.0.0",
                "status": "positive_pending",
                "mgrs": "40RCN",
                "score": 1.0,
                "start_date": "2016-05-05",
                "end_date": "2022-05-22",
                "model_content": "annotation",
                "originator": "te",
                "validated": "False",
                "misc_info": {
                    "commit_hash": "824fac44479e0c34c554c214480da6d4c14a319e"
                }
            },
            "geometry": {
                "type": "Polygon",
                "coordinates": [
                    [
                        [
                            55.206145,
                            25.047563
                        ],
                        [
                            55.207159,
                            25.047392
                        ],
                        [
                            55.207159,
                            25.047392
                        ],
                        [
                            55.207555,
                            25.049276
                        ],
                        [
                            55.206457,
                            25.049378
                        ],
                        [
                            55.206457,
                            25.049378
                        ],
                        [
                            55.206145,
                            25.047563
                        ]
                    ]
                ]
            }
        },
        {
            "type": "Feature",
            "properties": {
                "observation_date": "2016-05-05",
                "source": null,
                "sensor_name": null,
                "type": "observation",
                "current_phase": null,
                "is_occluded": null,
                "is_site_boundary": null,
                "score": 1.0
            },
            "geometry": {
                "type": "MultiPolygon",
                "coordinates": [
                    [
                        [
                            [
                                55.206145,
                                25.047563
                            ],
                            [
                                55.207159,
                                25.047392
                            ],
                            [
                                55.207159,
                                25.047392
                            ],
                            [
                                55.207555,
                                25.049276
                            ],
                            [
                                55.206457,
                                25.049378
                            ],
                            [
                                55.206457,
                                25.049378
                            ],
                            [
                                55.206145,
                                25.047563
                            ]
                        ]
                    ]
                ]
            }
        },
        {
            "type": "Feature",
            "properties": {
                "observation_date": "2022-05-22",
                "source": null,
                "sensor_name": null,
                "type": "observation",
                "current_phase": null,
                "is_occluded": null,
                "is_site_boundary": null,
                "score": 1.0
            },
            "geometry": {
                "type": "MultiPolygon",
                "coordinates": [
                    [
                        [
                            [
                                55.206145,
                                25.047563
                            ],
                            [
                                55.207159,
                                25.047392
                            ],
                            [
                                55.207159,
                                25.047392
                            ],
                            [
                                55.207555,
                                25.049276
                            ],
                            [
                                55.206457,
                                25.049378
                            ],
                            [
                                55.206457,
                                25.049378
                            ],
                            [
                                55.206145,
                                25.047563
                            ]
                        ]
                    ]
                ]
            }
        }
    ]
}