{
    "type": "FeatureCollection",
    "features": [
        {
            "type": "Feature",
            "properties": {
                "type": "site",
                "region_id": "AE_R001",
                "site_id": "AE_R001_0454",
                "version": "2.0.0",
                "status": "positive_pending",
                "mgrs": "40RCN",
                "score": 1.0,
                "start_date": "2014-07-06",
                "end_date": "2021-06-22",
                "model_content": "annotation",
                "originator": "te",
                "validated": "True",
                "misc_info": {
                    "commit_hash": "8e2cc701facd37559ed12647d70a5e5b3622c6ca"
                }
            },
            "geometry": {
                "type": "Polygon",
                "coordinates": [
                    [
                        [
                            55.2245,
                            24.940677
                        ],
                        [
                            55.223423,
                            24.940966
                        ],
                        [
                            55.223277,
                            24.940693
                        ],
                        [
                            55.22109,
                            24.941506
                        ],
                        [
                            55.220662,
                            24.940856
                        ],
                        [
                            55.22091,
                            24.938503
                        ],
                        [
                            55.222238,
                            24.938592
                        ],
                        [
                            55.22275,
                            24.940078
                        ],
                        [
                            55.224003,
                            24.939654
                        ],
                        [
                            55.2245,
                            24.940677
                        ]
                    ]
                ]
            }
        },
        {
            "type": "Feature",
            "properties": {
                "observation_date": "2014-07-06",
                "source": null,
                "sensor_name": null,
                "type": "observation",
                "current_phase": null,
                "is_occluded": null,
                "is_site_boundary": null,
                "score": 1.0
            },
            "geometry": {
                "type": "MultiPolygon",
                "coordinates": [
                    [
                        [
                            [
                                55.2245,
                                24.940677
                            ],
                            [
                                55.223423,
                                24.940966
                            ],
                            [
                                55.223277,
                                24.940693
                            ],
                            [
                                55.22109,
                                24.941506
                            ],
                            [
                                55.220662,
                                24.940856
                            ],
                            [
                                55.22091,
                                24.938503
                            ],
                            [
                                55.222238,
                                24.938592
                            ],
                            [
                                55.22275,
                                24.940078
                            ],
                            [
                                55.224003,
                                24.939654
                            ],
                            [
                                55.2245,
                                24.940677
                            ]
                        ]
                    ]
                ]
            }
        },
        {
            "type": "Feature",
            "properties": {
                "observation_date": "2021-06-22",
                "source": null,
                "sensor_name": null,
                "type": "observation",
                "current_phase": null,
                "is_occluded": null,
                "is_site_boundary": null,
                "score": 1.0
            },
            "geometry": {
                "type": "MultiPolygon",
                "coordinates": [
                    [
                        [
                            [
                                55.2245,
                                24.940677
                            ],
                            [
                                55.223423,
                                24.940966
                            ],
                            [
                                55.223277,
                                24.940693
                            ],
                            [
                                55.22109,
                                24.941506
                            ],
                            [
                                55.220662,
                                24.940856
                            ],
                            [
                                55.22091,
                                24.938503
                            ],
                            [
                                55.222238,
                                24.938592
                            ],
                            [
                                55.22275,
                                24.940078
                            ],
                            [
                                55.224003,
                                24.939654
                            ],
                            [
                                55.2245,
                                24.940677
                            ]
                        ]
                    ]
                ]
            }
        }
    ]
}