{
    "type": "FeatureCollection",
    "features": [
        {
            "type": "Feature",
            "properties": {
                "type": "site",
                "region_id": "AE_R001",
                "site_id": "AE_R001_0505",
                "version": "2.0.0",
                "status": "positive_pending",
                "mgrs": "40RBN",
                "score": 1.0,
                "start_date": "2014-01-16",
                "end_date": "2016-10-31",
                "model_content": "annotation",
                "originator": "te",
                "validated": "True",
                "misc_info": {
                    "commit_hash": "8e2cc701facd37559ed12647d70a5e5b3622c6ca"
                }
            },
            "geometry": {
                "type": "Polygon",
                "coordinates": [
                    [
                        [
                            55.013703,
                            24.914727
                        ],
                        [
                            55.012241,
                            24.915105
                        ],
                        [
                            55.010506,
                            24.914883
                        ],
                        [
                            55.01017,
                            24.914567
                        ],
                        [
                            55.009083,
                            24.911237
                        ],
                        [
                            55.012124,
                            24.910321
                        ],
                        [
                            55.013703,
                            24.914727
                        ]
                    ]
                ]
            }
        },
        {
            "type": "Feature",
            "properties": {
                "observation_date": "2014-01-16",
                "source": null,
                "sensor_name": null,
                "type": "observation",
                "current_phase": null,
                "is_occluded": null,
                "is_site_boundary": null,
                "score": 1.0
            },
            "geometry": {
                "type": "MultiPolygon",
                "coordinates": [
                    [
                        [
                            [
                                55.013703,
                                24.914727
                            ],
                            [
                                55.012241,
                                24.915105
                            ],
                            [
                                55.010506,
                                24.914883
                            ],
                            [
                                55.01017,
                                24.914567
                            ],
                            [
                                55.009083,
                                24.911237
                            ],
                            [
                                55.012124,
                                24.910321
                            ],
                            [
                                55.013703,
                                24.914727
                            ]
                        ]
                    ]
                ]
            }
        },
        {
            "type": "Feature",
            "properties": {
                "observation_date": "2016-10-31",
                "source": null,
                "sensor_name": null,
                "type": "observation",
                "current_phase": null,
                "is_occluded": null,
                "is_site_boundary": null,
                "score": 1.0
            },
            "geometry": {
                "type": "MultiPolygon",
                "coordinates": [
                    [
                        [
                            [
                                55.013703,
                                24.914727
                            ],
                            [
                                55.012241,
                                24.915105
                            ],
                            [
                                55.010506,
                                24.914883
                            ],
                            [
                                55.01017,
                                24.914567
                            ],
                            [
                                55.009083,
                                24.911237
                            ],
                            [
                                55.012124,
                                24.910321
                            ],
                            [
                                55.013703,
                                24.914727
                            ]
                        ]
                    ]
                ]
            }
        }
    ]
}