{
    "type": "FeatureCollection",
    "features": [
        {
            "type": "Feature",
            "properties": {
                "type": "site",
                "region_id": "AE_R002",
                "site_id": "AE_R002_0323",
                "version": "2.0.0",
                "status": "positive_excluded",
                "mgrs": "40RCN",
                "score": 1.0,
                "start_date": "2018-05-04",
                "end_date": "2020-07-02",
                "model_content": "annotation",
                "originator": "te",
                "validated": "False",
                "misc_info": {
                    "commit_hash": "824fac44479e0c34c554c214480da6d4c14a319e"
                }
            },
            "geometry": {
                "type": "Polygon",
                "coordinates": [
                    [
                        [
                            55.225784,
                            25.058679
                        ],
                        [
                            55.226304,
                            25.05829
                        ],
                        [
                            55.225658,
                            25.057652
                        ],
                        [
                            55.225303,
                            25.057956
                        ],
                        [
                            55.225654,
                            25.058285
                        ],
                        [
                            55.225593,
                            25.058337
                        ],
                        [
                            55.225605,
                            25.058504
                        ],
                        [
                            55.225784,
                            25.058679
                        ]
                    ]
                ]
            }
        },
        {
            "type": "Feature",
            "properties": {
                "observation_date": "2018-05-04",
                "source": null,
                "sensor_name": null,
                "type": "observation",
                "current_phase": null,
                "is_occluded": null,
                "is_site_boundary": null,
                "score": 1.0
            },
            "geometry": {
                "type": "MultiPolygon",
                "coordinates": [
                    [
                        [
                            [
                                55.225784,
                                25.058679
                            ],
                            [
                                55.226304,
                                25.05829
                            ],
                            [
                                55.225658,
                                25.057652
                            ],
                            [
                                55.225303,
                                25.057956
                            ],
                            [
                                55.225654,
                                25.058285
                            ],
                            [
                                55.225593,
                                25.058337
                            ],
                            [
                                55.225605,
                                25.058504
                            ],
                            [
                                55.225784,
                                25.058679
                            ]
                        ]
                    ]
                ]
            }
        },
        {
            "type": "Feature",
            "properties": {
                "observation_date": "2020-07-02",
                "source": null,
                "sensor_name": null,
                "type": "observation",
                "current_phase": null,
                "is_occluded": null,
                "is_site_boundary": null,
                "score": 1.0
            },
            "geometry": {
                "type": "MultiPolygon",
                "coordinates": [
                    [
                        [
                            [
                                55.225784,
                                25.058679
                            ],
                            [
                                55.226304,
                                25.05829
                            ],
                            [
                                55.225658,
                                25.057652
                            ],
                            [
                                55.225303,
                                25.057956
                            ],
                            [
                                55.225654,
                                25.058285
                            ],
                            [
                                55.225593,
                                25.058337
                            ],
                            [
                                55.225605,
                                25.058504
                            ],
                            [
                                55.225784,
                                25.058679
                            ]
                        ]
                    ]
                ]
            }
        }
    ]
}