{
    "type": "FeatureCollection",
    "features": [
        {
            "type": "Feature",
            "properties": {
                "type": "site",
                "region_id": "AE_R002",
                "site_id": "AE_R002_0030",
                "version": "2.0.0",
                "status": "positive_annotated_static",
                "mgrs": "40RCN",
                "score": 1.0,
                "start_date": "2016-08-07",
                "end_date": "2021-09-26",
                "model_content": "annotation",
                "originator": "te",
                "validated": "True",
                "misc_info": {
                    "commit_hash": "8e08692eda2dec643e6abab764d830cd0f7f4055"
                }
            },
            "geometry": {
                "type": "Polygon",
                "coordinates": [
                    [
                        [
                            55.375177,
                            25.110326
                        ],
                        [
                            55.374527,
                            25.109901
                        ],
                        [
                            55.373353,
                            25.111425
                        ],
                        [
                            55.373819,
                            25.112599
                        ],
                        [
                            55.374858,
                            25.113057
                        ],
                        [
                            55.375911,
                            25.111772
                        ],
                        [
                            55.376692,
                            25.110161
                        ],
                        [
                            55.375792,
                            25.109514
                        ],
                        [
                            55.375177,
                            25.110326
                        ]
                    ]
                ]
            }
        },
        {
            "type": "Feature",
            "properties": {
                "observation_date": "2016-08-07",
                "source": "16AUG07072018-M1BS-014855224010_01_P009",
                "sensor_name": "WorldView",
                "type": "observation",
                "current_phase": "No Activity",
                "is_occluded": "False",
                "is_site_boundary": "True",
                "score": 1.0
            },
            "geometry": {
                "type": "MultiPolygon",
                "coordinates": [
                    [
                        [
                            [
                                55.374527,
                                25.109901
                            ],
                            [
                                55.375177,
                                25.110326
                            ],
                            [
                                55.375792,
                                25.109514
                            ],
                            [
                                55.376692,
                                25.110161
                            ],
                            [
                                55.375911,
                                25.111772
                            ],
                            [
                                55.374858,
                                25.113057
                            ],
                            [
                                55.373819,
                                25.112599
                            ],
                            [
                                55.373353,
                                25.111425
                            ],
                            [
                                55.374527,
                                25.109901
                            ]
                        ]
                    ]
                ]
            }
        },
        {
            "type": "Feature",
            "properties": {
                "observation_date": "2017-07-29",
                "source": "17JUL29100422-P1BS-501481408010_01_P001",
                "sensor_name": "WorldView",
                "type": "observation",
                "current_phase": "Site Preparation",
                "is_occluded": "False",
                "is_site_boundary": "True",
                "score": 1.0
            },
            "geometry": {
                "type": "MultiPolygon",
                "coordinates": [
                    [
                        [
                            [
                                55.374527,
                                25.109901
                            ],
                            [
                                55.375177,
                                25.110326
                            ],
                            [
                                55.375792,
                                25.109514
                            ],
                            [
                                55.376692,
                                25.110161
                            ],
                            [
                                55.375911,
                                25.111772
                            ],
                            [
                                55.374858,
                                25.113057
                            ],
                            [
                                55.373819,
                                25.112599
                            ],
                            [
                                55.373353,
                                25.111425
                            ],
                            [
                                55.374527,
                                25.109901
                            ]
                        ]
                    ]
                ]
            }
        },
        {
            "type": "Feature",
            "properties": {
                "observation_date": "2017-12-30",
                "source": "17DEC30095332-P1BS-501824017010_01_P001",
                "sensor_name": "WorldView",
                "type": "observation",
                "current_phase": "Site Preparation",
                "is_occluded": "False",
                "is_site_boundary": "True",
                "score": 1.0
            },
            "geometry": {
                "type": "MultiPolygon",
                "coordinates": [
                    [
                        [
                            [
                                55.374527,
                                25.109901
                            ],
                            [
                                55.375177,
                                25.110326
                            ],
                            [
                                55.375792,
                                25.109514
                            ],
                            [
                                55.376692,
                                25.110161
                            ],
                            [
                                55.375911,
                                25.111772
                            ],
                            [
                                55.374858,
                                25.113057
                            ],
                            [
                                55.373819,
                                25.112599
                            ],
                            [
                                55.373353,
                                25.111425
                            ],
                            [
                                55.374527,
                                25.109901
                            ]
                        ]
                    ]
                ]
            }
        },
        {
            "type": "Feature",
            "properties": {
                "observation_date": "2018-04-08",
                "source": "18APR08071427-P1BS-014858888010_01_P003",
                "sensor_name": "WorldView",
                "type": "observation",
                "current_phase": "Active Construction",
                "is_occluded": "False",
                "is_site_boundary": "True",
                "score": 1.0
            },
            "geometry": {
                "type": "MultiPolygon",
                "coordinates": [
                    [
                        [
                            [
                                55.374527,
                                25.109901
                            ],
                            [
                                55.375177,
                                25.110326
                            ],
                            [
                                55.375792,
                                25.109514
                            ],
                            [
                                55.376692,
                                25.110161
                            ],
                            [
                                55.375911,
                                25.111772
                            ],
                            [
                                55.374858,
                                25.113057
                            ],
                            [
                                55.373819,
                                25.112599
                            ],
                            [
                                55.373353,
                                25.111425
                            ],
                            [
                                55.374527,
                                25.109901
                            ]
                        ]
                    ]
                ]
            }
        },
        {
            "type": "Feature",
            "properties": {
                "observation_date": "2019-06-24",
                "source": "19JUN24095642-P1BS-502619570010_01_P001",
                "sensor_name": "WorldView",
                "type": "observation",
                "current_phase": "Active Construction",
                "is_occluded": "False",
                "is_site_boundary": "True",
                "score": 1.0
            },
            "geometry": {
                "type": "MultiPolygon",
                "coordinates": [
                    [
                        [
                            [
                                55.374527,
                                25.109901
                            ],
                            [
                                55.375177,
                                25.110326
                            ],
                            [
                                55.375792,
                                25.109514
                            ],
                            [
                                55.376692,
                                25.110161
                            ],
                            [
                                55.375911,
                                25.111772
                            ],
                            [
                                55.374858,
                                25.113057
                            ],
                            [
                                55.373819,
                                25.112599
                            ],
                            [
                                55.373353,
                                25.111425
                            ],
                            [
                                55.374527,
                                25.109901
                            ]
                        ]
                    ]
                ]
            }
        },
        {
            "type": "Feature",
            "properties": {
                "observation_date": "2019-08-24",
                "source": "19AUG24072402-M1BS-502626884040_04_P009",
                "sensor_name": "WorldView",
                "type": "observation",
                "current_phase": "Active Construction",
                "is_occluded": "False",
                "is_site_boundary": "True",
                "score": 1.0
            },
            "geometry": {
                "type": "MultiPolygon",
                "coordinates": [
                    [
                        [
                            [
                                55.374527,
                                25.109901
                            ],
                            [
                                55.375177,
                                25.110326
                            ],
                            [
                                55.375792,
                                25.109514
                            ],
                            [
                                55.376692,
                                25.110161
                            ],
                            [
                                55.375911,
                                25.111772
                            ],
                            [
                                55.374858,
                                25.113057
                            ],
                            [
                                55.373819,
                                25.112599
                            ],
                            [
                                55.373353,
                                25.111425
                            ],
                            [
                                55.374527,
                                25.109901
                            ]
                        ]
                    ]
                ]
            }
        },
        {
            "type": "Feature",
            "properties": {
                "observation_date": "2019-08-29",
                "source": "19AUG29070514-M1BS-502626884040_05_P017",
                "sensor_name": "WorldView",
                "type": "observation",
                "current_phase": "Active Construction",
                "is_occluded": "False",
                "is_site_boundary": "True",
                "score": 1.0
            },
            "geometry": {
                "type": "MultiPolygon",
                "coordinates": [
                    [
                        [
                            [
                                55.374527,
                                25.109901
                            ],
                            [
                                55.375177,
                                25.110326
                            ],
                            [
                                55.375792,
                                25.109514
                            ],
                            [
                                55.376692,
                                25.110161
                            ],
                            [
                                55.375911,
                                25.111772
                            ],
                            [
                                55.374858,
                                25.113057
                            ],
                            [
                                55.373819,
                                25.112599
                            ],
                            [
                                55.373353,
                                25.111425
                            ],
                            [
                                55.374527,
                                25.109901
                            ]
                        ]
                    ]
                ]
            }
        },
        {
            "type": "Feature",
            "properties": {
                "observation_date": "2020-05-15",
                "source": "20MAY15072040-P1BS-014466685010_01_P002",
                "sensor_name": "WorldView",
                "type": "observation",
                "current_phase": "Active Construction",
                "is_occluded": "False",
                "is_site_boundary": "True",
                "score": 1.0
            },
            "geometry": {
                "type": "MultiPolygon",
                "coordinates": [
                    [
                        [
                            [
                                55.374527,
                                25.109901
                            ],
                            [
                                55.375177,
                                25.110326
                            ],
                            [
                                55.375792,
                                25.109514
                            ],
                            [
                                55.376692,
                                25.110161
                            ],
                            [
                                55.375911,
                                25.111772
                            ],
                            [
                                55.374858,
                                25.113057
                            ],
                            [
                                55.373819,
                                25.112599
                            ],
                            [
                                55.373353,
                                25.111425
                            ],
                            [
                                55.374527,
                                25.109901
                            ]
                        ]
                    ]
                ]
            }
        },
        {
            "type": "Feature",
            "properties": {
                "observation_date": "2020-09-10",
                "source": "20SEP10064315-P1BS-014464473010_01_P004",
                "sensor_name": "WorldView",
                "type": "observation",
                "current_phase": "Active Construction",
                "is_occluded": "False",
                "is_site_boundary": "True",
                "score": 1.0
            },
            "geometry": {
                "type": "MultiPolygon",
                "coordinates": [
                    [
                        [
                            [
                                55.374527,
                                25.109901
                            ],
                            [
                                55.375177,
                                25.110326
                            ],
                            [
                                55.375792,
                                25.109514
                            ],
                            [
                                55.376692,
                                25.110161
                            ],
                            [
                                55.375911,
                                25.111772
                            ],
                            [
                                55.374858,
                                25.113057
                            ],
                            [
                                55.373819,
                                25.112599
                            ],
                            [
                                55.373353,
                                25.111425
                            ],
                            [
                                55.374527,
                                25.109901
                            ]
                        ]
                    ]
                ]
            }
        },
        {
            "type": "Feature",
            "properties": {
                "observation_date": "2020-10-13",
                "source": "20OCT13095755-P1BS-014469632010_01_P002",
                "sensor_name": "WorldView",
                "type": "observation",
                "current_phase": "Active Construction",
                "is_occluded": "False",
                "is_site_boundary": "True",
                "score": 1.0
            },
            "geometry": {
                "type": "MultiPolygon",
                "coordinates": [
                    [
                        [
                            [
                                55.374527,
                                25.109901
                            ],
                            [
                                55.375177,
                                25.110326
                            ],
                            [
                                55.375792,
                                25.109514
                            ],
                            [
                                55.376692,
                                25.110161
                            ],
                            [
                                55.375911,
                                25.111772
                            ],
                            [
                                55.374858,
                                25.113057
                            ],
                            [
                                55.373819,
                                25.112599
                            ],
                            [
                                55.373353,
                                25.111425
                            ],
                            [
                                55.374527,
                                25.109901
                            ]
                        ]
                    ]
                ]
            }
        },
        {
            "type": "Feature",
            "properties": {
                "observation_date": "2021-03-01",
                "source": "21MAR01065228-P1BS-014466660010_01_P005",
                "sensor_name": "WorldView",
                "type": "observation",
                "current_phase": "Active Construction",
                "is_occluded": "False",
                "is_site_boundary": "True",
                "score": 1.0
            },
            "geometry": {
                "type": "MultiPolygon",
                "coordinates": [
                    [
                        [
                            [
                                55.374527,
                                25.109901
                            ],
                            [
                                55.375177,
                                25.110326
                            ],
                            [
                                55.375792,
                                25.109514
                            ],
                            [
                                55.376692,
                                25.110161
                            ],
                            [
                                55.375911,
                                25.111772
                            ],
                            [
                                55.374858,
                                25.113057
                            ],
                            [
                                55.373819,
                                25.112599
                            ],
                            [
                                55.373353,
                                25.111425
                            ],
                            [
                                55.374527,
                                25.109901
                            ]
                        ]
                    ]
                ]
            }
        },
        {
            "type": "Feature",
            "properties": {
                "observation_date": "2021-03-02",
                "source": "21MAR02100859-P1BS-014469615010_01_P001",
                "sensor_name": "WorldView",
                "type": "observation",
                "current_phase": "Active Construction",
                "is_occluded": "False",
                "is_site_boundary": "True",
                "score": 1.0
            },
            "geometry": {
                "type": "MultiPolygon",
                "coordinates": [
                    [
                        [
                            [
                                55.374527,
                                25.109901
                            ],
                            [
                                55.375177,
                                25.110326
                            ],
                            [
                                55.375792,
                                25.109514
                            ],
                            [
                                55.376692,
                                25.110161
                            ],
                            [
                                55.375911,
                                25.111772
                            ],
                            [
                                55.374858,
                                25.113057
                            ],
                            [
                                55.373819,
                                25.112599
                            ],
                            [
                                55.373353,
                                25.111425
                            ],
                            [
                                55.374527,
                                25.109901
                            ]
                        ]
                    ]
                ]
            }
        },
        {
            "type": "Feature",
            "properties": {
                "observation_date": "2021-03-27",
                "source": "21MAR27070109-P1BS-014466598010_01_P004",
                "sensor_name": "WorldView",
                "type": "observation",
                "current_phase": "Active Construction",
                "is_occluded": "False",
                "is_site_boundary": "True",
                "score": 1.0
            },
            "geometry": {
                "type": "MultiPolygon",
                "coordinates": [
                    [
                        [
                            [
                                55.374527,
                                25.109901
                            ],
                            [
                                55.375177,
                                25.110326
                            ],
                            [
                                55.375792,
                                25.109514
                            ],
                            [
                                55.376692,
                                25.110161
                            ],
                            [
                                55.375911,
                                25.111772
                            ],
                            [
                                55.374858,
                                25.113057
                            ],
                            [
                                55.373819,
                                25.112599
                            ],
                            [
                                55.373353,
                                25.111425
                            ],
                            [
                                55.374527,
                                25.109901
                            ]
                        ]
                    ]
                ]
            }
        },
        {
            "type": "Feature",
            "properties": {
                "observation_date": "2021-07-19",
                "source": "21JUL19070314-P1BS-014466584010_01_P004",
                "sensor_name": "WorldView",
                "type": "observation",
                "current_phase": "Post Construction",
                "is_occluded": "False",
                "is_site_boundary": "True",
                "score": 1.0
            },
            "geometry": {
                "type": "MultiPolygon",
                "coordinates": [
                    [
                        [
                            [
                                55.374527,
                                25.109901
                            ],
                            [
                                55.375177,
                                25.110326
                            ],
                            [
                                55.375792,
                                25.109514
                            ],
                            [
                                55.376692,
                                25.110161
                            ],
                            [
                                55.375911,
                                25.111772
                            ],
                            [
                                55.374858,
                                25.113057
                            ],
                            [
                                55.373819,
                                25.112599
                            ],
                            [
                                55.373353,
                                25.111425
                            ],
                            [
                                55.374527,
                                25.109901
                            ]
                        ]
                    ]
                ]
            }
        },
        {
            "type": "Feature",
            "properties": {
                "observation_date": "2021-08-09",
                "source": "21AUG09071050-M1BS-014464068010_01_P002",
                "sensor_name": "WorldView",
                "type": "observation",
                "current_phase": "Post Construction",
                "is_occluded": "False",
                "is_site_boundary": "True",
                "score": 1.0
            },
            "geometry": {
                "type": "MultiPolygon",
                "coordinates": [
                    [
                        [
                            [
                                55.374527,
                                25.109901
                            ],
                            [
                                55.375177,
                                25.110326
                            ],
                            [
                                55.375792,
                                25.109514
                            ],
                            [
                                55.376692,
                                25.110161
                            ],
                            [
                                55.375911,
                                25.111772
                            ],
                            [
                                55.374858,
                                25.113057
                            ],
                            [
                                55.373819,
                                25.112599
                            ],
                            [
                                55.373353,
                                25.111425
                            ],
                            [
                                55.374527,
                                25.109901
                            ]
                        ]
                    ]
                ]
            }
        },
        {
            "type": "Feature",
            "properties": {
                "observation_date": "2021-09-14",
                "source": "21SEP14070740-M1BS-014859413010_01_P003",
                "sensor_name": "WorldView",
                "type": "observation",
                "current_phase": "Post Construction",
                "is_occluded": "False",
                "is_site_boundary": "True",
                "score": 1.0
            },
            "geometry": {
                "type": "MultiPolygon",
                "coordinates": [
                    [
                        [
                            [
                                55.374527,
                                25.109901
                            ],
                            [
                                55.375177,
                                25.110326
                            ],
                            [
                                55.375792,
                                25.109514
                            ],
                            [
                                55.376692,
                                25.110161
                            ],
                            [
                                55.375911,
                                25.111772
                            ],
                            [
                                55.374858,
                                25.113057
                            ],
                            [
                                55.373819,
                                25.112599
                            ],
                            [
                                55.373353,
                                25.111425
                            ],
                            [
                                55.374527,
                                25.109901
                            ]
                        ]
                    ]
                ]
            }
        },
        {
            "type": "Feature",
            "properties": {
                "observation_date": "2021-09-26",
                "source": "21SEP26065643-P1BS-014859396010_01_P004",
                "sensor_name": "WorldView",
                "type": "observation",
                "current_phase": "Post Construction",
                "is_occluded": "False",
                "is_site_boundary": "True",
                "score": 1.0
            },
            "geometry": {
                "type": "MultiPolygon",
                "coordinates": [
                    [
                        [
                            [
                                55.374527,
                                25.109901
                            ],
                            [
                                55.375177,
                                25.110326
                            ],
                            [
                                55.375792,
                                25.109514
                            ],
                            [
                                55.376692,
                                25.110161
                            ],
                            [
                                55.375911,
                                25.111772
                            ],
                            [
                                55.374858,
                                25.113057
                            ],
                            [
                                55.373819,
                                25.112599
                            ],
                            [
                                55.373353,
                                25.111425
                            ],
                            [
                                55.374527,
                                25.109901
                            ]
                        ]
                    ]
                ]
            }
        }
    ]
}