{
    "type": "FeatureCollection",
    "features": [
        {
            "type": "Feature",
            "properties": {
                "type": "site",
                "region_id": "AE_R001",
                "site_id": "AE_R001_0484",
                "version": "2.0.0",
                "status": "positive_pending",
                "mgrs": "40RCN",
                "score": 1.0,
                "start_date": "2013-07-22",
                "end_date": "2015-03-06",
                "model_content": "annotation",
                "originator": "te",
                "validated": "True",
                "misc_info": {
                    "commit_hash": "8e2cc701facd37559ed12647d70a5e5b3622c6ca"
                }
            },
            "geometry": {
                "type": "Polygon",
                "coordinates": [
                    [
                        [
                            55.098066,
                            24.928924
                        ],
                        [
                            55.098799,
                            24.929753
                        ],
                        [
                            55.099638,
                            24.929159
                        ],
                        [
                            55.098866,
                            24.928284
                        ],
                        [
                            55.098066,
                            24.928924
                        ]
                    ]
                ]
            }
        },
        {
            "type": "Feature",
            "properties": {
                "observation_date": "2013-07-22",
                "source": null,
                "sensor_name": null,
                "type": "observation",
                "current_phase": null,
                "is_occluded": null,
                "is_site_boundary": null,
                "score": 1.0
            },
            "geometry": {
                "type": "MultiPolygon",
                "coordinates": [
                    [
                        [
                            [
                                55.098066,
                                24.928924
                            ],
                            [
                                55.098799,
                                24.929753
                            ],
                            [
                                55.099638,
                                24.929159
                            ],
                            [
                                55.098866,
                                24.928284
                            ],
                            [
                                55.098066,
                                24.928924
                            ]
                        ]
                    ]
                ]
            }
        },
        {
            "type": "Feature",
            "properties": {
                "observation_date": "2015-03-06",
                "source": null,
                "sensor_name": null,
                "type": "observation",
                "current_phase": null,
                "is_occluded": null,
                "is_site_boundary": null,
                "score": 1.0
            },
            "geometry": {
                "type": "MultiPolygon",
                "coordinates": [
                    [
                        [
                            [
                                55.098066,
                                24.928924
                            ],
                            [
                                55.098799,
                                24.929753
                            ],
                            [
                                55.099638,
                                24.929159
                            ],
                            [
                                55.098866,
                                24.928284
                            ],
                            [
                                55.098066,
                                24.928924
                            ]
                        ]
                    ]
                ]
            }
        }
    ]
}