{
    "type": "FeatureCollection",
    "features": [
        {
            "type": "Feature",
            "properties": {
                "type": "site",
                "region_id": "AE_R002",
                "site_id": "AE_R002_0120",
                "version": "2.0.0",
                "status": "positive_pending",
                "mgrs": "40RCN",
                "score": 1.0,
                "start_date": "2016-09-23",
                "end_date": "2022-03-09",
                "model_content": "annotation",
                "originator": "te",
                "validated": "False",
                "misc_info": {
                    "commit_hash": "824fac44479e0c34c554c214480da6d4c14a319e"
                }
            },
            "geometry": {
                "type": "Polygon",
                "coordinates": [
                    [
                        [
                            55.246826,
                            25.111076
                        ],
                        [
                            55.247658,
                            25.111472
                        ],
                        [
                            55.248669,
                            25.111288
                        ],
                        [
                            55.249111,
                            25.110656
                        ],
                        [
                            55.250031,
                            25.110993
                        ],
                        [
                            55.249317,
                            25.112519
                        ],
                        [
                            55.248328,
                            25.112496
                        ],
                        [
                            55.246965,
                            25.112364
                        ],
                        [
                            55.245941,
                            25.111751
                        ],
                        [
                            55.246826,
                            25.111076
                        ]
                    ]
                ]
            }
        },
        {
            "type": "Feature",
            "properties": {
                "observation_date": "2016-09-23",
                "source": null,
                "sensor_name": null,
                "type": "observation",
                "current_phase": null,
                "is_occluded": null,
                "is_site_boundary": null,
                "score": 1.0
            },
            "geometry": {
                "type": "MultiPolygon",
                "coordinates": [
                    [
                        [
                            [
                                55.246826,
                                25.111076
                            ],
                            [
                                55.247658,
                                25.111472
                            ],
                            [
                                55.248669,
                                25.111288
                            ],
                            [
                                55.249111,
                                25.110656
                            ],
                            [
                                55.250031,
                                25.110993
                            ],
                            [
                                55.249317,
                                25.112519
                            ],
                            [
                                55.248328,
                                25.112496
                            ],
                            [
                                55.246965,
                                25.112364
                            ],
                            [
                                55.245941,
                                25.111751
                            ],
                            [
                                55.246826,
                                25.111076
                            ]
                        ]
                    ]
                ]
            }
        },
        {
            "type": "Feature",
            "properties": {
                "observation_date": "2022-03-09",
                "source": null,
                "sensor_name": null,
                "type": "observation",
                "current_phase": null,
                "is_occluded": null,
                "is_site_boundary": null,
                "score": 1.0
            },
            "geometry": {
                "type": "MultiPolygon",
                "coordinates": [
                    [
                        [
                            [
                                55.246826,
                                25.111076
                            ],
                            [
                                55.247658,
                                25.111472
                            ],
                            [
                                55.248669,
                                25.111288
                            ],
                            [
                                55.249111,
                                25.110656
                            ],
                            [
                                55.250031,
                                25.110993
                            ],
                            [
                                55.249317,
                                25.112519
                            ],
                            [
                                55.248328,
                                25.112496
                            ],
                            [
                                55.246965,
                                25.112364
                            ],
                            [
                                55.245941,
                                25.111751
                            ],
                            [
                                55.246826,
                                25.111076
                            ]
                        ]
                    ]
                ]
            }
        }
    ]
}