{
    "type": "FeatureCollection",
    "features": [
        {
            "type": "Feature",
            "properties": {
                "type": "site",
                "region_id": "AE_R002",
                "site_id": "AE_R002_0209",
                "version": "2.0.0",
                "status": "positive_annotated_static",
                "mgrs": "40RCN",
                "score": 1.0,
                "start_date": "2015-05-21",
                "end_date": "2019-01-26",
                "model_content": "annotation",
                "originator": "te",
                "validated": "True",
                "misc_info": {
                    "commit_hash": "dbdea3485a8eb34730f81ec01861c62e6358b0b5"
                }
            },
            "geometry": {
                "type": "Polygon",
                "coordinates": [
                    [
                        [
                            55.203394,
                            25.064743
                        ],
                        [
                            55.202964,
                            25.065113
                        ],
                        [
                            55.204724,
                            25.067094
                        ],
                        [
                            55.205875,
                            25.066418
                        ],
                        [
                            55.206036,
                            25.065979
                        ],
                        [
                            55.204874,
                            25.065691
                        ],
                        [
                            55.204063,
                            25.065266
                        ],
                        [
                            55.203394,
                            25.064743
                        ]
                    ]
                ]
            }
        },
        {
            "type": "Feature",
            "properties": {
                "observation_date": "2015-05-21",
                "source": "LC08_L1TP_160043_20150521_20200909_02_T1_TCI",
                "sensor_name": "Landsat 8",
                "type": "observation",
                "current_phase": "No Activity",
                "is_occluded": "False",
                "is_site_boundary": "True",
                "score": 1.0
            },
            "geometry": {
                "type": "MultiPolygon",
                "coordinates": [
                    [
                        [
                            [
                                55.202964,
                                25.065113
                            ],
                            [
                                55.203394,
                                25.064743
                            ],
                            [
                                55.204063,
                                25.065266
                            ],
                            [
                                55.204874,
                                25.065691
                            ],
                            [
                                55.206036,
                                25.065979
                            ],
                            [
                                55.205875,
                                25.066418
                            ],
                            [
                                55.204724,
                                25.067094
                            ],
                            [
                                55.202964,
                                25.065113
                            ]
                        ]
                    ]
                ]
            }
        },
        {
            "type": "Feature",
            "properties": {
                "observation_date": "2015-08-25",
                "source": "LC08_L1TP_160043_20150825_20200908_02_T1_TCI",
                "sensor_name": "Landsat 8",
                "type": "observation",
                "current_phase": "No Activity",
                "is_occluded": "False",
                "is_site_boundary": "True",
                "score": 1.0
            },
            "geometry": {
                "type": "MultiPolygon",
                "coordinates": [
                    [
                        [
                            [
                                55.202964,
                                25.065113
                            ],
                            [
                                55.203394,
                                25.064743
                            ],
                            [
                                55.204063,
                                25.065266
                            ],
                            [
                                55.204874,
                                25.065691
                            ],
                            [
                                55.206036,
                                25.065979
                            ],
                            [
                                55.205875,
                                25.066418
                            ],
                            [
                                55.204724,
                                25.067094
                            ],
                            [
                                55.202964,
                                25.065113
                            ]
                        ]
                    ]
                ]
            }
        },
        {
            "type": "Feature",
            "properties": {
                "observation_date": "2015-09-10",
                "source": "LC08_L1TP_160043_20150910_20200908_02_T1_TCI",
                "sensor_name": "Landsat 8",
                "type": "observation",
                "current_phase": "No Activity",
                "is_occluded": "False",
                "is_site_boundary": "True",
                "score": 1.0
            },
            "geometry": {
                "type": "MultiPolygon",
                "coordinates": [
                    [
                        [
                            [
                                55.202964,
                                25.065113
                            ],
                            [
                                55.203394,
                                25.064743
                            ],
                            [
                                55.204063,
                                25.065266
                            ],
                            [
                                55.204874,
                                25.065691
                            ],
                            [
                                55.206036,
                                25.065979
                            ],
                            [
                                55.205875,
                                25.066418
                            ],
                            [
                                55.204724,
                                25.067094
                            ],
                            [
                                55.202964,
                                25.065113
                            ]
                        ]
                    ]
                ]
            }
        },
        {
            "type": "Feature",
            "properties": {
                "observation_date": "2016-05-29",
                "source": "S2A_40RCN_20160529_0_L1C_TCI",
                "sensor_name": "Sentinel-2",
                "type": "observation",
                "current_phase": "Active Construction",
                "is_occluded": "False",
                "is_site_boundary": "True",
                "score": 1.0
            },
            "geometry": {
                "type": "MultiPolygon",
                "coordinates": [
                    [
                        [
                            [
                                55.202964,
                                25.065113
                            ],
                            [
                                55.203394,
                                25.064743
                            ],
                            [
                                55.204063,
                                25.065266
                            ],
                            [
                                55.204874,
                                25.065691
                            ],
                            [
                                55.206036,
                                25.065979
                            ],
                            [
                                55.205875,
                                25.066418
                            ],
                            [
                                55.204724,
                                25.067094
                            ],
                            [
                                55.202964,
                                25.065113
                            ]
                        ]
                    ]
                ]
            }
        },
        {
            "type": "Feature",
            "properties": {
                "observation_date": "2016-06-05",
                "source": "16JUN05100242-P1BS-500171678030_04_P002",
                "sensor_name": "WorldView",
                "type": "observation",
                "current_phase": "Active Construction",
                "is_occluded": "False",
                "is_site_boundary": "True",
                "score": 1.0
            },
            "geometry": {
                "type": "MultiPolygon",
                "coordinates": [
                    [
                        [
                            [
                                55.202964,
                                25.065113
                            ],
                            [
                                55.203394,
                                25.064743
                            ],
                            [
                                55.204063,
                                25.065266
                            ],
                            [
                                55.204874,
                                25.065691
                            ],
                            [
                                55.206036,
                                25.065979
                            ],
                            [
                                55.205875,
                                25.066418
                            ],
                            [
                                55.204724,
                                25.067094
                            ],
                            [
                                55.202964,
                                25.065113
                            ]
                        ]
                    ]
                ]
            }
        },
        {
            "type": "Feature",
            "properties": {
                "observation_date": "2016-08-02",
                "source": "16AUG02071943-P1BS-500346924010_18_P006",
                "sensor_name": "WorldView",
                "type": "observation",
                "current_phase": "Active Construction",
                "is_occluded": "False",
                "is_site_boundary": "True",
                "score": 1.0
            },
            "geometry": {
                "type": "MultiPolygon",
                "coordinates": [
                    [
                        [
                            [
                                55.202964,
                                25.065113
                            ],
                            [
                                55.203394,
                                25.064743
                            ],
                            [
                                55.204063,
                                25.065266
                            ],
                            [
                                55.204874,
                                25.065691
                            ],
                            [
                                55.206036,
                                25.065979
                            ],
                            [
                                55.205875,
                                25.066418
                            ],
                            [
                                55.204724,
                                25.067094
                            ],
                            [
                                55.202964,
                                25.065113
                            ]
                        ]
                    ]
                ]
            }
        },
        {
            "type": "Feature",
            "properties": {
                "observation_date": "2016-08-11",
                "source": "LC08_L1TP_160043_20160811_20200906_02_T1_TCI",
                "sensor_name": "Landsat 8",
                "type": "observation",
                "current_phase": "Active Construction",
                "is_occluded": "False",
                "is_site_boundary": "True",
                "score": 1.0
            },
            "geometry": {
                "type": "MultiPolygon",
                "coordinates": [
                    [
                        [
                            [
                                55.202964,
                                25.065113
                            ],
                            [
                                55.203394,
                                25.064743
                            ],
                            [
                                55.204063,
                                25.065266
                            ],
                            [
                                55.204874,
                                25.065691
                            ],
                            [
                                55.206036,
                                25.065979
                            ],
                            [
                                55.205875,
                                25.066418
                            ],
                            [
                                55.204724,
                                25.067094
                            ],
                            [
                                55.202964,
                                25.065113
                            ]
                        ]
                    ]
                ]
            }
        },
        {
            "type": "Feature",
            "properties": {
                "observation_date": "2016-08-13",
                "source": "16AUG13071752-M1BS-014855172010_01_P002",
                "sensor_name": "WorldView",
                "type": "observation",
                "current_phase": "Active Construction",
                "is_occluded": "False",
                "is_site_boundary": "True",
                "score": 1.0
            },
            "geometry": {
                "type": "MultiPolygon",
                "coordinates": [
                    [
                        [
                            [
                                55.202964,
                                25.065113
                            ],
                            [
                                55.203394,
                                25.064743
                            ],
                            [
                                55.204063,
                                25.065266
                            ],
                            [
                                55.204874,
                                25.065691
                            ],
                            [
                                55.206036,
                                25.065979
                            ],
                            [
                                55.205875,
                                25.066418
                            ],
                            [
                                55.204724,
                                25.067094
                            ],
                            [
                                55.202964,
                                25.065113
                            ]
                        ]
                    ]
                ]
            }
        },
        {
            "type": "Feature",
            "properties": {
                "observation_date": "2016-08-27",
                "source": "S2A_40RCN_20160827_0_L1C_TCI",
                "sensor_name": "Sentinel-2",
                "type": "observation",
                "current_phase": "Active Construction",
                "is_occluded": "False",
                "is_site_boundary": "True",
                "score": 1.0
            },
            "geometry": {
                "type": "MultiPolygon",
                "coordinates": [
                    [
                        [
                            [
                                55.202964,
                                25.065113
                            ],
                            [
                                55.203394,
                                25.064743
                            ],
                            [
                                55.204063,
                                25.065266
                            ],
                            [
                                55.204874,
                                25.065691
                            ],
                            [
                                55.206036,
                                25.065979
                            ],
                            [
                                55.205875,
                                25.066418
                            ],
                            [
                                55.204724,
                                25.067094
                            ],
                            [
                                55.202964,
                                25.065113
                            ]
                        ]
                    ]
                ]
            }
        },
        {
            "type": "Feature",
            "properties": {
                "observation_date": "2016-09-26",
                "source": "S2A_40RCN_20160926_0_L1C_TCI",
                "sensor_name": "Sentinel-2",
                "type": "observation",
                "current_phase": "Active Construction",
                "is_occluded": "False",
                "is_site_boundary": "True",
                "score": 1.0
            },
            "geometry": {
                "type": "MultiPolygon",
                "coordinates": [
                    [
                        [
                            [
                                55.202964,
                                25.065113
                            ],
                            [
                                55.203394,
                                25.064743
                            ],
                            [
                                55.204063,
                                25.065266
                            ],
                            [
                                55.204874,
                                25.065691
                            ],
                            [
                                55.206036,
                                25.065979
                            ],
                            [
                                55.205875,
                                25.066418
                            ],
                            [
                                55.204724,
                                25.067094
                            ],
                            [
                                55.202964,
                                25.065113
                            ]
                        ]
                    ]
                ]
            }
        },
        {
            "type": "Feature",
            "properties": {
                "observation_date": "2016-11-05",
                "source": "S2A_40RCN_20161105_0_L1C_TCI",
                "sensor_name": "Sentinel-2",
                "type": "observation",
                "current_phase": "Active Construction",
                "is_occluded": "False",
                "is_site_boundary": "True",
                "score": 1.0
            },
            "geometry": {
                "type": "MultiPolygon",
                "coordinates": [
                    [
                        [
                            [
                                55.202964,
                                25.065113
                            ],
                            [
                                55.203394,
                                25.064743
                            ],
                            [
                                55.204063,
                                25.065266
                            ],
                            [
                                55.204874,
                                25.065691
                            ],
                            [
                                55.206036,
                                25.065979
                            ],
                            [
                                55.205875,
                                25.066418
                            ],
                            [
                                55.204724,
                                25.067094
                            ],
                            [
                                55.202964,
                                25.065113
                            ]
                        ]
                    ]
                ]
            }
        },
        {
            "type": "Feature",
            "properties": {
                "observation_date": "2016-11-15",
                "source": "LC08_L1TP_160043_20161115_20200905_02_T1_TCI",
                "sensor_name": "Landsat 8",
                "type": "observation",
                "current_phase": "Active Construction",
                "is_occluded": "False",
                "is_site_boundary": "True",
                "score": 1.0
            },
            "geometry": {
                "type": "MultiPolygon",
                "coordinates": [
                    [
                        [
                            [
                                55.202964,
                                25.065113
                            ],
                            [
                                55.203394,
                                25.064743
                            ],
                            [
                                55.204063,
                                25.065266
                            ],
                            [
                                55.204874,
                                25.065691
                            ],
                            [
                                55.206036,
                                25.065979
                            ],
                            [
                                55.205875,
                                25.066418
                            ],
                            [
                                55.204724,
                                25.067094
                            ],
                            [
                                55.202964,
                                25.065113
                            ]
                        ]
                    ]
                ]
            }
        },
        {
            "type": "Feature",
            "properties": {
                "observation_date": "2016-12-17",
                "source": "LC08_L1TP_160043_20161217_20200905_02_T1_TCI",
                "sensor_name": "Landsat 8",
                "type": "observation",
                "current_phase": "Active Construction",
                "is_occluded": "False",
                "is_site_boundary": "True",
                "score": 1.0
            },
            "geometry": {
                "type": "MultiPolygon",
                "coordinates": [
                    [
                        [
                            [
                                55.202964,
                                25.065113
                            ],
                            [
                                55.203394,
                                25.064743
                            ],
                            [
                                55.204063,
                                25.065266
                            ],
                            [
                                55.204874,
                                25.065691
                            ],
                            [
                                55.206036,
                                25.065979
                            ],
                            [
                                55.205875,
                                25.066418
                            ],
                            [
                                55.204724,
                                25.067094
                            ],
                            [
                                55.202964,
                                25.065113
                            ]
                        ]
                    ]
                ]
            }
        },
        {
            "type": "Feature",
            "properties": {
                "observation_date": "2017-07-03",
                "source": "S2A_40RCN_20170703_0_L2A_TCI",
                "sensor_name": "Sentinel-2",
                "type": "observation",
                "current_phase": "Post Construction",
                "is_occluded": "False",
                "is_site_boundary": "True",
                "score": 1.0
            },
            "geometry": {
                "type": "MultiPolygon",
                "coordinates": [
                    [
                        [
                            [
                                55.202964,
                                25.065113
                            ],
                            [
                                55.203394,
                                25.064743
                            ],
                            [
                                55.204063,
                                25.065266
                            ],
                            [
                                55.204874,
                                25.065691
                            ],
                            [
                                55.206036,
                                25.065979
                            ],
                            [
                                55.205875,
                                25.066418
                            ],
                            [
                                55.204724,
                                25.067094
                            ],
                            [
                                55.202964,
                                25.065113
                            ]
                        ]
                    ]
                ]
            }
        },
        {
            "type": "Feature",
            "properties": {
                "observation_date": "2017-09-21",
                "source": "S2A_40RCN_20170921_0_L2A_TCI",
                "sensor_name": "Sentinel-2",
                "type": "observation",
                "current_phase": "Post Construction",
                "is_occluded": "False",
                "is_site_boundary": "True",
                "score": 1.0
            },
            "geometry": {
                "type": "MultiPolygon",
                "coordinates": [
                    [
                        [
                            [
                                55.202964,
                                25.065113
                            ],
                            [
                                55.203394,
                                25.064743
                            ],
                            [
                                55.204063,
                                25.065266
                            ],
                            [
                                55.204874,
                                25.065691
                            ],
                            [
                                55.206036,
                                25.065979
                            ],
                            [
                                55.205875,
                                25.066418
                            ],
                            [
                                55.204724,
                                25.067094
                            ],
                            [
                                55.202964,
                                25.065113
                            ]
                        ]
                    ]
                ]
            }
        },
        {
            "type": "Feature",
            "properties": {
                "observation_date": "2017-10-01",
                "source": "LC08_L1TP_160043_20171001_20200903_02_T1_TCI",
                "sensor_name": "Landsat 8",
                "type": "observation",
                "current_phase": "Post Construction",
                "is_occluded": "False",
                "is_site_boundary": "True",
                "score": 1.0
            },
            "geometry": {
                "type": "MultiPolygon",
                "coordinates": [
                    [
                        [
                            [
                                55.202964,
                                25.065113
                            ],
                            [
                                55.203394,
                                25.064743
                            ],
                            [
                                55.204063,
                                25.065266
                            ],
                            [
                                55.204874,
                                25.065691
                            ],
                            [
                                55.206036,
                                25.065979
                            ],
                            [
                                55.205875,
                                25.066418
                            ],
                            [
                                55.204724,
                                25.067094
                            ],
                            [
                                55.202964,
                                25.065113
                            ]
                        ]
                    ]
                ]
            }
        },
        {
            "type": "Feature",
            "properties": {
                "observation_date": "2017-10-11",
                "source": "S2A_40RCN_20171011_0_L2A_TCI",
                "sensor_name": "Sentinel-2",
                "type": "observation",
                "current_phase": "Post Construction",
                "is_occluded": "False",
                "is_site_boundary": "True",
                "score": 1.0
            },
            "geometry": {
                "type": "MultiPolygon",
                "coordinates": [
                    [
                        [
                            [
                                55.202964,
                                25.065113
                            ],
                            [
                                55.203394,
                                25.064743
                            ],
                            [
                                55.204063,
                                25.065266
                            ],
                            [
                                55.204874,
                                25.065691
                            ],
                            [
                                55.206036,
                                25.065979
                            ],
                            [
                                55.205875,
                                25.066418
                            ],
                            [
                                55.204724,
                                25.067094
                            ],
                            [
                                55.202964,
                                25.065113
                            ]
                        ]
                    ]
                ]
            }
        },
        {
            "type": "Feature",
            "properties": {
                "observation_date": "2017-11-13",
                "source": "17NOV13095918-P1BS-501764823010_01_P002",
                "sensor_name": "WorldView",
                "type": "observation",
                "current_phase": "Post Construction",
                "is_occluded": "False",
                "is_site_boundary": "True",
                "score": 1.0
            },
            "geometry": {
                "type": "MultiPolygon",
                "coordinates": [
                    [
                        [
                            [
                                55.202964,
                                25.065113
                            ],
                            [
                                55.203394,
                                25.064743
                            ],
                            [
                                55.204063,
                                25.065266
                            ],
                            [
                                55.204874,
                                25.065691
                            ],
                            [
                                55.206036,
                                25.065979
                            ],
                            [
                                55.205875,
                                25.066418
                            ],
                            [
                                55.204724,
                                25.067094
                            ],
                            [
                                55.202964,
                                25.065113
                            ]
                        ]
                    ]
                ]
            }
        },
        {
            "type": "Feature",
            "properties": {
                "observation_date": "2017-11-20",
                "source": "S2A_40RCN_20171120_0_L2A_TCI",
                "sensor_name": "Sentinel-2",
                "type": "observation",
                "current_phase": "Post Construction",
                "is_occluded": "False",
                "is_site_boundary": "True",
                "score": 1.0
            },
            "geometry": {
                "type": "MultiPolygon",
                "coordinates": [
                    [
                        [
                            [
                                55.202964,
                                25.065113
                            ],
                            [
                                55.203394,
                                25.064743
                            ],
                            [
                                55.204063,
                                25.065266
                            ],
                            [
                                55.204874,
                                25.065691
                            ],
                            [
                                55.206036,
                                25.065979
                            ],
                            [
                                55.205875,
                                25.066418
                            ],
                            [
                                55.204724,
                                25.067094
                            ],
                            [
                                55.202964,
                                25.065113
                            ]
                        ]
                    ]
                ]
            }
        },
        {
            "type": "Feature",
            "properties": {
                "observation_date": "2017-12-20",
                "source": "LC08_L1TP_160043_20171220_20200902_02_T1_TCI",
                "sensor_name": "Landsat 8",
                "type": "observation",
                "current_phase": "Post Construction",
                "is_occluded": "False",
                "is_site_boundary": "True",
                "score": 1.0
            },
            "geometry": {
                "type": "MultiPolygon",
                "coordinates": [
                    [
                        [
                            [
                                55.202964,
                                25.065113
                            ],
                            [
                                55.203394,
                                25.064743
                            ],
                            [
                                55.204063,
                                25.065266
                            ],
                            [
                                55.204874,
                                25.065691
                            ],
                            [
                                55.206036,
                                25.065979
                            ],
                            [
                                55.205875,
                                25.066418
                            ],
                            [
                                55.204724,
                                25.067094
                            ],
                            [
                                55.202964,
                                25.065113
                            ]
                        ]
                    ]
                ]
            }
        },
        {
            "type": "Feature",
            "properties": {
                "observation_date": "2018-01-05",
                "source": "LC08_L1TP_160043_20180105_20200902_02_T1_TCI",
                "sensor_name": "Landsat 8",
                "type": "observation",
                "current_phase": "Post Construction",
                "is_occluded": "False",
                "is_site_boundary": "True",
                "score": 1.0
            },
            "geometry": {
                "type": "MultiPolygon",
                "coordinates": [
                    [
                        [
                            [
                                55.202964,
                                25.065113
                            ],
                            [
                                55.203394,
                                25.064743
                            ],
                            [
                                55.204063,
                                25.065266
                            ],
                            [
                                55.204874,
                                25.065691
                            ],
                            [
                                55.206036,
                                25.065979
                            ],
                            [
                                55.205875,
                                25.066418
                            ],
                            [
                                55.204724,
                                25.067094
                            ],
                            [
                                55.202964,
                                25.065113
                            ]
                        ]
                    ]
                ]
            }
        },
        {
            "type": "Feature",
            "properties": {
                "observation_date": "2018-02-06",
                "source": "LC08_L1TP_160043_20180206_20200902_02_T1_TCI",
                "sensor_name": "Landsat 8",
                "type": "observation",
                "current_phase": "Post Construction",
                "is_occluded": "False",
                "is_site_boundary": "True",
                "score": 1.0
            },
            "geometry": {
                "type": "MultiPolygon",
                "coordinates": [
                    [
                        [
                            [
                                55.202964,
                                25.065113
                            ],
                            [
                                55.203394,
                                25.064743
                            ],
                            [
                                55.204063,
                                25.065266
                            ],
                            [
                                55.204874,
                                25.065691
                            ],
                            [
                                55.206036,
                                25.065979
                            ],
                            [
                                55.205875,
                                25.066418
                            ],
                            [
                                55.204724,
                                25.067094
                            ],
                            [
                                55.202964,
                                25.065113
                            ]
                        ]
                    ]
                ]
            }
        },
        {
            "type": "Feature",
            "properties": {
                "observation_date": "2018-03-08",
                "source": "18MAR08072034-M1BS-502009134020_01_P003",
                "sensor_name": "WorldView",
                "type": "observation",
                "current_phase": "Post Construction",
                "is_occluded": "False",
                "is_site_boundary": "True",
                "score": 1.0
            },
            "geometry": {
                "type": "MultiPolygon",
                "coordinates": [
                    [
                        [
                            [
                                55.202964,
                                25.065113
                            ],
                            [
                                55.203394,
                                25.064743
                            ],
                            [
                                55.204063,
                                25.065266
                            ],
                            [
                                55.204874,
                                25.065691
                            ],
                            [
                                55.206036,
                                25.065979
                            ],
                            [
                                55.205875,
                                25.066418
                            ],
                            [
                                55.204724,
                                25.067094
                            ],
                            [
                                55.202964,
                                25.065113
                            ]
                        ]
                    ]
                ]
            }
        },
        {
            "type": "Feature",
            "properties": {
                "observation_date": "2018-03-10",
                "source": "LC08_L1TP_160043_20180310_20200901_02_T1_TCI",
                "sensor_name": "Landsat 8",
                "type": "observation",
                "current_phase": "Post Construction",
                "is_occluded": "False",
                "is_site_boundary": "True",
                "score": 1.0
            },
            "geometry": {
                "type": "MultiPolygon",
                "coordinates": [
                    [
                        [
                            [
                                55.202964,
                                25.065113
                            ],
                            [
                                55.203394,
                                25.064743
                            ],
                            [
                                55.204063,
                                25.065266
                            ],
                            [
                                55.204874,
                                25.065691
                            ],
                            [
                                55.206036,
                                25.065979
                            ],
                            [
                                55.205875,
                                25.066418
                            ],
                            [
                                55.204724,
                                25.067094
                            ],
                            [
                                55.202964,
                                25.065113
                            ]
                        ]
                    ]
                ]
            }
        },
        {
            "type": "Feature",
            "properties": {
                "observation_date": "2018-05-24",
                "source": "S2B_40RCN_20180524_0_L2A_TCI",
                "sensor_name": "Sentinel-2",
                "type": "observation",
                "current_phase": "Post Construction",
                "is_occluded": "False",
                "is_site_boundary": "True",
                "score": 1.0
            },
            "geometry": {
                "type": "MultiPolygon",
                "coordinates": [
                    [
                        [
                            [
                                55.202964,
                                25.065113
                            ],
                            [
                                55.203394,
                                25.064743
                            ],
                            [
                                55.204063,
                                25.065266
                            ],
                            [
                                55.204874,
                                25.065691
                            ],
                            [
                                55.206036,
                                25.065979
                            ],
                            [
                                55.205875,
                                25.066418
                            ],
                            [
                                55.204724,
                                25.067094
                            ],
                            [
                                55.202964,
                                25.065113
                            ]
                        ]
                    ]
                ]
            }
        },
        {
            "type": "Feature",
            "properties": {
                "observation_date": "2019-01-26",
                "source": "19JAN26071819-P1BS-014858848010_01_P003",
                "sensor_name": "WorldView",
                "type": "observation",
                "current_phase": "Post Construction",
                "is_occluded": "False",
                "is_site_boundary": "True",
                "score": 1.0
            },
            "geometry": {
                "type": "MultiPolygon",
                "coordinates": [
                    [
                        [
                            [
                                55.202964,
                                25.065113
                            ],
                            [
                                55.203394,
                                25.064743
                            ],
                            [
                                55.204063,
                                25.065266
                            ],
                            [
                                55.204874,
                                25.065691
                            ],
                            [
                                55.206036,
                                25.065979
                            ],
                            [
                                55.205875,
                                25.066418
                            ],
                            [
                                55.204724,
                                25.067094
                            ],
                            [
                                55.202964,
                                25.065113
                            ]
                        ]
                    ]
                ]
            }
        }
    ]
}