{
    "type": "FeatureCollection",
    "features": [
        {
            "type": "Feature",
            "properties": {
                "type": "site",
                "region_id": "AE_R002",
                "site_id": "AE_R002_0239",
                "version": "2.0.0",
                "status": "positive_pending",
                "mgrs": "40RCN",
                "score": 1.0,
                "start_date": "2015-10-13",
                "end_date": null,
                "model_content": "annotation",
                "originator": "te",
                "validated": "False",
                "misc_info": {
                    "commit_hash": "824fac44479e0c34c554c214480da6d4c14a319e"
                }
            },
            "geometry": {
                "type": "Polygon",
                "coordinates": [
                    [
                        [
                            55.342834,
                            25.081135
                        ],
                        [
                            55.342657,
                            25.081696
                        ],
                        [
                            55.342192,
                            25.081741
                        ],
                        [
                            55.340999,
                            25.081245
                        ],
                        [
                            55.335975,
                            25.078349
                        ],
                        [
                            55.337778,
                            25.077433
                        ],
                        [
                            55.337513,
                            25.067778
                        ],
                        [
                            55.335669,
                            25.06516
                        ],
                        [
                            55.348336,
                            25.067372
                        ],
                        [
                            55.348645,
                            25.067836
                        ],
                        [
                            55.346194,
                            25.073718
                        ],
                        [
                            55.344434,
                            25.074215
                        ],
                        [
                            55.344692,
                            25.07486
                        ],
                        [
                            55.345014,
                            25.075111
                        ],
                        [
                            55.345295,
                            25.076046
                        ],
                        [
                            55.345282,
                            25.077024
                        ],
                        [
                            55.344955,
                            25.07831
                        ],
                        [
                            55.344385,
                            25.079307
                        ],
                        [
                            55.34386,
                            25.079952
                        ],
                        [
                            55.343231,
                            25.080371
                        ],
                        [
                            55.342834,
                            25.081135
                        ]
                    ]
                ]
            }
        },
        {
            "type": "Feature",
            "properties": {
                "observation_date": "2015-10-13",
                "source": null,
                "sensor_name": null,
                "type": "observation",
                "current_phase": null,
                "is_occluded": null,
                "is_site_boundary": null,
                "score": 1.0
            },
            "geometry": {
                "type": "MultiPolygon",
                "coordinates": [
                    [
                        [
                            [
                                55.342834,
                                25.081135
                            ],
                            [
                                55.342657,
                                25.081696
                            ],
                            [
                                55.342192,
                                25.081741
                            ],
                            [
                                55.340999,
                                25.081245
                            ],
                            [
                                55.335975,
                                25.078349
                            ],
                            [
                                55.337778,
                                25.077433
                            ],
                            [
                                55.337513,
                                25.067778
                            ],
                            [
                                55.335669,
                                25.06516
                            ],
                            [
                                55.348336,
                                25.067372
                            ],
                            [
                                55.348645,
                                25.067836
                            ],
                            [
                                55.346194,
                                25.073718
                            ],
                            [
                                55.344434,
                                25.074215
                            ],
                            [
                                55.344692,
                                25.07486
                            ],
                            [
                                55.345014,
                                25.075111
                            ],
                            [
                                55.345295,
                                25.076046
                            ],
                            [
                                55.345282,
                                25.077024
                            ],
                            [
                                55.344955,
                                25.07831
                            ],
                            [
                                55.344385,
                                25.079307
                            ],
                            [
                                55.34386,
                                25.079952
                            ],
                            [
                                55.343231,
                                25.080371
                            ],
                            [
                                55.342834,
                                25.081135
                            ]
                        ]
                    ]
                ]
            }
        },
        {
            "type": "Feature",
            "properties": {
                "observation_date": null,
                "source": null,
                "sensor_name": null,
                "type": "observation",
                "current_phase": null,
                "is_occluded": null,
                "is_site_boundary": null,
                "score": 1.0
            },
            "geometry": {
                "type": "MultiPolygon",
                "coordinates": [
                    [
                        [
                            [
                                55.342834,
                                25.081135
                            ],
                            [
                                55.342657,
                                25.081696
                            ],
                            [
                                55.342192,
                                25.081741
                            ],
                            [
                                55.340999,
                                25.081245
                            ],
                            [
                                55.335975,
                                25.078349
                            ],
                            [
                                55.337778,
                                25.077433
                            ],
                            [
                                55.337513,
                                25.067778
                            ],
                            [
                                55.335669,
                                25.06516
                            ],
                            [
                                55.348336,
                                25.067372
                            ],
                            [
                                55.348645,
                                25.067836
                            ],
                            [
                                55.346194,
                                25.073718
                            ],
                            [
                                55.344434,
                                25.074215
                            ],
                            [
                                55.344692,
                                25.07486
                            ],
                            [
                                55.345014,
                                25.075111
                            ],
                            [
                                55.345295,
                                25.076046
                            ],
                            [
                                55.345282,
                                25.077024
                            ],
                            [
                                55.344955,
                                25.07831
                            ],
                            [
                                55.344385,
                                25.079307
                            ],
                            [
                                55.34386,
                                25.079952
                            ],
                            [
                                55.343231,
                                25.080371
                            ],
                            [
                                55.342834,
                                25.081135
                            ]
                        ]
                    ]
                ]
            }
        }
    ]
}