{
    "type": "FeatureCollection",
    "features": [
        {
            "type": "Feature",
            "properties": {
                "type": "site",
                "region_id": "AE_R001",
                "site_id": "AE_R001_0482",
                "version": "2.0.0",
                "status": "positive_pending",
                "mgrs": "40RCN",
                "score": 1.0,
                "start_date": "2014-07-06",
                "end_date": "2016-05-04",
                "model_content": "annotation",
                "originator": "te",
                "validated": "True",
                "misc_info": {
                    "commit_hash": "8e2cc701facd37559ed12647d70a5e5b3622c6ca"
                }
            },
            "geometry": {
                "type": "Polygon",
                "coordinates": [
                    [
                        [
                            55.097965,
                            24.930361
                        ],
                        [
                            55.098483,
                            24.930943
                        ],
                        [
                            55.098601,
                            24.931011
                        ],
                        [
                            55.098769,
                            24.93104
                        ],
                        [
                            55.098935,
                            24.931017
                        ],
                        [
                            55.09907,
                            24.930962
                        ],
                        [
                            55.099615,
                            24.930573
                        ],
                        [
                            55.098808,
                            24.929753
                        ],
                        [
                            55.097965,
                            24.930361
                        ]
                    ]
                ]
            }
        },
        {
            "type": "Feature",
            "properties": {
                "observation_date": "2014-07-06",
                "source": null,
                "sensor_name": null,
                "type": "observation",
                "current_phase": null,
                "is_occluded": null,
                "is_site_boundary": null,
                "score": 1.0
            },
            "geometry": {
                "type": "MultiPolygon",
                "coordinates": [
                    [
                        [
                            [
                                55.097965,
                                24.930361
                            ],
                            [
                                55.098483,
                                24.930943
                            ],
                            [
                                55.098601,
                                24.931011
                            ],
                            [
                                55.098769,
                                24.93104
                            ],
                            [
                                55.098935,
                                24.931017
                            ],
                            [
                                55.09907,
                                24.930962
                            ],
                            [
                                55.099615,
                                24.930573
                            ],
                            [
                                55.098808,
                                24.929753
                            ],
                            [
                                55.097965,
                                24.930361
                            ]
                        ]
                    ]
                ]
            }
        },
        {
            "type": "Feature",
            "properties": {
                "observation_date": "2016-05-04",
                "source": null,
                "sensor_name": null,
                "type": "observation",
                "current_phase": null,
                "is_occluded": null,
                "is_site_boundary": null,
                "score": 1.0
            },
            "geometry": {
                "type": "MultiPolygon",
                "coordinates": [
                    [
                        [
                            [
                                55.097965,
                                24.930361
                            ],
                            [
                                55.098483,
                                24.930943
                            ],
                            [
                                55.098601,
                                24.931011
                            ],
                            [
                                55.098769,
                                24.93104
                            ],
                            [
                                55.098935,
                                24.931017
                            ],
                            [
                                55.09907,
                                24.930962
                            ],
                            [
                                55.099615,
                                24.930573
                            ],
                            [
                                55.098808,
                                24.929753
                            ],
                            [
                                55.097965,
                                24.930361
                            ]
                        ]
                    ]
                ]
            }
        }
    ]
}