{
    "type": "FeatureCollection",
    "features": [
        {
            "type": "Feature",
            "properties": {
                "type": "site",
                "region_id": "AE_R001",
                "site_id": "AE_R001_0552",
                "version": "2.0.0",
                "status": "positive_pending",
                "mgrs": "40RCN",
                "score": 1.0,
                "start_date": "2014-08-14",
                "end_date": "2021-08-01",
                "model_content": "annotation",
                "originator": "te",
                "validated": "True",
                "misc_info": {
                    "commit_hash": "8e2cc701facd37559ed12647d70a5e5b3622c6ca"
                }
            },
            "geometry": {
                "type": "Polygon",
                "coordinates": [
                    [
                        [
                            55.119613,
                            24.989845
                        ],
                        [
                            55.121003,
                            24.988793
                        ],
                        [
                            55.120119,
                            24.98785
                        ],
                        [
                            55.118731,
                            24.988893
                        ],
                        [
                            55.119613,
                            24.989845
                        ]
                    ]
                ]
            }
        },
        {
            "type": "Feature",
            "properties": {
                "observation_date": "2014-08-14",
                "source": null,
                "sensor_name": null,
                "type": "observation",
                "current_phase": null,
                "is_occluded": null,
                "is_site_boundary": null,
                "score": 1.0
            },
            "geometry": {
                "type": "MultiPolygon",
                "coordinates": [
                    [
                        [
                            [
                                55.119613,
                                24.989845
                            ],
                            [
                                55.121003,
                                24.988793
                            ],
                            [
                                55.120119,
                                24.98785
                            ],
                            [
                                55.118731,
                                24.988893
                            ],
                            [
                                55.119613,
                                24.989845
                            ]
                        ]
                    ]
                ]
            }
        },
        {
            "type": "Feature",
            "properties": {
                "observation_date": "2021-08-01",
                "source": null,
                "sensor_name": null,
                "type": "observation",
                "current_phase": null,
                "is_occluded": null,
                "is_site_boundary": null,
                "score": 1.0
            },
            "geometry": {
                "type": "MultiPolygon",
                "coordinates": [
                    [
                        [
                            [
                                55.119613,
                                24.989845
                            ],
                            [
                                55.121003,
                                24.988793
                            ],
                            [
                                55.120119,
                                24.98785
                            ],
                            [
                                55.118731,
                                24.988893
                            ],
                            [
                                55.119613,
                                24.989845
                            ]
                        ]
                    ]
                ]
            }
        }
    ]
}