{
    "type": "FeatureCollection",
    "features": [
        {
            "type": "Feature",
            "properties": {
                "type": "site",
                "region_id": "AE_R002",
                "site_id": "AE_R002_0277",
                "version": "2.0.0",
                "status": "ignore",
                "mgrs": "40RCN",
                "score": 1.0,
                "start_date": "2015-10-13",
                "end_date": null,
                "model_content": "annotation",
                "originator": "te",
                "validated": "False",
                "misc_info": {
                    "commit_hash": "824fac44479e0c34c554c214480da6d4c14a319e"
                }
            },
            "geometry": {
                "type": "Polygon",
                "coordinates": [
                    [
                        [
                            55.287918,
                            25.000377
                        ],
                        [
                            55.289407,
                            24.999149
                        ],
                        [
                            55.291671,
                            25.001427
                        ],
                        [
                            55.290543,
                            25.002376
                        ],
                        [
                            55.288791,
                            25.00067
                        ],
                        [
                            55.2885,
                            25.000934
                        ],
                        [
                            55.287918,
                            25.000377
                        ]
                    ]
                ]
            }
        },
        {
            "type": "Feature",
            "properties": {
                "observation_date": "2015-10-13",
                "source": null,
                "sensor_name": null,
                "type": "observation",
                "current_phase": null,
                "is_occluded": null,
                "is_site_boundary": null,
                "score": 1.0
            },
            "geometry": {
                "type": "MultiPolygon",
                "coordinates": [
                    [
                        [
                            [
                                55.287918,
                                25.000377
                            ],
                            [
                                55.289407,
                                24.999149
                            ],
                            [
                                55.291671,
                                25.001427
                            ],
                            [
                                55.290543,
                                25.002376
                            ],
                            [
                                55.288791,
                                25.00067
                            ],
                            [
                                55.2885,
                                25.000934
                            ],
                            [
                                55.287918,
                                25.000377
                            ]
                        ]
                    ]
                ]
            }
        },
        {
            "type": "Feature",
            "properties": {
                "observation_date": null,
                "source": null,
                "sensor_name": null,
                "type": "observation",
                "current_phase": null,
                "is_occluded": null,
                "is_site_boundary": null,
                "score": 1.0
            },
            "geometry": {
                "type": "MultiPolygon",
                "coordinates": [
                    [
                        [
                            [
                                55.287918,
                                25.000377
                            ],
                            [
                                55.289407,
                                24.999149
                            ],
                            [
                                55.291671,
                                25.001427
                            ],
                            [
                                55.290543,
                                25.002376
                            ],
                            [
                                55.288791,
                                25.00067
                            ],
                            [
                                55.2885,
                                25.000934
                            ],
                            [
                                55.287918,
                                25.000377
                            ]
                        ]
                    ]
                ]
            }
        }
    ]
}