{
    "type": "FeatureCollection",
    "features": [
        {
            "type": "Feature",
            "properties": {
                "type": "site",
                "region_id": "AE_R002",
                "site_id": "AE_R002_0228",
                "version": "2.0.0",
                "status": "positive_annotated_static",
                "mgrs": "40RCN",
                "score": 1.0,
                "start_date": "2016-01-10",
                "end_date": "2019-07-13",
                "model_content": "annotation",
                "originator": "te",
                "validated": "True",
                "misc_info": {
                    "commit_hash": "dbdea3485a8eb34730f81ec01861c62e6358b0b5"
                }
            },
            "geometry": {
                "type": "Polygon",
                "coordinates": [
                    [
                        [
                            55.214161,
                            25.077382
                        ],
                        [
                            55.214908,
                            25.078251
                        ],
                        [
                            55.215519,
                            25.077796
                        ],
                        [
                            55.215636,
                            25.076402
                        ],
                        [
                            55.214899,
                            25.075631
                        ],
                        [
                            55.214202,
                            25.076603
                        ],
                        [
                            55.214161,
                            25.077382
                        ]
                    ]
                ]
            }
        },
        {
            "type": "Feature",
            "properties": {
                "observation_date": "2016-01-10",
                "source": "S2A_40RCN_20160110_0_L1C_TCI",
                "sensor_name": "Sentinel-2",
                "type": "observation",
                "current_phase": "No Activity",
                "is_occluded": "False",
                "is_site_boundary": "True",
                "score": 1.0
            },
            "geometry": {
                "type": "MultiPolygon",
                "coordinates": [
                    [
                        [
                            [
                                55.214908,
                                25.078251
                            ],
                            [
                                55.214161,
                                25.077382
                            ],
                            [
                                55.214202,
                                25.076603
                            ],
                            [
                                55.214899,
                                25.075631
                            ],
                            [
                                55.215636,
                                25.076402
                            ],
                            [
                                55.215519,
                                25.077796
                            ],
                            [
                                55.214908,
                                25.078251
                            ]
                        ]
                    ]
                ]
            }
        },
        {
            "type": "Feature",
            "properties": {
                "observation_date": "2016-02-19",
                "source": "S2A_40RCN_20160219_0_L1C_TCI",
                "sensor_name": "Sentinel-2",
                "type": "observation",
                "current_phase": "No Activity",
                "is_occluded": "False",
                "is_site_boundary": "True",
                "score": 1.0
            },
            "geometry": {
                "type": "MultiPolygon",
                "coordinates": [
                    [
                        [
                            [
                                55.214908,
                                25.078251
                            ],
                            [
                                55.214161,
                                25.077382
                            ],
                            [
                                55.214202,
                                25.076603
                            ],
                            [
                                55.214899,
                                25.075631
                            ],
                            [
                                55.215636,
                                25.076402
                            ],
                            [
                                55.215519,
                                25.077796
                            ],
                            [
                                55.214908,
                                25.078251
                            ]
                        ]
                    ]
                ]
            }
        },
        {
            "type": "Feature",
            "properties": {
                "observation_date": "2016-03-20",
                "source": "S2A_40RCN_20160320_0_L1C_TCI",
                "sensor_name": "Sentinel-2",
                "type": "observation",
                "current_phase": "No Activity",
                "is_occluded": "False",
                "is_site_boundary": "True",
                "score": 1.0
            },
            "geometry": {
                "type": "MultiPolygon",
                "coordinates": [
                    [
                        [
                            [
                                55.214908,
                                25.078251
                            ],
                            [
                                55.214161,
                                25.077382
                            ],
                            [
                                55.214202,
                                25.076603
                            ],
                            [
                                55.214899,
                                25.075631
                            ],
                            [
                                55.215636,
                                25.076402
                            ],
                            [
                                55.215519,
                                25.077796
                            ],
                            [
                                55.214908,
                                25.078251
                            ]
                        ]
                    ]
                ]
            }
        },
        {
            "type": "Feature",
            "properties": {
                "observation_date": "2016-04-19",
                "source": "S2A_40RCN_20160419_0_L1C_TCI",
                "sensor_name": "Sentinel-2",
                "type": "observation",
                "current_phase": "No Activity",
                "is_occluded": "False",
                "is_site_boundary": "True",
                "score": 1.0
            },
            "geometry": {
                "type": "MultiPolygon",
                "coordinates": [
                    [
                        [
                            [
                                55.214908,
                                25.078251
                            ],
                            [
                                55.214161,
                                25.077382
                            ],
                            [
                                55.214202,
                                25.076603
                            ],
                            [
                                55.214899,
                                25.075631
                            ],
                            [
                                55.215636,
                                25.076402
                            ],
                            [
                                55.215519,
                                25.077796
                            ],
                            [
                                55.214908,
                                25.078251
                            ]
                        ]
                    ]
                ]
            }
        },
        {
            "type": "Feature",
            "properties": {
                "observation_date": "2016-05-29",
                "source": "S2A_40RCN_20160529_0_L1C_TCI",
                "sensor_name": "Sentinel-2",
                "type": "observation",
                "current_phase": "No Activity",
                "is_occluded": "False",
                "is_site_boundary": "True",
                "score": 1.0
            },
            "geometry": {
                "type": "MultiPolygon",
                "coordinates": [
                    [
                        [
                            [
                                55.214908,
                                25.078251
                            ],
                            [
                                55.214161,
                                25.077382
                            ],
                            [
                                55.214202,
                                25.076603
                            ],
                            [
                                55.214899,
                                25.075631
                            ],
                            [
                                55.215636,
                                25.076402
                            ],
                            [
                                55.215519,
                                25.077796
                            ],
                            [
                                55.214908,
                                25.078251
                            ]
                        ]
                    ]
                ]
            }
        },
        {
            "type": "Feature",
            "properties": {
                "observation_date": "2016-06-05",
                "source": "16JUN05100242-P1BS-500346917010_05_P005",
                "sensor_name": "WorldView",
                "type": "observation",
                "current_phase": "No Activity",
                "is_occluded": "False",
                "is_site_boundary": "True",
                "score": 1.0
            },
            "geometry": {
                "type": "MultiPolygon",
                "coordinates": [
                    [
                        [
                            [
                                55.214908,
                                25.078251
                            ],
                            [
                                55.214161,
                                25.077382
                            ],
                            [
                                55.214202,
                                25.076603
                            ],
                            [
                                55.214899,
                                25.075631
                            ],
                            [
                                55.215636,
                                25.076402
                            ],
                            [
                                55.215519,
                                25.077796
                            ],
                            [
                                55.214908,
                                25.078251
                            ]
                        ]
                    ]
                ]
            }
        },
        {
            "type": "Feature",
            "properties": {
                "observation_date": "2016-06-28",
                "source": "S2A_40RCN_20160628_0_L1C_TCI",
                "sensor_name": "Sentinel-2",
                "type": "observation",
                "current_phase": "No Activity",
                "is_occluded": "False",
                "is_site_boundary": "True",
                "score": 1.0
            },
            "geometry": {
                "type": "MultiPolygon",
                "coordinates": [
                    [
                        [
                            [
                                55.214908,
                                25.078251
                            ],
                            [
                                55.214161,
                                25.077382
                            ],
                            [
                                55.214202,
                                25.076603
                            ],
                            [
                                55.214899,
                                25.075631
                            ],
                            [
                                55.215636,
                                25.076402
                            ],
                            [
                                55.215519,
                                25.077796
                            ],
                            [
                                55.214908,
                                25.078251
                            ]
                        ]
                    ]
                ]
            }
        },
        {
            "type": "Feature",
            "properties": {
                "observation_date": "2016-07-18",
                "source": "S2A_40RCN_20160718_0_L1C_TCI",
                "sensor_name": "Sentinel-2",
                "type": "observation",
                "current_phase": "No Activity",
                "is_occluded": "False",
                "is_site_boundary": "True",
                "score": 1.0
            },
            "geometry": {
                "type": "MultiPolygon",
                "coordinates": [
                    [
                        [
                            [
                                55.214908,
                                25.078251
                            ],
                            [
                                55.214161,
                                25.077382
                            ],
                            [
                                55.214202,
                                25.076603
                            ],
                            [
                                55.214899,
                                25.075631
                            ],
                            [
                                55.215636,
                                25.076402
                            ],
                            [
                                55.215519,
                                25.077796
                            ],
                            [
                                55.214908,
                                25.078251
                            ]
                        ]
                    ]
                ]
            }
        },
        {
            "type": "Feature",
            "properties": {
                "observation_date": "2016-08-07",
                "source": "S2A_40RCN_20160807_0_L1C_TCI",
                "sensor_name": "Sentinel-2",
                "type": "observation",
                "current_phase": "No Activity",
                "is_occluded": "False",
                "is_site_boundary": "True",
                "score": 1.0
            },
            "geometry": {
                "type": "MultiPolygon",
                "coordinates": [
                    [
                        [
                            [
                                55.214908,
                                25.078251
                            ],
                            [
                                55.214161,
                                25.077382
                            ],
                            [
                                55.214202,
                                25.076603
                            ],
                            [
                                55.214899,
                                25.075631
                            ],
                            [
                                55.215636,
                                25.076402
                            ],
                            [
                                55.215519,
                                25.077796
                            ],
                            [
                                55.214908,
                                25.078251
                            ]
                        ]
                    ]
                ]
            }
        },
        {
            "type": "Feature",
            "properties": {
                "observation_date": "2016-08-13",
                "source": "16AUG13071752-M1BS-014855184010_01_P002",
                "sensor_name": "WorldView",
                "type": "observation",
                "current_phase": "No Activity",
                "is_occluded": "False",
                "is_site_boundary": "True",
                "score": 1.0
            },
            "geometry": {
                "type": "MultiPolygon",
                "coordinates": [
                    [
                        [
                            [
                                55.214908,
                                25.078251
                            ],
                            [
                                55.214161,
                                25.077382
                            ],
                            [
                                55.214202,
                                25.076603
                            ],
                            [
                                55.214899,
                                25.075631
                            ],
                            [
                                55.215636,
                                25.076402
                            ],
                            [
                                55.215519,
                                25.077796
                            ],
                            [
                                55.214908,
                                25.078251
                            ]
                        ]
                    ]
                ]
            }
        },
        {
            "type": "Feature",
            "properties": {
                "observation_date": "2016-09-16",
                "source": "S2A_40RCN_20160916_0_L1C_TCI",
                "sensor_name": "Sentinel-2",
                "type": "observation",
                "current_phase": "No Activity",
                "is_occluded": "False",
                "is_site_boundary": "True",
                "score": 1.0
            },
            "geometry": {
                "type": "MultiPolygon",
                "coordinates": [
                    [
                        [
                            [
                                55.214908,
                                25.078251
                            ],
                            [
                                55.214161,
                                25.077382
                            ],
                            [
                                55.214202,
                                25.076603
                            ],
                            [
                                55.214899,
                                25.075631
                            ],
                            [
                                55.215636,
                                25.076402
                            ],
                            [
                                55.215519,
                                25.077796
                            ],
                            [
                                55.214908,
                                25.078251
                            ]
                        ]
                    ]
                ]
            }
        },
        {
            "type": "Feature",
            "properties": {
                "observation_date": "2016-09-23",
                "source": "16SEP23070107-P1BS-014855183010_01_P002",
                "sensor_name": "WorldView",
                "type": "observation",
                "current_phase": "No Activity",
                "is_occluded": "False",
                "is_site_boundary": "True",
                "score": 1.0
            },
            "geometry": {
                "type": "MultiPolygon",
                "coordinates": [
                    [
                        [
                            [
                                55.214908,
                                25.078251
                            ],
                            [
                                55.214161,
                                25.077382
                            ],
                            [
                                55.214202,
                                25.076603
                            ],
                            [
                                55.214899,
                                25.075631
                            ],
                            [
                                55.215636,
                                25.076402
                            ],
                            [
                                55.215519,
                                25.077796
                            ],
                            [
                                55.214908,
                                25.078251
                            ]
                        ]
                    ]
                ]
            }
        },
        {
            "type": "Feature",
            "properties": {
                "observation_date": "2017-07-28",
                "source": "S2B_40RCN_20170728_0_L2A_TCI",
                "sensor_name": "Sentinel-2",
                "type": "observation",
                "current_phase": "Active Construction",
                "is_occluded": "False",
                "is_site_boundary": "True",
                "score": 1.0
            },
            "geometry": {
                "type": "MultiPolygon",
                "coordinates": [
                    [
                        [
                            [
                                55.214908,
                                25.078251
                            ],
                            [
                                55.214161,
                                25.077382
                            ],
                            [
                                55.214202,
                                25.076603
                            ],
                            [
                                55.214899,
                                25.075631
                            ],
                            [
                                55.215636,
                                25.076402
                            ],
                            [
                                55.215519,
                                25.077796
                            ],
                            [
                                55.214908,
                                25.078251
                            ]
                        ]
                    ]
                ]
            }
        },
        {
            "type": "Feature",
            "properties": {
                "observation_date": "2017-08-27",
                "source": "S2B_40RCN_20170827_0_L2A_TCI",
                "sensor_name": "Sentinel-2",
                "type": "observation",
                "current_phase": "Active Construction",
                "is_occluded": "False",
                "is_site_boundary": "True",
                "score": 1.0
            },
            "geometry": {
                "type": "MultiPolygon",
                "coordinates": [
                    [
                        [
                            [
                                55.214908,
                                25.078251
                            ],
                            [
                                55.214161,
                                25.077382
                            ],
                            [
                                55.214202,
                                25.076603
                            ],
                            [
                                55.214899,
                                25.075631
                            ],
                            [
                                55.215636,
                                25.076402
                            ],
                            [
                                55.215519,
                                25.077796
                            ],
                            [
                                55.214908,
                                25.078251
                            ]
                        ]
                    ]
                ]
            }
        },
        {
            "type": "Feature",
            "properties": {
                "observation_date": "2017-09-06",
                "source": "S2B_40RCN_20170906_0_L2A_TCI",
                "sensor_name": "Sentinel-2",
                "type": "observation",
                "current_phase": "Active Construction",
                "is_occluded": "False",
                "is_site_boundary": "True",
                "score": 1.0
            },
            "geometry": {
                "type": "MultiPolygon",
                "coordinates": [
                    [
                        [
                            [
                                55.214908,
                                25.078251
                            ],
                            [
                                55.214161,
                                25.077382
                            ],
                            [
                                55.214202,
                                25.076603
                            ],
                            [
                                55.214899,
                                25.075631
                            ],
                            [
                                55.215636,
                                25.076402
                            ],
                            [
                                55.215519,
                                25.077796
                            ],
                            [
                                55.214908,
                                25.078251
                            ]
                        ]
                    ]
                ]
            }
        },
        {
            "type": "Feature",
            "properties": {
                "observation_date": "2017-10-21",
                "source": "S2A_40RCN_20171021_0_L2A_TCI",
                "sensor_name": "Sentinel-2",
                "type": "observation",
                "current_phase": "Active Construction",
                "is_occluded": "False",
                "is_site_boundary": "True",
                "score": 1.0
            },
            "geometry": {
                "type": "MultiPolygon",
                "coordinates": [
                    [
                        [
                            [
                                55.214908,
                                25.078251
                            ],
                            [
                                55.214161,
                                25.077382
                            ],
                            [
                                55.214202,
                                25.076603
                            ],
                            [
                                55.214899,
                                25.075631
                            ],
                            [
                                55.215636,
                                25.076402
                            ],
                            [
                                55.215519,
                                25.077796
                            ],
                            [
                                55.214908,
                                25.078251
                            ]
                        ]
                    ]
                ]
            }
        },
        {
            "type": "Feature",
            "properties": {
                "observation_date": "2017-11-05",
                "source": "S2B_40RCN_20171105_0_L2A_TCI",
                "sensor_name": "Sentinel-2",
                "type": "observation",
                "current_phase": "Active Construction",
                "is_occluded": "False",
                "is_site_boundary": "True",
                "score": 1.0
            },
            "geometry": {
                "type": "MultiPolygon",
                "coordinates": [
                    [
                        [
                            [
                                55.214908,
                                25.078251
                            ],
                            [
                                55.214161,
                                25.077382
                            ],
                            [
                                55.214202,
                                25.076603
                            ],
                            [
                                55.214899,
                                25.075631
                            ],
                            [
                                55.215636,
                                25.076402
                            ],
                            [
                                55.215519,
                                25.077796
                            ],
                            [
                                55.214908,
                                25.078251
                            ]
                        ]
                    ]
                ]
            }
        },
        {
            "type": "Feature",
            "properties": {
                "observation_date": "2017-11-13",
                "source": "17NOV13095918-P1BS-501764823010_01_P002",
                "sensor_name": "WorldView",
                "type": "observation",
                "current_phase": "Active Construction",
                "is_occluded": "False",
                "is_site_boundary": "True",
                "score": 1.0
            },
            "geometry": {
                "type": "MultiPolygon",
                "coordinates": [
                    [
                        [
                            [
                                55.214908,
                                25.078251
                            ],
                            [
                                55.214161,
                                25.077382
                            ],
                            [
                                55.214202,
                                25.076603
                            ],
                            [
                                55.214899,
                                25.075631
                            ],
                            [
                                55.215636,
                                25.076402
                            ],
                            [
                                55.215519,
                                25.077796
                            ],
                            [
                                55.214908,
                                25.078251
                            ]
                        ]
                    ]
                ]
            }
        },
        {
            "type": "Feature",
            "properties": {
                "observation_date": "2017-12-20",
                "source": "S2A_40RCN_20171220_0_L2A_TCI",
                "sensor_name": "Sentinel-2",
                "type": "observation",
                "current_phase": "Active Construction",
                "is_occluded": "False",
                "is_site_boundary": "True",
                "score": 1.0
            },
            "geometry": {
                "type": "MultiPolygon",
                "coordinates": [
                    [
                        [
                            [
                                55.214908,
                                25.078251
                            ],
                            [
                                55.214161,
                                25.077382
                            ],
                            [
                                55.214202,
                                25.076603
                            ],
                            [
                                55.214899,
                                25.075631
                            ],
                            [
                                55.215636,
                                25.076402
                            ],
                            [
                                55.215519,
                                25.077796
                            ],
                            [
                                55.214908,
                                25.078251
                            ]
                        ]
                    ]
                ]
            }
        },
        {
            "type": "Feature",
            "properties": {
                "observation_date": "2018-03-08",
                "source": "18MAR08072034-P1BS-502009134020_01_P003",
                "sensor_name": "WorldView",
                "type": "observation",
                "current_phase": "Active Construction",
                "is_occluded": "False",
                "is_site_boundary": "True",
                "score": 1.0
            },
            "geometry": {
                "type": "MultiPolygon",
                "coordinates": [
                    [
                        [
                            [
                                55.214908,
                                25.078251
                            ],
                            [
                                55.214161,
                                25.077382
                            ],
                            [
                                55.214202,
                                25.076603
                            ],
                            [
                                55.214899,
                                25.075631
                            ],
                            [
                                55.215636,
                                25.076402
                            ],
                            [
                                55.215519,
                                25.077796
                            ],
                            [
                                55.214908,
                                25.078251
                            ]
                        ]
                    ]
                ]
            }
        },
        {
            "type": "Feature",
            "properties": {
                "observation_date": "2018-03-25",
                "source": "S2B_40RCN_20180325_0_L2A_TCI",
                "sensor_name": "Sentinel-2",
                "type": "observation",
                "current_phase": "Active Construction",
                "is_occluded": "False",
                "is_site_boundary": "True",
                "score": 1.0
            },
            "geometry": {
                "type": "MultiPolygon",
                "coordinates": [
                    [
                        [
                            [
                                55.214908,
                                25.078251
                            ],
                            [
                                55.214161,
                                25.077382
                            ],
                            [
                                55.214202,
                                25.076603
                            ],
                            [
                                55.214899,
                                25.075631
                            ],
                            [
                                55.215636,
                                25.076402
                            ],
                            [
                                55.215519,
                                25.077796
                            ],
                            [
                                55.214908,
                                25.078251
                            ]
                        ]
                    ]
                ]
            }
        },
        {
            "type": "Feature",
            "properties": {
                "observation_date": "2018-04-04",
                "source": "S2B_40RCN_20180404_0_L2A_TCI",
                "sensor_name": "Sentinel-2",
                "type": "observation",
                "current_phase": "Active Construction",
                "is_occluded": "False",
                "is_site_boundary": "True",
                "score": 1.0
            },
            "geometry": {
                "type": "MultiPolygon",
                "coordinates": [
                    [
                        [
                            [
                                55.214908,
                                25.078251
                            ],
                            [
                                55.214161,
                                25.077382
                            ],
                            [
                                55.214202,
                                25.076603
                            ],
                            [
                                55.214899,
                                25.075631
                            ],
                            [
                                55.215636,
                                25.076402
                            ],
                            [
                                55.215519,
                                25.077796
                            ],
                            [
                                55.214908,
                                25.078251
                            ]
                        ]
                    ]
                ]
            }
        },
        {
            "type": "Feature",
            "properties": {
                "observation_date": "2018-05-24",
                "source": "S2B_40RCN_20180524_0_L2A_TCI",
                "sensor_name": "Sentinel-2",
                "type": "observation",
                "current_phase": "Active Construction",
                "is_occluded": "False",
                "is_site_boundary": "True",
                "score": 1.0
            },
            "geometry": {
                "type": "MultiPolygon",
                "coordinates": [
                    [
                        [
                            [
                                55.214908,
                                25.078251
                            ],
                            [
                                55.214161,
                                25.077382
                            ],
                            [
                                55.214202,
                                25.076603
                            ],
                            [
                                55.214899,
                                25.075631
                            ],
                            [
                                55.215636,
                                25.076402
                            ],
                            [
                                55.215519,
                                25.077796
                            ],
                            [
                                55.214908,
                                25.078251
                            ]
                        ]
                    ]
                ]
            }
        },
        {
            "type": "Feature",
            "properties": {
                "observation_date": "2018-06-13",
                "source": "S2B_40RCN_20180613_0_L2A_TCI",
                "sensor_name": "Sentinel-2",
                "type": "observation",
                "current_phase": "Active Construction",
                "is_occluded": "False",
                "is_site_boundary": "True",
                "score": 1.0
            },
            "geometry": {
                "type": "MultiPolygon",
                "coordinates": [
                    [
                        [
                            [
                                55.214908,
                                25.078251
                            ],
                            [
                                55.214161,
                                25.077382
                            ],
                            [
                                55.214202,
                                25.076603
                            ],
                            [
                                55.214899,
                                25.075631
                            ],
                            [
                                55.215636,
                                25.076402
                            ],
                            [
                                55.215519,
                                25.077796
                            ],
                            [
                                55.214908,
                                25.078251
                            ]
                        ]
                    ]
                ]
            }
        },
        {
            "type": "Feature",
            "properties": {
                "observation_date": "2018-07-08",
                "source": "S2A_40RCN_20180708_0_L2A_TCI",
                "sensor_name": "Sentinel-2",
                "type": "observation",
                "current_phase": "Active Construction",
                "is_occluded": "False",
                "is_site_boundary": "True",
                "score": 1.0
            },
            "geometry": {
                "type": "MultiPolygon",
                "coordinates": [
                    [
                        [
                            [
                                55.214908,
                                25.078251
                            ],
                            [
                                55.214161,
                                25.077382
                            ],
                            [
                                55.214202,
                                25.076603
                            ],
                            [
                                55.214899,
                                25.075631
                            ],
                            [
                                55.215636,
                                25.076402
                            ],
                            [
                                55.215519,
                                25.077796
                            ],
                            [
                                55.214908,
                                25.078251
                            ]
                        ]
                    ]
                ]
            }
        },
        {
            "type": "Feature",
            "properties": {
                "observation_date": "2019-01-24",
                "source": "S2A_40RCN_20190124_0_L2A_TCI",
                "sensor_name": "Sentinel-2",
                "type": "observation",
                "current_phase": "Post Construction",
                "is_occluded": "False",
                "is_site_boundary": "True",
                "score": 1.0
            },
            "geometry": {
                "type": "MultiPolygon",
                "coordinates": [
                    [
                        [
                            [
                                55.214908,
                                25.078251
                            ],
                            [
                                55.214161,
                                25.077382
                            ],
                            [
                                55.214202,
                                25.076603
                            ],
                            [
                                55.214899,
                                25.075631
                            ],
                            [
                                55.215636,
                                25.076402
                            ],
                            [
                                55.215519,
                                25.077796
                            ],
                            [
                                55.214908,
                                25.078251
                            ]
                        ]
                    ]
                ]
            }
        },
        {
            "type": "Feature",
            "properties": {
                "observation_date": "2019-01-26",
                "source": "19JAN26071819-M1BS-014858848010_01_P003",
                "sensor_name": "WorldView",
                "type": "observation",
                "current_phase": "Post Construction",
                "is_occluded": "False",
                "is_site_boundary": "True",
                "score": 1.0
            },
            "geometry": {
                "type": "MultiPolygon",
                "coordinates": [
                    [
                        [
                            [
                                55.214908,
                                25.078251
                            ],
                            [
                                55.214161,
                                25.077382
                            ],
                            [
                                55.214202,
                                25.076603
                            ],
                            [
                                55.214899,
                                25.075631
                            ],
                            [
                                55.215636,
                                25.076402
                            ],
                            [
                                55.215519,
                                25.077796
                            ],
                            [
                                55.214908,
                                25.078251
                            ]
                        ]
                    ]
                ]
            }
        },
        {
            "type": "Feature",
            "properties": {
                "observation_date": "2019-02-23",
                "source": "S2A_40RCN_20190223_0_L2A_TCI",
                "sensor_name": "Sentinel-2",
                "type": "observation",
                "current_phase": "Post Construction",
                "is_occluded": "False",
                "is_site_boundary": "True",
                "score": 1.0
            },
            "geometry": {
                "type": "MultiPolygon",
                "coordinates": [
                    [
                        [
                            [
                                55.214908,
                                25.078251
                            ],
                            [
                                55.214161,
                                25.077382
                            ],
                            [
                                55.214202,
                                25.076603
                            ],
                            [
                                55.214899,
                                25.075631
                            ],
                            [
                                55.215636,
                                25.076402
                            ],
                            [
                                55.215519,
                                25.077796
                            ],
                            [
                                55.214908,
                                25.078251
                            ]
                        ]
                    ]
                ]
            }
        },
        {
            "type": "Feature",
            "properties": {
                "observation_date": "2019-03-20",
                "source": "S2B_40RCN_20190320_0_L2A_TCI",
                "sensor_name": "Sentinel-2",
                "type": "observation",
                "current_phase": "Post Construction",
                "is_occluded": "False",
                "is_site_boundary": "True",
                "score": 1.0
            },
            "geometry": {
                "type": "MultiPolygon",
                "coordinates": [
                    [
                        [
                            [
                                55.214908,
                                25.078251
                            ],
                            [
                                55.214161,
                                25.077382
                            ],
                            [
                                55.214202,
                                25.076603
                            ],
                            [
                                55.214899,
                                25.075631
                            ],
                            [
                                55.215636,
                                25.076402
                            ],
                            [
                                55.215519,
                                25.077796
                            ],
                            [
                                55.214908,
                                25.078251
                            ]
                        ]
                    ]
                ]
            }
        },
        {
            "type": "Feature",
            "properties": {
                "observation_date": "2019-04-29",
                "source": "S2B_40RCN_20190429_0_L2A_TCI",
                "sensor_name": "Sentinel-2",
                "type": "observation",
                "current_phase": "Post Construction",
                "is_occluded": "False",
                "is_site_boundary": "True",
                "score": 1.0
            },
            "geometry": {
                "type": "MultiPolygon",
                "coordinates": [
                    [
                        [
                            [
                                55.214908,
                                25.078251
                            ],
                            [
                                55.214161,
                                25.077382
                            ],
                            [
                                55.214202,
                                25.076603
                            ],
                            [
                                55.214899,
                                25.075631
                            ],
                            [
                                55.215636,
                                25.076402
                            ],
                            [
                                55.215519,
                                25.077796
                            ],
                            [
                                55.214908,
                                25.078251
                            ]
                        ]
                    ]
                ]
            }
        },
        {
            "type": "Feature",
            "properties": {
                "observation_date": "2019-05-09",
                "source": "S2B_40RCN_20190509_0_L2A_TCI",
                "sensor_name": "Sentinel-2",
                "type": "observation",
                "current_phase": "Post Construction",
                "is_occluded": "False",
                "is_site_boundary": "True",
                "score": 1.0
            },
            "geometry": {
                "type": "MultiPolygon",
                "coordinates": [
                    [
                        [
                            [
                                55.214908,
                                25.078251
                            ],
                            [
                                55.214161,
                                25.077382
                            ],
                            [
                                55.214202,
                                25.076603
                            ],
                            [
                                55.214899,
                                25.075631
                            ],
                            [
                                55.215636,
                                25.076402
                            ],
                            [
                                55.215519,
                                25.077796
                            ],
                            [
                                55.214908,
                                25.078251
                            ]
                        ]
                    ]
                ]
            }
        },
        {
            "type": "Feature",
            "properties": {
                "observation_date": "2019-06-08",
                "source": "S2B_40RCN_20190608_0_L2A_TCI",
                "sensor_name": "Sentinel-2",
                "type": "observation",
                "current_phase": "Post Construction",
                "is_occluded": "False",
                "is_site_boundary": "True",
                "score": 1.0
            },
            "geometry": {
                "type": "MultiPolygon",
                "coordinates": [
                    [
                        [
                            [
                                55.214908,
                                25.078251
                            ],
                            [
                                55.214161,
                                25.077382
                            ],
                            [
                                55.214202,
                                25.076603
                            ],
                            [
                                55.214899,
                                25.075631
                            ],
                            [
                                55.215636,
                                25.076402
                            ],
                            [
                                55.215519,
                                25.077796
                            ],
                            [
                                55.214908,
                                25.078251
                            ]
                        ]
                    ]
                ]
            }
        },
        {
            "type": "Feature",
            "properties": {
                "observation_date": "2019-07-13",
                "source": "S2A_40RCN_20190713_0_L2A_TCI",
                "sensor_name": "Sentinel-2",
                "type": "observation",
                "current_phase": "Post Construction",
                "is_occluded": "False",
                "is_site_boundary": "True",
                "score": 1.0
            },
            "geometry": {
                "type": "MultiPolygon",
                "coordinates": [
                    [
                        [
                            [
                                55.214908,
                                25.078251
                            ],
                            [
                                55.214161,
                                25.077382
                            ],
                            [
                                55.214202,
                                25.076603
                            ],
                            [
                                55.214899,
                                25.075631
                            ],
                            [
                                55.215636,
                                25.076402
                            ],
                            [
                                55.215519,
                                25.077796
                            ],
                            [
                                55.214908,
                                25.078251
                            ]
                        ]
                    ]
                ]
            }
        }
    ]
}