{
    "type": "FeatureCollection",
    "features": [
        {
            "type": "Feature",
            "properties": {
                "type": "site",
                "region_id": "AE_R001",
                "site_id": "AE_R001_0460",
                "version": "2.0.0",
                "status": "positive_pending",
                "mgrs": "40RCN",
                "score": 1.0,
                "start_date": "2013-04-17",
                "end_date": "2017-12-03",
                "model_content": "annotation",
                "originator": "te",
                "validated": "True",
                "misc_info": {
                    "commit_hash": "8e2cc701facd37559ed12647d70a5e5b3622c6ca"
                }
            },
            "geometry": {
                "type": "Polygon",
                "coordinates": [
                    [
                        [
                            55.10096,
                            24.940288
                        ],
                        [
                            55.099592,
                            24.941501
                        ],
                        [
                            55.103062,
                            24.944498
                        ],
                        [
                            55.105424,
                            24.942444
                        ],
                        [
                            55.104155,
                            24.941079
                        ],
                        [
                            55.103032,
                            24.941978
                        ],
                        [
                            55.10096,
                            24.940288
                        ]
                    ]
                ]
            }
        },
        {
            "type": "Feature",
            "properties": {
                "observation_date": "2013-04-17",
                "source": null,
                "sensor_name": null,
                "type": "observation",
                "current_phase": null,
                "is_occluded": null,
                "is_site_boundary": null,
                "score": 1.0
            },
            "geometry": {
                "type": "MultiPolygon",
                "coordinates": [
                    [
                        [
                            [
                                55.10096,
                                24.940288
                            ],
                            [
                                55.099592,
                                24.941501
                            ],
                            [
                                55.103062,
                                24.944498
                            ],
                            [
                                55.105424,
                                24.942444
                            ],
                            [
                                55.104155,
                                24.941079
                            ],
                            [
                                55.103032,
                                24.941978
                            ],
                            [
                                55.10096,
                                24.940288
                            ]
                        ]
                    ]
                ]
            }
        },
        {
            "type": "Feature",
            "properties": {
                "observation_date": "2017-12-03",
                "source": null,
                "sensor_name": null,
                "type": "observation",
                "current_phase": null,
                "is_occluded": null,
                "is_site_boundary": null,
                "score": 1.0
            },
            "geometry": {
                "type": "MultiPolygon",
                "coordinates": [
                    [
                        [
                            [
                                55.10096,
                                24.940288
                            ],
                            [
                                55.099592,
                                24.941501
                            ],
                            [
                                55.103062,
                                24.944498
                            ],
                            [
                                55.105424,
                                24.942444
                            ],
                            [
                                55.104155,
                                24.941079
                            ],
                            [
                                55.103032,
                                24.941978
                            ],
                            [
                                55.10096,
                                24.940288
                            ]
                        ]
                    ]
                ]
            }
        }
    ]
}