{
    "type": "FeatureCollection",
    "features": [
        {
            "type": "Feature",
            "properties": {
                "type": "site",
                "region_id": "AE_R001",
                "site_id": "AE_R001_0418",
                "version": "2.0.0",
                "status": "positive_pending",
                "mgrs": "40RCN",
                "score": 1.0,
                "start_date": "2012-08-21",
                "end_date": "2015-04-27",
                "model_content": "annotation",
                "originator": "te",
                "validated": "True",
                "misc_info": {
                    "commit_hash": "8e2cc701facd37559ed12647d70a5e5b3622c6ca"
                }
            },
            "geometry": {
                "type": "Polygon",
                "coordinates": [
                    [
                        [
                            55.18997,
                            24.976938
                        ],
                        [
                            55.190185,
                            24.977776
                        ],
                        [
                            55.190188,
                            24.97778
                        ],
                        [
                            55.191326,
                            24.977496
                        ],
                        [
                            55.191441,
                            24.977367
                        ],
                        [
                            55.191499,
                            24.976864
                        ],
                        [
                            55.191543,
                            24.976597
                        ],
                        [
                            55.18997,
                            24.976938
                        ]
                    ]
                ]
            }
        },
        {
            "type": "Feature",
            "properties": {
                "observation_date": "2012-08-21",
                "source": null,
                "sensor_name": null,
                "type": "observation",
                "current_phase": null,
                "is_occluded": null,
                "is_site_boundary": null,
                "score": 1.0
            },
            "geometry": {
                "type": "MultiPolygon",
                "coordinates": [
                    [
                        [
                            [
                                55.18997,
                                24.976938
                            ],
                            [
                                55.190185,
                                24.977776
                            ],
                            [
                                55.190188,
                                24.97778
                            ],
                            [
                                55.191326,
                                24.977496
                            ],
                            [
                                55.191441,
                                24.977367
                            ],
                            [
                                55.191499,
                                24.976864
                            ],
                            [
                                55.191543,
                                24.976597
                            ],
                            [
                                55.18997,
                                24.976938
                            ]
                        ]
                    ]
                ]
            }
        },
        {
            "type": "Feature",
            "properties": {
                "observation_date": "2015-04-27",
                "source": null,
                "sensor_name": null,
                "type": "observation",
                "current_phase": null,
                "is_occluded": null,
                "is_site_boundary": null,
                "score": 1.0
            },
            "geometry": {
                "type": "MultiPolygon",
                "coordinates": [
                    [
                        [
                            [
                                55.18997,
                                24.976938
                            ],
                            [
                                55.190185,
                                24.977776
                            ],
                            [
                                55.190188,
                                24.97778
                            ],
                            [
                                55.191326,
                                24.977496
                            ],
                            [
                                55.191441,
                                24.977367
                            ],
                            [
                                55.191499,
                                24.976864
                            ],
                            [
                                55.191543,
                                24.976597
                            ],
                            [
                                55.18997,
                                24.976938
                            ]
                        ]
                    ]
                ]
            }
        }
    ]
}