{
    "type": "FeatureCollection",
    "features": [
        {
            "type": "Feature",
            "properties": {
                "type": "site",
                "region_id": "AE_R002",
                "site_id": "AE_R002_0039",
                "version": "2.0.0",
                "status": "positive_annotated_static",
                "mgrs": "40RCN",
                "score": 1.0,
                "start_date": "2014-11-07",
                "end_date": "2018-05-04",
                "model_content": "annotation",
                "originator": "te",
                "validated": "True",
                "misc_info": {
                    "commit_hash": "8e08692eda2dec643e6abab764d830cd0f7f4055"
                }
            },
            "geometry": {
                "type": "Polygon",
                "coordinates": [
                    [
                        [
                            55.387982,
                            25.094705
                        ],
                        [
                            55.386919,
                            25.095978
                        ],
                        [
                            55.388175,
                            25.096643
                        ],
                        [
                            55.389094,
                            25.095323
                        ],
                        [
                            55.387982,
                            25.094705
                        ]
                    ]
                ]
            }
        },
        {
            "type": "Feature",
            "properties": {
                "observation_date": "2014-11-07",
                "source": "14NOV07071512-P1BS-500185007020_01_P002",
                "sensor_name": "WorldView",
                "type": "observation",
                "current_phase": "No Activity",
                "is_occluded": "False",
                "is_site_boundary": "True",
                "score": 1.0
            },
            "geometry": {
                "type": "MultiPolygon",
                "coordinates": [
                    [
                        [
                            [
                                55.386919,
                                25.095978
                            ],
                            [
                                55.387982,
                                25.094705
                            ],
                            [
                                55.389094,
                                25.095323
                            ],
                            [
                                55.388175,
                                25.096643
                            ],
                            [
                                55.386919,
                                25.095978
                            ]
                        ]
                    ]
                ]
            }
        },
        {
            "type": "Feature",
            "properties": {
                "observation_date": "2015-02-08",
                "source": "15FEB08073731-P1BS-500247201020_01_P002",
                "sensor_name": "WorldView",
                "type": "observation",
                "current_phase": "No Activity",
                "is_occluded": "False",
                "is_site_boundary": "True",
                "score": 1.0
            },
            "geometry": {
                "type": "MultiPolygon",
                "coordinates": [
                    [
                        [
                            [
                                55.386919,
                                25.095978
                            ],
                            [
                                55.387982,
                                25.094705
                            ],
                            [
                                55.389094,
                                25.095323
                            ],
                            [
                                55.388175,
                                25.096643
                            ],
                            [
                                55.386919,
                                25.095978
                            ]
                        ]
                    ]
                ]
            }
        },
        {
            "type": "Feature",
            "properties": {
                "observation_date": "2016-01-10",
                "source": "S2A_40RCN_20160110_0_L1C_TCI",
                "sensor_name": "Sentinel-2",
                "type": "observation",
                "current_phase": "Active Construction",
                "is_occluded": "False",
                "is_site_boundary": "True",
                "score": 1.0
            },
            "geometry": {
                "type": "MultiPolygon",
                "coordinates": [
                    [
                        [
                            [
                                55.386919,
                                25.095978
                            ],
                            [
                                55.387982,
                                25.094705
                            ],
                            [
                                55.389094,
                                25.095323
                            ],
                            [
                                55.388175,
                                25.096643
                            ],
                            [
                                55.386919,
                                25.095978
                            ]
                        ]
                    ]
                ]
            }
        },
        {
            "type": "Feature",
            "properties": {
                "observation_date": "2016-08-07",
                "source": "16AUG07072018-P1BS-014855224010_01_P009",
                "sensor_name": "WorldView",
                "type": "observation",
                "current_phase": "Active Construction",
                "is_occluded": "False",
                "is_site_boundary": "True",
                "score": 1.0
            },
            "geometry": {
                "type": "MultiPolygon",
                "coordinates": [
                    [
                        [
                            [
                                55.386919,
                                25.095978
                            ],
                            [
                                55.387982,
                                25.094705
                            ],
                            [
                                55.389094,
                                25.095323
                            ],
                            [
                                55.388175,
                                25.096643
                            ],
                            [
                                55.386919,
                                25.095978
                            ]
                        ]
                    ]
                ]
            }
        },
        {
            "type": "Feature",
            "properties": {
                "observation_date": "2017-10-10",
                "source": "17OCT10095421-P1BS-501631093010_01_P001",
                "sensor_name": "WorldView",
                "type": "observation",
                "current_phase": "Active Construction",
                "is_occluded": "False",
                "is_site_boundary": "True",
                "score": 1.0
            },
            "geometry": {
                "type": "MultiPolygon",
                "coordinates": [
                    [
                        [
                            [
                                55.386919,
                                25.095978
                            ],
                            [
                                55.387982,
                                25.094705
                            ],
                            [
                                55.389094,
                                25.095323
                            ],
                            [
                                55.388175,
                                25.096643
                            ],
                            [
                                55.386919,
                                25.095978
                            ]
                        ]
                    ]
                ]
            }
        },
        {
            "type": "Feature",
            "properties": {
                "observation_date": "2017-12-30",
                "source": "17DEC30095332-P1BS-501824017010_01_P001",
                "sensor_name": "WorldView",
                "type": "observation",
                "current_phase": "Active Construction",
                "is_occluded": "False",
                "is_site_boundary": "True",
                "score": 1.0
            },
            "geometry": {
                "type": "MultiPolygon",
                "coordinates": [
                    [
                        [
                            [
                                55.386919,
                                25.095978
                            ],
                            [
                                55.387982,
                                25.094705
                            ],
                            [
                                55.389094,
                                25.095323
                            ],
                            [
                                55.388175,
                                25.096643
                            ],
                            [
                                55.386919,
                                25.095978
                            ]
                        ]
                    ]
                ]
            }
        },
        {
            "type": "Feature",
            "properties": {
                "observation_date": "2018-04-08",
                "source": "18APR08071427-M1BS-014858888010_01_P003",
                "sensor_name": "WorldView",
                "type": "observation",
                "current_phase": "Active Construction",
                "is_occluded": "False",
                "is_site_boundary": "True",
                "score": 1.0
            },
            "geometry": {
                "type": "MultiPolygon",
                "coordinates": [
                    [
                        [
                            [
                                55.386919,
                                25.095978
                            ],
                            [
                                55.387982,
                                25.094705
                            ],
                            [
                                55.389094,
                                25.095323
                            ],
                            [
                                55.388175,
                                25.096643
                            ],
                            [
                                55.386919,
                                25.095978
                            ]
                        ]
                    ]
                ]
            }
        },
        {
            "type": "Feature",
            "properties": {
                "observation_date": "2018-05-04",
                "source": "18MAY04072739-P1BS-014858843010_01_P006",
                "sensor_name": "WorldView",
                "type": "observation",
                "current_phase": "Post Construction",
                "is_occluded": "False",
                "is_site_boundary": "True",
                "score": 1.0
            },
            "geometry": {
                "type": "MultiPolygon",
                "coordinates": [
                    [
                        [
                            [
                                55.386919,
                                25.095978
                            ],
                            [
                                55.387982,
                                25.094705
                            ],
                            [
                                55.389094,
                                25.095323
                            ],
                            [
                                55.388175,
                                25.096643
                            ],
                            [
                                55.386919,
                                25.095978
                            ]
                        ]
                    ]
                ]
            }
        }
    ]
}