{
    "type": "FeatureCollection",
    "features": [
        {
            "type": "Feature",
            "properties": {
                "type": "site",
                "region_id": "AE_R001",
                "site_id": "AE_R001_0465",
                "version": "2.0.0",
                "status": "positive_pending",
                "mgrs": "40RCN",
                "score": 1.0,
                "start_date": "2014-11-07",
                "end_date": "2016-05-04",
                "model_content": "annotation",
                "originator": "te",
                "validated": "True",
                "misc_info": {
                    "commit_hash": "8e2cc701facd37559ed12647d70a5e5b3622c6ca"
                }
            },
            "geometry": {
                "type": "Polygon",
                "coordinates": [
                    [
                        [
                            55.094881,
                            24.937761
                        ],
                        [
                            55.095919,
                            24.938936
                        ],
                        [
                            55.096532,
                            24.939076
                        ],
                        [
                            55.097908,
                            24.937887
                        ],
                        [
                            55.096455,
                            24.936148
                        ],
                        [
                            55.095048,
                            24.937144
                        ],
                        [
                            55.094881,
                            24.937761
                        ]
                    ]
                ]
            }
        },
        {
            "type": "Feature",
            "properties": {
                "observation_date": "2014-11-07",
                "source": null,
                "sensor_name": null,
                "type": "observation",
                "current_phase": null,
                "is_occluded": null,
                "is_site_boundary": null,
                "score": 1.0
            },
            "geometry": {
                "type": "MultiPolygon",
                "coordinates": [
                    [
                        [
                            [
                                55.094881,
                                24.937761
                            ],
                            [
                                55.095919,
                                24.938936
                            ],
                            [
                                55.096532,
                                24.939076
                            ],
                            [
                                55.097908,
                                24.937887
                            ],
                            [
                                55.096455,
                                24.936148
                            ],
                            [
                                55.095048,
                                24.937144
                            ],
                            [
                                55.094881,
                                24.937761
                            ]
                        ]
                    ]
                ]
            }
        },
        {
            "type": "Feature",
            "properties": {
                "observation_date": "2016-05-04",
                "source": null,
                "sensor_name": null,
                "type": "observation",
                "current_phase": null,
                "is_occluded": null,
                "is_site_boundary": null,
                "score": 1.0
            },
            "geometry": {
                "type": "MultiPolygon",
                "coordinates": [
                    [
                        [
                            [
                                55.094881,
                                24.937761
                            ],
                            [
                                55.095919,
                                24.938936
                            ],
                            [
                                55.096532,
                                24.939076
                            ],
                            [
                                55.097908,
                                24.937887
                            ],
                            [
                                55.096455,
                                24.936148
                            ],
                            [
                                55.095048,
                                24.937144
                            ],
                            [
                                55.094881,
                                24.937761
                            ]
                        ]
                    ]
                ]
            }
        }
    ]
}