{
    "type": "FeatureCollection",
    "features": [
        {
            "type": "Feature",
            "properties": {
                "type": "site",
                "region_id": "AE_R002",
                "site_id": "AE_R002_0010",
                "version": "2.0.0",
                "status": "ignore",
                "mgrs": "40RCN",
                "score": 1.0,
                "start_date": "2014-01-01",
                "end_date": null,
                "model_content": "annotation",
                "originator": "te",
                "validated": "False",
                "misc_info": {
                    "commit_hash": "824fac44479e0c34c554c214480da6d4c14a319e"
                }
            },
            "geometry": {
                "type": "Polygon",
                "coordinates": [
                    [
                        [
                            55.318842,
                            25.087456
                        ],
                        [
                            55.315928,
                            25.085657
                        ],
                        [
                            55.312796,
                            25.085223
                        ],
                        [
                            55.311187,
                            25.085368
                        ],
                        [
                            55.310927,
                            25.085576
                        ],
                        [
                            55.310168,
                            25.087441
                        ],
                        [
                            55.310006,
                            25.088973
                        ],
                        [
                            55.310182,
                            25.089256
                        ],
                        [
                            55.311519,
                            25.089248
                        ],
                        [
                            55.312689,
                            25.089308
                        ],
                        [
                            55.314085,
                            25.089652
                        ],
                        [
                            55.317233,
                            25.090835
                        ],
                        [
                            55.317488,
                            25.090932
                        ],
                        [
                            55.318414,
                            25.089069
                        ],
                        [
                            55.319094,
                            25.087763
                        ],
                        [
                            55.318842,
                            25.087456
                        ]
                    ]
                ]
            }
        },
        {
            "type": "Feature",
            "properties": {
                "observation_date": "2014-01-01",
                "source": null,
                "sensor_name": null,
                "type": "observation",
                "current_phase": null,
                "is_occluded": null,
                "is_site_boundary": null,
                "score": 1.0
            },
            "geometry": {
                "type": "MultiPolygon",
                "coordinates": [
                    [
                        [
                            [
                                55.318842,
                                25.087456
                            ],
                            [
                                55.315928,
                                25.085657
                            ],
                            [
                                55.312796,
                                25.085223
                            ],
                            [
                                55.311187,
                                25.085368
                            ],
                            [
                                55.310927,
                                25.085576
                            ],
                            [
                                55.310168,
                                25.087441
                            ],
                            [
                                55.310006,
                                25.088973
                            ],
                            [
                                55.310182,
                                25.089256
                            ],
                            [
                                55.311519,
                                25.089248
                            ],
                            [
                                55.312689,
                                25.089308
                            ],
                            [
                                55.314085,
                                25.089652
                            ],
                            [
                                55.317233,
                                25.090835
                            ],
                            [
                                55.317488,
                                25.090932
                            ],
                            [
                                55.318414,
                                25.089069
                            ],
                            [
                                55.319094,
                                25.087763
                            ],
                            [
                                55.318842,
                                25.087456
                            ]
                        ]
                    ]
                ]
            }
        },
        {
            "type": "Feature",
            "properties": {
                "observation_date": null,
                "source": null,
                "sensor_name": null,
                "type": "observation",
                "current_phase": null,
                "is_occluded": null,
                "is_site_boundary": null,
                "score": 1.0
            },
            "geometry": {
                "type": "MultiPolygon",
                "coordinates": [
                    [
                        [
                            [
                                55.318842,
                                25.087456
                            ],
                            [
                                55.315928,
                                25.085657
                            ],
                            [
                                55.312796,
                                25.085223
                            ],
                            [
                                55.311187,
                                25.085368
                            ],
                            [
                                55.310927,
                                25.085576
                            ],
                            [
                                55.310168,
                                25.087441
                            ],
                            [
                                55.310006,
                                25.088973
                            ],
                            [
                                55.310182,
                                25.089256
                            ],
                            [
                                55.311519,
                                25.089248
                            ],
                            [
                                55.312689,
                                25.089308
                            ],
                            [
                                55.314085,
                                25.089652
                            ],
                            [
                                55.317233,
                                25.090835
                            ],
                            [
                                55.317488,
                                25.090932
                            ],
                            [
                                55.318414,
                                25.089069
                            ],
                            [
                                55.319094,
                                25.087763
                            ],
                            [
                                55.318842,
                                25.087456
                            ]
                        ]
                    ]
                ]
            }
        }
    ]
}