{
    "type": "FeatureCollection",
    "features": [
        {
            "type": "Feature",
            "properties": {
                "type": "site",
                "region_id": "AE_R002",
                "site_id": "AE_R002_0042",
                "version": "2.0.0",
                "status": "positive_annotated_static",
                "mgrs": "40RCN",
                "score": 1.0,
                "start_date": "2016-06-05",
                "end_date": "2020-08-31",
                "model_content": "annotation",
                "originator": "te",
                "validated": "True",
                "misc_info": {
                    "commit_hash": "8e08692eda2dec643e6abab764d830cd0f7f4055"
                }
            },
            "geometry": {
                "type": "Polygon",
                "coordinates": [
                    [
                        [
                            55.216215,
                            25.057709
                        ],
                        [
                            55.215899,
                            25.058598
                        ],
                        [
                            55.217502,
                            25.059099
                        ],
                        [
                            55.217878,
                            25.058181
                        ],
                        [
                            55.216215,
                            25.057709
                        ]
                    ]
                ]
            }
        },
        {
            "type": "Feature",
            "properties": {
                "observation_date": "2016-06-05",
                "source": "16JUN05100242-P1BS-500171678030_04_P002",
                "sensor_name": "WorldView",
                "type": "observation",
                "current_phase": "No Activity",
                "is_occluded": "False",
                "is_site_boundary": "True",
                "score": 1.0
            },
            "geometry": {
                "type": "MultiPolygon",
                "coordinates": [
                    [
                        [
                            [
                                55.215899,
                                25.058598
                            ],
                            [
                                55.216215,
                                25.057709
                            ],
                            [
                                55.217878,
                                25.058181
                            ],
                            [
                                55.217502,
                                25.059099
                            ],
                            [
                                55.215899,
                                25.058598
                            ]
                        ]
                    ]
                ]
            }
        },
        {
            "type": "Feature",
            "properties": {
                "observation_date": "2016-08-13",
                "source": "16AUG13071752-P1BS-014855184010_01_P002",
                "sensor_name": "WorldView",
                "type": "observation",
                "current_phase": "No Activity",
                "is_occluded": "False",
                "is_site_boundary": "True",
                "score": 1.0
            },
            "geometry": {
                "type": "MultiPolygon",
                "coordinates": [
                    [
                        [
                            [
                                55.215899,
                                25.058598
                            ],
                            [
                                55.216215,
                                25.057709
                            ],
                            [
                                55.217878,
                                25.058181
                            ],
                            [
                                55.217502,
                                25.059099
                            ],
                            [
                                55.215899,
                                25.058598
                            ]
                        ]
                    ]
                ]
            }
        },
        {
            "type": "Feature",
            "properties": {
                "observation_date": "2017-10-21",
                "source": "S2A_40RCN_20171021_0_L2A_TCI",
                "sensor_name": "Sentinel-2",
                "type": "observation",
                "current_phase": "Active Construction",
                "is_occluded": "False",
                "is_site_boundary": "True",
                "score": 1.0
            },
            "geometry": {
                "type": "MultiPolygon",
                "coordinates": [
                    [
                        [
                            [
                                55.215899,
                                25.058598
                            ],
                            [
                                55.216215,
                                25.057709
                            ],
                            [
                                55.217878,
                                25.058181
                            ],
                            [
                                55.217502,
                                25.059099
                            ],
                            [
                                55.215899,
                                25.058598
                            ]
                        ]
                    ]
                ]
            }
        },
        {
            "type": "Feature",
            "properties": {
                "observation_date": "2017-11-10",
                "source": "S2A_40RCN_20171110_0_L2A_TCI",
                "sensor_name": "Sentinel-2",
                "type": "observation",
                "current_phase": "Active Construction",
                "is_occluded": "False",
                "is_site_boundary": "True",
                "score": 1.0
            },
            "geometry": {
                "type": "MultiPolygon",
                "coordinates": [
                    [
                        [
                            [
                                55.215899,
                                25.058598
                            ],
                            [
                                55.216215,
                                25.057709
                            ],
                            [
                                55.217878,
                                25.058181
                            ],
                            [
                                55.217502,
                                25.059099
                            ],
                            [
                                55.215899,
                                25.058598
                            ]
                        ]
                    ]
                ]
            }
        },
        {
            "type": "Feature",
            "properties": {
                "observation_date": "2017-11-13",
                "source": "17NOV13095918-P1BS-501764823010_01_P002",
                "sensor_name": "WorldView",
                "type": "observation",
                "current_phase": "Active Construction",
                "is_occluded": "False",
                "is_site_boundary": "True",
                "score": 1.0
            },
            "geometry": {
                "type": "MultiPolygon",
                "coordinates": [
                    [
                        [
                            [
                                55.215899,
                                25.058598
                            ],
                            [
                                55.216215,
                                25.057709
                            ],
                            [
                                55.217878,
                                25.058181
                            ],
                            [
                                55.217502,
                                25.059099
                            ],
                            [
                                55.215899,
                                25.058598
                            ]
                        ]
                    ]
                ]
            }
        },
        {
            "type": "Feature",
            "properties": {
                "observation_date": "2018-03-08",
                "source": "18MAR08072034-M1BS-502009134020_01_P003",
                "sensor_name": "WorldView",
                "type": "observation",
                "current_phase": "Active Construction",
                "is_occluded": "False",
                "is_site_boundary": "True",
                "score": 1.0
            },
            "geometry": {
                "type": "MultiPolygon",
                "coordinates": [
                    [
                        [
                            [
                                55.215899,
                                25.058598
                            ],
                            [
                                55.216215,
                                25.057709
                            ],
                            [
                                55.217878,
                                25.058181
                            ],
                            [
                                55.217502,
                                25.059099
                            ],
                            [
                                55.215899,
                                25.058598
                            ]
                        ]
                    ]
                ]
            }
        },
        {
            "type": "Feature",
            "properties": {
                "observation_date": "2019-01-26",
                "source": "19JAN26071820-P1BS-014858848010_01_P004",
                "sensor_name": "WorldView",
                "type": "observation",
                "current_phase": "Active Construction",
                "is_occluded": "False",
                "is_site_boundary": "True",
                "score": 1.0
            },
            "geometry": {
                "type": "MultiPolygon",
                "coordinates": [
                    [
                        [
                            [
                                55.215899,
                                25.058598
                            ],
                            [
                                55.216215,
                                25.057709
                            ],
                            [
                                55.217878,
                                25.058181
                            ],
                            [
                                55.217502,
                                25.059099
                            ],
                            [
                                55.215899,
                                25.058598
                            ]
                        ]
                    ]
                ]
            }
        },
        {
            "type": "Feature",
            "properties": {
                "observation_date": "2019-08-29",
                "source": "19AUG29070526-M1BS-502626884040_05_P001",
                "sensor_name": "WorldView",
                "type": "observation",
                "current_phase": "Post Construction",
                "is_occluded": "False",
                "is_site_boundary": "True",
                "score": 1.0
            },
            "geometry": {
                "type": "MultiPolygon",
                "coordinates": [
                    [
                        [
                            [
                                55.215899,
                                25.058598
                            ],
                            [
                                55.216215,
                                25.057709
                            ],
                            [
                                55.217878,
                                25.058181
                            ],
                            [
                                55.217502,
                                25.059099
                            ],
                            [
                                55.215899,
                                25.058598
                            ]
                        ]
                    ]
                ]
            }
        },
        {
            "type": "Feature",
            "properties": {
                "observation_date": "2019-10-08",
                "source": "19OCT08100746-P1BS_R4C1-502704253040_06_P001",
                "sensor_name": "WorldView",
                "type": "observation",
                "current_phase": "Post Construction",
                "is_occluded": "False",
                "is_site_boundary": "True",
                "score": 1.0
            },
            "geometry": {
                "type": "MultiPolygon",
                "coordinates": [
                    [
                        [
                            [
                                55.215899,
                                25.058598
                            ],
                            [
                                55.216215,
                                25.057709
                            ],
                            [
                                55.217878,
                                25.058181
                            ],
                            [
                                55.217502,
                                25.059099
                            ],
                            [
                                55.215899,
                                25.058598
                            ]
                        ]
                    ]
                ]
            }
        },
        {
            "type": "Feature",
            "properties": {
                "observation_date": "2020-08-31",
                "source": "S2B_40RCN_20200831_0_L2A_TCI",
                "sensor_name": "Sentinel-2",
                "type": "observation",
                "current_phase": "Post Construction",
                "is_occluded": "False",
                "is_site_boundary": "True",
                "score": 1.0
            },
            "geometry": {
                "type": "MultiPolygon",
                "coordinates": [
                    [
                        [
                            [
                                55.215899,
                                25.058598
                            ],
                            [
                                55.216215,
                                25.057709
                            ],
                            [
                                55.217878,
                                25.058181
                            ],
                            [
                                55.217502,
                                25.059099
                            ],
                            [
                                55.215899,
                                25.058598
                            ]
                        ]
                    ]
                ]
            }
        }
    ]
}