{
    "type": "FeatureCollection",
    "features": [
        {
            "type": "Feature",
            "properties": {
                "type": "site",
                "region_id": "AE_R001",
                "site_id": "AE_R001_0419",
                "version": "2.0.0",
                "status": "positive_pending",
                "mgrs": "40RCN",
                "score": 1.0,
                "start_date": "2014-08-14",
                "end_date": "2016-06-23",
                "model_content": "annotation",
                "originator": "te",
                "validated": "True",
                "misc_info": {
                    "commit_hash": "8e2cc701facd37559ed12647d70a5e5b3622c6ca"
                }
            },
            "geometry": {
                "type": "Polygon",
                "coordinates": [
                    [
                        [
                            55.122387,
                            24.971567
                        ],
                        [
                            55.122996,
                            24.971338
                        ],
                        [
                            55.123081,
                            24.97153
                        ],
                        [
                            55.12403,
                            24.971193
                        ],
                        [
                            55.124413,
                            24.972033
                        ],
                        [
                            55.123474,
                            24.972371
                        ],
                        [
                            55.123329,
                            24.972046
                        ],
                        [
                            55.12283,
                            24.972226
                        ],
                        [
                            55.122534,
                            24.972212
                        ],
                        [
                            55.122387,
                            24.971567
                        ]
                    ]
                ]
            }
        },
        {
            "type": "Feature",
            "properties": {
                "observation_date": "2014-08-14",
                "source": null,
                "sensor_name": null,
                "type": "observation",
                "current_phase": null,
                "is_occluded": null,
                "is_site_boundary": null,
                "score": 1.0
            },
            "geometry": {
                "type": "MultiPolygon",
                "coordinates": [
                    [
                        [
                            [
                                55.122387,
                                24.971567
                            ],
                            [
                                55.122996,
                                24.971338
                            ],
                            [
                                55.123081,
                                24.97153
                            ],
                            [
                                55.12403,
                                24.971193
                            ],
                            [
                                55.124413,
                                24.972033
                            ],
                            [
                                55.123474,
                                24.972371
                            ],
                            [
                                55.123329,
                                24.972046
                            ],
                            [
                                55.12283,
                                24.972226
                            ],
                            [
                                55.122534,
                                24.972212
                            ],
                            [
                                55.122387,
                                24.971567
                            ]
                        ]
                    ]
                ]
            }
        },
        {
            "type": "Feature",
            "properties": {
                "observation_date": "2016-06-23",
                "source": null,
                "sensor_name": null,
                "type": "observation",
                "current_phase": null,
                "is_occluded": null,
                "is_site_boundary": null,
                "score": 1.0
            },
            "geometry": {
                "type": "MultiPolygon",
                "coordinates": [
                    [
                        [
                            [
                                55.122387,
                                24.971567
                            ],
                            [
                                55.122996,
                                24.971338
                            ],
                            [
                                55.123081,
                                24.97153
                            ],
                            [
                                55.12403,
                                24.971193
                            ],
                            [
                                55.124413,
                                24.972033
                            ],
                            [
                                55.123474,
                                24.972371
                            ],
                            [
                                55.123329,
                                24.972046
                            ],
                            [
                                55.12283,
                                24.972226
                            ],
                            [
                                55.122534,
                                24.972212
                            ],
                            [
                                55.122387,
                                24.971567
                            ]
                        ]
                    ]
                ]
            }
        }
    ]
}