{
    "type": "FeatureCollection",
    "features": [
        {
            "type": "Feature",
            "properties": {
                "type": "site",
                "region_id": "AE_R002",
                "site_id": "AE_R002_0357",
                "version": "2.0.0",
                "status": "positive_excluded",
                "mgrs": "40RCN",
                "score": 1.0,
                "start_date": "2016-08-13",
                "end_date": "2024-06-01",
                "model_content": "annotation",
                "originator": "te",
                "validated": "False",
                "misc_info": {
                    "commit_hash": "824fac44479e0c34c554c214480da6d4c14a319e"
                }
            },
            "geometry": {
                "type": "Polygon",
                "coordinates": [
                    [
                        [
                            55.217927,
                            25.060192
                        ],
                        [
                            55.218686,
                            25.060442
                        ],
                        [
                            55.218686,
                            25.060442
                        ],
                        [
                            55.219015,
                            25.059714
                        ],
                        [
                            55.218174,
                            25.059453
                        ],
                        [
                            55.218174,
                            25.059453
                        ],
                        [
                            55.217927,
                            25.060192
                        ]
                    ]
                ]
            }
        },
        {
            "type": "Feature",
            "properties": {
                "observation_date": "2016-08-13",
                "source": null,
                "sensor_name": null,
                "type": "observation",
                "current_phase": null,
                "is_occluded": null,
                "is_site_boundary": null,
                "score": 1.0
            },
            "geometry": {
                "type": "MultiPolygon",
                "coordinates": [
                    [
                        [
                            [
                                55.217927,
                                25.060192
                            ],
                            [
                                55.218686,
                                25.060442
                            ],
                            [
                                55.218686,
                                25.060442
                            ],
                            [
                                55.219015,
                                25.059714
                            ],
                            [
                                55.218174,
                                25.059453
                            ],
                            [
                                55.218174,
                                25.059453
                            ],
                            [
                                55.217927,
                                25.060192
                            ]
                        ]
                    ]
                ]
            }
        },
        {
            "type": "Feature",
            "properties": {
                "observation_date": "2024-06-01",
                "source": null,
                "sensor_name": null,
                "type": "observation",
                "current_phase": null,
                "is_occluded": null,
                "is_site_boundary": null,
                "score": 1.0
            },
            "geometry": {
                "type": "MultiPolygon",
                "coordinates": [
                    [
                        [
                            [
                                55.217927,
                                25.060192
                            ],
                            [
                                55.218686,
                                25.060442
                            ],
                            [
                                55.218686,
                                25.060442
                            ],
                            [
                                55.219015,
                                25.059714
                            ],
                            [
                                55.218174,
                                25.059453
                            ],
                            [
                                55.218174,
                                25.059453
                            ],
                            [
                                55.217927,
                                25.060192
                            ]
                        ]
                    ]
                ]
            }
        }
    ]
}