{
    "type": "FeatureCollection",
    "features": [
        {
            "type": "Feature",
            "properties": {
                "type": "site",
                "region_id": "AE_R002",
                "site_id": "AE_R002_0192",
                "version": "2.0.0",
                "status": "negative",
                "mgrs": "40RCN",
                "score": 1.0,
                "start_date": "2014-12-01",
                "end_date": "2016-05-31",
                "model_content": "annotation",
                "originator": "te",
                "validated": "False",
                "misc_info": {
                    "commit_hash": "824fac44479e0c34c554c214480da6d4c14a319e"
                }
            },
            "geometry": {
                "type": "Polygon",
                "coordinates": [
                    [
                        [
                            55.209351,
                            25.051901
                        ],
                        [
                            55.209262,
                            25.05119
                        ],
                        [
                            55.209853,
                            25.049752
                        ],
                        [
                            55.210371,
                            25.049964
                        ],
                        [
                            55.210217,
                            25.050331
                        ],
                        [
                            55.210314,
                            25.050573
                        ],
                        [
                            55.209934,
                            25.051447
                        ],
                        [
                            55.209796,
                            25.051491
                        ],
                        [
                            55.209642,
                            25.052026
                        ],
                        [
                            55.20995,
                            25.052122
                        ],
                        [
                            55.209812,
                            25.05243
                        ],
                        [
                            55.209302,
                            25.05229
                        ],
                        [
                            55.209351,
                            25.051901
                        ]
                    ]
                ]
            }
        },
        {
            "type": "Feature",
            "properties": {
                "observation_date": "2014-12-01",
                "source": null,
                "sensor_name": null,
                "type": "observation",
                "current_phase": null,
                "is_occluded": null,
                "is_site_boundary": null,
                "score": 1.0
            },
            "geometry": {
                "type": "MultiPolygon",
                "coordinates": [
                    [
                        [
                            [
                                55.209351,
                                25.051901
                            ],
                            [
                                55.209262,
                                25.05119
                            ],
                            [
                                55.209853,
                                25.049752
                            ],
                            [
                                55.210371,
                                25.049964
                            ],
                            [
                                55.210217,
                                25.050331
                            ],
                            [
                                55.210314,
                                25.050573
                            ],
                            [
                                55.209934,
                                25.051447
                            ],
                            [
                                55.209796,
                                25.051491
                            ],
                            [
                                55.209642,
                                25.052026
                            ],
                            [
                                55.20995,
                                25.052122
                            ],
                            [
                                55.209812,
                                25.05243
                            ],
                            [
                                55.209302,
                                25.05229
                            ],
                            [
                                55.209351,
                                25.051901
                            ]
                        ]
                    ]
                ]
            }
        },
        {
            "type": "Feature",
            "properties": {
                "observation_date": "2016-05-31",
                "source": null,
                "sensor_name": null,
                "type": "observation",
                "current_phase": null,
                "is_occluded": null,
                "is_site_boundary": null,
                "score": 1.0
            },
            "geometry": {
                "type": "MultiPolygon",
                "coordinates": [
                    [
                        [
                            [
                                55.209351,
                                25.051901
                            ],
                            [
                                55.209262,
                                25.05119
                            ],
                            [
                                55.209853,
                                25.049752
                            ],
                            [
                                55.210371,
                                25.049964
                            ],
                            [
                                55.210217,
                                25.050331
                            ],
                            [
                                55.210314,
                                25.050573
                            ],
                            [
                                55.209934,
                                25.051447
                            ],
                            [
                                55.209796,
                                25.051491
                            ],
                            [
                                55.209642,
                                25.052026
                            ],
                            [
                                55.20995,
                                25.052122
                            ],
                            [
                                55.209812,
                                25.05243
                            ],
                            [
                                55.209302,
                                25.05229
                            ],
                            [
                                55.209351,
                                25.051901
                            ]
                        ]
                    ]
                ]
            }
        }
    ]
}