{
    "type": "FeatureCollection",
    "features": [
        {
            "type": "Feature",
            "properties": {
                "type": "site",
                "region_id": "AE_R001",
                "site_id": "AE_R001_0625",
                "version": "2.0.0",
                "status": "positive_pending",
                "mgrs": "40RCN",
                "score": 1.0,
                "start_date": "2005-10-19",
                "end_date": "2021-02-16",
                "model_content": "annotation",
                "originator": "te",
                "validated": "True",
                "misc_info": {
                    "commit_hash": "8e2cc701facd37559ed12647d70a5e5b3622c6ca"
                }
            },
            "geometry": {
                "type": "Polygon",
                "coordinates": [
                    [
                        [
                            55.17032,
                            25.003377
                        ],
                        [
                            55.168961,
                            25.002227
                        ],
                        [
                            55.169167,
                            25.001965
                        ],
                        [
                            55.169534,
                            25.002226
                        ],
                        [
                            55.170067,
                            25.00179
                        ],
                        [
                            55.169631,
                            25.00138
                        ],
                        [
                            55.169893,
                            25.001238
                        ],
                        [
                            55.171797,
                            25.003081
                        ],
                        [
                            55.169829,
                            25.004776
                        ],
                        [
                            55.169177,
                            25.004193
                        ],
                        [
                            55.17032,
                            25.003377
                        ]
                    ]
                ]
            }
        },
        {
            "type": "Feature",
            "properties": {
                "observation_date": "2005-10-19",
                "source": null,
                "sensor_name": null,
                "type": "observation",
                "current_phase": null,
                "is_occluded": null,
                "is_site_boundary": null,
                "score": 1.0
            },
            "geometry": {
                "type": "MultiPolygon",
                "coordinates": [
                    [
                        [
                            [
                                55.17032,
                                25.003377
                            ],
                            [
                                55.168961,
                                25.002227
                            ],
                            [
                                55.169167,
                                25.001965
                            ],
                            [
                                55.169534,
                                25.002226
                            ],
                            [
                                55.170067,
                                25.00179
                            ],
                            [
                                55.169631,
                                25.00138
                            ],
                            [
                                55.169893,
                                25.001238
                            ],
                            [
                                55.171797,
                                25.003081
                            ],
                            [
                                55.169829,
                                25.004776
                            ],
                            [
                                55.169177,
                                25.004193
                            ],
                            [
                                55.17032,
                                25.003377
                            ]
                        ]
                    ]
                ]
            }
        },
        {
            "type": "Feature",
            "properties": {
                "observation_date": "2021-02-16",
                "source": null,
                "sensor_name": null,
                "type": "observation",
                "current_phase": null,
                "is_occluded": null,
                "is_site_boundary": null,
                "score": 1.0
            },
            "geometry": {
                "type": "MultiPolygon",
                "coordinates": [
                    [
                        [
                            [
                                55.17032,
                                25.003377
                            ],
                            [
                                55.168961,
                                25.002227
                            ],
                            [
                                55.169167,
                                25.001965
                            ],
                            [
                                55.169534,
                                25.002226
                            ],
                            [
                                55.170067,
                                25.00179
                            ],
                            [
                                55.169631,
                                25.00138
                            ],
                            [
                                55.169893,
                                25.001238
                            ],
                            [
                                55.171797,
                                25.003081
                            ],
                            [
                                55.169829,
                                25.004776
                            ],
                            [
                                55.169177,
                                25.004193
                            ],
                            [
                                55.17032,
                                25.003377
                            ]
                        ]
                    ]
                ]
            }
        }
    ]
}