{
    "type": "FeatureCollection",
    "features": [
        {
            "type": "Feature",
            "properties": {
                "type": "site",
                "region_id": "AE_R002",
                "site_id": "AE_R002_0367",
                "version": "2.0.0",
                "status": "positive_pending",
                "mgrs": "40RCN",
                "score": 1.0,
                "start_date": "2018-09-11",
                "end_date": "2022-10-15",
                "model_content": "annotation",
                "originator": "te",
                "validated": "True",
                "misc_info": {
                    "commit_hash": "824fac44479e0c34c554c214480da6d4c14a319e"
                }
            },
            "geometry": {
                "type": "Polygon",
                "coordinates": [
                    [
                        [
                            55.366393,
                            25.105338
                        ],
                        [
                            55.367044,
                            25.104152
                        ],
                        [
                            55.365049,
                            25.103271
                        ],
                        [
                            55.364423,
                            25.104469
                        ],
                        [
                            55.366393,
                            25.105338
                        ]
                    ]
                ]
            }
        },
        {
            "type": "Feature",
            "properties": {
                "observation_date": "2018-09-11",
                "source": null,
                "sensor_name": null,
                "type": "observation",
                "current_phase": null,
                "is_occluded": null,
                "is_site_boundary": null,
                "score": 1.0
            },
            "geometry": {
                "type": "MultiPolygon",
                "coordinates": [
                    [
                        [
                            [
                                55.366393,
                                25.105338
                            ],
                            [
                                55.367044,
                                25.104152
                            ],
                            [
                                55.365049,
                                25.103271
                            ],
                            [
                                55.364423,
                                25.104469
                            ],
                            [
                                55.366393,
                                25.105338
                            ]
                        ]
                    ]
                ]
            }
        },
        {
            "type": "Feature",
            "properties": {
                "observation_date": "2022-10-15",
                "source": null,
                "sensor_name": null,
                "type": "observation",
                "current_phase": null,
                "is_occluded": null,
                "is_site_boundary": null,
                "score": 1.0
            },
            "geometry": {
                "type": "MultiPolygon",
                "coordinates": [
                    [
                        [
                            [
                                55.366393,
                                25.105338
                            ],
                            [
                                55.367044,
                                25.104152
                            ],
                            [
                                55.365049,
                                25.103271
                            ],
                            [
                                55.364423,
                                25.104469
                            ],
                            [
                                55.366393,
                                25.105338
                            ]
                        ]
                    ]
                ]
            }
        }
    ]
}