{
    "type": "FeatureCollection",
    "features": [
        {
            "type": "Feature",
            "properties": {
                "type": "site",
                "region_id": "AE_R001",
                "site_id": "AE_R001_0414",
                "version": "2.0.0",
                "status": "positive_pending",
                "mgrs": "40RCN",
                "score": 1.0,
                "start_date": "2014-11-07",
                "end_date": "2020-08-16",
                "model_content": "annotation",
                "originator": "te",
                "validated": "True",
                "misc_info": {
                    "commit_hash": "8e2cc701facd37559ed12647d70a5e5b3622c6ca"
                }
            },
            "geometry": {
                "type": "Polygon",
                "coordinates": [
                    [
                        [
                            55.099771,
                            24.948462
                        ],
                        [
                            55.098493,
                            24.947107
                        ],
                        [
                            55.100207,
                            24.945721
                        ],
                        [
                            55.100453,
                            24.94599
                        ],
                        [
                            55.100682,
                            24.945804
                        ],
                        [
                            55.10181,
                            24.946884
                        ],
                        [
                            55.101575,
                            24.947058
                        ],
                        [
                            55.101924,
                            24.947421
                        ],
                        [
                            55.100125,
                            24.948831
                        ],
                        [
                            55.099771,
                            24.948462
                        ]
                    ]
                ]
            }
        },
        {
            "type": "Feature",
            "properties": {
                "observation_date": "2014-11-07",
                "source": null,
                "sensor_name": null,
                "type": "observation",
                "current_phase": null,
                "is_occluded": null,
                "is_site_boundary": null,
                "score": 1.0
            },
            "geometry": {
                "type": "MultiPolygon",
                "coordinates": [
                    [
                        [
                            [
                                55.099771,
                                24.948462
                            ],
                            [
                                55.098493,
                                24.947107
                            ],
                            [
                                55.100207,
                                24.945721
                            ],
                            [
                                55.100453,
                                24.94599
                            ],
                            [
                                55.100682,
                                24.945804
                            ],
                            [
                                55.10181,
                                24.946884
                            ],
                            [
                                55.101575,
                                24.947058
                            ],
                            [
                                55.101924,
                                24.947421
                            ],
                            [
                                55.100125,
                                24.948831
                            ],
                            [
                                55.099771,
                                24.948462
                            ]
                        ]
                    ]
                ]
            }
        },
        {
            "type": "Feature",
            "properties": {
                "observation_date": "2020-08-16",
                "source": null,
                "sensor_name": null,
                "type": "observation",
                "current_phase": null,
                "is_occluded": null,
                "is_site_boundary": null,
                "score": 1.0
            },
            "geometry": {
                "type": "MultiPolygon",
                "coordinates": [
                    [
                        [
                            [
                                55.099771,
                                24.948462
                            ],
                            [
                                55.098493,
                                24.947107
                            ],
                            [
                                55.100207,
                                24.945721
                            ],
                            [
                                55.100453,
                                24.94599
                            ],
                            [
                                55.100682,
                                24.945804
                            ],
                            [
                                55.10181,
                                24.946884
                            ],
                            [
                                55.101575,
                                24.947058
                            ],
                            [
                                55.101924,
                                24.947421
                            ],
                            [
                                55.100125,
                                24.948831
                            ],
                            [
                                55.099771,
                                24.948462
                            ]
                        ]
                    ]
                ]
            }
        }
    ]
}