{
    "type": "FeatureCollection",
    "features": [
        {
            "type": "Feature",
            "properties": {
                "type": "site",
                "region_id": "AE_R002",
                "site_id": "AE_R002_0177",
                "version": "2.0.0",
                "status": "positive_excluded",
                "mgrs": "40RCN",
                "score": 1.0,
                "start_date": "2014-01-03",
                "end_date": "2018-03-31",
                "model_content": "annotation",
                "originator": "te",
                "validated": "False",
                "misc_info": {
                    "commit_hash": "824fac44479e0c34c554c214480da6d4c14a319e"
                }
            },
            "geometry": {
                "type": "Polygon",
                "coordinates": [
                    [
                        [
                            55.197574,
                            25.052887
                        ],
                        [
                            55.198467,
                            25.053153
                        ],
                        [
                            55.198155,
                            25.053871
                        ],
                        [
                            55.197304,
                            25.053637
                        ],
                        [
                            55.197574,
                            25.052887
                        ]
                    ]
                ]
            }
        },
        {
            "type": "Feature",
            "properties": {
                "observation_date": "2014-01-03",
                "source": null,
                "sensor_name": null,
                "type": "observation",
                "current_phase": null,
                "is_occluded": null,
                "is_site_boundary": null,
                "score": 1.0
            },
            "geometry": {
                "type": "MultiPolygon",
                "coordinates": [
                    [
                        [
                            [
                                55.197574,
                                25.052887
                            ],
                            [
                                55.198467,
                                25.053153
                            ],
                            [
                                55.198155,
                                25.053871
                            ],
                            [
                                55.197304,
                                25.053637
                            ],
                            [
                                55.197574,
                                25.052887
                            ]
                        ]
                    ]
                ]
            }
        },
        {
            "type": "Feature",
            "properties": {
                "observation_date": "2018-03-31",
                "source": null,
                "sensor_name": null,
                "type": "observation",
                "current_phase": null,
                "is_occluded": null,
                "is_site_boundary": null,
                "score": 1.0
            },
            "geometry": {
                "type": "MultiPolygon",
                "coordinates": [
                    [
                        [
                            [
                                55.197574,
                                25.052887
                            ],
                            [
                                55.198467,
                                25.053153
                            ],
                            [
                                55.198155,
                                25.053871
                            ],
                            [
                                55.197304,
                                25.053637
                            ],
                            [
                                55.197574,
                                25.052887
                            ]
                        ]
                    ]
                ]
            }
        }
    ]
}