{
    "type": "FeatureCollection",
    "features": [
        {
            "type": "Feature",
            "properties": {
                "type": "site",
                "region_id": "AE_R002",
                "site_id": "AE_R002_0036",
                "version": "2.0.0",
                "status": "positive_annotated_static",
                "mgrs": "40RCN",
                "score": 1.0,
                "start_date": "2016-08-07",
                "end_date": "2019-08-29",
                "model_content": "annotation",
                "originator": "te",
                "validated": "True",
                "misc_info": {
                    "commit_hash": "8e08692eda2dec643e6abab764d830cd0f7f4055"
                }
            },
            "geometry": {
                "type": "Polygon",
                "coordinates": [
                    [
                        [
                            55.368491,
                            25.09199
                        ],
                        [
                            55.36897,
                            25.092447
                        ],
                        [
                            55.369606,
                            25.092481
                        ],
                        [
                            55.369956,
                            25.09233
                        ],
                        [
                            55.37025,
                            25.092017
                        ],
                        [
                            55.370365,
                            25.091696
                        ],
                        [
                            55.370315,
                            25.091321
                        ],
                        [
                            55.370081,
                            25.090963
                        ],
                        [
                            55.369654,
                            25.090748
                        ],
                        [
                            55.369094,
                            25.090758
                        ],
                        [
                            55.368609,
                            25.091063
                        ],
                        [
                            55.368426,
                            25.091482
                        ],
                        [
                            55.368491,
                            25.09199
                        ]
                    ]
                ]
            }
        },
        {
            "type": "Feature",
            "properties": {
                "observation_date": "2016-08-07",
                "source": "16AUG07072018-P1BS-014855224010_01_P009",
                "sensor_name": "WorldView",
                "type": "observation",
                "current_phase": "No Activity",
                "is_occluded": "False",
                "is_site_boundary": "True",
                "score": 1.0
            },
            "geometry": {
                "type": "MultiPolygon",
                "coordinates": [
                    [
                        [
                            [
                                55.36897,
                                25.092447
                            ],
                            [
                                55.368491,
                                25.09199
                            ],
                            [
                                55.368426,
                                25.091482
                            ],
                            [
                                55.368609,
                                25.091063
                            ],
                            [
                                55.369094,
                                25.090758
                            ],
                            [
                                55.369654,
                                25.090748
                            ],
                            [
                                55.370081,
                                25.090963
                            ],
                            [
                                55.370315,
                                25.091321
                            ],
                            [
                                55.370365,
                                25.091696
                            ],
                            [
                                55.37025,
                                25.092017
                            ],
                            [
                                55.369956,
                                25.09233
                            ],
                            [
                                55.369606,
                                25.092481
                            ],
                            [
                                55.36897,
                                25.092447
                            ]
                        ]
                    ]
                ]
            }
        },
        {
            "type": "Feature",
            "properties": {
                "observation_date": "2017-10-10",
                "source": "17OCT10095421-P1BS-501631093010_01_P001",
                "sensor_name": "WorldView",
                "type": "observation",
                "current_phase": "Active Construction",
                "is_occluded": "False",
                "is_site_boundary": "True",
                "score": 1.0
            },
            "geometry": {
                "type": "MultiPolygon",
                "coordinates": [
                    [
                        [
                            [
                                55.36897,
                                25.092447
                            ],
                            [
                                55.368491,
                                25.09199
                            ],
                            [
                                55.368426,
                                25.091482
                            ],
                            [
                                55.368609,
                                25.091063
                            ],
                            [
                                55.369094,
                                25.090758
                            ],
                            [
                                55.369654,
                                25.090748
                            ],
                            [
                                55.370081,
                                25.090963
                            ],
                            [
                                55.370315,
                                25.091321
                            ],
                            [
                                55.370365,
                                25.091696
                            ],
                            [
                                55.37025,
                                25.092017
                            ],
                            [
                                55.369956,
                                25.09233
                            ],
                            [
                                55.369606,
                                25.092481
                            ],
                            [
                                55.36897,
                                25.092447
                            ]
                        ]
                    ]
                ]
            }
        },
        {
            "type": "Feature",
            "properties": {
                "observation_date": "2017-12-30",
                "source": "17DEC30095332-P1BS-501824017010_01_P001",
                "sensor_name": "WorldView",
                "type": "observation",
                "current_phase": "Active Construction",
                "is_occluded": "False",
                "is_site_boundary": "True",
                "score": 1.0
            },
            "geometry": {
                "type": "MultiPolygon",
                "coordinates": [
                    [
                        [
                            [
                                55.36897,
                                25.092447
                            ],
                            [
                                55.368491,
                                25.09199
                            ],
                            [
                                55.368426,
                                25.091482
                            ],
                            [
                                55.368609,
                                25.091063
                            ],
                            [
                                55.369094,
                                25.090758
                            ],
                            [
                                55.369654,
                                25.090748
                            ],
                            [
                                55.370081,
                                25.090963
                            ],
                            [
                                55.370315,
                                25.091321
                            ],
                            [
                                55.370365,
                                25.091696
                            ],
                            [
                                55.37025,
                                25.092017
                            ],
                            [
                                55.369956,
                                25.09233
                            ],
                            [
                                55.369606,
                                25.092481
                            ],
                            [
                                55.36897,
                                25.092447
                            ]
                        ]
                    ]
                ]
            }
        },
        {
            "type": "Feature",
            "properties": {
                "observation_date": "2018-04-08",
                "source": "18APR08071427-M1BS-014858888010_01_P003",
                "sensor_name": "WorldView",
                "type": "observation",
                "current_phase": "Active Construction",
                "is_occluded": "False",
                "is_site_boundary": "True",
                "score": 1.0
            },
            "geometry": {
                "type": "MultiPolygon",
                "coordinates": [
                    [
                        [
                            [
                                55.36897,
                                25.092447
                            ],
                            [
                                55.368491,
                                25.09199
                            ],
                            [
                                55.368426,
                                25.091482
                            ],
                            [
                                55.368609,
                                25.091063
                            ],
                            [
                                55.369094,
                                25.090758
                            ],
                            [
                                55.369654,
                                25.090748
                            ],
                            [
                                55.370081,
                                25.090963
                            ],
                            [
                                55.370315,
                                25.091321
                            ],
                            [
                                55.370365,
                                25.091696
                            ],
                            [
                                55.37025,
                                25.092017
                            ],
                            [
                                55.369956,
                                25.09233
                            ],
                            [
                                55.369606,
                                25.092481
                            ],
                            [
                                55.36897,
                                25.092447
                            ]
                        ]
                    ]
                ]
            }
        },
        {
            "type": "Feature",
            "properties": {
                "observation_date": "2019-06-24",
                "source": "19JUN24095642-P1BS-502619570010_01_P001",
                "sensor_name": "WorldView",
                "type": "observation",
                "current_phase": "Post Construction",
                "is_occluded": "False",
                "is_site_boundary": "True",
                "score": 1.0
            },
            "geometry": {
                "type": "MultiPolygon",
                "coordinates": [
                    [
                        [
                            [
                                55.36897,
                                25.092447
                            ],
                            [
                                55.368491,
                                25.09199
                            ],
                            [
                                55.368426,
                                25.091482
                            ],
                            [
                                55.368609,
                                25.091063
                            ],
                            [
                                55.369094,
                                25.090758
                            ],
                            [
                                55.369654,
                                25.090748
                            ],
                            [
                                55.370081,
                                25.090963
                            ],
                            [
                                55.370315,
                                25.091321
                            ],
                            [
                                55.370365,
                                25.091696
                            ],
                            [
                                55.37025,
                                25.092017
                            ],
                            [
                                55.369956,
                                25.09233
                            ],
                            [
                                55.369606,
                                25.092481
                            ],
                            [
                                55.36897,
                                25.092447
                            ]
                        ]
                    ]
                ]
            }
        },
        {
            "type": "Feature",
            "properties": {
                "observation_date": "2019-08-24",
                "source": "19AUG24072402-P1BS-014858702010_01_P009",
                "sensor_name": "WorldView",
                "type": "observation",
                "current_phase": "Post Construction",
                "is_occluded": "False",
                "is_site_boundary": "True",
                "score": 1.0
            },
            "geometry": {
                "type": "MultiPolygon",
                "coordinates": [
                    [
                        [
                            [
                                55.36897,
                                25.092447
                            ],
                            [
                                55.368491,
                                25.09199
                            ],
                            [
                                55.368426,
                                25.091482
                            ],
                            [
                                55.368609,
                                25.091063
                            ],
                            [
                                55.369094,
                                25.090758
                            ],
                            [
                                55.369654,
                                25.090748
                            ],
                            [
                                55.370081,
                                25.090963
                            ],
                            [
                                55.370315,
                                25.091321
                            ],
                            [
                                55.370365,
                                25.091696
                            ],
                            [
                                55.37025,
                                25.092017
                            ],
                            [
                                55.369956,
                                25.09233
                            ],
                            [
                                55.369606,
                                25.092481
                            ],
                            [
                                55.36897,
                                25.092447
                            ]
                        ]
                    ]
                ]
            }
        },
        {
            "type": "Feature",
            "properties": {
                "observation_date": "2019-08-29",
                "source": "19AUG29070515-P1BS-502626884040_05_P018",
                "sensor_name": "WorldView",
                "type": "observation",
                "current_phase": "Post Construction",
                "is_occluded": "False",
                "is_site_boundary": "True",
                "score": 1.0
            },
            "geometry": {
                "type": "MultiPolygon",
                "coordinates": [
                    [
                        [
                            [
                                55.36897,
                                25.092447
                            ],
                            [
                                55.368491,
                                25.09199
                            ],
                            [
                                55.368426,
                                25.091482
                            ],
                            [
                                55.368609,
                                25.091063
                            ],
                            [
                                55.369094,
                                25.090758
                            ],
                            [
                                55.369654,
                                25.090748
                            ],
                            [
                                55.370081,
                                25.090963
                            ],
                            [
                                55.370315,
                                25.091321
                            ],
                            [
                                55.370365,
                                25.091696
                            ],
                            [
                                55.37025,
                                25.092017
                            ],
                            [
                                55.369956,
                                25.09233
                            ],
                            [
                                55.369606,
                                25.092481
                            ],
                            [
                                55.36897,
                                25.092447
                            ]
                        ]
                    ]
                ]
            }
        }
    ]
}