{
    "type": "FeatureCollection",
    "features": [
        {
            "type": "Feature",
            "properties": {
                "type": "site",
                "region_id": "AE_R002",
                "site_id": "AE_R002_0343",
                "version": "2.0.0",
                "status": "positive_excluded",
                "mgrs": "40RCN",
                "score": 1.0,
                "start_date": "2015-10-13",
                "end_date": "2020-05-08",
                "model_content": "annotation",
                "originator": "te",
                "validated": "False",
                "misc_info": {
                    "commit_hash": "824fac44479e0c34c554c214480da6d4c14a319e"
                }
            },
            "geometry": {
                "type": "Polygon",
                "coordinates": [
                    [
                        [
                            55.374746,
                            25.097611
                        ],
                        [
                            55.375259,
                            25.097463
                        ],
                        [
                            55.375537,
                            25.097596
                        ],
                        [
                            55.375719,
                            25.098099
                        ],
                        [
                            55.374873,
                            25.098229
                        ],
                        [
                            55.374746,
                            25.097611
                        ]
                    ]
                ]
            }
        },
        {
            "type": "Feature",
            "properties": {
                "observation_date": "2015-10-13",
                "source": null,
                "sensor_name": null,
                "type": "observation",
                "current_phase": null,
                "is_occluded": null,
                "is_site_boundary": null,
                "score": 1.0
            },
            "geometry": {
                "type": "MultiPolygon",
                "coordinates": [
                    [
                        [
                            [
                                55.374746,
                                25.097611
                            ],
                            [
                                55.375259,
                                25.097463
                            ],
                            [
                                55.375537,
                                25.097596
                            ],
                            [
                                55.375719,
                                25.098099
                            ],
                            [
                                55.374873,
                                25.098229
                            ],
                            [
                                55.374746,
                                25.097611
                            ]
                        ]
                    ]
                ]
            }
        },
        {
            "type": "Feature",
            "properties": {
                "observation_date": "2020-05-08",
                "source": null,
                "sensor_name": null,
                "type": "observation",
                "current_phase": null,
                "is_occluded": null,
                "is_site_boundary": null,
                "score": 1.0
            },
            "geometry": {
                "type": "MultiPolygon",
                "coordinates": [
                    [
                        [
                            [
                                55.374746,
                                25.097611
                            ],
                            [
                                55.375259,
                                25.097463
                            ],
                            [
                                55.375537,
                                25.097596
                            ],
                            [
                                55.375719,
                                25.098099
                            ],
                            [
                                55.374873,
                                25.098229
                            ],
                            [
                                55.374746,
                                25.097611
                            ]
                        ]
                    ]
                ]
            }
        }
    ]
}