{
    "type": "FeatureCollection",
    "features": [
        {
            "type": "Feature",
            "properties": {
                "type": "site",
                "region_id": "AE_R002",
                "site_id": "AE_R002_0122",
                "version": "2.0.0",
                "status": "positive_pending",
                "mgrs": "40RCN",
                "score": 1.0,
                "start_date": "2016-09-23",
                "end_date": "2023-02-22",
                "model_content": "annotation",
                "originator": "te",
                "validated": "False",
                "misc_info": {
                    "commit_hash": "824fac44479e0c34c554c214480da6d4c14a319e"
                }
            },
            "geometry": {
                "type": "Polygon",
                "coordinates": [
                    [
                        [
                            55.245855,
                            25.112004
                        ],
                        [
                            55.246497,
                            25.112407
                        ],
                        [
                            55.247226,
                            25.112692
                        ],
                        [
                            55.248108,
                            25.112805
                        ],
                        [
                            55.249123,
                            25.112805
                        ],
                        [
                            55.2486,
                            25.114461
                        ],
                        [
                            55.248004,
                            25.115505
                        ],
                        [
                            55.246269,
                            25.114798
                        ],
                        [
                            55.244655,
                            25.112843
                        ],
                        [
                            55.245855,
                            25.112004
                        ]
                    ]
                ]
            }
        },
        {
            "type": "Feature",
            "properties": {
                "observation_date": "2016-09-23",
                "source": null,
                "sensor_name": null,
                "type": "observation",
                "current_phase": null,
                "is_occluded": null,
                "is_site_boundary": null,
                "score": 1.0
            },
            "geometry": {
                "type": "MultiPolygon",
                "coordinates": [
                    [
                        [
                            [
                                55.245855,
                                25.112004
                            ],
                            [
                                55.246497,
                                25.112407
                            ],
                            [
                                55.247226,
                                25.112692
                            ],
                            [
                                55.248108,
                                25.112805
                            ],
                            [
                                55.249123,
                                25.112805
                            ],
                            [
                                55.2486,
                                25.114461
                            ],
                            [
                                55.248004,
                                25.115505
                            ],
                            [
                                55.246269,
                                25.114798
                            ],
                            [
                                55.244655,
                                25.112843
                            ],
                            [
                                55.245855,
                                25.112004
                            ]
                        ]
                    ]
                ]
            }
        },
        {
            "type": "Feature",
            "properties": {
                "observation_date": "2023-02-22",
                "source": null,
                "sensor_name": null,
                "type": "observation",
                "current_phase": null,
                "is_occluded": null,
                "is_site_boundary": null,
                "score": 1.0
            },
            "geometry": {
                "type": "MultiPolygon",
                "coordinates": [
                    [
                        [
                            [
                                55.245855,
                                25.112004
                            ],
                            [
                                55.246497,
                                25.112407
                            ],
                            [
                                55.247226,
                                25.112692
                            ],
                            [
                                55.248108,
                                25.112805
                            ],
                            [
                                55.249123,
                                25.112805
                            ],
                            [
                                55.2486,
                                25.114461
                            ],
                            [
                                55.248004,
                                25.115505
                            ],
                            [
                                55.246269,
                                25.114798
                            ],
                            [
                                55.244655,
                                25.112843
                            ],
                            [
                                55.245855,
                                25.112004
                            ]
                        ]
                    ]
                ]
            }
        }
    ]
}