{
    "type": "FeatureCollection",
    "features": [
        {
            "type": "Feature",
            "properties": {
                "type": "site",
                "region_id": "AE_R001",
                "site_id": "AE_R001_0581",
                "version": "2.0.0",
                "status": "positive_pending",
                "mgrs": "40RCN",
                "score": 1.0,
                "start_date": "2014-07-06",
                "end_date": "2017-11-21",
                "model_content": "annotation",
                "originator": "te",
                "validated": "True",
                "misc_info": {
                    "commit_hash": "8e2cc701facd37559ed12647d70a5e5b3622c6ca"
                }
            },
            "geometry": {
                "type": "Polygon",
                "coordinates": [
                    [
                        [
                            55.198356,
                            24.983303
                        ],
                        [
                            55.198368,
                            24.983538
                        ],
                        [
                            55.199226,
                            24.983424
                        ],
                        [
                            55.199502,
                            24.983158
                        ],
                        [
                            55.199211,
                            24.982069
                        ],
                        [
                            55.198168,
                            24.982186
                        ],
                        [
                            55.198094,
                            24.981856
                        ],
                        [
                            55.197006,
                            24.982021
                        ],
                        [
                            55.197214,
                            24.983439
                        ],
                        [
                            55.198356,
                            24.983303
                        ]
                    ]
                ]
            }
        },
        {
            "type": "Feature",
            "properties": {
                "observation_date": "2014-07-06",
                "source": null,
                "sensor_name": null,
                "type": "observation",
                "current_phase": null,
                "is_occluded": null,
                "is_site_boundary": null,
                "score": 1.0
            },
            "geometry": {
                "type": "MultiPolygon",
                "coordinates": [
                    [
                        [
                            [
                                55.198356,
                                24.983303
                            ],
                            [
                                55.198368,
                                24.983538
                            ],
                            [
                                55.199226,
                                24.983424
                            ],
                            [
                                55.199502,
                                24.983158
                            ],
                            [
                                55.199211,
                                24.982069
                            ],
                            [
                                55.198168,
                                24.982186
                            ],
                            [
                                55.198094,
                                24.981856
                            ],
                            [
                                55.197006,
                                24.982021
                            ],
                            [
                                55.197214,
                                24.983439
                            ],
                            [
                                55.198356,
                                24.983303
                            ]
                        ]
                    ]
                ]
            }
        },
        {
            "type": "Feature",
            "properties": {
                "observation_date": "2017-11-21",
                "source": null,
                "sensor_name": null,
                "type": "observation",
                "current_phase": null,
                "is_occluded": null,
                "is_site_boundary": null,
                "score": 1.0
            },
            "geometry": {
                "type": "MultiPolygon",
                "coordinates": [
                    [
                        [
                            [
                                55.198356,
                                24.983303
                            ],
                            [
                                55.198368,
                                24.983538
                            ],
                            [
                                55.199226,
                                24.983424
                            ],
                            [
                                55.199502,
                                24.983158
                            ],
                            [
                                55.199211,
                                24.982069
                            ],
                            [
                                55.198168,
                                24.982186
                            ],
                            [
                                55.198094,
                                24.981856
                            ],
                            [
                                55.197006,
                                24.982021
                            ],
                            [
                                55.197214,
                                24.983439
                            ],
                            [
                                55.198356,
                                24.983303
                            ]
                        ]
                    ]
                ]
            }
        }
    ]
}