{
    "type": "FeatureCollection",
    "features": [
        {
            "type": "Feature",
            "properties": {
                "type": "site",
                "region_id": "AE_R001",
                "site_id": "AE_R001_0609",
                "version": "2.0.0",
                "status": "positive_pending",
                "mgrs": "40RCN",
                "score": 1.0,
                "start_date": "2012-08-21",
                "end_date": "2018-01-23",
                "model_content": "annotation",
                "originator": "te",
                "validated": "True",
                "misc_info": {
                    "commit_hash": "8e2cc701facd37559ed12647d70a5e5b3622c6ca"
                }
            },
            "geometry": {
                "type": "Polygon",
                "coordinates": [
                    [
                        [
                            55.198565,
                            24.973756
                        ],
                        [
                            55.198719,
                            24.973633
                        ],
                        [
                            55.200261,
                            24.973374
                        ],
                        [
                            55.200884,
                            24.976234
                        ],
                        [
                            55.199137,
                            24.976542
                        ],
                        [
                            55.198565,
                            24.973756
                        ]
                    ]
                ]
            }
        },
        {
            "type": "Feature",
            "properties": {
                "observation_date": "2012-08-21",
                "source": null,
                "sensor_name": null,
                "type": "observation",
                "current_phase": null,
                "is_occluded": null,
                "is_site_boundary": null,
                "score": 1.0
            },
            "geometry": {
                "type": "MultiPolygon",
                "coordinates": [
                    [
                        [
                            [
                                55.198565,
                                24.973756
                            ],
                            [
                                55.198719,
                                24.973633
                            ],
                            [
                                55.200261,
                                24.973374
                            ],
                            [
                                55.200884,
                                24.976234
                            ],
                            [
                                55.199137,
                                24.976542
                            ],
                            [
                                55.198565,
                                24.973756
                            ]
                        ]
                    ]
                ]
            }
        },
        {
            "type": "Feature",
            "properties": {
                "observation_date": "2018-01-23",
                "source": null,
                "sensor_name": null,
                "type": "observation",
                "current_phase": null,
                "is_occluded": null,
                "is_site_boundary": null,
                "score": 1.0
            },
            "geometry": {
                "type": "MultiPolygon",
                "coordinates": [
                    [
                        [
                            [
                                55.198565,
                                24.973756
                            ],
                            [
                                55.198719,
                                24.973633
                            ],
                            [
                                55.200261,
                                24.973374
                            ],
                            [
                                55.200884,
                                24.976234
                            ],
                            [
                                55.199137,
                                24.976542
                            ],
                            [
                                55.198565,
                                24.973756
                            ]
                        ]
                    ]
                ]
            }
        }
    ]
}