{
    "type": "FeatureCollection",
    "features": [
        {
            "type": "Feature",
            "properties": {
                "type": "site",
                "region_id": "AE_R002",
                "site_id": "AE_R002_0279",
                "version": "2.0.0",
                "status": "positive_pending",
                "mgrs": "40RCN",
                "score": 1.0,
                "start_date": "2018-02-18",
                "end_date": null,
                "model_content": "annotation",
                "originator": "te",
                "validated": "False",
                "misc_info": {
                    "commit_hash": "824fac44479e0c34c554c214480da6d4c14a319e"
                }
            },
            "geometry": {
                "type": "Polygon",
                "coordinates": [
                    [
                        [
                            55.206344,
                            25.033461
                        ],
                        [
                            55.207506,
                            25.034058
                        ],
                        [
                            55.207753,
                            25.033653
                        ],
                        [
                            55.207986,
                            25.033468
                        ],
                        [
                            55.208314,
                            25.033411
                        ],
                        [
                            55.208007,
                            25.032429
                        ],
                        [
                            55.208386,
                            25.031881
                        ],
                        [
                            55.208346,
                            25.031196
                        ],
                        [
                            55.207962,
                            25.031005
                        ],
                        [
                            55.206344,
                            25.033461
                        ]
                    ]
                ]
            }
        },
        {
            "type": "Feature",
            "properties": {
                "observation_date": "2018-02-18",
                "source": null,
                "sensor_name": null,
                "type": "observation",
                "current_phase": null,
                "is_occluded": null,
                "is_site_boundary": null,
                "score": 1.0
            },
            "geometry": {
                "type": "MultiPolygon",
                "coordinates": [
                    [
                        [
                            [
                                55.206344,
                                25.033461
                            ],
                            [
                                55.207506,
                                25.034058
                            ],
                            [
                                55.207753,
                                25.033653
                            ],
                            [
                                55.207986,
                                25.033468
                            ],
                            [
                                55.208314,
                                25.033411
                            ],
                            [
                                55.208007,
                                25.032429
                            ],
                            [
                                55.208386,
                                25.031881
                            ],
                            [
                                55.208346,
                                25.031196
                            ],
                            [
                                55.207962,
                                25.031005
                            ],
                            [
                                55.206344,
                                25.033461
                            ]
                        ]
                    ]
                ]
            }
        },
        {
            "type": "Feature",
            "properties": {
                "observation_date": null,
                "source": null,
                "sensor_name": null,
                "type": "observation",
                "current_phase": null,
                "is_occluded": null,
                "is_site_boundary": null,
                "score": 1.0
            },
            "geometry": {
                "type": "MultiPolygon",
                "coordinates": [
                    [
                        [
                            [
                                55.206344,
                                25.033461
                            ],
                            [
                                55.207506,
                                25.034058
                            ],
                            [
                                55.207753,
                                25.033653
                            ],
                            [
                                55.207986,
                                25.033468
                            ],
                            [
                                55.208314,
                                25.033411
                            ],
                            [
                                55.208007,
                                25.032429
                            ],
                            [
                                55.208386,
                                25.031881
                            ],
                            [
                                55.208346,
                                25.031196
                            ],
                            [
                                55.207962,
                                25.031005
                            ],
                            [
                                55.206344,
                                25.033461
                            ]
                        ]
                    ]
                ]
            }
        }
    ]
}