{
    "type": "FeatureCollection",
    "features": [
        {
            "type": "Feature",
            "properties": {
                "type": "site",
                "region_id": "AE_R001",
                "site_id": "AE_R001_0422",
                "version": "2.0.0",
                "status": "positive_pending",
                "mgrs": "40RCN",
                "score": 1.0,
                "start_date": "2013-10-19",
                "end_date": "2017-11-21",
                "model_content": "annotation",
                "originator": "te",
                "validated": "True",
                "misc_info": {
                    "commit_hash": "8e2cc701facd37559ed12647d70a5e5b3622c6ca"
                }
            },
            "geometry": {
                "type": "Polygon",
                "coordinates": [
                    [
                        [
                            55.195332,
                            24.970451
                        ],
                        [
                            55.195313,
                            24.970586
                        ],
                        [
                            55.195387,
                            24.970687
                        ],
                        [
                            55.195539,
                            24.970693
                        ],
                        [
                            55.195738,
                            24.97062
                        ],
                        [
                            55.195725,
                            24.971257
                        ],
                        [
                            55.194764,
                            24.971132
                        ],
                        [
                            55.194371,
                            24.970262
                        ],
                        [
                            55.195266,
                            24.969934
                        ],
                        [
                            55.195449,
                            24.970381
                        ],
                        [
                            55.195332,
                            24.970451
                        ]
                    ]
                ]
            }
        },
        {
            "type": "Feature",
            "properties": {
                "observation_date": "2013-10-19",
                "source": null,
                "sensor_name": null,
                "type": "observation",
                "current_phase": null,
                "is_occluded": null,
                "is_site_boundary": null,
                "score": 1.0
            },
            "geometry": {
                "type": "MultiPolygon",
                "coordinates": [
                    [
                        [
                            [
                                55.195332,
                                24.970451
                            ],
                            [
                                55.195313,
                                24.970586
                            ],
                            [
                                55.195387,
                                24.970687
                            ],
                            [
                                55.195539,
                                24.970693
                            ],
                            [
                                55.195738,
                                24.97062
                            ],
                            [
                                55.195725,
                                24.971257
                            ],
                            [
                                55.194764,
                                24.971132
                            ],
                            [
                                55.194371,
                                24.970262
                            ],
                            [
                                55.195266,
                                24.969934
                            ],
                            [
                                55.195449,
                                24.970381
                            ],
                            [
                                55.195332,
                                24.970451
                            ]
                        ]
                    ]
                ]
            }
        },
        {
            "type": "Feature",
            "properties": {
                "observation_date": "2017-11-21",
                "source": null,
                "sensor_name": null,
                "type": "observation",
                "current_phase": null,
                "is_occluded": null,
                "is_site_boundary": null,
                "score": 1.0
            },
            "geometry": {
                "type": "MultiPolygon",
                "coordinates": [
                    [
                        [
                            [
                                55.195332,
                                24.970451
                            ],
                            [
                                55.195313,
                                24.970586
                            ],
                            [
                                55.195387,
                                24.970687
                            ],
                            [
                                55.195539,
                                24.970693
                            ],
                            [
                                55.195738,
                                24.97062
                            ],
                            [
                                55.195725,
                                24.971257
                            ],
                            [
                                55.194764,
                                24.971132
                            ],
                            [
                                55.194371,
                                24.970262
                            ],
                            [
                                55.195266,
                                24.969934
                            ],
                            [
                                55.195449,
                                24.970381
                            ],
                            [
                                55.195332,
                                24.970451
                            ]
                        ]
                    ]
                ]
            }
        }
    ]
}