{
    "type": "FeatureCollection",
    "features": [
        {
            "type": "Feature",
            "properties": {
                "type": "site",
                "region_id": "AE_R001",
                "site_id": "AE_R001_0502",
                "version": "2.0.0",
                "status": "positive_pending",
                "mgrs": "40RBN",
                "score": 1.0,
                "start_date": "2018-09-30",
                "end_date": "2021-01-23",
                "model_content": "annotation",
                "originator": "te",
                "validated": "True",
                "misc_info": {
                    "commit_hash": "8e2cc701facd37559ed12647d70a5e5b3622c6ca"
                }
            },
            "geometry": {
                "type": "Polygon",
                "coordinates": [
                    [
                        [
                            55.009487,
                            24.918493
                        ],
                        [
                            55.009602,
                            24.918487
                        ],
                        [
                            55.009713,
                            24.918362
                        ],
                        [
                            55.009796,
                            24.918114
                        ],
                        [
                            55.010198,
                            24.918029
                        ],
                        [
                            55.010011,
                            24.917513
                        ],
                        [
                            55.009692,
                            24.917101
                        ],
                        [
                            55.009524,
                            24.916933
                        ],
                        [
                            55.009449,
                            24.916814
                        ],
                        [
                            55.009407,
                            24.916724
                        ],
                        [
                            55.009099,
                            24.916702
                        ],
                        [
                            55.008699,
                            24.916504
                        ],
                        [
                            55.008394,
                            24.917128
                        ],
                        [
                            55.009487,
                            24.918493
                        ]
                    ]
                ]
            }
        },
        {
            "type": "Feature",
            "properties": {
                "observation_date": "2018-09-30",
                "source": null,
                "sensor_name": null,
                "type": "observation",
                "current_phase": null,
                "is_occluded": null,
                "is_site_boundary": null,
                "score": 1.0
            },
            "geometry": {
                "type": "MultiPolygon",
                "coordinates": [
                    [
                        [
                            [
                                55.009487,
                                24.918493
                            ],
                            [
                                55.009602,
                                24.918487
                            ],
                            [
                                55.009713,
                                24.918362
                            ],
                            [
                                55.009796,
                                24.918114
                            ],
                            [
                                55.010198,
                                24.918029
                            ],
                            [
                                55.010011,
                                24.917513
                            ],
                            [
                                55.009692,
                                24.917101
                            ],
                            [
                                55.009524,
                                24.916933
                            ],
                            [
                                55.009449,
                                24.916814
                            ],
                            [
                                55.009407,
                                24.916724
                            ],
                            [
                                55.009099,
                                24.916702
                            ],
                            [
                                55.008699,
                                24.916504
                            ],
                            [
                                55.008394,
                                24.917128
                            ],
                            [
                                55.009487,
                                24.918493
                            ]
                        ]
                    ]
                ]
            }
        },
        {
            "type": "Feature",
            "properties": {
                "observation_date": "2021-01-23",
                "source": null,
                "sensor_name": null,
                "type": "observation",
                "current_phase": null,
                "is_occluded": null,
                "is_site_boundary": null,
                "score": 1.0
            },
            "geometry": {
                "type": "MultiPolygon",
                "coordinates": [
                    [
                        [
                            [
                                55.009487,
                                24.918493
                            ],
                            [
                                55.009602,
                                24.918487
                            ],
                            [
                                55.009713,
                                24.918362
                            ],
                            [
                                55.009796,
                                24.918114
                            ],
                            [
                                55.010198,
                                24.918029
                            ],
                            [
                                55.010011,
                                24.917513
                            ],
                            [
                                55.009692,
                                24.917101
                            ],
                            [
                                55.009524,
                                24.916933
                            ],
                            [
                                55.009449,
                                24.916814
                            ],
                            [
                                55.009407,
                                24.916724
                            ],
                            [
                                55.009099,
                                24.916702
                            ],
                            [
                                55.008699,
                                24.916504
                            ],
                            [
                                55.008394,
                                24.917128
                            ],
                            [
                                55.009487,
                                24.918493
                            ]
                        ]
                    ]
                ]
            }
        }
    ]
}