{
    "type": "FeatureCollection",
    "features": [
        {
            "type": "Feature",
            "properties": {
                "type": "site",
                "region_id": "AE_R001",
                "site_id": "AE_R001_0517",
                "version": "2.0.0",
                "status": "positive_pending",
                "mgrs": "40RCN",
                "score": 1.0,
                "start_date": "2017-08-18",
                "end_date": "2020-03-19",
                "model_content": "annotation",
                "originator": "te",
                "validated": "True",
                "misc_info": {
                    "commit_hash": "8e2cc701facd37559ed12647d70a5e5b3622c6ca"
                }
            },
            "geometry": {
                "type": "Polygon",
                "coordinates": [
                    [
                        [
                            55.068777,
                            24.917096
                        ],
                        [
                            55.068556,
                            24.917276
                        ],
                        [
                            55.06901,
                            24.91787
                        ],
                        [
                            55.070506,
                            24.916857
                        ],
                        [
                            55.071394,
                            24.918034
                        ],
                        [
                            55.07177,
                            24.91781
                        ],
                        [
                            55.069874,
                            24.915524
                        ],
                        [
                            55.069919,
                            24.915621
                        ],
                        [
                            55.069555,
                            24.915914
                        ],
                        [
                            55.069906,
                            24.91632
                        ],
                        [
                            55.068777,
                            24.917096
                        ]
                    ]
                ]
            }
        },
        {
            "type": "Feature",
            "properties": {
                "observation_date": "2017-08-18",
                "source": null,
                "sensor_name": null,
                "type": "observation",
                "current_phase": null,
                "is_occluded": null,
                "is_site_boundary": null,
                "score": 1.0
            },
            "geometry": {
                "type": "MultiPolygon",
                "coordinates": [
                    [
                        [
                            [
                                55.068777,
                                24.917096
                            ],
                            [
                                55.068556,
                                24.917276
                            ],
                            [
                                55.06901,
                                24.91787
                            ],
                            [
                                55.070506,
                                24.916857
                            ],
                            [
                                55.071394,
                                24.918034
                            ],
                            [
                                55.07177,
                                24.91781
                            ],
                            [
                                55.069874,
                                24.915524
                            ],
                            [
                                55.069919,
                                24.915621
                            ],
                            [
                                55.069555,
                                24.915914
                            ],
                            [
                                55.069906,
                                24.91632
                            ],
                            [
                                55.068777,
                                24.917096
                            ]
                        ]
                    ]
                ]
            }
        },
        {
            "type": "Feature",
            "properties": {
                "observation_date": "2020-03-19",
                "source": null,
                "sensor_name": null,
                "type": "observation",
                "current_phase": null,
                "is_occluded": null,
                "is_site_boundary": null,
                "score": 1.0
            },
            "geometry": {
                "type": "MultiPolygon",
                "coordinates": [
                    [
                        [
                            [
                                55.068777,
                                24.917096
                            ],
                            [
                                55.068556,
                                24.917276
                            ],
                            [
                                55.06901,
                                24.91787
                            ],
                            [
                                55.070506,
                                24.916857
                            ],
                            [
                                55.071394,
                                24.918034
                            ],
                            [
                                55.07177,
                                24.91781
                            ],
                            [
                                55.069874,
                                24.915524
                            ],
                            [
                                55.069919,
                                24.915621
                            ],
                            [
                                55.069555,
                                24.915914
                            ],
                            [
                                55.069906,
                                24.91632
                            ],
                            [
                                55.068777,
                                24.917096
                            ]
                        ]
                    ]
                ]
            }
        }
    ]
}