{
    "type": "FeatureCollection",
    "features": [
        {
            "type": "Feature",
            "properties": {
                "type": "site",
                "region_id": "AE_R001",
                "site_id": "AE_R001_0633",
                "version": "2.0.0",
                "status": "positive_pending",
                "mgrs": "40RCN",
                "score": 1.0,
                "start_date": "2016-10-31",
                "end_date": "2018-06-04",
                "model_content": "annotation",
                "originator": "te",
                "validated": "True",
                "misc_info": {
                    "commit_hash": "8e2cc701facd37559ed12647d70a5e5b3622c6ca"
                }
            },
            "geometry": {
                "type": "Polygon",
                "coordinates": [
                    [
                        [
                            55.111911,
                            24.952649
                        ],
                        [
                            55.112547,
                            24.952392
                        ],
                        [
                            55.113251,
                            24.953695
                        ],
                        [
                            55.112553,
                            24.953948
                        ],
                        [
                            55.111911,
                            24.952649
                        ]
                    ]
                ]
            }
        },
        {
            "type": "Feature",
            "properties": {
                "observation_date": "2016-10-31",
                "source": null,
                "sensor_name": null,
                "type": "observation",
                "current_phase": null,
                "is_occluded": null,
                "is_site_boundary": null,
                "score": 1.0
            },
            "geometry": {
                "type": "MultiPolygon",
                "coordinates": [
                    [
                        [
                            [
                                55.111911,
                                24.952649
                            ],
                            [
                                55.112547,
                                24.952392
                            ],
                            [
                                55.113251,
                                24.953695
                            ],
                            [
                                55.112553,
                                24.953948
                            ],
                            [
                                55.111911,
                                24.952649
                            ]
                        ]
                    ]
                ]
            }
        },
        {
            "type": "Feature",
            "properties": {
                "observation_date": "2018-06-04",
                "source": null,
                "sensor_name": null,
                "type": "observation",
                "current_phase": null,
                "is_occluded": null,
                "is_site_boundary": null,
                "score": 1.0
            },
            "geometry": {
                "type": "MultiPolygon",
                "coordinates": [
                    [
                        [
                            [
                                55.111911,
                                24.952649
                            ],
                            [
                                55.112547,
                                24.952392
                            ],
                            [
                                55.113251,
                                24.953695
                            ],
                            [
                                55.112553,
                                24.953948
                            ],
                            [
                                55.111911,
                                24.952649
                            ]
                        ]
                    ]
                ]
            }
        }
    ]
}