{
    "type": "FeatureCollection",
    "features": [
        {
            "type": "Feature",
            "properties": {
                "type": "site",
                "region_id": "AE_R002",
                "site_id": "AE_R002_0146",
                "version": "2.0.0",
                "status": "positive_pending",
                "mgrs": "40RCN",
                "score": 1.0,
                "start_date": "2013-10-16",
                "end_date": "2016-06-07",
                "model_content": "annotation",
                "originator": "te",
                "validated": "False",
                "misc_info": {
                    "commit_hash": "824fac44479e0c34c554c214480da6d4c14a319e"
                }
            },
            "geometry": {
                "type": "Polygon",
                "coordinates": [
                    [
                        [
                            55.410478,
                            25.108751
                        ],
                        [
                            55.410354,
                            25.108412
                        ],
                        [
                            55.41408,
                            25.104013
                        ],
                        [
                            55.4178,
                            25.106284
                        ],
                        [
                            55.414273,
                            25.110499
                        ],
                        [
                            55.413344,
                            25.110557
                        ],
                        [
                            55.410478,
                            25.108751
                        ]
                    ]
                ]
            }
        },
        {
            "type": "Feature",
            "properties": {
                "observation_date": "2013-10-16",
                "source": null,
                "sensor_name": null,
                "type": "observation",
                "current_phase": null,
                "is_occluded": null,
                "is_site_boundary": null,
                "score": 1.0
            },
            "geometry": {
                "type": "MultiPolygon",
                "coordinates": [
                    [
                        [
                            [
                                55.410478,
                                25.108751
                            ],
                            [
                                55.410354,
                                25.108412
                            ],
                            [
                                55.41408,
                                25.104013
                            ],
                            [
                                55.4178,
                                25.106284
                            ],
                            [
                                55.414273,
                                25.110499
                            ],
                            [
                                55.413344,
                                25.110557
                            ],
                            [
                                55.410478,
                                25.108751
                            ]
                        ]
                    ]
                ]
            }
        },
        {
            "type": "Feature",
            "properties": {
                "observation_date": "2016-06-07",
                "source": null,
                "sensor_name": null,
                "type": "observation",
                "current_phase": null,
                "is_occluded": null,
                "is_site_boundary": null,
                "score": 1.0
            },
            "geometry": {
                "type": "MultiPolygon",
                "coordinates": [
                    [
                        [
                            [
                                55.410478,
                                25.108751
                            ],
                            [
                                55.410354,
                                25.108412
                            ],
                            [
                                55.41408,
                                25.104013
                            ],
                            [
                                55.4178,
                                25.106284
                            ],
                            [
                                55.414273,
                                25.110499
                            ],
                            [
                                55.413344,
                                25.110557
                            ],
                            [
                                55.410478,
                                25.108751
                            ]
                        ]
                    ]
                ]
            }
        }
    ]
}