{
    "type": "FeatureCollection",
    "features": [
        {
            "type": "Feature",
            "properties": {
                "type": "site",
                "region_id": "AE_R002",
                "site_id": "AE_R002_0251",
                "version": "2.0.0",
                "status": "positive_pending",
                "mgrs": "40RCN",
                "score": 1.0,
                "start_date": "2016-08-13",
                "end_date": "2024-03-28",
                "model_content": "annotation",
                "originator": "te",
                "validated": "False",
                "misc_info": {
                    "commit_hash": "824fac44479e0c34c554c214480da6d4c14a319e"
                }
            },
            "geometry": {
                "type": "Polygon",
                "coordinates": [
                    [
                        [
                            55.200603,
                            25.051306
                        ],
                        [
                            55.201203,
                            25.051519
                        ],
                        [
                            55.201203,
                            25.051519
                        ],
                        [
                            55.202061,
                            25.050912
                        ],
                        [
                            55.202338,
                            25.051245
                        ],
                        [
                            55.202338,
                            25.051245
                        ],
                        [
                            55.202579,
                            25.051072
                        ],
                        [
                            55.201949,
                            25.050286
                        ],
                        [
                            55.201949,
                            25.050286
                        ],
                        [
                            55.200603,
                            25.051306
                        ]
                    ]
                ]
            }
        },
        {
            "type": "Feature",
            "properties": {
                "observation_date": "2016-08-13",
                "source": null,
                "sensor_name": null,
                "type": "observation",
                "current_phase": null,
                "is_occluded": null,
                "is_site_boundary": null,
                "score": 1.0
            },
            "geometry": {
                "type": "MultiPolygon",
                "coordinates": [
                    [
                        [
                            [
                                55.200603,
                                25.051306
                            ],
                            [
                                55.201203,
                                25.051519
                            ],
                            [
                                55.201203,
                                25.051519
                            ],
                            [
                                55.202061,
                                25.050912
                            ],
                            [
                                55.202338,
                                25.051245
                            ],
                            [
                                55.202338,
                                25.051245
                            ],
                            [
                                55.202579,
                                25.051072
                            ],
                            [
                                55.201949,
                                25.050286
                            ],
                            [
                                55.201949,
                                25.050286
                            ],
                            [
                                55.200603,
                                25.051306
                            ]
                        ]
                    ]
                ]
            }
        },
        {
            "type": "Feature",
            "properties": {
                "observation_date": "2024-03-28",
                "source": null,
                "sensor_name": null,
                "type": "observation",
                "current_phase": null,
                "is_occluded": null,
                "is_site_boundary": null,
                "score": 1.0
            },
            "geometry": {
                "type": "MultiPolygon",
                "coordinates": [
                    [
                        [
                            [
                                55.200603,
                                25.051306
                            ],
                            [
                                55.201203,
                                25.051519
                            ],
                            [
                                55.201203,
                                25.051519
                            ],
                            [
                                55.202061,
                                25.050912
                            ],
                            [
                                55.202338,
                                25.051245
                            ],
                            [
                                55.202338,
                                25.051245
                            ],
                            [
                                55.202579,
                                25.051072
                            ],
                            [
                                55.201949,
                                25.050286
                            ],
                            [
                                55.201949,
                                25.050286
                            ],
                            [
                                55.200603,
                                25.051306
                            ]
                        ]
                    ]
                ]
            }
        }
    ]
}