{
    "type": "FeatureCollection",
    "features": [
        {
            "type": "Feature",
            "properties": {
                "type": "site",
                "region_id": "AE_R002",
                "site_id": "AE_R002_0099",
                "version": "2.0.0",
                "status": "positive_pending",
                "mgrs": "40RCN",
                "score": 1.0,
                "start_date": "2016-08-02",
                "end_date": "2020-05-31",
                "model_content": "annotation",
                "originator": "te",
                "validated": "False",
                "misc_info": {
                    "commit_hash": "824fac44479e0c34c554c214480da6d4c14a319e"
                }
            },
            "geometry": {
                "type": "Polygon",
                "coordinates": [
                    [
                        [
                            55.191997,
                            25.088412
                        ],
                        [
                            55.193208,
                            25.087742
                        ],
                        [
                            55.194106,
                            25.087193
                        ],
                        [
                            55.19439,
                            25.087675
                        ],
                        [
                            55.192273,
                            25.088813
                        ],
                        [
                            55.191997,
                            25.088412
                        ]
                    ]
                ]
            }
        },
        {
            "type": "Feature",
            "properties": {
                "observation_date": "2016-08-02",
                "source": null,
                "sensor_name": null,
                "type": "observation",
                "current_phase": null,
                "is_occluded": null,
                "is_site_boundary": null,
                "score": 1.0
            },
            "geometry": {
                "type": "MultiPolygon",
                "coordinates": [
                    [
                        [
                            [
                                55.191997,
                                25.088412
                            ],
                            [
                                55.193208,
                                25.087742
                            ],
                            [
                                55.194106,
                                25.087193
                            ],
                            [
                                55.19439,
                                25.087675
                            ],
                            [
                                55.192273,
                                25.088813
                            ],
                            [
                                55.191997,
                                25.088412
                            ]
                        ]
                    ]
                ]
            }
        },
        {
            "type": "Feature",
            "properties": {
                "observation_date": "2020-05-31",
                "source": null,
                "sensor_name": null,
                "type": "observation",
                "current_phase": null,
                "is_occluded": null,
                "is_site_boundary": null,
                "score": 1.0
            },
            "geometry": {
                "type": "MultiPolygon",
                "coordinates": [
                    [
                        [
                            [
                                55.191997,
                                25.088412
                            ],
                            [
                                55.193208,
                                25.087742
                            ],
                            [
                                55.194106,
                                25.087193
                            ],
                            [
                                55.19439,
                                25.087675
                            ],
                            [
                                55.192273,
                                25.088813
                            ],
                            [
                                55.191997,
                                25.088412
                            ]
                        ]
                    ]
                ]
            }
        }
    ]
}