{
    "type": "FeatureCollection",
    "features": [
        {
            "type": "Feature",
            "properties": {
                "type": "site",
                "region_id": "AE_R001",
                "site_id": "AE_R001_0499",
                "version": "2.0.0",
                "status": "positive_pending",
                "mgrs": "40RBN",
                "score": 1.0,
                "start_date": "2013-02-06",
                "end_date": "2022-12-11",
                "model_content": "annotation",
                "originator": "te",
                "validated": "True",
                "misc_info": {
                    "commit_hash": "8e2cc701facd37559ed12647d70a5e5b3622c6ca"
                }
            },
            "geometry": {
                "type": "Polygon",
                "coordinates": [
                    [
                        [
                            55.009326,
                            24.924081
                        ],
                        [
                            55.009744,
                            24.923906
                        ],
                        [
                            55.008113,
                            24.923322
                        ],
                        [
                            55.008981,
                            24.921041
                        ],
                        [
                            55.009781,
                            24.920682
                        ],
                        [
                            55.01013,
                            24.920688
                        ],
                        [
                            55.014274,
                            24.922013
                        ],
                        [
                            55.012968,
                            24.923477
                        ],
                        [
                            55.012123,
                            24.923997
                        ],
                        [
                            55.009551,
                            24.924776
                        ],
                        [
                            55.009326,
                            24.924081
                        ]
                    ]
                ]
            }
        },
        {
            "type": "Feature",
            "properties": {
                "observation_date": "2013-02-06",
                "source": null,
                "sensor_name": null,
                "type": "observation",
                "current_phase": null,
                "is_occluded": null,
                "is_site_boundary": null,
                "score": 1.0
            },
            "geometry": {
                "type": "MultiPolygon",
                "coordinates": [
                    [
                        [
                            [
                                55.009326,
                                24.924081
                            ],
                            [
                                55.009744,
                                24.923906
                            ],
                            [
                                55.008113,
                                24.923322
                            ],
                            [
                                55.008981,
                                24.921041
                            ],
                            [
                                55.009781,
                                24.920682
                            ],
                            [
                                55.01013,
                                24.920688
                            ],
                            [
                                55.014274,
                                24.922013
                            ],
                            [
                                55.012968,
                                24.923477
                            ],
                            [
                                55.012123,
                                24.923997
                            ],
                            [
                                55.009551,
                                24.924776
                            ],
                            [
                                55.009326,
                                24.924081
                            ]
                        ]
                    ]
                ]
            }
        },
        {
            "type": "Feature",
            "properties": {
                "observation_date": "2022-12-11",
                "source": null,
                "sensor_name": null,
                "type": "observation",
                "current_phase": null,
                "is_occluded": null,
                "is_site_boundary": null,
                "score": 1.0
            },
            "geometry": {
                "type": "MultiPolygon",
                "coordinates": [
                    [
                        [
                            [
                                55.009326,
                                24.924081
                            ],
                            [
                                55.009744,
                                24.923906
                            ],
                            [
                                55.008113,
                                24.923322
                            ],
                            [
                                55.008981,
                                24.921041
                            ],
                            [
                                55.009781,
                                24.920682
                            ],
                            [
                                55.01013,
                                24.920688
                            ],
                            [
                                55.014274,
                                24.922013
                            ],
                            [
                                55.012968,
                                24.923477
                            ],
                            [
                                55.012123,
                                24.923997
                            ],
                            [
                                55.009551,
                                24.924776
                            ],
                            [
                                55.009326,
                                24.924081
                            ]
                        ]
                    ]
                ]
            }
        }
    ]
}