{
    "type": "FeatureCollection",
    "features": [
        {
            "type": "Feature",
            "properties": {
                "type": "site",
                "region_id": "AE_R002",
                "site_id": "AE_R002_0331",
                "version": "2.0.0",
                "status": "positive_excluded",
                "mgrs": "40RCN",
                "score": 1.0,
                "start_date": "2018-10-26",
                "end_date": "2020-06-22",
                "model_content": "annotation",
                "originator": "te",
                "validated": "False",
                "misc_info": {
                    "commit_hash": "824fac44479e0c34c554c214480da6d4c14a319e"
                }
            },
            "geometry": {
                "type": "Polygon",
                "coordinates": [
                    [
                        [
                            55.372671,
                            25.096746
                        ],
                        [
                            55.37342,
                            25.09726
                        ],
                        [
                            55.37384,
                            25.096554
                        ],
                        [
                            55.373382,
                            25.096271
                        ],
                        [
                            55.373109,
                            25.096586
                        ],
                        [
                            55.372882,
                            25.096466
                        ],
                        [
                            55.372671,
                            25.096746
                        ]
                    ]
                ]
            }
        },
        {
            "type": "Feature",
            "properties": {
                "observation_date": "2018-10-26",
                "source": null,
                "sensor_name": null,
                "type": "observation",
                "current_phase": null,
                "is_occluded": null,
                "is_site_boundary": null,
                "score": 1.0
            },
            "geometry": {
                "type": "MultiPolygon",
                "coordinates": [
                    [
                        [
                            [
                                55.372671,
                                25.096746
                            ],
                            [
                                55.37342,
                                25.09726
                            ],
                            [
                                55.37384,
                                25.096554
                            ],
                            [
                                55.373382,
                                25.096271
                            ],
                            [
                                55.373109,
                                25.096586
                            ],
                            [
                                55.372882,
                                25.096466
                            ],
                            [
                                55.372671,
                                25.096746
                            ]
                        ]
                    ]
                ]
            }
        },
        {
            "type": "Feature",
            "properties": {
                "observation_date": "2020-06-22",
                "source": null,
                "sensor_name": null,
                "type": "observation",
                "current_phase": null,
                "is_occluded": null,
                "is_site_boundary": null,
                "score": 1.0
            },
            "geometry": {
                "type": "MultiPolygon",
                "coordinates": [
                    [
                        [
                            [
                                55.372671,
                                25.096746
                            ],
                            [
                                55.37342,
                                25.09726
                            ],
                            [
                                55.37384,
                                25.096554
                            ],
                            [
                                55.373382,
                                25.096271
                            ],
                            [
                                55.373109,
                                25.096586
                            ],
                            [
                                55.372882,
                                25.096466
                            ],
                            [
                                55.372671,
                                25.096746
                            ]
                        ]
                    ]
                ]
            }
        }
    ]
}