{
    "type": "FeatureCollection",
    "features": [
        {
            "type": "Feature",
            "properties": {
                "type": "site",
                "region_id": "AE_R002",
                "site_id": "AE_R002_0186",
                "version": "2.0.0",
                "status": "positive_pending",
                "mgrs": "40RCN",
                "score": 1.0,
                "start_date": "2014-07-07",
                "end_date": "2023-03-09",
                "model_content": "annotation",
                "originator": "te",
                "validated": "True",
                "misc_info": {
                    "commit_hash": "824fac44479e0c34c554c214480da6d4c14a319e"
                }
            },
            "geometry": {
                "type": "Polygon",
                "coordinates": [
                    [
                        [
                            55.203042,
                            25.04839
                        ],
                        [
                            55.20473,
                            25.047923
                        ],
                        [
                            55.20491,
                            25.048812
                        ],
                        [
                            55.203385,
                            25.049269
                        ],
                        [
                            55.203042,
                            25.04839
                        ]
                    ]
                ]
            }
        },
        {
            "type": "Feature",
            "properties": {
                "observation_date": "2014-07-07",
                "source": null,
                "sensor_name": null,
                "type": "observation",
                "current_phase": null,
                "is_occluded": null,
                "is_site_boundary": null,
                "score": 1.0
            },
            "geometry": {
                "type": "MultiPolygon",
                "coordinates": [
                    [
                        [
                            [
                                55.203042,
                                25.04839
                            ],
                            [
                                55.20473,
                                25.047923
                            ],
                            [
                                55.20491,
                                25.048812
                            ],
                            [
                                55.203385,
                                25.049269
                            ],
                            [
                                55.203042,
                                25.04839
                            ]
                        ]
                    ]
                ]
            }
        },
        {
            "type": "Feature",
            "properties": {
                "observation_date": "2023-03-09",
                "source": null,
                "sensor_name": null,
                "type": "observation",
                "current_phase": null,
                "is_occluded": null,
                "is_site_boundary": null,
                "score": 1.0
            },
            "geometry": {
                "type": "MultiPolygon",
                "coordinates": [
                    [
                        [
                            [
                                55.203042,
                                25.04839
                            ],
                            [
                                55.20473,
                                25.047923
                            ],
                            [
                                55.20491,
                                25.048812
                            ],
                            [
                                55.203385,
                                25.049269
                            ],
                            [
                                55.203042,
                                25.04839
                            ]
                        ]
                    ]
                ]
            }
        }
    ]
}