{
    "type": "FeatureCollection",
    "features": [
        {
            "type": "Feature",
            "properties": {
                "type": "site",
                "region_id": "AE_R002",
                "site_id": "AE_R002_0248",
                "version": "2.0.0",
                "status": "positive_pending",
                "mgrs": "40RCN",
                "score": 1.0,
                "start_date": "2017-05-14",
                "end_date": "2020-09-25",
                "model_content": "annotation",
                "originator": "te",
                "validated": "False",
                "misc_info": {
                    "commit_hash": "824fac44479e0c34c554c214480da6d4c14a319e"
                }
            },
            "geometry": {
                "type": "Polygon",
                "coordinates": [
                    [
                        [
                            55.200644,
                            25.055789
                        ],
                        [
                            55.20192,
                            25.0562
                        ],
                        [
                            55.20192,
                            25.0562
                        ],
                        [
                            55.202197,
                            25.05539
                        ],
                        [
                            55.201491,
                            25.055109
                        ],
                        [
                            55.201491,
                            25.055109
                        ],
                        [
                            55.201318,
                            25.055502
                        ],
                        [
                            55.200819,
                            25.055339
                        ],
                        [
                            55.200819,
                            25.055339
                        ],
                        [
                            55.200644,
                            25.055789
                        ]
                    ]
                ]
            }
        },
        {
            "type": "Feature",
            "properties": {
                "observation_date": "2017-05-14",
                "source": null,
                "sensor_name": null,
                "type": "observation",
                "current_phase": null,
                "is_occluded": null,
                "is_site_boundary": null,
                "score": 1.0
            },
            "geometry": {
                "type": "MultiPolygon",
                "coordinates": [
                    [
                        [
                            [
                                55.200644,
                                25.055789
                            ],
                            [
                                55.20192,
                                25.0562
                            ],
                            [
                                55.20192,
                                25.0562
                            ],
                            [
                                55.202197,
                                25.05539
                            ],
                            [
                                55.201491,
                                25.055109
                            ],
                            [
                                55.201491,
                                25.055109
                            ],
                            [
                                55.201318,
                                25.055502
                            ],
                            [
                                55.200819,
                                25.055339
                            ],
                            [
                                55.200819,
                                25.055339
                            ],
                            [
                                55.200644,
                                25.055789
                            ]
                        ]
                    ]
                ]
            }
        },
        {
            "type": "Feature",
            "properties": {
                "observation_date": "2020-09-25",
                "source": null,
                "sensor_name": null,
                "type": "observation",
                "current_phase": null,
                "is_occluded": null,
                "is_site_boundary": null,
                "score": 1.0
            },
            "geometry": {
                "type": "MultiPolygon",
                "coordinates": [
                    [
                        [
                            [
                                55.200644,
                                25.055789
                            ],
                            [
                                55.20192,
                                25.0562
                            ],
                            [
                                55.20192,
                                25.0562
                            ],
                            [
                                55.202197,
                                25.05539
                            ],
                            [
                                55.201491,
                                25.055109
                            ],
                            [
                                55.201491,
                                25.055109
                            ],
                            [
                                55.201318,
                                25.055502
                            ],
                            [
                                55.200819,
                                25.055339
                            ],
                            [
                                55.200819,
                                25.055339
                            ],
                            [
                                55.200644,
                                25.055789
                            ]
                        ]
                    ]
                ]
            }
        }
    ]
}