{
    "type": "FeatureCollection",
    "features": [
        {
            "type": "Feature",
            "properties": {
                "type": "site",
                "region_id": "AE_R001",
                "site_id": "AE_R001_0597",
                "version": "2.0.0",
                "status": "positive_pending",
                "mgrs": "40RCN",
                "score": 1.0,
                "start_date": "2013-10-19",
                "end_date": "2016-08-12",
                "model_content": "annotation",
                "originator": "te",
                "validated": "True",
                "misc_info": {
                    "commit_hash": "8e2cc701facd37559ed12647d70a5e5b3622c6ca"
                }
            },
            "geometry": {
                "type": "Polygon",
                "coordinates": [
                    [
                        [
                            55.202235,
                            24.970177
                        ],
                        [
                            55.202465,
                            24.970954
                        ],
                        [
                            55.202916,
                            24.970825
                        ],
                        [
                            55.202995,
                            24.970638
                        ],
                        [
                            55.202721,
                            24.969695
                        ],
                        [
                            55.202128,
                            24.969834
                        ],
                        [
                            55.202096,
                            24.969721
                        ],
                        [
                            55.201204,
                            24.969943
                        ],
                        [
                            55.201074,
                            24.970073
                        ],
                        [
                            55.201023,
                            24.970036
                        ],
                        [
                            55.201015,
                            24.970031
                        ],
                        [
                            55.201014,
                            24.970029
                        ],
                        [
                            55.200905,
                            24.970304
                        ],
                        [
                            55.201024,
                            24.970485
                        ],
                        [
                            55.202235,
                            24.970177
                        ]
                    ]
                ]
            }
        },
        {
            "type": "Feature",
            "properties": {
                "observation_date": "2013-10-19",
                "source": null,
                "sensor_name": null,
                "type": "observation",
                "current_phase": null,
                "is_occluded": null,
                "is_site_boundary": null,
                "score": 1.0
            },
            "geometry": {
                "type": "MultiPolygon",
                "coordinates": [
                    [
                        [
                            [
                                55.202235,
                                24.970177
                            ],
                            [
                                55.202465,
                                24.970954
                            ],
                            [
                                55.202916,
                                24.970825
                            ],
                            [
                                55.202995,
                                24.970638
                            ],
                            [
                                55.202721,
                                24.969695
                            ],
                            [
                                55.202128,
                                24.969834
                            ],
                            [
                                55.202096,
                                24.969721
                            ],
                            [
                                55.201204,
                                24.969943
                            ],
                            [
                                55.201074,
                                24.970073
                            ],
                            [
                                55.201023,
                                24.970036
                            ],
                            [
                                55.201015,
                                24.970031
                            ],
                            [
                                55.201014,
                                24.970029
                            ],
                            [
                                55.200905,
                                24.970304
                            ],
                            [
                                55.201024,
                                24.970485
                            ],
                            [
                                55.202235,
                                24.970177
                            ]
                        ]
                    ]
                ]
            }
        },
        {
            "type": "Feature",
            "properties": {
                "observation_date": "2016-08-12",
                "source": null,
                "sensor_name": null,
                "type": "observation",
                "current_phase": null,
                "is_occluded": null,
                "is_site_boundary": null,
                "score": 1.0
            },
            "geometry": {
                "type": "MultiPolygon",
                "coordinates": [
                    [
                        [
                            [
                                55.202235,
                                24.970177
                            ],
                            [
                                55.202465,
                                24.970954
                            ],
                            [
                                55.202916,
                                24.970825
                            ],
                            [
                                55.202995,
                                24.970638
                            ],
                            [
                                55.202721,
                                24.969695
                            ],
                            [
                                55.202128,
                                24.969834
                            ],
                            [
                                55.202096,
                                24.969721
                            ],
                            [
                                55.201204,
                                24.969943
                            ],
                            [
                                55.201074,
                                24.970073
                            ],
                            [
                                55.201023,
                                24.970036
                            ],
                            [
                                55.201015,
                                24.970031
                            ],
                            [
                                55.201014,
                                24.970029
                            ],
                            [
                                55.200905,
                                24.970304
                            ],
                            [
                                55.201024,
                                24.970485
                            ],
                            [
                                55.202235,
                                24.970177
                            ]
                        ]
                    ]
                ]
            }
        }
    ]
}