{
    "type": "FeatureCollection",
    "features": [
        {
            "type": "Feature",
            "properties": {
                "type": "site",
                "region_id": "AE_R002",
                "site_id": "AE_R002_0236",
                "version": "2.0.0",
                "status": "positive_annotated_static",
                "mgrs": "40RCN",
                "score": 1.0,
                "start_date": "2014-11-08",
                "end_date": "2018-07-23",
                "model_content": "annotation",
                "originator": "te",
                "validated": "True",
                "misc_info": {
                    "commit_hash": "dbdea3485a8eb34730f81ec01861c62e6358b0b5"
                }
            },
            "geometry": {
                "type": "Polygon",
                "coordinates": [
                    [
                        [
                            55.300551,
                            25.007895
                        ],
                        [
                            55.301098,
                            25.008372
                        ],
                        [
                            55.30165,
                            25.007682
                        ],
                        [
                            55.30179,
                            25.00729
                        ],
                        [
                            55.30212,
                            25.006375
                        ],
                        [
                            55.301472,
                            25.006024
                        ],
                        [
                            55.301034,
                            25.005753
                        ],
                        [
                            55.300634,
                            25.005546
                        ],
                        [
                            55.300405,
                            25.005615
                        ],
                        [
                            55.300342,
                            25.005719
                        ],
                        [
                            55.300297,
                            25.00603
                        ],
                        [
                            55.300266,
                            25.00664
                        ],
                        [
                            55.300253,
                            25.007388
                        ],
                        [
                            55.300297,
                            25.007549
                        ],
                        [
                            55.300551,
                            25.007895
                        ]
                    ]
                ]
            }
        },
        {
            "type": "Feature",
            "properties": {
                "observation_date": "2014-11-08",
                "source": "14NOV08065743-M1BS-014855392010_01_P001",
                "sensor_name": "WorldView",
                "type": "observation",
                "current_phase": "No Activity",
                "is_occluded": "False",
                "is_site_boundary": "True",
                "score": 1.0
            },
            "geometry": {
                "type": "MultiPolygon",
                "coordinates": [
                    [
                        [
                            [
                                55.301098,
                                25.008372
                            ],
                            [
                                55.300551,
                                25.007895
                            ],
                            [
                                55.300297,
                                25.007549
                            ],
                            [
                                55.300253,
                                25.007388
                            ],
                            [
                                55.300266,
                                25.00664
                            ],
                            [
                                55.300297,
                                25.00603
                            ],
                            [
                                55.300342,
                                25.005719
                            ],
                            [
                                55.300405,
                                25.005615
                            ],
                            [
                                55.300634,
                                25.005546
                            ],
                            [
                                55.301034,
                                25.005753
                            ],
                            [
                                55.301472,
                                25.006024
                            ],
                            [
                                55.30212,
                                25.006375
                            ],
                            [
                                55.30179,
                                25.00729
                            ],
                            [
                                55.30165,
                                25.007682
                            ],
                            [
                                55.301098,
                                25.008372
                            ]
                        ]
                    ]
                ]
            }
        },
        {
            "type": "Feature",
            "properties": {
                "observation_date": "2015-04-28",
                "source": "15APR28082147-P1BS-500171678100_02_P019",
                "sensor_name": "WorldView",
                "type": "observation",
                "current_phase": "No Activity",
                "is_occluded": "False",
                "is_site_boundary": "True",
                "score": 1.0
            },
            "geometry": {
                "type": "MultiPolygon",
                "coordinates": [
                    [
                        [
                            [
                                55.301098,
                                25.008372
                            ],
                            [
                                55.300551,
                                25.007895
                            ],
                            [
                                55.300297,
                                25.007549
                            ],
                            [
                                55.300253,
                                25.007388
                            ],
                            [
                                55.300266,
                                25.00664
                            ],
                            [
                                55.300297,
                                25.00603
                            ],
                            [
                                55.300342,
                                25.005719
                            ],
                            [
                                55.300405,
                                25.005615
                            ],
                            [
                                55.300634,
                                25.005546
                            ],
                            [
                                55.301034,
                                25.005753
                            ],
                            [
                                55.301472,
                                25.006024
                            ],
                            [
                                55.30212,
                                25.006375
                            ],
                            [
                                55.30179,
                                25.00729
                            ],
                            [
                                55.30165,
                                25.007682
                            ],
                            [
                                55.301098,
                                25.008372
                            ]
                        ]
                    ]
                ]
            }
        },
        {
            "type": "Feature",
            "properties": {
                "observation_date": "2016-06-05",
                "source": "16JUN05100242-P1BS-500171678030_04_P002",
                "sensor_name": "WorldView",
                "type": "observation",
                "current_phase": "Site Preparation",
                "is_occluded": "False",
                "is_site_boundary": "True",
                "score": 1.0
            },
            "geometry": {
                "type": "MultiPolygon",
                "coordinates": [
                    [
                        [
                            [
                                55.301098,
                                25.008372
                            ],
                            [
                                55.300551,
                                25.007895
                            ],
                            [
                                55.300297,
                                25.007549
                            ],
                            [
                                55.300253,
                                25.007388
                            ],
                            [
                                55.300266,
                                25.00664
                            ],
                            [
                                55.300297,
                                25.00603
                            ],
                            [
                                55.300342,
                                25.005719
                            ],
                            [
                                55.300405,
                                25.005615
                            ],
                            [
                                55.300634,
                                25.005546
                            ],
                            [
                                55.301034,
                                25.005753
                            ],
                            [
                                55.301472,
                                25.006024
                            ],
                            [
                                55.30212,
                                25.006375
                            ],
                            [
                                55.30179,
                                25.00729
                            ],
                            [
                                55.30165,
                                25.007682
                            ],
                            [
                                55.301098,
                                25.008372
                            ]
                        ]
                    ]
                ]
            }
        },
        {
            "type": "Feature",
            "properties": {
                "observation_date": "2016-07-28",
                "source": "S2A_40RCN_20160728_0_L1C_TCI",
                "sensor_name": "Sentinel-2",
                "type": "observation",
                "current_phase": "Active Construction",
                "is_occluded": "False",
                "is_site_boundary": "True",
                "score": 1.0
            },
            "geometry": {
                "type": "MultiPolygon",
                "coordinates": [
                    [
                        [
                            [
                                55.301098,
                                25.008372
                            ],
                            [
                                55.300551,
                                25.007895
                            ],
                            [
                                55.300297,
                                25.007549
                            ],
                            [
                                55.300253,
                                25.007388
                            ],
                            [
                                55.300266,
                                25.00664
                            ],
                            [
                                55.300297,
                                25.00603
                            ],
                            [
                                55.300342,
                                25.005719
                            ],
                            [
                                55.300405,
                                25.005615
                            ],
                            [
                                55.300634,
                                25.005546
                            ],
                            [
                                55.301034,
                                25.005753
                            ],
                            [
                                55.301472,
                                25.006024
                            ],
                            [
                                55.30212,
                                25.006375
                            ],
                            [
                                55.30179,
                                25.00729
                            ],
                            [
                                55.30165,
                                25.007682
                            ],
                            [
                                55.301098,
                                25.008372
                            ]
                        ]
                    ]
                ]
            }
        },
        {
            "type": "Feature",
            "properties": {
                "observation_date": "2016-08-13",
                "source": "16AUG13071753-P1BS-014855172010_01_P003",
                "sensor_name": "WorldView",
                "type": "observation",
                "current_phase": "Active Construction",
                "is_occluded": "False",
                "is_site_boundary": "True",
                "score": 1.0
            },
            "geometry": {
                "type": "MultiPolygon",
                "coordinates": [
                    [
                        [
                            [
                                55.301098,
                                25.008372
                            ],
                            [
                                55.300551,
                                25.007895
                            ],
                            [
                                55.300297,
                                25.007549
                            ],
                            [
                                55.300253,
                                25.007388
                            ],
                            [
                                55.300266,
                                25.00664
                            ],
                            [
                                55.300297,
                                25.00603
                            ],
                            [
                                55.300342,
                                25.005719
                            ],
                            [
                                55.300405,
                                25.005615
                            ],
                            [
                                55.300634,
                                25.005546
                            ],
                            [
                                55.301034,
                                25.005753
                            ],
                            [
                                55.301472,
                                25.006024
                            ],
                            [
                                55.30212,
                                25.006375
                            ],
                            [
                                55.30179,
                                25.00729
                            ],
                            [
                                55.30165,
                                25.007682
                            ],
                            [
                                55.301098,
                                25.008372
                            ]
                        ]
                    ]
                ]
            }
        },
        {
            "type": "Feature",
            "properties": {
                "observation_date": "2016-08-27",
                "source": "S2A_40RCN_20160827_0_L1C_TCI",
                "sensor_name": "Sentinel-2",
                "type": "observation",
                "current_phase": "Active Construction",
                "is_occluded": "False",
                "is_site_boundary": "True",
                "score": 1.0
            },
            "geometry": {
                "type": "MultiPolygon",
                "coordinates": [
                    [
                        [
                            [
                                55.301098,
                                25.008372
                            ],
                            [
                                55.300551,
                                25.007895
                            ],
                            [
                                55.300297,
                                25.007549
                            ],
                            [
                                55.300253,
                                25.007388
                            ],
                            [
                                55.300266,
                                25.00664
                            ],
                            [
                                55.300297,
                                25.00603
                            ],
                            [
                                55.300342,
                                25.005719
                            ],
                            [
                                55.300405,
                                25.005615
                            ],
                            [
                                55.300634,
                                25.005546
                            ],
                            [
                                55.301034,
                                25.005753
                            ],
                            [
                                55.301472,
                                25.006024
                            ],
                            [
                                55.30212,
                                25.006375
                            ],
                            [
                                55.30179,
                                25.00729
                            ],
                            [
                                55.30165,
                                25.007682
                            ],
                            [
                                55.301098,
                                25.008372
                            ]
                        ]
                    ]
                ]
            }
        },
        {
            "type": "Feature",
            "properties": {
                "observation_date": "2016-09-06",
                "source": "S2A_40RCN_20160906_0_L1C_TCI",
                "sensor_name": "Sentinel-2",
                "type": "observation",
                "current_phase": "Active Construction",
                "is_occluded": "False",
                "is_site_boundary": "True",
                "score": 1.0
            },
            "geometry": {
                "type": "MultiPolygon",
                "coordinates": [
                    [
                        [
                            [
                                55.301098,
                                25.008372
                            ],
                            [
                                55.300551,
                                25.007895
                            ],
                            [
                                55.300297,
                                25.007549
                            ],
                            [
                                55.300253,
                                25.007388
                            ],
                            [
                                55.300266,
                                25.00664
                            ],
                            [
                                55.300297,
                                25.00603
                            ],
                            [
                                55.300342,
                                25.005719
                            ],
                            [
                                55.300405,
                                25.005615
                            ],
                            [
                                55.300634,
                                25.005546
                            ],
                            [
                                55.301034,
                                25.005753
                            ],
                            [
                                55.301472,
                                25.006024
                            ],
                            [
                                55.30212,
                                25.006375
                            ],
                            [
                                55.30179,
                                25.00729
                            ],
                            [
                                55.30165,
                                25.007682
                            ],
                            [
                                55.301098,
                                25.008372
                            ]
                        ]
                    ]
                ]
            }
        },
        {
            "type": "Feature",
            "properties": {
                "observation_date": "2016-10-26",
                "source": "S2A_40RCN_20161026_0_L1C_TCI",
                "sensor_name": "Sentinel-2",
                "type": "observation",
                "current_phase": "Active Construction",
                "is_occluded": "False",
                "is_site_boundary": "True",
                "score": 1.0
            },
            "geometry": {
                "type": "MultiPolygon",
                "coordinates": [
                    [
                        [
                            [
                                55.301098,
                                25.008372
                            ],
                            [
                                55.300551,
                                25.007895
                            ],
                            [
                                55.300297,
                                25.007549
                            ],
                            [
                                55.300253,
                                25.007388
                            ],
                            [
                                55.300266,
                                25.00664
                            ],
                            [
                                55.300297,
                                25.00603
                            ],
                            [
                                55.300342,
                                25.005719
                            ],
                            [
                                55.300405,
                                25.005615
                            ],
                            [
                                55.300634,
                                25.005546
                            ],
                            [
                                55.301034,
                                25.005753
                            ],
                            [
                                55.301472,
                                25.006024
                            ],
                            [
                                55.30212,
                                25.006375
                            ],
                            [
                                55.30179,
                                25.00729
                            ],
                            [
                                55.30165,
                                25.007682
                            ],
                            [
                                55.301098,
                                25.008372
                            ]
                        ]
                    ]
                ]
            }
        },
        {
            "type": "Feature",
            "properties": {
                "observation_date": "2016-11-15",
                "source": "S2A_40RCN_20161115_0_L1C_TCI",
                "sensor_name": "Sentinel-2",
                "type": "observation",
                "current_phase": "Active Construction",
                "is_occluded": "False",
                "is_site_boundary": "True",
                "score": 1.0
            },
            "geometry": {
                "type": "MultiPolygon",
                "coordinates": [
                    [
                        [
                            [
                                55.301098,
                                25.008372
                            ],
                            [
                                55.300551,
                                25.007895
                            ],
                            [
                                55.300297,
                                25.007549
                            ],
                            [
                                55.300253,
                                25.007388
                            ],
                            [
                                55.300266,
                                25.00664
                            ],
                            [
                                55.300297,
                                25.00603
                            ],
                            [
                                55.300342,
                                25.005719
                            ],
                            [
                                55.300405,
                                25.005615
                            ],
                            [
                                55.300634,
                                25.005546
                            ],
                            [
                                55.301034,
                                25.005753
                            ],
                            [
                                55.301472,
                                25.006024
                            ],
                            [
                                55.30212,
                                25.006375
                            ],
                            [
                                55.30179,
                                25.00729
                            ],
                            [
                                55.30165,
                                25.007682
                            ],
                            [
                                55.301098,
                                25.008372
                            ]
                        ]
                    ]
                ]
            }
        },
        {
            "type": "Feature",
            "properties": {
                "observation_date": "2016-12-25",
                "source": "S2A_40RCN_20161225_0_L1C_TCI",
                "sensor_name": "Sentinel-2",
                "type": "observation",
                "current_phase": "Active Construction",
                "is_occluded": "False",
                "is_site_boundary": "True",
                "score": 1.0
            },
            "geometry": {
                "type": "MultiPolygon",
                "coordinates": [
                    [
                        [
                            [
                                55.301098,
                                25.008372
                            ],
                            [
                                55.300551,
                                25.007895
                            ],
                            [
                                55.300297,
                                25.007549
                            ],
                            [
                                55.300253,
                                25.007388
                            ],
                            [
                                55.300266,
                                25.00664
                            ],
                            [
                                55.300297,
                                25.00603
                            ],
                            [
                                55.300342,
                                25.005719
                            ],
                            [
                                55.300405,
                                25.005615
                            ],
                            [
                                55.300634,
                                25.005546
                            ],
                            [
                                55.301034,
                                25.005753
                            ],
                            [
                                55.301472,
                                25.006024
                            ],
                            [
                                55.30212,
                                25.006375
                            ],
                            [
                                55.30179,
                                25.00729
                            ],
                            [
                                55.30165,
                                25.007682
                            ],
                            [
                                55.301098,
                                25.008372
                            ]
                        ]
                    ]
                ]
            }
        },
        {
            "type": "Feature",
            "properties": {
                "observation_date": "2017-01-04",
                "source": "S2A_40RCN_20170104_0_L2A_TCI",
                "sensor_name": "Sentinel-2",
                "type": "observation",
                "current_phase": "Active Construction",
                "is_occluded": "False",
                "is_site_boundary": "True",
                "score": 1.0
            },
            "geometry": {
                "type": "MultiPolygon",
                "coordinates": [
                    [
                        [
                            [
                                55.301098,
                                25.008372
                            ],
                            [
                                55.300551,
                                25.007895
                            ],
                            [
                                55.300297,
                                25.007549
                            ],
                            [
                                55.300253,
                                25.007388
                            ],
                            [
                                55.300266,
                                25.00664
                            ],
                            [
                                55.300297,
                                25.00603
                            ],
                            [
                                55.300342,
                                25.005719
                            ],
                            [
                                55.300405,
                                25.005615
                            ],
                            [
                                55.300634,
                                25.005546
                            ],
                            [
                                55.301034,
                                25.005753
                            ],
                            [
                                55.301472,
                                25.006024
                            ],
                            [
                                55.30212,
                                25.006375
                            ],
                            [
                                55.30179,
                                25.00729
                            ],
                            [
                                55.30165,
                                25.007682
                            ],
                            [
                                55.301098,
                                25.008372
                            ]
                        ]
                    ]
                ]
            }
        },
        {
            "type": "Feature",
            "properties": {
                "observation_date": "2017-09-21",
                "source": "S2A_40RCN_20170921_1_L2A_TCI",
                "sensor_name": "Sentinel-2",
                "type": "observation",
                "current_phase": "Post Construction",
                "is_occluded": "False",
                "is_site_boundary": "True",
                "score": 1.0
            },
            "geometry": {
                "type": "MultiPolygon",
                "coordinates": [
                    [
                        [
                            [
                                55.301098,
                                25.008372
                            ],
                            [
                                55.300551,
                                25.007895
                            ],
                            [
                                55.300297,
                                25.007549
                            ],
                            [
                                55.300253,
                                25.007388
                            ],
                            [
                                55.300266,
                                25.00664
                            ],
                            [
                                55.300297,
                                25.00603
                            ],
                            [
                                55.300342,
                                25.005719
                            ],
                            [
                                55.300405,
                                25.005615
                            ],
                            [
                                55.300634,
                                25.005546
                            ],
                            [
                                55.301034,
                                25.005753
                            ],
                            [
                                55.301472,
                                25.006024
                            ],
                            [
                                55.30212,
                                25.006375
                            ],
                            [
                                55.30179,
                                25.00729
                            ],
                            [
                                55.30165,
                                25.007682
                            ],
                            [
                                55.301098,
                                25.008372
                            ]
                        ]
                    ]
                ]
            }
        },
        {
            "type": "Feature",
            "properties": {
                "observation_date": "2017-10-01",
                "source": "S2A_40RCN_20171001_0_L2A_TCI",
                "sensor_name": "Sentinel-2",
                "type": "observation",
                "current_phase": "Post Construction",
                "is_occluded": "False",
                "is_site_boundary": "True",
                "score": 1.0
            },
            "geometry": {
                "type": "MultiPolygon",
                "coordinates": [
                    [
                        [
                            [
                                55.301098,
                                25.008372
                            ],
                            [
                                55.300551,
                                25.007895
                            ],
                            [
                                55.300297,
                                25.007549
                            ],
                            [
                                55.300253,
                                25.007388
                            ],
                            [
                                55.300266,
                                25.00664
                            ],
                            [
                                55.300297,
                                25.00603
                            ],
                            [
                                55.300342,
                                25.005719
                            ],
                            [
                                55.300405,
                                25.005615
                            ],
                            [
                                55.300634,
                                25.005546
                            ],
                            [
                                55.301034,
                                25.005753
                            ],
                            [
                                55.301472,
                                25.006024
                            ],
                            [
                                55.30212,
                                25.006375
                            ],
                            [
                                55.30179,
                                25.00729
                            ],
                            [
                                55.30165,
                                25.007682
                            ],
                            [
                                55.301098,
                                25.008372
                            ]
                        ]
                    ]
                ]
            }
        },
        {
            "type": "Feature",
            "properties": {
                "observation_date": "2017-10-10",
                "source": "17OCT10095421-P1BS-500836369050_01_P001",
                "sensor_name": "WorldView",
                "type": "observation",
                "current_phase": "Post Construction",
                "is_occluded": "False",
                "is_site_boundary": "True",
                "score": 1.0
            },
            "geometry": {
                "type": "MultiPolygon",
                "coordinates": [
                    [
                        [
                            [
                                55.301098,
                                25.008372
                            ],
                            [
                                55.300551,
                                25.007895
                            ],
                            [
                                55.300297,
                                25.007549
                            ],
                            [
                                55.300253,
                                25.007388
                            ],
                            [
                                55.300266,
                                25.00664
                            ],
                            [
                                55.300297,
                                25.00603
                            ],
                            [
                                55.300342,
                                25.005719
                            ],
                            [
                                55.300405,
                                25.005615
                            ],
                            [
                                55.300634,
                                25.005546
                            ],
                            [
                                55.301034,
                                25.005753
                            ],
                            [
                                55.301472,
                                25.006024
                            ],
                            [
                                55.30212,
                                25.006375
                            ],
                            [
                                55.30179,
                                25.00729
                            ],
                            [
                                55.30165,
                                25.007682
                            ],
                            [
                                55.301098,
                                25.008372
                            ]
                        ]
                    ]
                ]
            }
        },
        {
            "type": "Feature",
            "properties": {
                "observation_date": "2017-10-27",
                "source": "17OCT27095604-P1BS-501683869010_01_P001",
                "sensor_name": "WorldView",
                "type": "observation",
                "current_phase": "Post Construction",
                "is_occluded": "False",
                "is_site_boundary": "True",
                "score": 1.0
            },
            "geometry": {
                "type": "MultiPolygon",
                "coordinates": [
                    [
                        [
                            [
                                55.301098,
                                25.008372
                            ],
                            [
                                55.300551,
                                25.007895
                            ],
                            [
                                55.300297,
                                25.007549
                            ],
                            [
                                55.300253,
                                25.007388
                            ],
                            [
                                55.300266,
                                25.00664
                            ],
                            [
                                55.300297,
                                25.00603
                            ],
                            [
                                55.300342,
                                25.005719
                            ],
                            [
                                55.300405,
                                25.005615
                            ],
                            [
                                55.300634,
                                25.005546
                            ],
                            [
                                55.301034,
                                25.005753
                            ],
                            [
                                55.301472,
                                25.006024
                            ],
                            [
                                55.30212,
                                25.006375
                            ],
                            [
                                55.30179,
                                25.00729
                            ],
                            [
                                55.30165,
                                25.007682
                            ],
                            [
                                55.301098,
                                25.008372
                            ]
                        ]
                    ]
                ]
            }
        },
        {
            "type": "Feature",
            "properties": {
                "observation_date": "2017-11-15",
                "source": "S2B_40RCN_20171115_0_L2A_TCI",
                "sensor_name": "Sentinel-2",
                "type": "observation",
                "current_phase": "Post Construction",
                "is_occluded": "False",
                "is_site_boundary": "True",
                "score": 1.0
            },
            "geometry": {
                "type": "MultiPolygon",
                "coordinates": [
                    [
                        [
                            [
                                55.301098,
                                25.008372
                            ],
                            [
                                55.300551,
                                25.007895
                            ],
                            [
                                55.300297,
                                25.007549
                            ],
                            [
                                55.300253,
                                25.007388
                            ],
                            [
                                55.300266,
                                25.00664
                            ],
                            [
                                55.300297,
                                25.00603
                            ],
                            [
                                55.300342,
                                25.005719
                            ],
                            [
                                55.300405,
                                25.005615
                            ],
                            [
                                55.300634,
                                25.005546
                            ],
                            [
                                55.301034,
                                25.005753
                            ],
                            [
                                55.301472,
                                25.006024
                            ],
                            [
                                55.30212,
                                25.006375
                            ],
                            [
                                55.30179,
                                25.00729
                            ],
                            [
                                55.30165,
                                25.007682
                            ],
                            [
                                55.301098,
                                25.008372
                            ]
                        ]
                    ]
                ]
            }
        },
        {
            "type": "Feature",
            "properties": {
                "observation_date": "2017-12-15",
                "source": "S2B_40RCN_20171215_0_L2A_TCI",
                "sensor_name": "Sentinel-2",
                "type": "observation",
                "current_phase": "Post Construction",
                "is_occluded": "False",
                "is_site_boundary": "True",
                "score": 1.0
            },
            "geometry": {
                "type": "MultiPolygon",
                "coordinates": [
                    [
                        [
                            [
                                55.301098,
                                25.008372
                            ],
                            [
                                55.300551,
                                25.007895
                            ],
                            [
                                55.300297,
                                25.007549
                            ],
                            [
                                55.300253,
                                25.007388
                            ],
                            [
                                55.300266,
                                25.00664
                            ],
                            [
                                55.300297,
                                25.00603
                            ],
                            [
                                55.300342,
                                25.005719
                            ],
                            [
                                55.300405,
                                25.005615
                            ],
                            [
                                55.300634,
                                25.005546
                            ],
                            [
                                55.301034,
                                25.005753
                            ],
                            [
                                55.301472,
                                25.006024
                            ],
                            [
                                55.30212,
                                25.006375
                            ],
                            [
                                55.30179,
                                25.00729
                            ],
                            [
                                55.30165,
                                25.007682
                            ],
                            [
                                55.301098,
                                25.008372
                            ]
                        ]
                    ]
                ]
            }
        },
        {
            "type": "Feature",
            "properties": {
                "observation_date": "2017-12-30",
                "source": "17DEC30095332-P1BS-501824017010_01_P001",
                "sensor_name": "WorldView",
                "type": "observation",
                "current_phase": "Post Construction",
                "is_occluded": "False",
                "is_site_boundary": "True",
                "score": 1.0
            },
            "geometry": {
                "type": "MultiPolygon",
                "coordinates": [
                    [
                        [
                            [
                                55.301098,
                                25.008372
                            ],
                            [
                                55.300551,
                                25.007895
                            ],
                            [
                                55.300297,
                                25.007549
                            ],
                            [
                                55.300253,
                                25.007388
                            ],
                            [
                                55.300266,
                                25.00664
                            ],
                            [
                                55.300297,
                                25.00603
                            ],
                            [
                                55.300342,
                                25.005719
                            ],
                            [
                                55.300405,
                                25.005615
                            ],
                            [
                                55.300634,
                                25.005546
                            ],
                            [
                                55.301034,
                                25.005753
                            ],
                            [
                                55.301472,
                                25.006024
                            ],
                            [
                                55.30212,
                                25.006375
                            ],
                            [
                                55.30179,
                                25.00729
                            ],
                            [
                                55.30165,
                                25.007682
                            ],
                            [
                                55.301098,
                                25.008372
                            ]
                        ]
                    ]
                ]
            }
        },
        {
            "type": "Feature",
            "properties": {
                "observation_date": "2018-01-14",
                "source": "S2B_40RCN_20180114_0_L2A_TCI",
                "sensor_name": "Sentinel-2",
                "type": "observation",
                "current_phase": "Post Construction",
                "is_occluded": "False",
                "is_site_boundary": "True",
                "score": 1.0
            },
            "geometry": {
                "type": "MultiPolygon",
                "coordinates": [
                    [
                        [
                            [
                                55.301098,
                                25.008372
                            ],
                            [
                                55.300551,
                                25.007895
                            ],
                            [
                                55.300297,
                                25.007549
                            ],
                            [
                                55.300253,
                                25.007388
                            ],
                            [
                                55.300266,
                                25.00664
                            ],
                            [
                                55.300297,
                                25.00603
                            ],
                            [
                                55.300342,
                                25.005719
                            ],
                            [
                                55.300405,
                                25.005615
                            ],
                            [
                                55.300634,
                                25.005546
                            ],
                            [
                                55.301034,
                                25.005753
                            ],
                            [
                                55.301472,
                                25.006024
                            ],
                            [
                                55.30212,
                                25.006375
                            ],
                            [
                                55.30179,
                                25.00729
                            ],
                            [
                                55.30165,
                                25.007682
                            ],
                            [
                                55.301098,
                                25.008372
                            ]
                        ]
                    ]
                ]
            }
        },
        {
            "type": "Feature",
            "properties": {
                "observation_date": "2018-02-08",
                "source": "S2A_40RCN_20180208_0_L2A_TCI",
                "sensor_name": "Sentinel-2",
                "type": "observation",
                "current_phase": "Post Construction",
                "is_occluded": "False",
                "is_site_boundary": "True",
                "score": 1.0
            },
            "geometry": {
                "type": "MultiPolygon",
                "coordinates": [
                    [
                        [
                            [
                                55.301098,
                                25.008372
                            ],
                            [
                                55.300551,
                                25.007895
                            ],
                            [
                                55.300297,
                                25.007549
                            ],
                            [
                                55.300253,
                                25.007388
                            ],
                            [
                                55.300266,
                                25.00664
                            ],
                            [
                                55.300297,
                                25.00603
                            ],
                            [
                                55.300342,
                                25.005719
                            ],
                            [
                                55.300405,
                                25.005615
                            ],
                            [
                                55.300634,
                                25.005546
                            ],
                            [
                                55.301034,
                                25.005753
                            ],
                            [
                                55.301472,
                                25.006024
                            ],
                            [
                                55.30212,
                                25.006375
                            ],
                            [
                                55.30179,
                                25.00729
                            ],
                            [
                                55.30165,
                                25.007682
                            ],
                            [
                                55.301098,
                                25.008372
                            ]
                        ]
                    ]
                ]
            }
        },
        {
            "type": "Feature",
            "properties": {
                "observation_date": "2018-04-08",
                "source": "18APR08071429-M1BS-014858888010_01_P004",
                "sensor_name": "WorldView",
                "type": "observation",
                "current_phase": "Post Construction",
                "is_occluded": "False",
                "is_site_boundary": "True",
                "score": 1.0
            },
            "geometry": {
                "type": "MultiPolygon",
                "coordinates": [
                    [
                        [
                            [
                                55.301098,
                                25.008372
                            ],
                            [
                                55.300551,
                                25.007895
                            ],
                            [
                                55.300297,
                                25.007549
                            ],
                            [
                                55.300253,
                                25.007388
                            ],
                            [
                                55.300266,
                                25.00664
                            ],
                            [
                                55.300297,
                                25.00603
                            ],
                            [
                                55.300342,
                                25.005719
                            ],
                            [
                                55.300405,
                                25.005615
                            ],
                            [
                                55.300634,
                                25.005546
                            ],
                            [
                                55.301034,
                                25.005753
                            ],
                            [
                                55.301472,
                                25.006024
                            ],
                            [
                                55.30212,
                                25.006375
                            ],
                            [
                                55.30179,
                                25.00729
                            ],
                            [
                                55.30165,
                                25.007682
                            ],
                            [
                                55.301098,
                                25.008372
                            ]
                        ]
                    ]
                ]
            }
        },
        {
            "type": "Feature",
            "properties": {
                "observation_date": "2018-05-04",
                "source": "S2B_40RCN_20180504_0_L2A_TCI",
                "sensor_name": "Sentinel-2",
                "type": "observation",
                "current_phase": "Post Construction",
                "is_occluded": "False",
                "is_site_boundary": "True",
                "score": 1.0
            },
            "geometry": {
                "type": "MultiPolygon",
                "coordinates": [
                    [
                        [
                            [
                                55.301098,
                                25.008372
                            ],
                            [
                                55.300551,
                                25.007895
                            ],
                            [
                                55.300297,
                                25.007549
                            ],
                            [
                                55.300253,
                                25.007388
                            ],
                            [
                                55.300266,
                                25.00664
                            ],
                            [
                                55.300297,
                                25.00603
                            ],
                            [
                                55.300342,
                                25.005719
                            ],
                            [
                                55.300405,
                                25.005615
                            ],
                            [
                                55.300634,
                                25.005546
                            ],
                            [
                                55.301034,
                                25.005753
                            ],
                            [
                                55.301472,
                                25.006024
                            ],
                            [
                                55.30212,
                                25.006375
                            ],
                            [
                                55.30179,
                                25.00729
                            ],
                            [
                                55.30165,
                                25.007682
                            ],
                            [
                                55.301098,
                                25.008372
                            ]
                        ]
                    ]
                ]
            }
        },
        {
            "type": "Feature",
            "properties": {
                "observation_date": "2018-07-23",
                "source": "S2B_40RCN_20180723_0_L2A_TCI",
                "sensor_name": "Sentinel-2",
                "type": "observation",
                "current_phase": "Post Construction",
                "is_occluded": "False",
                "is_site_boundary": "True",
                "score": 1.0
            },
            "geometry": {
                "type": "MultiPolygon",
                "coordinates": [
                    [
                        [
                            [
                                55.301098,
                                25.008372
                            ],
                            [
                                55.300551,
                                25.007895
                            ],
                            [
                                55.300297,
                                25.007549
                            ],
                            [
                                55.300253,
                                25.007388
                            ],
                            [
                                55.300266,
                                25.00664
                            ],
                            [
                                55.300297,
                                25.00603
                            ],
                            [
                                55.300342,
                                25.005719
                            ],
                            [
                                55.300405,
                                25.005615
                            ],
                            [
                                55.300634,
                                25.005546
                            ],
                            [
                                55.301034,
                                25.005753
                            ],
                            [
                                55.301472,
                                25.006024
                            ],
                            [
                                55.30212,
                                25.006375
                            ],
                            [
                                55.30179,
                                25.00729
                            ],
                            [
                                55.30165,
                                25.007682
                            ],
                            [
                                55.301098,
                                25.008372
                            ]
                        ]
                    ]
                ]
            }
        }
    ]
}