{
    "type": "FeatureCollection",
    "features": [
        {
            "type": "Feature",
            "properties": {
                "type": "site",
                "region_id": "AE_R002",
                "site_id": "AE_R002_0267",
                "version": "2.0.0",
                "status": "positive_pending",
                "mgrs": "40RCN",
                "score": 1.0,
                "start_date": "2016-08-07",
                "end_date": null,
                "model_content": "annotation",
                "originator": "te",
                "validated": "False",
                "misc_info": {
                    "commit_hash": "824fac44479e0c34c554c214480da6d4c14a319e"
                }
            },
            "geometry": {
                "type": "Polygon",
                "coordinates": [
                    [
                        [
                            55.363285,
                            25.115942
                        ],
                        [
                            55.363411,
                            25.1167
                        ],
                        [
                            55.366134,
                            25.116475
                        ],
                        [
                            55.366945,
                            25.115297
                        ],
                        [
                            55.366575,
                            25.114962
                        ],
                        [
                            55.365927,
                            25.115086
                        ],
                        [
                            55.36574,
                            25.115243
                        ],
                        [
                            55.365097,
                            25.115238
                        ],
                        [
                            55.363905,
                            25.115327
                        ],
                        [
                            55.363952,
                            25.115885
                        ],
                        [
                            55.363285,
                            25.115942
                        ]
                    ]
                ]
            }
        },
        {
            "type": "Feature",
            "properties": {
                "observation_date": "2016-08-07",
                "source": null,
                "sensor_name": null,
                "type": "observation",
                "current_phase": null,
                "is_occluded": null,
                "is_site_boundary": null,
                "score": 1.0
            },
            "geometry": {
                "type": "MultiPolygon",
                "coordinates": [
                    [
                        [
                            [
                                55.363285,
                                25.115942
                            ],
                            [
                                55.363411,
                                25.1167
                            ],
                            [
                                55.366134,
                                25.116475
                            ],
                            [
                                55.366945,
                                25.115297
                            ],
                            [
                                55.366575,
                                25.114962
                            ],
                            [
                                55.365927,
                                25.115086
                            ],
                            [
                                55.36574,
                                25.115243
                            ],
                            [
                                55.365097,
                                25.115238
                            ],
                            [
                                55.363905,
                                25.115327
                            ],
                            [
                                55.363952,
                                25.115885
                            ],
                            [
                                55.363285,
                                25.115942
                            ]
                        ]
                    ]
                ]
            }
        },
        {
            "type": "Feature",
            "properties": {
                "observation_date": null,
                "source": null,
                "sensor_name": null,
                "type": "observation",
                "current_phase": null,
                "is_occluded": null,
                "is_site_boundary": null,
                "score": 1.0
            },
            "geometry": {
                "type": "MultiPolygon",
                "coordinates": [
                    [
                        [
                            [
                                55.363285,
                                25.115942
                            ],
                            [
                                55.363411,
                                25.1167
                            ],
                            [
                                55.366134,
                                25.116475
                            ],
                            [
                                55.366945,
                                25.115297
                            ],
                            [
                                55.366575,
                                25.114962
                            ],
                            [
                                55.365927,
                                25.115086
                            ],
                            [
                                55.36574,
                                25.115243
                            ],
                            [
                                55.365097,
                                25.115238
                            ],
                            [
                                55.363905,
                                25.115327
                            ],
                            [
                                55.363952,
                                25.115885
                            ],
                            [
                                55.363285,
                                25.115942
                            ]
                        ]
                    ]
                ]
            }
        }
    ]
}