{
    "type": "FeatureCollection",
    "features": [
        {
            "type": "Feature",
            "properties": {
                "type": "site",
                "region_id": "AE_R002",
                "site_id": "AE_R002_0243",
                "version": "2.0.0",
                "status": "positive_pending",
                "mgrs": "40RCN",
                "score": 1.0,
                "start_date": "2013-10-01",
                "end_date": null,
                "model_content": "annotation",
                "originator": "te",
                "validated": "False",
                "misc_info": {
                    "commit_hash": "824fac44479e0c34c554c214480da6d4c14a319e"
                }
            },
            "geometry": {
                "type": "Polygon",
                "coordinates": [
                    [
                        [
                            55.33148,
                            25.08936
                        ],
                        [
                            55.327602,
                            25.089353
                        ],
                        [
                            55.327496,
                            25.08924
                        ],
                        [
                            55.32746,
                            25.088813
                        ],
                        [
                            55.327305,
                            25.088094
                        ],
                        [
                            55.327073,
                            25.087419
                        ],
                        [
                            55.327103,
                            25.087253
                        ],
                        [
                            55.327174,
                            25.087136
                        ],
                        [
                            55.330544,
                            25.085684
                        ],
                        [
                            55.33148,
                            25.08936
                        ]
                    ]
                ]
            }
        },
        {
            "type": "Feature",
            "properties": {
                "observation_date": "2013-10-01",
                "source": null,
                "sensor_name": null,
                "type": "observation",
                "current_phase": null,
                "is_occluded": null,
                "is_site_boundary": null,
                "score": 1.0
            },
            "geometry": {
                "type": "MultiPolygon",
                "coordinates": [
                    [
                        [
                            [
                                55.33148,
                                25.08936
                            ],
                            [
                                55.327602,
                                25.089353
                            ],
                            [
                                55.327496,
                                25.08924
                            ],
                            [
                                55.32746,
                                25.088813
                            ],
                            [
                                55.327305,
                                25.088094
                            ],
                            [
                                55.327073,
                                25.087419
                            ],
                            [
                                55.327103,
                                25.087253
                            ],
                            [
                                55.327174,
                                25.087136
                            ],
                            [
                                55.330544,
                                25.085684
                            ],
                            [
                                55.33148,
                                25.08936
                            ]
                        ]
                    ]
                ]
            }
        },
        {
            "type": "Feature",
            "properties": {
                "observation_date": null,
                "source": null,
                "sensor_name": null,
                "type": "observation",
                "current_phase": null,
                "is_occluded": null,
                "is_site_boundary": null,
                "score": 1.0
            },
            "geometry": {
                "type": "MultiPolygon",
                "coordinates": [
                    [
                        [
                            [
                                55.33148,
                                25.08936
                            ],
                            [
                                55.327602,
                                25.089353
                            ],
                            [
                                55.327496,
                                25.08924
                            ],
                            [
                                55.32746,
                                25.088813
                            ],
                            [
                                55.327305,
                                25.088094
                            ],
                            [
                                55.327073,
                                25.087419
                            ],
                            [
                                55.327103,
                                25.087253
                            ],
                            [
                                55.327174,
                                25.087136
                            ],
                            [
                                55.330544,
                                25.085684
                            ],
                            [
                                55.33148,
                                25.08936
                            ]
                        ]
                    ]
                ]
            }
        }
    ]
}