{
    "type": "FeatureCollection",
    "features": [
        {
            "type": "Feature",
            "properties": {
                "type": "site",
                "region_id": "AE_R001",
                "site_id": "AE_R001_0486",
                "version": "2.0.0",
                "status": "positive_pending",
                "mgrs": "40RCN",
                "score": 1.0,
                "start_date": "2014-07-06",
                "end_date": "2016-08-18",
                "model_content": "annotation",
                "originator": "te",
                "validated": "True",
                "misc_info": {
                    "commit_hash": "8e2cc701facd37559ed12647d70a5e5b3622c6ca"
                }
            },
            "geometry": {
                "type": "Polygon",
                "coordinates": [
                    [
                        [
                            55.101961,
                            24.925735
                        ],
                        [
                            55.104159,
                            24.928358
                        ],
                        [
                            55.105895,
                            24.927187
                        ],
                        [
                            55.105144,
                            24.92618
                        ],
                        [
                            55.104795,
                            24.925947
                        ],
                        [
                            55.103676,
                            24.925816
                        ],
                        [
                            55.101961,
                            24.925735
                        ]
                    ]
                ]
            }
        },
        {
            "type": "Feature",
            "properties": {
                "observation_date": "2014-07-06",
                "source": null,
                "sensor_name": null,
                "type": "observation",
                "current_phase": null,
                "is_occluded": null,
                "is_site_boundary": null,
                "score": 1.0
            },
            "geometry": {
                "type": "MultiPolygon",
                "coordinates": [
                    [
                        [
                            [
                                55.101961,
                                24.925735
                            ],
                            [
                                55.104159,
                                24.928358
                            ],
                            [
                                55.105895,
                                24.927187
                            ],
                            [
                                55.105144,
                                24.92618
                            ],
                            [
                                55.104795,
                                24.925947
                            ],
                            [
                                55.103676,
                                24.925816
                            ],
                            [
                                55.101961,
                                24.925735
                            ]
                        ]
                    ]
                ]
            }
        },
        {
            "type": "Feature",
            "properties": {
                "observation_date": "2016-08-18",
                "source": null,
                "sensor_name": null,
                "type": "observation",
                "current_phase": null,
                "is_occluded": null,
                "is_site_boundary": null,
                "score": 1.0
            },
            "geometry": {
                "type": "MultiPolygon",
                "coordinates": [
                    [
                        [
                            [
                                55.101961,
                                24.925735
                            ],
                            [
                                55.104159,
                                24.928358
                            ],
                            [
                                55.105895,
                                24.927187
                            ],
                            [
                                55.105144,
                                24.92618
                            ],
                            [
                                55.104795,
                                24.925947
                            ],
                            [
                                55.103676,
                                24.925816
                            ],
                            [
                                55.101961,
                                24.925735
                            ]
                        ]
                    ]
                ]
            }
        }
    ]
}