{
    "type": "FeatureCollection",
    "features": [
        {
            "type": "Feature",
            "properties": {
                "type": "site",
                "region_id": "AE_R001",
                "site_id": "AE_R001_0421",
                "version": "2.0.0",
                "status": "positive_pending",
                "mgrs": "40RCN",
                "score": 1.0,
                "start_date": "2015-04-27",
                "end_date": "2017-03-30",
                "model_content": "annotation",
                "originator": "te",
                "validated": "True",
                "misc_info": {
                    "commit_hash": "8e2cc701facd37559ed12647d70a5e5b3622c6ca"
                }
            },
            "geometry": {
                "type": "Polygon",
                "coordinates": [
                    [
                        [
                            55.128063,
                            24.969714
                        ],
                        [
                            55.128814,
                            24.971318
                        ],
                        [
                            55.129516,
                            24.970991
                        ],
                        [
                            55.128812,
                            24.969401
                        ],
                        [
                            55.128063,
                            24.969714
                        ]
                    ]
                ]
            }
        },
        {
            "type": "Feature",
            "properties": {
                "observation_date": "2015-04-27",
                "source": null,
                "sensor_name": null,
                "type": "observation",
                "current_phase": null,
                "is_occluded": null,
                "is_site_boundary": null,
                "score": 1.0
            },
            "geometry": {
                "type": "MultiPolygon",
                "coordinates": [
                    [
                        [
                            [
                                55.128063,
                                24.969714
                            ],
                            [
                                55.128814,
                                24.971318
                            ],
                            [
                                55.129516,
                                24.970991
                            ],
                            [
                                55.128812,
                                24.969401
                            ],
                            [
                                55.128063,
                                24.969714
                            ]
                        ]
                    ]
                ]
            }
        },
        {
            "type": "Feature",
            "properties": {
                "observation_date": "2017-03-30",
                "source": null,
                "sensor_name": null,
                "type": "observation",
                "current_phase": null,
                "is_occluded": null,
                "is_site_boundary": null,
                "score": 1.0
            },
            "geometry": {
                "type": "MultiPolygon",
                "coordinates": [
                    [
                        [
                            [
                                55.128063,
                                24.969714
                            ],
                            [
                                55.128814,
                                24.971318
                            ],
                            [
                                55.129516,
                                24.970991
                            ],
                            [
                                55.128812,
                                24.969401
                            ],
                            [
                                55.128063,
                                24.969714
                            ]
                        ]
                    ]
                ]
            }
        }
    ]
}