{
    "type": "FeatureCollection",
    "features": [
        {
            "type": "Feature",
            "properties": {
                "type": "site",
                "region_id": "BH_R001",
                "site_id": "BH_R001_0064",
                "version": "2.0.0",
                "status": "positive_excluded",
                "mgrs": "39RVK",
                "score": 1.0,
                "start_date": "2014-04-05",
                "end_date": "2015-11-28",
                "model_content": "annotation",
                "originator": "te",
                "validated": "True",
                "misc_info": {
                    "commit_hash": "8e2cc701facd37559ed12647d70a5e5b3622c6ca"
                }
            },
            "geometry": {
                "type": "Polygon",
                "coordinates": [
                    [
                        [
                            50.612269,
                            26.243862
                        ],
                        [
                            50.612153,
                            26.243742
                        ],
                        [
                            50.612257,
                            26.243526
                        ],
                        [
                            50.612752,
                            26.243664
                        ],
                        [
                            50.612631,
                            26.243875
                        ],
                        [
                            50.612832,
                            26.243933
                        ],
                        [
                            50.612744,
                            26.244248
                        ],
                        [
                            50.612226,
                            26.244258
                        ],
                        [
                            50.612077,
                            26.244077
                        ],
                        [
                            50.612269,
                            26.243862
                        ]
                    ]
                ]
            }
        },
        {
            "type": "Feature",
            "properties": {
                "observation_date": "2014-04-05",
                "source": null,
                "sensor_name": null,
                "type": "observation",
                "current_phase": null,
                "is_occluded": null,
                "is_site_boundary": null,
                "score": 1.0
            },
            "geometry": {
                "type": "MultiPolygon",
                "coordinates": [
                    [
                        [
                            [
                                50.612269,
                                26.243862
                            ],
                            [
                                50.612153,
                                26.243742
                            ],
                            [
                                50.612257,
                                26.243526
                            ],
                            [
                                50.612752,
                                26.243664
                            ],
                            [
                                50.612631,
                                26.243875
                            ],
                            [
                                50.612832,
                                26.243933
                            ],
                            [
                                50.612744,
                                26.244248
                            ],
                            [
                                50.612226,
                                26.244258
                            ],
                            [
                                50.612077,
                                26.244077
                            ],
                            [
                                50.612269,
                                26.243862
                            ]
                        ]
                    ]
                ]
            }
        },
        {
            "type": "Feature",
            "properties": {
                "observation_date": "2015-11-28",
                "source": null,
                "sensor_name": null,
                "type": "observation",
                "current_phase": null,
                "is_occluded": null,
                "is_site_boundary": null,
                "score": 1.0
            },
            "geometry": {
                "type": "MultiPolygon",
                "coordinates": [
                    [
                        [
                            [
                                50.612269,
                                26.243862
                            ],
                            [
                                50.612153,
                                26.243742
                            ],
                            [
                                50.612257,
                                26.243526
                            ],
                            [
                                50.612752,
                                26.243664
                            ],
                            [
                                50.612631,
                                26.243875
                            ],
                            [
                                50.612832,
                                26.243933
                            ],
                            [
                                50.612744,
                                26.244248
                            ],
                            [
                                50.612226,
                                26.244258
                            ],
                            [
                                50.612077,
                                26.244077
                            ],
                            [
                                50.612269,
                                26.243862
                            ]
                        ]
                    ]
                ]
            }
        }
    ]
}