{
    "type": "FeatureCollection",
    "features": [
        {
            "type": "Feature",
            "properties": {
                "type": "site",
                "region_id": "BH_R001",
                "site_id": "BH_R001_0067",
                "version": "2.0.0",
                "status": "positive_pending",
                "mgrs": "39RVK",
                "score": 1.0,
                "start_date": "2015-07-11",
                "end_date": "2018-08-27",
                "model_content": "annotation",
                "originator": "te",
                "validated": "True",
                "misc_info": {
                    "commit_hash": "8e2cc701facd37559ed12647d70a5e5b3622c6ca"
                }
            },
            "geometry": {
                "type": "Polygon",
                "coordinates": [
                    [
                        [
                            50.634636,
                            26.274657
                        ],
                        [
                            50.634393,
                            26.274282
                        ],
                        [
                            50.634957,
                            26.273905
                        ],
                        [
                            50.634127,
                            26.272641
                        ],
                        [
                            50.63392,
                            26.2726
                        ],
                        [
                            50.631957,
                            26.273722
                        ],
                        [
                            50.634636,
                            26.274657
                        ]
                    ]
                ]
            }
        },
        {
            "type": "Feature",
            "properties": {
                "observation_date": "2015-07-11",
                "source": null,
                "sensor_name": null,
                "type": "observation",
                "current_phase": null,
                "is_occluded": null,
                "is_site_boundary": null,
                "score": 1.0
            },
            "geometry": {
                "type": "MultiPolygon",
                "coordinates": [
                    [
                        [
                            [
                                50.634636,
                                26.274657
                            ],
                            [
                                50.634393,
                                26.274282
                            ],
                            [
                                50.634957,
                                26.273905
                            ],
                            [
                                50.634127,
                                26.272641
                            ],
                            [
                                50.63392,
                                26.2726
                            ],
                            [
                                50.631957,
                                26.273722
                            ],
                            [
                                50.634636,
                                26.274657
                            ]
                        ]
                    ]
                ]
            }
        },
        {
            "type": "Feature",
            "properties": {
                "observation_date": "2018-08-27",
                "source": null,
                "sensor_name": null,
                "type": "observation",
                "current_phase": null,
                "is_occluded": null,
                "is_site_boundary": null,
                "score": 1.0
            },
            "geometry": {
                "type": "MultiPolygon",
                "coordinates": [
                    [
                        [
                            [
                                50.634636,
                                26.274657
                            ],
                            [
                                50.634393,
                                26.274282
                            ],
                            [
                                50.634957,
                                26.273905
                            ],
                            [
                                50.634127,
                                26.272641
                            ],
                            [
                                50.63392,
                                26.2726
                            ],
                            [
                                50.631957,
                                26.273722
                            ],
                            [
                                50.634636,
                                26.274657
                            ]
                        ]
                    ]
                ]
            }
        }
    ]
}