{
    "type": "FeatureCollection",
    "features": [
        {
            "type": "Feature",
            "properties": {
                "type": "site",
                "region_id": "BH_R001",
                "site_id": "BH_R001_0061",
                "version": "2.0.0",
                "status": "positive_pending",
                "mgrs": "39RVK",
                "score": 1.0,
                "start_date": "2016-08-16",
                "end_date": "2020-02-15",
                "model_content": "annotation",
                "originator": "te",
                "validated": "True",
                "misc_info": {
                    "commit_hash": "8e2cc701facd37559ed12647d70a5e5b3622c6ca"
                }
            },
            "geometry": {
                "type": "Polygon",
                "coordinates": [
                    [
                        [
                            50.60442,
                            26.248669
                        ],
                        [
                            50.604866,
                            26.249135
                        ],
                        [
                            50.605112,
                            26.249212
                        ],
                        [
                            50.605509,
                            26.249184
                        ],
                        [
                            50.605858,
                            26.249041
                        ],
                        [
                            50.606365,
                            26.24868
                        ],
                        [
                            50.606862,
                            26.248105
                        ],
                        [
                            50.606999,
                            26.247841
                        ],
                        [
                            50.606177,
                            26.247309
                        ],
                        [
                            50.605038,
                            26.248009
                        ],
                        [
                            50.604734,
                            26.248027
                        ],
                        [
                            50.604467,
                            26.248445
                        ],
                        [
                            50.60442,
                            26.248669
                        ]
                    ]
                ]
            }
        },
        {
            "type": "Feature",
            "properties": {
                "observation_date": "2016-08-16",
                "source": null,
                "sensor_name": null,
                "type": "observation",
                "current_phase": null,
                "is_occluded": null,
                "is_site_boundary": null,
                "score": 1.0
            },
            "geometry": {
                "type": "MultiPolygon",
                "coordinates": [
                    [
                        [
                            [
                                50.60442,
                                26.248669
                            ],
                            [
                                50.604866,
                                26.249135
                            ],
                            [
                                50.605112,
                                26.249212
                            ],
                            [
                                50.605509,
                                26.249184
                            ],
                            [
                                50.605858,
                                26.249041
                            ],
                            [
                                50.606365,
                                26.24868
                            ],
                            [
                                50.606862,
                                26.248105
                            ],
                            [
                                50.606999,
                                26.247841
                            ],
                            [
                                50.606177,
                                26.247309
                            ],
                            [
                                50.605038,
                                26.248009
                            ],
                            [
                                50.604734,
                                26.248027
                            ],
                            [
                                50.604467,
                                26.248445
                            ],
                            [
                                50.60442,
                                26.248669
                            ]
                        ]
                    ]
                ]
            }
        },
        {
            "type": "Feature",
            "properties": {
                "observation_date": "2020-02-15",
                "source": null,
                "sensor_name": null,
                "type": "observation",
                "current_phase": null,
                "is_occluded": null,
                "is_site_boundary": null,
                "score": 1.0
            },
            "geometry": {
                "type": "MultiPolygon",
                "coordinates": [
                    [
                        [
                            [
                                50.60442,
                                26.248669
                            ],
                            [
                                50.604866,
                                26.249135
                            ],
                            [
                                50.605112,
                                26.249212
                            ],
                            [
                                50.605509,
                                26.249184
                            ],
                            [
                                50.605858,
                                26.249041
                            ],
                            [
                                50.606365,
                                26.24868
                            ],
                            [
                                50.606862,
                                26.248105
                            ],
                            [
                                50.606999,
                                26.247841
                            ],
                            [
                                50.606177,
                                26.247309
                            ],
                            [
                                50.605038,
                                26.248009
                            ],
                            [
                                50.604734,
                                26.248027
                            ],
                            [
                                50.604467,
                                26.248445
                            ],
                            [
                                50.60442,
                                26.248669
                            ]
                        ]
                    ]
                ]
            }
        }
    ]
}