{
    "type": "FeatureCollection",
    "features": [
        {
            "type": "Feature",
            "properties": {
                "type": "site",
                "region_id": "BR_R005",
                "site_id": "BR_R005_0158",
                "version": "2.0.0",
                "status": "positive_pending",
                "mgrs": "23KLQ",
                "score": 1.0,
                "start_date": "2014-02-03",
                "end_date": "2016-06-15",
                "model_content": "annotation",
                "originator": "te",
                "validated": "True",
                "misc_info": {
                    "commit_hash": "8e2cc701facd37559ed12647d70a5e5b3622c6ca"
                }
            },
            "geometry": {
                "type": "Polygon",
                "coordinates": [
                    [
                        [
                            -46.373698,
                            -23.422193
                        ],
                        [
                            -46.372232,
                            -23.422459
                        ],
                        [
                            -46.372422,
                            -23.423189
                        ],
                        [
                            -46.373721,
                            -23.422985
                        ],
                        [
                            -46.373643,
                            -23.422661
                        ],
                        [
                            -46.373738,
                            -23.422398
                        ],
                        [
                            -46.373698,
                            -23.422193
                        ]
                    ]
                ]
            }
        },
        {
            "type": "Feature",
            "properties": {
                "observation_date": "2014-02-03",
                "source": null,
                "sensor_name": null,
                "type": "observation",
                "current_phase": null,
                "is_occluded": null,
                "is_site_boundary": null,
                "score": 1.0
            },
            "geometry": {
                "type": "MultiPolygon",
                "coordinates": [
                    [
                        [
                            [
                                -46.373698,
                                -23.422193
                            ],
                            [
                                -46.372232,
                                -23.422459
                            ],
                            [
                                -46.372422,
                                -23.423189
                            ],
                            [
                                -46.373721,
                                -23.422985
                            ],
                            [
                                -46.373643,
                                -23.422661
                            ],
                            [
                                -46.373738,
                                -23.422398
                            ],
                            [
                                -46.373698,
                                -23.422193
                            ]
                        ]
                    ]
                ]
            }
        },
        {
            "type": "Feature",
            "properties": {
                "observation_date": "2016-06-15",
                "source": null,
                "sensor_name": null,
                "type": "observation",
                "current_phase": null,
                "is_occluded": null,
                "is_site_boundary": null,
                "score": 1.0
            },
            "geometry": {
                "type": "MultiPolygon",
                "coordinates": [
                    [
                        [
                            [
                                -46.373698,
                                -23.422193
                            ],
                            [
                                -46.372232,
                                -23.422459
                            ],
                            [
                                -46.372422,
                                -23.423189
                            ],
                            [
                                -46.373721,
                                -23.422985
                            ],
                            [
                                -46.373643,
                                -23.422661
                            ],
                            [
                                -46.373738,
                                -23.422398
                            ],
                            [
                                -46.373698,
                                -23.422193
                            ]
                        ]
                    ]
                ]
            }
        }
    ]
}