{
    "type": "FeatureCollection",
    "features": [
        {
            "type": "Feature",
            "properties": {
                "type": "site",
                "region_id": "BR_R005",
                "site_id": "BR_R005_0178",
                "version": "2.0.0",
                "status": "positive_excluded",
                "mgrs": "23KLQ",
                "score": 1.0,
                "start_date": "2019-09-06",
                "end_date": "2020-01-26",
                "model_content": "annotation",
                "originator": "te",
                "validated": "True",
                "misc_info": {
                    "commit_hash": "8e2cc701facd37559ed12647d70a5e5b3622c6ca"
                }
            },
            "geometry": {
                "type": "Polygon",
                "coordinates": [
                    [
                        [
                            -46.490136,
                            -23.446703
                        ],
                        [
                            -46.49054,
                            -23.446359
                        ],
                        [
                            -46.490648,
                            -23.446479
                        ],
                        [
                            -46.490333,
                            -23.446733
                        ],
                        [
                            -46.490634,
                            -23.447055
                        ],
                        [
                            -46.490515,
                            -23.447187
                        ],
                        [
                            -46.490387,
                            -23.447081
                        ],
                        [
                            -46.490211,
                            -23.447222
                        ],
                        [
                            -46.489821,
                            -23.447779
                        ],
                        [
                            -46.489487,
                            -23.447436
                        ],
                        [
                            -46.489946,
                            -23.447045
                        ],
                        [
                            -46.490093,
                            -23.447186
                        ],
                        [
                            -46.490387,
                            -23.446955
                        ],
                        [
                            -46.490136,
                            -23.446703
                        ]
                    ]
                ]
            }
        },
        {
            "type": "Feature",
            "properties": {
                "observation_date": "2019-09-06",
                "source": null,
                "sensor_name": null,
                "type": "observation",
                "current_phase": null,
                "is_occluded": null,
                "is_site_boundary": null,
                "score": 1.0
            },
            "geometry": {
                "type": "MultiPolygon",
                "coordinates": [
                    [
                        [
                            [
                                -46.490136,
                                -23.446703
                            ],
                            [
                                -46.49054,
                                -23.446359
                            ],
                            [
                                -46.490648,
                                -23.446479
                            ],
                            [
                                -46.490333,
                                -23.446733
                            ],
                            [
                                -46.490634,
                                -23.447055
                            ],
                            [
                                -46.490515,
                                -23.447187
                            ],
                            [
                                -46.490387,
                                -23.447081
                            ],
                            [
                                -46.490211,
                                -23.447222
                            ],
                            [
                                -46.489821,
                                -23.447779
                            ],
                            [
                                -46.489487,
                                -23.447436
                            ],
                            [
                                -46.489946,
                                -23.447045
                            ],
                            [
                                -46.490093,
                                -23.447186
                            ],
                            [
                                -46.490387,
                                -23.446955
                            ],
                            [
                                -46.490136,
                                -23.446703
                            ]
                        ]
                    ]
                ]
            }
        },
        {
            "type": "Feature",
            "properties": {
                "observation_date": "2020-01-26",
                "source": null,
                "sensor_name": null,
                "type": "observation",
                "current_phase": null,
                "is_occluded": null,
                "is_site_boundary": null,
                "score": 1.0
            },
            "geometry": {
                "type": "MultiPolygon",
                "coordinates": [
                    [
                        [
                            [
                                -46.490136,
                                -23.446703
                            ],
                            [
                                -46.49054,
                                -23.446359
                            ],
                            [
                                -46.490648,
                                -23.446479
                            ],
                            [
                                -46.490333,
                                -23.446733
                            ],
                            [
                                -46.490634,
                                -23.447055
                            ],
                            [
                                -46.490515,
                                -23.447187
                            ],
                            [
                                -46.490387,
                                -23.447081
                            ],
                            [
                                -46.490211,
                                -23.447222
                            ],
                            [
                                -46.489821,
                                -23.447779
                            ],
                            [
                                -46.489487,
                                -23.447436
                            ],
                            [
                                -46.489946,
                                -23.447045
                            ],
                            [
                                -46.490093,
                                -23.447186
                            ],
                            [
                                -46.490387,
                                -23.446955
                            ],
                            [
                                -46.490136,
                                -23.446703
                            ]
                        ]
                    ]
                ]
            }
        }
    ]
}