{
    "type": "FeatureCollection",
    "features": [
        {
            "type": "Feature",
            "properties": {
                "type": "site",
                "region_id": "BR_R005",
                "site_id": "BR_R005_0186",
                "version": "2.0.0",
                "status": "positive_pending",
                "mgrs": "23KLQ",
                "score": 1.0,
                "start_date": "2013-09-26",
                "end_date": "2018-01-22",
                "model_content": "annotation",
                "originator": "te",
                "validated": "True",
                "misc_info": {
                    "commit_hash": "8e2cc701facd37559ed12647d70a5e5b3622c6ca"
                }
            },
            "geometry": {
                "type": "Polygon",
                "coordinates": [
                    [
                        [
                            -46.369393,
                            -23.425629
                        ],
                        [
                            -46.367713,
                            -23.425689
                        ],
                        [
                            -46.367594,
                            -23.42613
                        ],
                        [
                            -46.368965,
                            -23.426071
                        ],
                        [
                            -46.369003,
                            -23.426228
                        ],
                        [
                            -46.36945,
                            -23.426194
                        ],
                        [
                            -46.369393,
                            -23.425629
                        ]
                    ]
                ]
            }
        },
        {
            "type": "Feature",
            "properties": {
                "observation_date": "2013-09-26",
                "source": null,
                "sensor_name": null,
                "type": "observation",
                "current_phase": null,
                "is_occluded": null,
                "is_site_boundary": null,
                "score": 1.0
            },
            "geometry": {
                "type": "MultiPolygon",
                "coordinates": [
                    [
                        [
                            [
                                -46.369393,
                                -23.425629
                            ],
                            [
                                -46.367713,
                                -23.425689
                            ],
                            [
                                -46.367594,
                                -23.42613
                            ],
                            [
                                -46.368965,
                                -23.426071
                            ],
                            [
                                -46.369003,
                                -23.426228
                            ],
                            [
                                -46.36945,
                                -23.426194
                            ],
                            [
                                -46.369393,
                                -23.425629
                            ]
                        ]
                    ]
                ]
            }
        },
        {
            "type": "Feature",
            "properties": {
                "observation_date": "2018-01-22",
                "source": null,
                "sensor_name": null,
                "type": "observation",
                "current_phase": null,
                "is_occluded": null,
                "is_site_boundary": null,
                "score": 1.0
            },
            "geometry": {
                "type": "MultiPolygon",
                "coordinates": [
                    [
                        [
                            [
                                -46.369393,
                                -23.425629
                            ],
                            [
                                -46.367713,
                                -23.425689
                            ],
                            [
                                -46.367594,
                                -23.42613
                            ],
                            [
                                -46.368965,
                                -23.426071
                            ],
                            [
                                -46.369003,
                                -23.426228
                            ],
                            [
                                -46.36945,
                                -23.426194
                            ],
                            [
                                -46.369393,
                                -23.425629
                            ]
                        ]
                    ]
                ]
            }
        }
    ]
}