{
    "type": "FeatureCollection",
    "features": [
        {
            "type": "Feature",
            "properties": {
                "type": "site",
                "region_id": "BR_R005",
                "site_id": "BR_R005_0160",
                "version": "2.0.0",
                "status": "positive_pending",
                "mgrs": "23KLQ",
                "score": 1.0,
                "start_date": "2018-05-29",
                "end_date": "2023-05-22",
                "model_content": "annotation",
                "originator": "te",
                "validated": "True",
                "misc_info": {
                    "commit_hash": "8e2cc701facd37559ed12647d70a5e5b3622c6ca"
                }
            },
            "geometry": {
                "type": "Polygon",
                "coordinates": [
                    [
                        [
                            -46.330804,
                            -23.428597
                        ],
                        [
                            -46.33219,
                            -23.428222
                        ],
                        [
                            -46.333602,
                            -23.428361
                        ],
                        [
                            -46.333812,
                            -23.429527
                        ],
                        [
                            -46.334356,
                            -23.429707
                        ],
                        [
                            -46.334314,
                            -23.429821
                        ],
                        [
                            -46.333297,
                            -23.429814
                        ],
                        [
                            -46.333305,
                            -23.430193
                        ],
                        [
                            -46.333072,
                            -23.430525
                        ],
                        [
                            -46.331537,
                            -23.429527
                        ],
                        [
                            -46.330804,
                            -23.428597
                        ]
                    ]
                ]
            }
        },
        {
            "type": "Feature",
            "properties": {
                "observation_date": "2018-05-29",
                "source": null,
                "sensor_name": null,
                "type": "observation",
                "current_phase": null,
                "is_occluded": null,
                "is_site_boundary": null,
                "score": 1.0
            },
            "geometry": {
                "type": "MultiPolygon",
                "coordinates": [
                    [
                        [
                            [
                                -46.330804,
                                -23.428597
                            ],
                            [
                                -46.33219,
                                -23.428222
                            ],
                            [
                                -46.333602,
                                -23.428361
                            ],
                            [
                                -46.333812,
                                -23.429527
                            ],
                            [
                                -46.334356,
                                -23.429707
                            ],
                            [
                                -46.334314,
                                -23.429821
                            ],
                            [
                                -46.333297,
                                -23.429814
                            ],
                            [
                                -46.333305,
                                -23.430193
                            ],
                            [
                                -46.333072,
                                -23.430525
                            ],
                            [
                                -46.331537,
                                -23.429527
                            ],
                            [
                                -46.330804,
                                -23.428597
                            ]
                        ]
                    ]
                ]
            }
        },
        {
            "type": "Feature",
            "properties": {
                "observation_date": "2023-05-22",
                "source": null,
                "sensor_name": null,
                "type": "observation",
                "current_phase": null,
                "is_occluded": null,
                "is_site_boundary": null,
                "score": 1.0
            },
            "geometry": {
                "type": "MultiPolygon",
                "coordinates": [
                    [
                        [
                            [
                                -46.330804,
                                -23.428597
                            ],
                            [
                                -46.33219,
                                -23.428222
                            ],
                            [
                                -46.333602,
                                -23.428361
                            ],
                            [
                                -46.333812,
                                -23.429527
                            ],
                            [
                                -46.334356,
                                -23.429707
                            ],
                            [
                                -46.334314,
                                -23.429821
                            ],
                            [
                                -46.333297,
                                -23.429814
                            ],
                            [
                                -46.333305,
                                -23.430193
                            ],
                            [
                                -46.333072,
                                -23.430525
                            ],
                            [
                                -46.331537,
                                -23.429527
                            ],
                            [
                                -46.330804,
                                -23.428597
                            ]
                        ]
                    ]
                ]
            }
        }
    ]
}