{
    "type": "FeatureCollection",
    "features": [
        {
            "type": "Feature",
            "properties": {
                "type": "site",
                "region_id": "BR_R006",
                "site_id": "BR_R006_0381",
                "version": "2.0.1",
                "status": "negative",
                "mgrs": "23KLQ",
                "score": 1.0,
                "start_date": "2017-12-01",
                "end_date": "2024-03-11",
                "model_content": "annotation",
                "originator": "te",
                "validated": "True",
                "misc_info": {
                    "commit_hash": "ffa8df67417e65c71e65c9308573eb6c88c9c0c8"
                }
            },
            "geometry": {
                "type": "Polygon",
                "coordinates": [
                    [
                        [
                            -46.785708,
                            -23.481669
                        ],
                        [
                            -46.783615,
                            -23.48066
                        ],
                        [
                            -46.783053,
                            -23.481603
                        ],
                        [
                            -46.785245,
                            -23.482647
                        ],
                        [
                            -46.785708,
                            -23.481669
                        ]
                    ]
                ]
            }
        },
        {
            "type": "Feature",
            "properties": {
                "observation_date": "2017-12-01",
                "source": null,
                "sensor_name": null,
                "type": "observation",
                "current_phase": null,
                "is_occluded": null,
                "is_site_boundary": null,
                "score": 1.0
            },
            "geometry": {
                "type": "MultiPolygon",
                "coordinates": [
                    [
                        [
                            [
                                -46.785708,
                                -23.481669
                            ],
                            [
                                -46.783615,
                                -23.48066
                            ],
                            [
                                -46.783053,
                                -23.481603
                            ],
                            [
                                -46.785245,
                                -23.482647
                            ],
                            [
                                -46.785708,
                                -23.481669
                            ]
                        ]
                    ]
                ]
            }
        },
        {
            "type": "Feature",
            "properties": {
                "observation_date": "2024-03-11",
                "source": null,
                "sensor_name": null,
                "type": "observation",
                "current_phase": null,
                "is_occluded": null,
                "is_site_boundary": null,
                "score": 1.0
            },
            "geometry": {
                "type": "MultiPolygon",
                "coordinates": [
                    [
                        [
                            [
                                -46.785708,
                                -23.481669
                            ],
                            [
                                -46.783615,
                                -23.48066
                            ],
                            [
                                -46.783053,
                                -23.481603
                            ],
                            [
                                -46.785245,
                                -23.482647
                            ],
                            [
                                -46.785708,
                                -23.481669
                            ]
                        ]
                    ]
                ]
            }
        }
    ]
}