{
    "type": "FeatureCollection",
    "features": [
        {
            "type": "Feature",
            "properties": {
                "type": "site",
                "region_id": "BR_R006",
                "site_id": "BR_R006_0049",
                "version": "2.0.1",
                "status": "negative",
                "mgrs": "23KLQ",
                "score": 1.0,
                "start_date": "2019-09-01",
                "end_date": "2022-02-10",
                "model_content": "annotation",
                "originator": "te",
                "validated": "True",
                "misc_info": {
                    "commit_hash": "ffa8df67417e65c71e65c9308573eb6c88c9c0c8"
                }
            },
            "geometry": {
                "type": "Polygon",
                "coordinates": [
                    [
                        [
                            -46.898378,
                            -23.440261
                        ],
                        [
                            -46.898958,
                            -23.44052
                        ],
                        [
                            -46.899433,
                            -23.439947
                        ],
                        [
                            -46.899659,
                            -23.439418
                        ],
                        [
                            -46.899522,
                            -23.439267
                        ],
                        [
                            -46.89942,
                            -23.439228
                        ],
                        [
                            -46.899349,
                            -23.439376
                        ],
                        [
                            -46.899093,
                            -23.439473
                        ],
                        [
                            -46.898378,
                            -23.440261
                        ]
                    ]
                ]
            }
        },
        {
            "type": "Feature",
            "properties": {
                "observation_date": "2019-09-01",
                "source": null,
                "sensor_name": null,
                "type": "observation",
                "current_phase": null,
                "is_occluded": null,
                "is_site_boundary": null,
                "score": 1.0
            },
            "geometry": {
                "type": "MultiPolygon",
                "coordinates": [
                    [
                        [
                            [
                                -46.898378,
                                -23.440261
                            ],
                            [
                                -46.898958,
                                -23.44052
                            ],
                            [
                                -46.899433,
                                -23.439947
                            ],
                            [
                                -46.899659,
                                -23.439418
                            ],
                            [
                                -46.899522,
                                -23.439267
                            ],
                            [
                                -46.89942,
                                -23.439228
                            ],
                            [
                                -46.899349,
                                -23.439376
                            ],
                            [
                                -46.899093,
                                -23.439473
                            ],
                            [
                                -46.898378,
                                -23.440261
                            ]
                        ]
                    ]
                ]
            }
        },
        {
            "type": "Feature",
            "properties": {
                "observation_date": "2022-02-10",
                "source": null,
                "sensor_name": null,
                "type": "observation",
                "current_phase": null,
                "is_occluded": null,
                "is_site_boundary": null,
                "score": 1.0
            },
            "geometry": {
                "type": "MultiPolygon",
                "coordinates": [
                    [
                        [
                            [
                                -46.898378,
                                -23.440261
                            ],
                            [
                                -46.898958,
                                -23.44052
                            ],
                            [
                                -46.899433,
                                -23.439947
                            ],
                            [
                                -46.899659,
                                -23.439418
                            ],
                            [
                                -46.899522,
                                -23.439267
                            ],
                            [
                                -46.89942,
                                -23.439228
                            ],
                            [
                                -46.899349,
                                -23.439376
                            ],
                            [
                                -46.899093,
                                -23.439473
                            ],
                            [
                                -46.898378,
                                -23.440261
                            ]
                        ]
                    ]
                ]
            }
        }
    ]
}