{
    "type": "FeatureCollection",
    "features": [
        {
            "type": "Feature",
            "properties": {
                "type": "site",
                "region_id": "BR_R005",
                "site_id": "BR_R005_0215",
                "version": "2.0.0",
                "status": "positive_excluded",
                "mgrs": "23KLQ",
                "score": 1.0,
                "start_date": "2017-07-11",
                "end_date": "2019-07-09",
                "model_content": "annotation",
                "originator": "te",
                "validated": "True",
                "misc_info": {
                    "commit_hash": "8e2cc701facd37559ed12647d70a5e5b3622c6ca"
                }
            },
            "geometry": {
                "type": "Polygon",
                "coordinates": [
                    [
                        [
                            -46.471161,
                            -23.416923
                        ],
                        [
                            -46.470809,
                            -23.417465
                        ],
                        [
                            -46.47051,
                            -23.417371
                        ],
                        [
                            -46.470765,
                            -23.417041
                        ],
                        [
                            -46.470873,
                            -23.417093
                        ],
                        [
                            -46.471012,
                            -23.416862
                        ],
                        [
                            -46.471161,
                            -23.416923
                        ]
                    ]
                ]
            }
        },
        {
            "type": "Feature",
            "properties": {
                "observation_date": "2017-07-11",
                "source": null,
                "sensor_name": null,
                "type": "observation",
                "current_phase": null,
                "is_occluded": null,
                "is_site_boundary": null,
                "score": 1.0
            },
            "geometry": {
                "type": "MultiPolygon",
                "coordinates": [
                    [
                        [
                            [
                                -46.471161,
                                -23.416923
                            ],
                            [
                                -46.470809,
                                -23.417465
                            ],
                            [
                                -46.47051,
                                -23.417371
                            ],
                            [
                                -46.470765,
                                -23.417041
                            ],
                            [
                                -46.470873,
                                -23.417093
                            ],
                            [
                                -46.471012,
                                -23.416862
                            ],
                            [
                                -46.471161,
                                -23.416923
                            ]
                        ]
                    ]
                ]
            }
        },
        {
            "type": "Feature",
            "properties": {
                "observation_date": "2019-07-09",
                "source": null,
                "sensor_name": null,
                "type": "observation",
                "current_phase": null,
                "is_occluded": null,
                "is_site_boundary": null,
                "score": 1.0
            },
            "geometry": {
                "type": "MultiPolygon",
                "coordinates": [
                    [
                        [
                            [
                                -46.471161,
                                -23.416923
                            ],
                            [
                                -46.470809,
                                -23.417465
                            ],
                            [
                                -46.47051,
                                -23.417371
                            ],
                            [
                                -46.470765,
                                -23.417041
                            ],
                            [
                                -46.470873,
                                -23.417093
                            ],
                            [
                                -46.471012,
                                -23.416862
                            ],
                            [
                                -46.471161,
                                -23.416923
                            ]
                        ]
                    ]
                ]
            }
        }
    ]
}