{
    "type": "FeatureCollection",
    "features": [
        {
            "type": "Feature",
            "properties": {
                "type": "site",
                "region_id": "BR_R005",
                "site_id": "BR_R005_0211",
                "version": "2.0.0",
                "status": "positive_excluded",
                "mgrs": "23KLQ",
                "score": 1.0,
                "start_date": "2015-02-10",
                "end_date": "2017-07-10",
                "model_content": "annotation",
                "originator": "te",
                "validated": "True",
                "misc_info": {
                    "commit_hash": "8e2cc701facd37559ed12647d70a5e5b3622c6ca"
                }
            },
            "geometry": {
                "type": "Polygon",
                "coordinates": [
                    [
                        [
                            -46.546532,
                            -23.446157
                        ],
                        [
                            -46.547016,
                            -23.446382
                        ],
                        [
                            -46.546797,
                            -23.446926
                        ],
                        [
                            -46.546134,
                            -23.446867
                        ],
                        [
                            -46.546532,
                            -23.446157
                        ]
                    ]
                ]
            }
        },
        {
            "type": "Feature",
            "properties": {
                "observation_date": "2015-02-10",
                "source": null,
                "sensor_name": null,
                "type": "observation",
                "current_phase": null,
                "is_occluded": null,
                "is_site_boundary": null,
                "score": 1.0
            },
            "geometry": {
                "type": "MultiPolygon",
                "coordinates": [
                    [
                        [
                            [
                                -46.546532,
                                -23.446157
                            ],
                            [
                                -46.547016,
                                -23.446382
                            ],
                            [
                                -46.546797,
                                -23.446926
                            ],
                            [
                                -46.546134,
                                -23.446867
                            ],
                            [
                                -46.546532,
                                -23.446157
                            ]
                        ]
                    ]
                ]
            }
        },
        {
            "type": "Feature",
            "properties": {
                "observation_date": "2017-07-10",
                "source": null,
                "sensor_name": null,
                "type": "observation",
                "current_phase": null,
                "is_occluded": null,
                "is_site_boundary": null,
                "score": 1.0
            },
            "geometry": {
                "type": "MultiPolygon",
                "coordinates": [
                    [
                        [
                            [
                                -46.546532,
                                -23.446157
                            ],
                            [
                                -46.547016,
                                -23.446382
                            ],
                            [
                                -46.546797,
                                -23.446926
                            ],
                            [
                                -46.546134,
                                -23.446867
                            ],
                            [
                                -46.546532,
                                -23.446157
                            ]
                        ]
                    ]
                ]
            }
        }
    ]
}