{
    "type": "FeatureCollection",
    "features": [
        {
            "type": "Feature",
            "properties": {
                "type": "site",
                "region_id": "BR_R005",
                "site_id": "BR_R005_0200",
                "version": "2.0.0",
                "status": "positive_pending",
                "mgrs": "23KLQ",
                "score": 1.0,
                "start_date": "2013-06-29",
                "end_date": "2017-06-29",
                "model_content": "annotation",
                "originator": "te",
                "validated": "True",
                "misc_info": {
                    "commit_hash": "8e2cc701facd37559ed12647d70a5e5b3622c6ca"
                }
            },
            "geometry": {
                "type": "Polygon",
                "coordinates": [
                    [
                        [
                            -46.312928,
                            -23.437761
                        ],
                        [
                            -46.31294,
                            -23.437889
                        ],
                        [
                            -46.312056,
                            -23.437951
                        ],
                        [
                            -46.311869,
                            -23.437834
                        ],
                        [
                            -46.310825,
                            -23.437792
                        ],
                        [
                            -46.310716,
                            -23.437713
                        ],
                        [
                            -46.309768,
                            -23.43779
                        ],
                        [
                            -46.309619,
                            -23.437934
                        ],
                        [
                            -46.308317,
                            -23.437888
                        ],
                        [
                            -46.308192,
                            -23.438537
                        ],
                        [
                            -46.310102,
                            -23.438874
                        ],
                        [
                            -46.310796,
                            -23.438678
                        ],
                        [
                            -46.311378,
                            -23.438702
                        ],
                        [
                            -46.311569,
                            -23.43887
                        ],
                        [
                            -46.313713,
                            -23.438715
                        ],
                        [
                            -46.313789,
                            -23.438459
                        ],
                        [
                            -46.314064,
                            -23.438339
                        ],
                        [
                            -46.31386,
                            -23.437583
                        ],
                        [
                            -46.312928,
                            -23.437761
                        ]
                    ]
                ]
            }
        },
        {
            "type": "Feature",
            "properties": {
                "observation_date": "2013-06-29",
                "source": null,
                "sensor_name": null,
                "type": "observation",
                "current_phase": null,
                "is_occluded": null,
                "is_site_boundary": null,
                "score": 1.0
            },
            "geometry": {
                "type": "MultiPolygon",
                "coordinates": [
                    [
                        [
                            [
                                -46.312928,
                                -23.437761
                            ],
                            [
                                -46.31294,
                                -23.437889
                            ],
                            [
                                -46.312056,
                                -23.437951
                            ],
                            [
                                -46.311869,
                                -23.437834
                            ],
                            [
                                -46.310825,
                                -23.437792
                            ],
                            [
                                -46.310716,
                                -23.437713
                            ],
                            [
                                -46.309768,
                                -23.43779
                            ],
                            [
                                -46.309619,
                                -23.437934
                            ],
                            [
                                -46.308317,
                                -23.437888
                            ],
                            [
                                -46.308192,
                                -23.438537
                            ],
                            [
                                -46.310102,
                                -23.438874
                            ],
                            [
                                -46.310796,
                                -23.438678
                            ],
                            [
                                -46.311378,
                                -23.438702
                            ],
                            [
                                -46.311569,
                                -23.43887
                            ],
                            [
                                -46.313713,
                                -23.438715
                            ],
                            [
                                -46.313789,
                                -23.438459
                            ],
                            [
                                -46.314064,
                                -23.438339
                            ],
                            [
                                -46.31386,
                                -23.437583
                            ],
                            [
                                -46.312928,
                                -23.437761
                            ]
                        ]
                    ]
                ]
            }
        },
        {
            "type": "Feature",
            "properties": {
                "observation_date": "2017-06-29",
                "source": null,
                "sensor_name": null,
                "type": "observation",
                "current_phase": null,
                "is_occluded": null,
                "is_site_boundary": null,
                "score": 1.0
            },
            "geometry": {
                "type": "MultiPolygon",
                "coordinates": [
                    [
                        [
                            [
                                -46.312928,
                                -23.437761
                            ],
                            [
                                -46.31294,
                                -23.437889
                            ],
                            [
                                -46.312056,
                                -23.437951
                            ],
                            [
                                -46.311869,
                                -23.437834
                            ],
                            [
                                -46.310825,
                                -23.437792
                            ],
                            [
                                -46.310716,
                                -23.437713
                            ],
                            [
                                -46.309768,
                                -23.43779
                            ],
                            [
                                -46.309619,
                                -23.437934
                            ],
                            [
                                -46.308317,
                                -23.437888
                            ],
                            [
                                -46.308192,
                                -23.438537
                            ],
                            [
                                -46.310102,
                                -23.438874
                            ],
                            [
                                -46.310796,
                                -23.438678
                            ],
                            [
                                -46.311378,
                                -23.438702
                            ],
                            [
                                -46.311569,
                                -23.43887
                            ],
                            [
                                -46.313713,
                                -23.438715
                            ],
                            [
                                -46.313789,
                                -23.438459
                            ],
                            [
                                -46.314064,
                                -23.438339
                            ],
                            [
                                -46.31386,
                                -23.437583
                            ],
                            [
                                -46.312928,
                                -23.437761
                            ]
                        ]
                    ]
                ]
            }
        }
    ]
}