{
    "type": "FeatureCollection",
    "features": [
        {
            "type": "Feature",
            "properties": {
                "type": "site",
                "region_id": "BR_R005",
                "site_id": "BR_R005_0173",
                "version": "2.0.0",
                "status": "positive_pending",
                "mgrs": "23KLQ",
                "score": 1.0,
                "start_date": "2015-01-01",
                "end_date": "2016-08-05",
                "model_content": "annotation",
                "originator": "te",
                "validated": "True",
                "misc_info": {
                    "commit_hash": "8e2cc701facd37559ed12647d70a5e5b3622c6ca"
                }
            },
            "geometry": {
                "type": "Polygon",
                "coordinates": [
                    [
                        [
                            -46.442338,
                            -23.45245
                        ],
                        [
                            -46.442214,
                            -23.453137
                        ],
                        [
                            -46.441252,
                            -23.452787
                        ],
                        [
                            -46.440484,
                            -23.452583
                        ],
                        [
                            -46.440497,
                            -23.453484
                        ],
                        [
                            -46.441063,
                            -23.453484
                        ],
                        [
                            -46.441103,
                            -23.454332
                        ],
                        [
                            -46.441516,
                            -23.454513
                        ],
                        [
                            -46.441834,
                            -23.453494
                        ],
                        [
                            -46.442307,
                            -23.453515
                        ],
                        [
                            -46.442735,
                            -23.45332
                        ],
                        [
                            -46.442808,
                            -23.452391
                        ],
                        [
                            -46.442338,
                            -23.45245
                        ]
                    ]
                ]
            }
        },
        {
            "type": "Feature",
            "properties": {
                "observation_date": "2015-01-01",
                "source": null,
                "sensor_name": null,
                "type": "observation",
                "current_phase": null,
                "is_occluded": null,
                "is_site_boundary": null,
                "score": 1.0
            },
            "geometry": {
                "type": "MultiPolygon",
                "coordinates": [
                    [
                        [
                            [
                                -46.442338,
                                -23.45245
                            ],
                            [
                                -46.442214,
                                -23.453137
                            ],
                            [
                                -46.441252,
                                -23.452787
                            ],
                            [
                                -46.440484,
                                -23.452583
                            ],
                            [
                                -46.440497,
                                -23.453484
                            ],
                            [
                                -46.441063,
                                -23.453484
                            ],
                            [
                                -46.441103,
                                -23.454332
                            ],
                            [
                                -46.441516,
                                -23.454513
                            ],
                            [
                                -46.441834,
                                -23.453494
                            ],
                            [
                                -46.442307,
                                -23.453515
                            ],
                            [
                                -46.442735,
                                -23.45332
                            ],
                            [
                                -46.442808,
                                -23.452391
                            ],
                            [
                                -46.442338,
                                -23.45245
                            ]
                        ]
                    ]
                ]
            }
        },
        {
            "type": "Feature",
            "properties": {
                "observation_date": "2016-08-05",
                "source": null,
                "sensor_name": null,
                "type": "observation",
                "current_phase": null,
                "is_occluded": null,
                "is_site_boundary": null,
                "score": 1.0
            },
            "geometry": {
                "type": "MultiPolygon",
                "coordinates": [
                    [
                        [
                            [
                                -46.442338,
                                -23.45245
                            ],
                            [
                                -46.442214,
                                -23.453137
                            ],
                            [
                                -46.441252,
                                -23.452787
                            ],
                            [
                                -46.440484,
                                -23.452583
                            ],
                            [
                                -46.440497,
                                -23.453484
                            ],
                            [
                                -46.441063,
                                -23.453484
                            ],
                            [
                                -46.441103,
                                -23.454332
                            ],
                            [
                                -46.441516,
                                -23.454513
                            ],
                            [
                                -46.441834,
                                -23.453494
                            ],
                            [
                                -46.442307,
                                -23.453515
                            ],
                            [
                                -46.442735,
                                -23.45332
                            ],
                            [
                                -46.442808,
                                -23.452391
                            ],
                            [
                                -46.442338,
                                -23.45245
                            ]
                        ]
                    ]
                ]
            }
        }
    ]
}