{
    "type": "FeatureCollection",
    "features": [
        {
            "type": "Feature",
            "properties": {
                "type": "site",
                "region_id": "BR_R001",
                "site_id": "BR_R001_0067",
                "version": "2.0.3",
                "status": "positive_pending",
                "mgrs": "23KPQ",
                "score": 1.0,
                "start_date": "2019-04-01",
                "end_date": "2021-03-31",
                "model_content": "annotation",
                "originator": "te",
                "validated": "True",
                "misc_info": {
                    "commit_hash": "b2a36269f1cbef9c8830197db1fd1e207add163e"
                }
            },
            "geometry": {
                "type": "Polygon",
                "coordinates": [
                    [
                        [
                            -43.408742,
                            -22.997822
                        ],
                        [
                            -43.408672,
                            -22.997507
                        ],
                        [
                            -43.407671,
                            -22.997224
                        ],
                        [
                            -43.406466,
                            -22.997263
                        ],
                        [
                            -43.405418,
                            -22.997684
                        ],
                        [
                            -43.406011,
                            -22.999077
                        ],
                        [
                            -43.406299,
                            -22.999233
                        ],
                        [
                            -43.407724,
                            -22.999202
                        ],
                        [
                            -43.408164,
                            -22.998978
                        ],
                        [
                            -43.408742,
                            -22.997822
                        ]
                    ]
                ]
            }
        },
        {
            "type": "Feature",
            "properties": {
                "observation_date": "2019-04-01",
                "source": null,
                "sensor_name": null,
                "type": "observation",
                "current_phase": null,
                "is_occluded": null,
                "is_site_boundary": null,
                "score": 1.0
            },
            "geometry": {
                "type": "MultiPolygon",
                "coordinates": [
                    [
                        [
                            [
                                -43.408742,
                                -22.997822
                            ],
                            [
                                -43.408672,
                                -22.997507
                            ],
                            [
                                -43.407671,
                                -22.997224
                            ],
                            [
                                -43.406466,
                                -22.997263
                            ],
                            [
                                -43.405418,
                                -22.997684
                            ],
                            [
                                -43.406011,
                                -22.999077
                            ],
                            [
                                -43.406299,
                                -22.999233
                            ],
                            [
                                -43.407724,
                                -22.999202
                            ],
                            [
                                -43.408164,
                                -22.998978
                            ],
                            [
                                -43.408742,
                                -22.997822
                            ]
                        ]
                    ]
                ]
            }
        },
        {
            "type": "Feature",
            "properties": {
                "observation_date": "2021-03-31",
                "source": null,
                "sensor_name": null,
                "type": "observation",
                "current_phase": null,
                "is_occluded": null,
                "is_site_boundary": null,
                "score": 1.0
            },
            "geometry": {
                "type": "MultiPolygon",
                "coordinates": [
                    [
                        [
                            [
                                -43.408742,
                                -22.997822
                            ],
                            [
                                -43.408672,
                                -22.997507
                            ],
                            [
                                -43.407671,
                                -22.997224
                            ],
                            [
                                -43.406466,
                                -22.997263
                            ],
                            [
                                -43.405418,
                                -22.997684
                            ],
                            [
                                -43.406011,
                                -22.999077
                            ],
                            [
                                -43.406299,
                                -22.999233
                            ],
                            [
                                -43.407724,
                                -22.999202
                            ],
                            [
                                -43.408164,
                                -22.998978
                            ],
                            [
                                -43.408742,
                                -22.997822
                            ]
                        ]
                    ]
                ]
            }
        }
    ]
}