{
    "type": "FeatureCollection",
    "features": [
        {
            "type": "Feature",
            "properties": {
                "type": "site",
                "region_id": "BR_R006",
                "site_id": "BR_R006_0072",
                "version": "2.0.1",
                "status": "ignore",
                "mgrs": "23KLQ",
                "score": 1.0,
                "start_date": "2019-04-01",
                "end_date": "2023-05-19",
                "model_content": "annotation",
                "originator": "te",
                "validated": "True",
                "misc_info": {
                    "commit_hash": "ffa8df67417e65c71e65c9308573eb6c88c9c0c8"
                }
            },
            "geometry": {
                "type": "Polygon",
                "coordinates": [
                    [
                        [
                            -46.857647,
                            -23.456757
                        ],
                        [
                            -46.858157,
                            -23.456922
                        ],
                        [
                            -46.858746,
                            -23.456964
                        ],
                        [
                            -46.857528,
                            -23.45566
                        ],
                        [
                            -46.857183,
                            -23.45592
                        ],
                        [
                            -46.856135,
                            -23.456306
                        ],
                        [
                            -46.855332,
                            -23.456204
                        ],
                        [
                            -46.854911,
                            -23.456457
                        ],
                        [
                            -46.854951,
                            -23.457001
                        ],
                        [
                            -46.856331,
                            -23.456921
                        ],
                        [
                            -46.857035,
                            -23.456633
                        ],
                        [
                            -46.857647,
                            -23.456757
                        ]
                    ]
                ]
            }
        },
        {
            "type": "Feature",
            "properties": {
                "observation_date": "2019-04-01",
                "source": null,
                "sensor_name": null,
                "type": "observation",
                "current_phase": null,
                "is_occluded": null,
                "is_site_boundary": null,
                "score": 1.0
            },
            "geometry": {
                "type": "MultiPolygon",
                "coordinates": [
                    [
                        [
                            [
                                -46.857647,
                                -23.456757
                            ],
                            [
                                -46.858157,
                                -23.456922
                            ],
                            [
                                -46.858746,
                                -23.456964
                            ],
                            [
                                -46.857528,
                                -23.45566
                            ],
                            [
                                -46.857183,
                                -23.45592
                            ],
                            [
                                -46.856135,
                                -23.456306
                            ],
                            [
                                -46.855332,
                                -23.456204
                            ],
                            [
                                -46.854911,
                                -23.456457
                            ],
                            [
                                -46.854951,
                                -23.457001
                            ],
                            [
                                -46.856331,
                                -23.456921
                            ],
                            [
                                -46.857035,
                                -23.456633
                            ],
                            [
                                -46.857647,
                                -23.456757
                            ]
                        ]
                    ]
                ]
            }
        },
        {
            "type": "Feature",
            "properties": {
                "observation_date": "2023-05-19",
                "source": null,
                "sensor_name": null,
                "type": "observation",
                "current_phase": null,
                "is_occluded": null,
                "is_site_boundary": null,
                "score": 1.0
            },
            "geometry": {
                "type": "MultiPolygon",
                "coordinates": [
                    [
                        [
                            [
                                -46.857647,
                                -23.456757
                            ],
                            [
                                -46.858157,
                                -23.456922
                            ],
                            [
                                -46.858746,
                                -23.456964
                            ],
                            [
                                -46.857528,
                                -23.45566
                            ],
                            [
                                -46.857183,
                                -23.45592
                            ],
                            [
                                -46.856135,
                                -23.456306
                            ],
                            [
                                -46.855332,
                                -23.456204
                            ],
                            [
                                -46.854911,
                                -23.456457
                            ],
                            [
                                -46.854951,
                                -23.457001
                            ],
                            [
                                -46.856331,
                                -23.456921
                            ],
                            [
                                -46.857035,
                                -23.456633
                            ],
                            [
                                -46.857647,
                                -23.456757
                            ]
                        ]
                    ]
                ]
            }
        }
    ]
}