{
    "type": "FeatureCollection",
    "features": [
        {
            "type": "Feature",
            "properties": {
                "type": "site",
                "region_id": "BR_R005",
                "site_id": "BR_R005_0201",
                "version": "2.0.0",
                "status": "positive_pending",
                "mgrs": "23KLQ",
                "score": 1.0,
                "start_date": "2013-03-09",
                "end_date": "2022-02-21",
                "model_content": "annotation",
                "originator": "te",
                "validated": "True",
                "misc_info": {
                    "commit_hash": "8e2cc701facd37559ed12647d70a5e5b3622c6ca"
                }
            },
            "geometry": {
                "type": "Polygon",
                "coordinates": [
                    [
                        [
                            -46.365169,
                            -23.407155
                        ],
                        [
                            -46.362177,
                            -23.408197
                        ],
                        [
                            -46.362431,
                            -23.408804
                        ],
                        [
                            -46.365269,
                            -23.40774
                        ],
                        [
                            -46.365169,
                            -23.407155
                        ]
                    ]
                ]
            }
        },
        {
            "type": "Feature",
            "properties": {
                "observation_date": "2013-03-09",
                "source": null,
                "sensor_name": null,
                "type": "observation",
                "current_phase": null,
                "is_occluded": null,
                "is_site_boundary": null,
                "score": 1.0
            },
            "geometry": {
                "type": "MultiPolygon",
                "coordinates": [
                    [
                        [
                            [
                                -46.365169,
                                -23.407155
                            ],
                            [
                                -46.362177,
                                -23.408197
                            ],
                            [
                                -46.362431,
                                -23.408804
                            ],
                            [
                                -46.365269,
                                -23.40774
                            ],
                            [
                                -46.365169,
                                -23.407155
                            ]
                        ]
                    ]
                ]
            }
        },
        {
            "type": "Feature",
            "properties": {
                "observation_date": "2022-02-21",
                "source": null,
                "sensor_name": null,
                "type": "observation",
                "current_phase": null,
                "is_occluded": null,
                "is_site_boundary": null,
                "score": 1.0
            },
            "geometry": {
                "type": "MultiPolygon",
                "coordinates": [
                    [
                        [
                            [
                                -46.365169,
                                -23.407155
                            ],
                            [
                                -46.362177,
                                -23.408197
                            ],
                            [
                                -46.362431,
                                -23.408804
                            ],
                            [
                                -46.365269,
                                -23.40774
                            ],
                            [
                                -46.365169,
                                -23.407155
                            ]
                        ]
                    ]
                ]
            }
        }
    ]
}