{
    "type": "FeatureCollection",
    "features": [
        {
            "type": "Feature",
            "properties": {
                "type": "site",
                "region_id": "BR_R005",
                "site_id": "BR_R005_0161",
                "version": "2.0.0",
                "status": "positive_pending",
                "mgrs": "23KLQ",
                "score": 1.0,
                "start_date": "2013-08-07",
                "end_date": "2015-05-08",
                "model_content": "annotation",
                "originator": "te",
                "validated": "True",
                "misc_info": {
                    "commit_hash": "8e2cc701facd37559ed12647d70a5e5b3622c6ca"
                }
            },
            "geometry": {
                "type": "Polygon",
                "coordinates": [
                    [
                        [
                            -46.547012,
                            -23.431241
                        ],
                        [
                            -46.546451,
                            -23.431913
                        ],
                        [
                            -46.545123,
                            -23.430915
                        ],
                        [
                            -46.545737,
                            -23.430626
                        ],
                        [
                            -46.546224,
                            -23.430727
                        ],
                        [
                            -46.547012,
                            -23.431241
                        ]
                    ]
                ]
            }
        },
        {
            "type": "Feature",
            "properties": {
                "observation_date": "2013-08-07",
                "source": null,
                "sensor_name": null,
                "type": "observation",
                "current_phase": null,
                "is_occluded": null,
                "is_site_boundary": null,
                "score": 1.0
            },
            "geometry": {
                "type": "MultiPolygon",
                "coordinates": [
                    [
                        [
                            [
                                -46.547012,
                                -23.431241
                            ],
                            [
                                -46.546451,
                                -23.431913
                            ],
                            [
                                -46.545123,
                                -23.430915
                            ],
                            [
                                -46.545737,
                                -23.430626
                            ],
                            [
                                -46.546224,
                                -23.430727
                            ],
                            [
                                -46.547012,
                                -23.431241
                            ]
                        ]
                    ]
                ]
            }
        },
        {
            "type": "Feature",
            "properties": {
                "observation_date": "2015-05-08",
                "source": null,
                "sensor_name": null,
                "type": "observation",
                "current_phase": null,
                "is_occluded": null,
                "is_site_boundary": null,
                "score": 1.0
            },
            "geometry": {
                "type": "MultiPolygon",
                "coordinates": [
                    [
                        [
                            [
                                -46.547012,
                                -23.431241
                            ],
                            [
                                -46.546451,
                                -23.431913
                            ],
                            [
                                -46.545123,
                                -23.430915
                            ],
                            [
                                -46.545737,
                                -23.430626
                            ],
                            [
                                -46.546224,
                                -23.430727
                            ],
                            [
                                -46.547012,
                                -23.431241
                            ]
                        ]
                    ]
                ]
            }
        }
    ]
}