{
    "type": "FeatureCollection",
    "features": [
        {
            "type": "Feature",
            "properties": {
                "type": "site",
                "region_id": "BR_R001",
                "site_id": "BR_R001_0034",
                "version": "2.0.2",
                "status": "ignore",
                "mgrs": "23KPQ",
                "score": 1.0,
                "start_date": "2019-04-01",
                "end_date": "2020-10-31",
                "model_content": "annotation",
                "originator": "te",
                "validated": "True",
                "misc_info": {
                    "commit_hash": "b2a36269f1cbef9c8830197db1fd1e207add163e"
                }
            },
            "geometry": {
                "type": "Polygon",
                "coordinates": [
                    [
                        [
                            -43.327448,
                            -22.981127
                        ],
                        [
                            -43.329228,
                            -22.979269
                        ],
                        [
                            -43.328732,
                            -22.978796
                        ],
                        [
                            -43.326971,
                            -22.980761
                        ],
                        [
                            -43.327448,
                            -22.981127
                        ]
                    ]
                ]
            }
        },
        {
            "type": "Feature",
            "properties": {
                "observation_date": "2019-04-01",
                "source": null,
                "sensor_name": null,
                "type": "observation",
                "current_phase": null,
                "is_occluded": null,
                "is_site_boundary": null,
                "score": 1.0
            },
            "geometry": {
                "type": "MultiPolygon",
                "coordinates": [
                    [
                        [
                            [
                                -43.327448,
                                -22.981127
                            ],
                            [
                                -43.329228,
                                -22.979269
                            ],
                            [
                                -43.328732,
                                -22.978796
                            ],
                            [
                                -43.326971,
                                -22.980761
                            ],
                            [
                                -43.327448,
                                -22.981127
                            ]
                        ]
                    ]
                ]
            }
        },
        {
            "type": "Feature",
            "properties": {
                "observation_date": "2020-10-31",
                "source": null,
                "sensor_name": null,
                "type": "observation",
                "current_phase": null,
                "is_occluded": null,
                "is_site_boundary": null,
                "score": 1.0
            },
            "geometry": {
                "type": "MultiPolygon",
                "coordinates": [
                    [
                        [
                            [
                                -43.327448,
                                -22.981127
                            ],
                            [
                                -43.329228,
                                -22.979269
                            ],
                            [
                                -43.328732,
                                -22.978796
                            ],
                            [
                                -43.326971,
                                -22.980761
                            ],
                            [
                                -43.327448,
                                -22.981127
                            ]
                        ]
                    ]
                ]
            }
        }
    ]
}