{
    "type": "FeatureCollection",
    "features": [
        {
            "type": "Feature",
            "properties": {
                "type": "site",
                "region_id": "BR_R005",
                "site_id": "BR_R005_0204",
                "version": "2.0.0",
                "status": "ignore",
                "mgrs": "23KLQ",
                "score": 1.0,
                "start_date": "2013-09-26",
                "end_date": "2016-04-04",
                "model_content": "annotation",
                "originator": "te",
                "validated": "True",
                "misc_info": {
                    "commit_hash": "8e2cc701facd37559ed12647d70a5e5b3622c6ca"
                }
            },
            "geometry": {
                "type": "Polygon",
                "coordinates": [
                    [
                        [
                            -46.399798,
                            -23.400569
                        ],
                        [
                            -46.399506,
                            -23.400152
                        ],
                        [
                            -46.399161,
                            -23.399391
                        ],
                        [
                            -46.399936,
                            -23.398979
                        ],
                        [
                            -46.400364,
                            -23.398329
                        ],
                        [
                            -46.401614,
                            -23.398763
                        ],
                        [
                            -46.399798,
                            -23.400569
                        ]
                    ]
                ]
            }
        },
        {
            "type": "Feature",
            "properties": {
                "observation_date": "2013-09-26",
                "source": null,
                "sensor_name": null,
                "type": "observation",
                "current_phase": null,
                "is_occluded": null,
                "is_site_boundary": null,
                "score": 1.0
            },
            "geometry": {
                "type": "MultiPolygon",
                "coordinates": [
                    [
                        [
                            [
                                -46.399798,
                                -23.400569
                            ],
                            [
                                -46.399506,
                                -23.400152
                            ],
                            [
                                -46.399161,
                                -23.399391
                            ],
                            [
                                -46.399936,
                                -23.398979
                            ],
                            [
                                -46.400364,
                                -23.398329
                            ],
                            [
                                -46.401614,
                                -23.398763
                            ],
                            [
                                -46.399798,
                                -23.400569
                            ]
                        ]
                    ]
                ]
            }
        },
        {
            "type": "Feature",
            "properties": {
                "observation_date": "2016-04-04",
                "source": null,
                "sensor_name": null,
                "type": "observation",
                "current_phase": null,
                "is_occluded": null,
                "is_site_boundary": null,
                "score": 1.0
            },
            "geometry": {
                "type": "MultiPolygon",
                "coordinates": [
                    [
                        [
                            [
                                -46.399798,
                                -23.400569
                            ],
                            [
                                -46.399506,
                                -23.400152
                            ],
                            [
                                -46.399161,
                                -23.399391
                            ],
                            [
                                -46.399936,
                                -23.398979
                            ],
                            [
                                -46.400364,
                                -23.398329
                            ],
                            [
                                -46.401614,
                                -23.398763
                            ],
                            [
                                -46.399798,
                                -23.400569
                            ]
                        ]
                    ]
                ]
            }
        }
    ]
}