{
    "type": "FeatureCollection",
    "features": [
        {
            "type": "Feature",
            "properties": {
                "type": "site",
                "region_id": "BR_R005",
                "site_id": "BR_R005_0174",
                "version": "2.0.0",
                "status": "positive_pending",
                "mgrs": "23KLQ",
                "score": 1.0,
                "start_date": "2013-09-26",
                "end_date": "2016-04-24",
                "model_content": "annotation",
                "originator": "te",
                "validated": "True",
                "misc_info": {
                    "commit_hash": "8e2cc701facd37559ed12647d70a5e5b3622c6ca"
                }
            },
            "geometry": {
                "type": "Polygon",
                "coordinates": [
                    [
                        [
                            -46.325067,
                            -23.429538
                        ],
                        [
                            -46.325129,
                            -23.43017
                        ],
                        [
                            -46.32515,
                            -23.430498
                        ],
                        [
                            -46.32577,
                            -23.430666
                        ],
                        [
                            -46.325971,
                            -23.430653
                        ],
                        [
                            -46.32583,
                            -23.430221
                        ],
                        [
                            -46.325679,
                            -23.429544
                        ],
                        [
                            -46.325067,
                            -23.429538
                        ]
                    ]
                ]
            }
        },
        {
            "type": "Feature",
            "properties": {
                "observation_date": "2013-09-26",
                "source": null,
                "sensor_name": null,
                "type": "observation",
                "current_phase": null,
                "is_occluded": null,
                "is_site_boundary": null,
                "score": 1.0
            },
            "geometry": {
                "type": "MultiPolygon",
                "coordinates": [
                    [
                        [
                            [
                                -46.325067,
                                -23.429538
                            ],
                            [
                                -46.325129,
                                -23.43017
                            ],
                            [
                                -46.32515,
                                -23.430498
                            ],
                            [
                                -46.32577,
                                -23.430666
                            ],
                            [
                                -46.325971,
                                -23.430653
                            ],
                            [
                                -46.32583,
                                -23.430221
                            ],
                            [
                                -46.325679,
                                -23.429544
                            ],
                            [
                                -46.325067,
                                -23.429538
                            ]
                        ]
                    ]
                ]
            }
        },
        {
            "type": "Feature",
            "properties": {
                "observation_date": "2016-04-24",
                "source": null,
                "sensor_name": null,
                "type": "observation",
                "current_phase": null,
                "is_occluded": null,
                "is_site_boundary": null,
                "score": 1.0
            },
            "geometry": {
                "type": "MultiPolygon",
                "coordinates": [
                    [
                        [
                            [
                                -46.325067,
                                -23.429538
                            ],
                            [
                                -46.325129,
                                -23.43017
                            ],
                            [
                                -46.32515,
                                -23.430498
                            ],
                            [
                                -46.32577,
                                -23.430666
                            ],
                            [
                                -46.325971,
                                -23.430653
                            ],
                            [
                                -46.32583,
                                -23.430221
                            ],
                            [
                                -46.325679,
                                -23.429544
                            ],
                            [
                                -46.325067,
                                -23.429538
                            ]
                        ]
                    ]
                ]
            }
        }
    ]
}