{
    "type": "FeatureCollection",
    "features": [
        {
            "type": "Feature",
            "properties": {
                "type": "site",
                "region_id": "BR_R005",
                "site_id": "BR_R005_0162",
                "version": "2.0.0",
                "status": "positive_pending",
                "mgrs": "23KLQ",
                "score": 1.0,
                "start_date": "2014-02-03",
                "end_date": "2014-11-02",
                "model_content": "annotation",
                "originator": "te",
                "validated": "True",
                "misc_info": {
                    "commit_hash": "8e2cc701facd37559ed12647d70a5e5b3622c6ca"
                }
            },
            "geometry": {
                "type": "Polygon",
                "coordinates": [
                    [
                        [
                            -46.507093,
                            -23.487669
                        ],
                        [
                            -46.507882,
                            -23.488838
                        ],
                        [
                            -46.506297,
                            -23.489873
                        ],
                        [
                            -46.505763,
                            -23.488546
                        ],
                        [
                            -46.506218,
                            -23.48808
                        ],
                        [
                            -46.506849,
                            -23.487648
                        ],
                        [
                            -46.506822,
                            -23.487454
                        ],
                        [
                            -46.506918,
                            -23.487406
                        ],
                        [
                            -46.507093,
                            -23.487669
                        ]
                    ]
                ]
            }
        },
        {
            "type": "Feature",
            "properties": {
                "observation_date": "2014-02-03",
                "source": null,
                "sensor_name": null,
                "type": "observation",
                "current_phase": null,
                "is_occluded": null,
                "is_site_boundary": null,
                "score": 1.0
            },
            "geometry": {
                "type": "MultiPolygon",
                "coordinates": [
                    [
                        [
                            [
                                -46.507093,
                                -23.487669
                            ],
                            [
                                -46.507882,
                                -23.488838
                            ],
                            [
                                -46.506297,
                                -23.489873
                            ],
                            [
                                -46.505763,
                                -23.488546
                            ],
                            [
                                -46.506218,
                                -23.48808
                            ],
                            [
                                -46.506849,
                                -23.487648
                            ],
                            [
                                -46.506822,
                                -23.487454
                            ],
                            [
                                -46.506918,
                                -23.487406
                            ],
                            [
                                -46.507093,
                                -23.487669
                            ]
                        ]
                    ]
                ]
            }
        },
        {
            "type": "Feature",
            "properties": {
                "observation_date": "2014-11-02",
                "source": null,
                "sensor_name": null,
                "type": "observation",
                "current_phase": null,
                "is_occluded": null,
                "is_site_boundary": null,
                "score": 1.0
            },
            "geometry": {
                "type": "MultiPolygon",
                "coordinates": [
                    [
                        [
                            [
                                -46.507093,
                                -23.487669
                            ],
                            [
                                -46.507882,
                                -23.488838
                            ],
                            [
                                -46.506297,
                                -23.489873
                            ],
                            [
                                -46.505763,
                                -23.488546
                            ],
                            [
                                -46.506218,
                                -23.48808
                            ],
                            [
                                -46.506849,
                                -23.487648
                            ],
                            [
                                -46.506822,
                                -23.487454
                            ],
                            [
                                -46.506918,
                                -23.487406
                            ],
                            [
                                -46.507093,
                                -23.487669
                            ]
                        ]
                    ]
                ]
            }
        }
    ]
}