{
    "type": "FeatureCollection",
    "features": [
        {
            "type": "Feature",
            "properties": {
                "type": "site",
                "region_id": "BR_R001",
                "site_id": "BR_R001_0063",
                "version": "2.0.2",
                "status": "ignore",
                "mgrs": "23KPQ",
                "score": 1.0,
                "start_date": "2018-06-01",
                "end_date": "2021-03-31",
                "model_content": "annotation",
                "originator": "te",
                "validated": "True",
                "misc_info": {
                    "commit_hash": "b2a36269f1cbef9c8830197db1fd1e207add163e"
                }
            },
            "geometry": {
                "type": "Polygon",
                "coordinates": [
                    [
                        [
                            -43.414369,
                            -23.005965
                        ],
                        [
                            -43.413948,
                            -23.005925
                        ],
                        [
                            -43.413867,
                            -23.006567
                        ],
                        [
                            -43.414276,
                            -23.006607
                        ],
                        [
                            -43.414369,
                            -23.005965
                        ]
                    ]
                ]
            }
        },
        {
            "type": "Feature",
            "properties": {
                "observation_date": "2018-06-01",
                "source": null,
                "sensor_name": null,
                "type": "observation",
                "current_phase": null,
                "is_occluded": null,
                "is_site_boundary": null,
                "score": 1.0
            },
            "geometry": {
                "type": "MultiPolygon",
                "coordinates": [
                    [
                        [
                            [
                                -43.414369,
                                -23.005965
                            ],
                            [
                                -43.413948,
                                -23.005925
                            ],
                            [
                                -43.413867,
                                -23.006567
                            ],
                            [
                                -43.414276,
                                -23.006607
                            ],
                            [
                                -43.414369,
                                -23.005965
                            ]
                        ]
                    ]
                ]
            }
        },
        {
            "type": "Feature",
            "properties": {
                "observation_date": "2021-03-31",
                "source": null,
                "sensor_name": null,
                "type": "observation",
                "current_phase": null,
                "is_occluded": null,
                "is_site_boundary": null,
                "score": 1.0
            },
            "geometry": {
                "type": "MultiPolygon",
                "coordinates": [
                    [
                        [
                            [
                                -43.414369,
                                -23.005965
                            ],
                            [
                                -43.413948,
                                -23.005925
                            ],
                            [
                                -43.413867,
                                -23.006567
                            ],
                            [
                                -43.414276,
                                -23.006607
                            ],
                            [
                                -43.414369,
                                -23.005965
                            ]
                        ]
                    ]
                ]
            }
        }
    ]
}