{
    "type": "FeatureCollection",
    "features": [
        {
            "type": "Feature",
            "properties": {
                "type": "site",
                "region_id": "CH_R001",
                "site_id": "CH_R001_0200",
                "version": "2.0.0",
                "status": "positive_pending",
                "mgrs": "32TMT",
                "score": 1.0,
                "start_date": "2012-08-18",
                "end_date": "2016-09-06",
                "model_content": "annotation",
                "originator": "te",
                "validated": "True",
                "misc_info": {
                    "commit_hash": "8e2cc701facd37559ed12647d70a5e5b3622c6ca"
                }
            },
            "geometry": {
                "type": "Polygon",
                "coordinates": [
                    [
                        [
                            8.545602,
                            47.423698
                        ],
                        [
                            8.547437,
                            47.422946
                        ],
                        [
                            8.547074,
                            47.422617
                        ],
                        [
                            8.545714,
                            47.423338
                        ],
                        [
                            8.544492,
                            47.423804
                        ],
                        [
                            8.54462,
                            47.424069
                        ],
                        [
                            8.545602,
                            47.423698
                        ]
                    ]
                ]
            }
        },
        {
            "type": "Feature",
            "properties": {
                "observation_date": "2012-08-18",
                "source": null,
                "sensor_name": null,
                "type": "observation",
                "current_phase": null,
                "is_occluded": null,
                "is_site_boundary": null,
                "score": 1.0
            },
            "geometry": {
                "type": "MultiPolygon",
                "coordinates": [
                    [
                        [
                            [
                                8.545602,
                                47.423698
                            ],
                            [
                                8.547437,
                                47.422946
                            ],
                            [
                                8.547074,
                                47.422617
                            ],
                            [
                                8.545714,
                                47.423338
                            ],
                            [
                                8.544492,
                                47.423804
                            ],
                            [
                                8.54462,
                                47.424069
                            ],
                            [
                                8.545602,
                                47.423698
                            ]
                        ]
                    ]
                ]
            }
        },
        {
            "type": "Feature",
            "properties": {
                "observation_date": "2016-09-06",
                "source": null,
                "sensor_name": null,
                "type": "observation",
                "current_phase": null,
                "is_occluded": null,
                "is_site_boundary": null,
                "score": 1.0
            },
            "geometry": {
                "type": "MultiPolygon",
                "coordinates": [
                    [
                        [
                            [
                                8.545602,
                                47.423698
                            ],
                            [
                                8.547437,
                                47.422946
                            ],
                            [
                                8.547074,
                                47.422617
                            ],
                            [
                                8.545714,
                                47.423338
                            ],
                            [
                                8.544492,
                                47.423804
                            ],
                            [
                                8.54462,
                                47.424069
                            ],
                            [
                                8.545602,
                                47.423698
                            ]
                        ]
                    ]
                ]
            }
        }
    ]
}