{
    "type": "FeatureCollection",
    "features": [
        {
            "type": "Feature",
            "properties": {
                "type": "site",
                "region_id": "CH_R001",
                "site_id": "CH_R001_0171",
                "version": "2.0.0",
                "status": "positive_pending",
                "mgrs": "32TMT",
                "score": 1.0,
                "start_date": "2012-04-01",
                "end_date": "2015-07-14",
                "model_content": "annotation",
                "originator": "te",
                "validated": "True",
                "misc_info": {
                    "commit_hash": "8e2cc701facd37559ed12647d70a5e5b3622c6ca"
                }
            },
            "geometry": {
                "type": "Polygon",
                "coordinates": [
                    [
                        [
                            8.475663,
                            47.386015
                        ],
                        [
                            8.476604,
                            47.385726
                        ],
                        [
                            8.477503,
                            47.385372
                        ],
                        [
                            8.477753,
                            47.385281
                        ],
                        [
                            8.477637,
                            47.384848
                        ],
                        [
                            8.476231,
                            47.385173
                        ],
                        [
                            8.475331,
                            47.385498
                        ],
                        [
                            8.475663,
                            47.386015
                        ]
                    ]
                ]
            }
        },
        {
            "type": "Feature",
            "properties": {
                "observation_date": "2012-04-01",
                "source": null,
                "sensor_name": null,
                "type": "observation",
                "current_phase": null,
                "is_occluded": null,
                "is_site_boundary": null,
                "score": 1.0
            },
            "geometry": {
                "type": "MultiPolygon",
                "coordinates": [
                    [
                        [
                            [
                                8.475663,
                                47.386015
                            ],
                            [
                                8.476604,
                                47.385726
                            ],
                            [
                                8.477503,
                                47.385372
                            ],
                            [
                                8.477753,
                                47.385281
                            ],
                            [
                                8.477637,
                                47.384848
                            ],
                            [
                                8.476231,
                                47.385173
                            ],
                            [
                                8.475331,
                                47.385498
                            ],
                            [
                                8.475663,
                                47.386015
                            ]
                        ]
                    ]
                ]
            }
        },
        {
            "type": "Feature",
            "properties": {
                "observation_date": "2015-07-14",
                "source": null,
                "sensor_name": null,
                "type": "observation",
                "current_phase": null,
                "is_occluded": null,
                "is_site_boundary": null,
                "score": 1.0
            },
            "geometry": {
                "type": "MultiPolygon",
                "coordinates": [
                    [
                        [
                            [
                                8.475663,
                                47.386015
                            ],
                            [
                                8.476604,
                                47.385726
                            ],
                            [
                                8.477503,
                                47.385372
                            ],
                            [
                                8.477753,
                                47.385281
                            ],
                            [
                                8.477637,
                                47.384848
                            ],
                            [
                                8.476231,
                                47.385173
                            ],
                            [
                                8.475331,
                                47.385498
                            ],
                            [
                                8.475663,
                                47.386015
                            ]
                        ]
                    ]
                ]
            }
        }
    ]
}