{
    "type": "FeatureCollection",
    "features": [
        {
            "type": "Feature",
            "properties": {
                "type": "site",
                "region_id": "CH_R001",
                "site_id": "CH_R001_0019",
                "version": "2.1.0",
                "status": "positive_pending",
                "mgrs": "32TMT",
                "score": 1.0,
                "start_date": "2016-09-06",
                "end_date": "2021-04-04",
                "model_content": "annotation",
                "originator": "te",
                "validated": "True",
                "misc_info": {
                    "commit_hash": "b2a36269f1cbef9c8830197db1fd1e207add163e"
                }
            },
            "geometry": {
                "type": "Polygon",
                "coordinates": [
                    [
                        [
                            8.554517,
                            47.414896
                        ],
                        [
                            8.554783,
                            47.415117
                        ],
                        [
                            8.555631,
                            47.414962
                        ],
                        [
                            8.556398,
                            47.415583
                        ],
                        [
                            8.556361,
                            47.415759
                        ],
                        [
                            8.555196,
                            47.416425
                        ],
                        [
                            8.55512,
                            47.416392
                        ],
                        [
                            8.554951,
                            47.416468
                        ],
                        [
                            8.554331,
                            47.416044
                        ],
                        [
                            8.553511,
                            47.415124
                        ],
                        [
                            8.554517,
                            47.414896
                        ]
                    ]
                ]
            }
        },
        {
            "type": "Feature",
            "properties": {
                "observation_date": "2016-09-06",
                "source": null,
                "sensor_name": null,
                "type": "observation",
                "current_phase": null,
                "is_occluded": null,
                "is_site_boundary": null,
                "score": 1.0
            },
            "geometry": {
                "type": "MultiPolygon",
                "coordinates": [
                    [
                        [
                            [
                                8.554517,
                                47.414896
                            ],
                            [
                                8.554783,
                                47.415117
                            ],
                            [
                                8.555631,
                                47.414962
                            ],
                            [
                                8.556398,
                                47.415583
                            ],
                            [
                                8.556361,
                                47.415759
                            ],
                            [
                                8.555196,
                                47.416425
                            ],
                            [
                                8.55512,
                                47.416392
                            ],
                            [
                                8.554951,
                                47.416468
                            ],
                            [
                                8.554331,
                                47.416044
                            ],
                            [
                                8.553511,
                                47.415124
                            ],
                            [
                                8.554517,
                                47.414896
                            ]
                        ]
                    ]
                ]
            }
        },
        {
            "type": "Feature",
            "properties": {
                "observation_date": "2021-04-04",
                "source": null,
                "sensor_name": null,
                "type": "observation",
                "current_phase": null,
                "is_occluded": null,
                "is_site_boundary": null,
                "score": 1.0
            },
            "geometry": {
                "type": "MultiPolygon",
                "coordinates": [
                    [
                        [
                            [
                                8.554517,
                                47.414896
                            ],
                            [
                                8.554783,
                                47.415117
                            ],
                            [
                                8.555631,
                                47.414962
                            ],
                            [
                                8.556398,
                                47.415583
                            ],
                            [
                                8.556361,
                                47.415759
                            ],
                            [
                                8.555196,
                                47.416425
                            ],
                            [
                                8.55512,
                                47.416392
                            ],
                            [
                                8.554951,
                                47.416468
                            ],
                            [
                                8.554331,
                                47.416044
                            ],
                            [
                                8.553511,
                                47.415124
                            ],
                            [
                                8.554517,
                                47.414896
                            ]
                        ]
                    ]
                ]
            }
        }
    ]
}