{
    "type": "FeatureCollection",
    "features": [
        {
            "type": "Feature",
            "properties": {
                "type": "site",
                "region_id": "CH_R001",
                "site_id": "CH_R001_0198",
                "version": "2.0.0",
                "status": "positive_pending",
                "mgrs": "32TMT",
                "score": 1.0,
                "start_date": "2017-08-23",
                "end_date": null,
                "model_content": "annotation",
                "originator": "te",
                "validated": "True",
                "misc_info": {
                    "commit_hash": "8e2cc701facd37559ed12647d70a5e5b3622c6ca"
                }
            },
            "geometry": {
                "type": "Polygon",
                "coordinates": [
                    [
                        [
                            8.56281,
                            47.454076
                        ],
                        [
                            8.564018,
                            47.454543
                        ],
                        [
                            8.564381,
                            47.45368
                        ],
                        [
                            8.565291,
                            47.453679
                        ],
                        [
                            8.565498,
                            47.453238
                        ],
                        [
                            8.564763,
                            47.453068
                        ],
                        [
                            8.564078,
                            47.453162
                        ],
                        [
                            8.563566,
                            47.453115
                        ],
                        [
                            8.563023,
                            47.452815
                        ],
                        [
                            8.561984,
                            47.453463
                        ],
                        [
                            8.56281,
                            47.454076
                        ]
                    ]
                ]
            }
        },
        {
            "type": "Feature",
            "properties": {
                "observation_date": "2017-08-23",
                "source": null,
                "sensor_name": null,
                "type": "observation",
                "current_phase": null,
                "is_occluded": null,
                "is_site_boundary": null,
                "score": 1.0
            },
            "geometry": {
                "type": "MultiPolygon",
                "coordinates": [
                    [
                        [
                            [
                                8.56281,
                                47.454076
                            ],
                            [
                                8.564018,
                                47.454543
                            ],
                            [
                                8.564381,
                                47.45368
                            ],
                            [
                                8.565291,
                                47.453679
                            ],
                            [
                                8.565498,
                                47.453238
                            ],
                            [
                                8.564763,
                                47.453068
                            ],
                            [
                                8.564078,
                                47.453162
                            ],
                            [
                                8.563566,
                                47.453115
                            ],
                            [
                                8.563023,
                                47.452815
                            ],
                            [
                                8.561984,
                                47.453463
                            ],
                            [
                                8.56281,
                                47.454076
                            ]
                        ]
                    ]
                ]
            }
        },
        {
            "type": "Feature",
            "properties": {
                "observation_date": null,
                "source": null,
                "sensor_name": null,
                "type": "observation",
                "current_phase": null,
                "is_occluded": null,
                "is_site_boundary": null,
                "score": 1.0
            },
            "geometry": {
                "type": "MultiPolygon",
                "coordinates": [
                    [
                        [
                            [
                                8.56281,
                                47.454076
                            ],
                            [
                                8.564018,
                                47.454543
                            ],
                            [
                                8.564381,
                                47.45368
                            ],
                            [
                                8.565291,
                                47.453679
                            ],
                            [
                                8.565498,
                                47.453238
                            ],
                            [
                                8.564763,
                                47.453068
                            ],
                            [
                                8.564078,
                                47.453162
                            ],
                            [
                                8.563566,
                                47.453115
                            ],
                            [
                                8.563023,
                                47.452815
                            ],
                            [
                                8.561984,
                                47.453463
                            ],
                            [
                                8.56281,
                                47.454076
                            ]
                        ]
                    ]
                ]
            }
        }
    ]
}