{
    "type": "FeatureCollection",
    "features": [
        {
            "type": "Feature",
            "properties": {
                "type": "site",
                "region_id": "CH_R001",
                "site_id": "CH_R001_0160",
                "version": "2.0.0",
                "status": "positive_pending",
                "mgrs": "32TMT",
                "score": 1.0,
                "start_date": "2019-03-15",
                "end_date": "2022-06-13",
                "model_content": "annotation",
                "originator": "te",
                "validated": "True",
                "misc_info": {
                    "commit_hash": "8e2cc701facd37559ed12647d70a5e5b3622c6ca"
                }
            },
            "geometry": {
                "type": "Polygon",
                "coordinates": [
                    [
                        [
                            8.512191,
                            47.330478
                        ],
                        [
                            8.512887,
                            47.330496
                        ],
                        [
                            8.512902,
                            47.330009
                        ],
                        [
                            8.512924,
                            47.329826
                        ],
                        [
                            8.512929,
                            47.329391
                        ],
                        [
                            8.512786,
                            47.328907
                        ],
                        [
                            8.512455,
                            47.328819
                        ],
                        [
                            8.512137,
                            47.328825
                        ],
                        [
                            8.511831,
                            47.329048
                        ],
                        [
                            8.511868,
                            47.329135
                        ],
                        [
                            8.511711,
                            47.329254
                        ],
                        [
                            8.512002,
                            47.329835
                        ],
                        [
                            8.512191,
                            47.330478
                        ]
                    ]
                ]
            }
        },
        {
            "type": "Feature",
            "properties": {
                "observation_date": "2019-03-15",
                "source": null,
                "sensor_name": null,
                "type": "observation",
                "current_phase": null,
                "is_occluded": null,
                "is_site_boundary": null,
                "score": 1.0
            },
            "geometry": {
                "type": "MultiPolygon",
                "coordinates": [
                    [
                        [
                            [
                                8.512191,
                                47.330478
                            ],
                            [
                                8.512887,
                                47.330496
                            ],
                            [
                                8.512902,
                                47.330009
                            ],
                            [
                                8.512924,
                                47.329826
                            ],
                            [
                                8.512929,
                                47.329391
                            ],
                            [
                                8.512786,
                                47.328907
                            ],
                            [
                                8.512455,
                                47.328819
                            ],
                            [
                                8.512137,
                                47.328825
                            ],
                            [
                                8.511831,
                                47.329048
                            ],
                            [
                                8.511868,
                                47.329135
                            ],
                            [
                                8.511711,
                                47.329254
                            ],
                            [
                                8.512002,
                                47.329835
                            ],
                            [
                                8.512191,
                                47.330478
                            ]
                        ]
                    ]
                ]
            }
        },
        {
            "type": "Feature",
            "properties": {
                "observation_date": "2022-06-13",
                "source": null,
                "sensor_name": null,
                "type": "observation",
                "current_phase": null,
                "is_occluded": null,
                "is_site_boundary": null,
                "score": 1.0
            },
            "geometry": {
                "type": "MultiPolygon",
                "coordinates": [
                    [
                        [
                            [
                                8.512191,
                                47.330478
                            ],
                            [
                                8.512887,
                                47.330496
                            ],
                            [
                                8.512902,
                                47.330009
                            ],
                            [
                                8.512924,
                                47.329826
                            ],
                            [
                                8.512929,
                                47.329391
                            ],
                            [
                                8.512786,
                                47.328907
                            ],
                            [
                                8.512455,
                                47.328819
                            ],
                            [
                                8.512137,
                                47.328825
                            ],
                            [
                                8.511831,
                                47.329048
                            ],
                            [
                                8.511868,
                                47.329135
                            ],
                            [
                                8.511711,
                                47.329254
                            ],
                            [
                                8.512002,
                                47.329835
                            ],
                            [
                                8.512191,
                                47.330478
                            ]
                        ]
                    ]
                ]
            }
        }
    ]
}