{
    "type": "FeatureCollection",
    "features": [
        {
            "type": "Feature",
            "properties": {
                "type": "site",
                "region_id": "CH_R001",
                "site_id": "CH_R001_0176",
                "version": "2.0.0",
                "status": "positive_pending",
                "mgrs": "32TMT",
                "score": 1.0,
                "start_date": "2010-02-26",
                "end_date": "2015-07-14",
                "model_content": "annotation",
                "originator": "te",
                "validated": "True",
                "misc_info": {
                    "commit_hash": "8e2cc701facd37559ed12647d70a5e5b3622c6ca"
                }
            },
            "geometry": {
                "type": "Polygon",
                "coordinates": [
                    [
                        [
                            8.441867,
                            47.401203
                        ],
                        [
                            8.439429,
                            47.401108
                        ],
                        [
                            8.439477,
                            47.4006
                        ],
                        [
                            8.439618,
                            47.400519
                        ],
                        [
                            8.440303,
                            47.400541
                        ],
                        [
                            8.44031,
                            47.400292
                        ],
                        [
                            8.441302,
                            47.399923
                        ],
                        [
                            8.4414,
                            47.399156
                        ],
                        [
                            8.443222,
                            47.39938
                        ],
                        [
                            8.443138,
                            47.400591
                        ],
                        [
                            8.441906,
                            47.400532
                        ],
                        [
                            8.441867,
                            47.401203
                        ]
                    ]
                ]
            }
        },
        {
            "type": "Feature",
            "properties": {
                "observation_date": "2010-02-26",
                "source": null,
                "sensor_name": null,
                "type": "observation",
                "current_phase": null,
                "is_occluded": null,
                "is_site_boundary": null,
                "score": 1.0
            },
            "geometry": {
                "type": "MultiPolygon",
                "coordinates": [
                    [
                        [
                            [
                                8.441867,
                                47.401203
                            ],
                            [
                                8.439429,
                                47.401108
                            ],
                            [
                                8.439477,
                                47.4006
                            ],
                            [
                                8.439618,
                                47.400519
                            ],
                            [
                                8.440303,
                                47.400541
                            ],
                            [
                                8.44031,
                                47.400292
                            ],
                            [
                                8.441302,
                                47.399923
                            ],
                            [
                                8.4414,
                                47.399156
                            ],
                            [
                                8.443222,
                                47.39938
                            ],
                            [
                                8.443138,
                                47.400591
                            ],
                            [
                                8.441906,
                                47.400532
                            ],
                            [
                                8.441867,
                                47.401203
                            ]
                        ]
                    ]
                ]
            }
        },
        {
            "type": "Feature",
            "properties": {
                "observation_date": "2015-07-14",
                "source": null,
                "sensor_name": null,
                "type": "observation",
                "current_phase": null,
                "is_occluded": null,
                "is_site_boundary": null,
                "score": 1.0
            },
            "geometry": {
                "type": "MultiPolygon",
                "coordinates": [
                    [
                        [
                            [
                                8.441867,
                                47.401203
                            ],
                            [
                                8.439429,
                                47.401108
                            ],
                            [
                                8.439477,
                                47.4006
                            ],
                            [
                                8.439618,
                                47.400519
                            ],
                            [
                                8.440303,
                                47.400541
                            ],
                            [
                                8.44031,
                                47.400292
                            ],
                            [
                                8.441302,
                                47.399923
                            ],
                            [
                                8.4414,
                                47.399156
                            ],
                            [
                                8.443222,
                                47.39938
                            ],
                            [
                                8.443138,
                                47.400591
                            ],
                            [
                                8.441906,
                                47.400532
                            ],
                            [
                                8.441867,
                                47.401203
                            ]
                        ]
                    ]
                ]
            }
        }
    ]
}