{
    "type": "FeatureCollection",
    "features": [
        {
            "type": "Feature",
            "properties": {
                "type": "site",
                "region_id": "CH_R001",
                "site_id": "CH_R001_0213",
                "version": "2.0.0",
                "status": "positive_pending",
                "mgrs": "32TMT",
                "score": 1.0,
                "start_date": "2012-04-01",
                "end_date": "2016-09-06",
                "model_content": "annotation",
                "originator": "te",
                "validated": "True",
                "misc_info": {
                    "commit_hash": "8e2cc701facd37559ed12647d70a5e5b3622c6ca"
                }
            },
            "geometry": {
                "type": "Polygon",
                "coordinates": [
                    [
                        [
                            8.511416,
                            47.363664
                        ],
                        [
                            8.512358,
                            47.363912
                        ],
                        [
                            8.513191,
                            47.363834
                        ],
                        [
                            8.513517,
                            47.363358
                        ],
                        [
                            8.512053,
                            47.362973
                        ],
                        [
                            8.511841,
                            47.363408
                        ],
                        [
                            8.511617,
                            47.363373
                        ],
                        [
                            8.511416,
                            47.363664
                        ]
                    ]
                ]
            }
        },
        {
            "type": "Feature",
            "properties": {
                "observation_date": "2012-04-01",
                "source": null,
                "sensor_name": null,
                "type": "observation",
                "current_phase": null,
                "is_occluded": null,
                "is_site_boundary": null,
                "score": 1.0
            },
            "geometry": {
                "type": "MultiPolygon",
                "coordinates": [
                    [
                        [
                            [
                                8.511416,
                                47.363664
                            ],
                            [
                                8.512358,
                                47.363912
                            ],
                            [
                                8.513191,
                                47.363834
                            ],
                            [
                                8.513517,
                                47.363358
                            ],
                            [
                                8.512053,
                                47.362973
                            ],
                            [
                                8.511841,
                                47.363408
                            ],
                            [
                                8.511617,
                                47.363373
                            ],
                            [
                                8.511416,
                                47.363664
                            ]
                        ]
                    ]
                ]
            }
        },
        {
            "type": "Feature",
            "properties": {
                "observation_date": "2016-09-06",
                "source": null,
                "sensor_name": null,
                "type": "observation",
                "current_phase": null,
                "is_occluded": null,
                "is_site_boundary": null,
                "score": 1.0
            },
            "geometry": {
                "type": "MultiPolygon",
                "coordinates": [
                    [
                        [
                            [
                                8.511416,
                                47.363664
                            ],
                            [
                                8.512358,
                                47.363912
                            ],
                            [
                                8.513191,
                                47.363834
                            ],
                            [
                                8.513517,
                                47.363358
                            ],
                            [
                                8.512053,
                                47.362973
                            ],
                            [
                                8.511841,
                                47.363408
                            ],
                            [
                                8.511617,
                                47.363373
                            ],
                            [
                                8.511416,
                                47.363664
                            ]
                        ]
                    ]
                ]
            }
        }
    ]
}