{
    "type": "FeatureCollection",
    "features": [
        {
            "type": "Feature",
            "properties": {
                "type": "site",
                "region_id": "CH_R001",
                "site_id": "CH_R001_0172",
                "version": "2.0.0",
                "status": "positive_pending",
                "mgrs": "32TMT",
                "score": 1.0,
                "start_date": "2017-04-06",
                "end_date": "2021-04-03",
                "model_content": "annotation",
                "originator": "te",
                "validated": "True",
                "misc_info": {
                    "commit_hash": "8e2cc701facd37559ed12647d70a5e5b3622c6ca"
                }
            },
            "geometry": {
                "type": "Polygon",
                "coordinates": [
                    [
                        [
                            8.474642,
                            47.387481
                        ],
                        [
                            8.474554,
                            47.387364
                        ],
                        [
                            8.47483,
                            47.387231
                        ],
                        [
                            8.475197,
                            47.387661
                        ],
                        [
                            8.476046,
                            47.387518
                        ],
                        [
                            8.475683,
                            47.386989
                        ],
                        [
                            8.475373,
                            47.387032
                        ],
                        [
                            8.475154,
                            47.386744
                        ],
                        [
                            8.474344,
                            47.387079
                        ],
                        [
                            8.474161,
                            47.387108
                        ],
                        [
                            8.473874,
                            47.387255
                        ],
                        [
                            8.473791,
                            47.387462
                        ],
                        [
                            8.47404,
                            47.387722
                        ],
                        [
                            8.474642,
                            47.387481
                        ]
                    ]
                ]
            }
        },
        {
            "type": "Feature",
            "properties": {
                "observation_date": "2017-04-06",
                "source": null,
                "sensor_name": null,
                "type": "observation",
                "current_phase": null,
                "is_occluded": null,
                "is_site_boundary": null,
                "score": 1.0
            },
            "geometry": {
                "type": "MultiPolygon",
                "coordinates": [
                    [
                        [
                            [
                                8.474642,
                                47.387481
                            ],
                            [
                                8.474554,
                                47.387364
                            ],
                            [
                                8.47483,
                                47.387231
                            ],
                            [
                                8.475197,
                                47.387661
                            ],
                            [
                                8.476046,
                                47.387518
                            ],
                            [
                                8.475683,
                                47.386989
                            ],
                            [
                                8.475373,
                                47.387032
                            ],
                            [
                                8.475154,
                                47.386744
                            ],
                            [
                                8.474344,
                                47.387079
                            ],
                            [
                                8.474161,
                                47.387108
                            ],
                            [
                                8.473874,
                                47.387255
                            ],
                            [
                                8.473791,
                                47.387462
                            ],
                            [
                                8.47404,
                                47.387722
                            ],
                            [
                                8.474642,
                                47.387481
                            ]
                        ]
                    ]
                ]
            }
        },
        {
            "type": "Feature",
            "properties": {
                "observation_date": "2021-04-03",
                "source": null,
                "sensor_name": null,
                "type": "observation",
                "current_phase": null,
                "is_occluded": null,
                "is_site_boundary": null,
                "score": 1.0
            },
            "geometry": {
                "type": "MultiPolygon",
                "coordinates": [
                    [
                        [
                            [
                                8.474642,
                                47.387481
                            ],
                            [
                                8.474554,
                                47.387364
                            ],
                            [
                                8.47483,
                                47.387231
                            ],
                            [
                                8.475197,
                                47.387661
                            ],
                            [
                                8.476046,
                                47.387518
                            ],
                            [
                                8.475683,
                                47.386989
                            ],
                            [
                                8.475373,
                                47.387032
                            ],
                            [
                                8.475154,
                                47.386744
                            ],
                            [
                                8.474344,
                                47.387079
                            ],
                            [
                                8.474161,
                                47.387108
                            ],
                            [
                                8.473874,
                                47.387255
                            ],
                            [
                                8.473791,
                                47.387462
                            ],
                            [
                                8.47404,
                                47.387722
                            ],
                            [
                                8.474642,
                                47.387481
                            ]
                        ]
                    ]
                ]
            }
        }
    ]
}