{
    "type": "FeatureCollection",
    "features": [
        {
            "type": "Feature",
            "properties": {
                "type": "site",
                "region_id": "CH_R001",
                "site_id": "CH_R001_0003",
                "version": "2.0.1",
                "status": "ignore",
                "mgrs": "32TMT",
                "score": 1.0,
                "start_date": "2020-03-01",
                "end_date": "2021-04-30",
                "model_content": "annotation",
                "originator": "te",
                "validated": "True",
                "misc_info": {
                    "commit_hash": "b2a36269f1cbef9c8830197db1fd1e207add163e"
                }
            },
            "geometry": {
                "type": "Polygon",
                "coordinates": [
                    [
                        [
                            8.557715,
                            47.417147
                        ],
                        [
                            8.558137,
                            47.416332
                        ],
                        [
                            8.556595,
                            47.416035
                        ],
                        [
                            8.556124,
                            47.416831
                        ],
                        [
                            8.557715,
                            47.417147
                        ]
                    ]
                ]
            }
        },
        {
            "type": "Feature",
            "properties": {
                "observation_date": "2020-03-01",
                "source": null,
                "sensor_name": null,
                "type": "observation",
                "current_phase": null,
                "is_occluded": null,
                "is_site_boundary": null,
                "score": 1.0
            },
            "geometry": {
                "type": "MultiPolygon",
                "coordinates": [
                    [
                        [
                            [
                                8.557715,
                                47.417147
                            ],
                            [
                                8.558137,
                                47.416332
                            ],
                            [
                                8.556595,
                                47.416035
                            ],
                            [
                                8.556124,
                                47.416831
                            ],
                            [
                                8.557715,
                                47.417147
                            ]
                        ]
                    ]
                ]
            }
        },
        {
            "type": "Feature",
            "properties": {
                "observation_date": "2021-04-30",
                "source": null,
                "sensor_name": null,
                "type": "observation",
                "current_phase": null,
                "is_occluded": null,
                "is_site_boundary": null,
                "score": 1.0
            },
            "geometry": {
                "type": "MultiPolygon",
                "coordinates": [
                    [
                        [
                            [
                                8.557715,
                                47.417147
                            ],
                            [
                                8.558137,
                                47.416332
                            ],
                            [
                                8.556595,
                                47.416035
                            ],
                            [
                                8.556124,
                                47.416831
                            ],
                            [
                                8.557715,
                                47.417147
                            ]
                        ]
                    ]
                ]
            }
        }
    ]
}