{
    "type": "FeatureCollection",
    "features": [
        {
            "type": "Feature",
            "properties": {
                "type": "site",
                "region_id": "CH_R001",
                "site_id": "CH_R001_0214",
                "version": "2.0.0",
                "status": "positive_pending",
                "mgrs": "32TMT",
                "score": 1.0,
                "start_date": "2020-03-18",
                "end_date": null,
                "model_content": "annotation",
                "originator": "te",
                "validated": "True",
                "misc_info": {
                    "commit_hash": "8e2cc701facd37559ed12647d70a5e5b3622c6ca"
                }
            },
            "geometry": {
                "type": "Polygon",
                "coordinates": [
                    [
                        [
                            8.496449,
                            47.369456
                        ],
                        [
                            8.496327,
                            47.369851
                        ],
                        [
                            8.496948,
                            47.370372
                        ],
                        [
                            8.49708,
                            47.370367
                        ],
                        [
                            8.49755,
                            47.37031
                        ],
                        [
                            8.4979,
                            47.37025
                        ],
                        [
                            8.498182,
                            47.370059
                        ],
                        [
                            8.498401,
                            47.369786
                        ],
                        [
                            8.496738,
                            47.369191
                        ],
                        [
                            8.496449,
                            47.369456
                        ]
                    ]
                ]
            }
        },
        {
            "type": "Feature",
            "properties": {
                "observation_date": "2020-03-18",
                "source": null,
                "sensor_name": null,
                "type": "observation",
                "current_phase": null,
                "is_occluded": null,
                "is_site_boundary": null,
                "score": 1.0
            },
            "geometry": {
                "type": "MultiPolygon",
                "coordinates": [
                    [
                        [
                            [
                                8.496449,
                                47.369456
                            ],
                            [
                                8.496327,
                                47.369851
                            ],
                            [
                                8.496948,
                                47.370372
                            ],
                            [
                                8.49708,
                                47.370367
                            ],
                            [
                                8.49755,
                                47.37031
                            ],
                            [
                                8.4979,
                                47.37025
                            ],
                            [
                                8.498182,
                                47.370059
                            ],
                            [
                                8.498401,
                                47.369786
                            ],
                            [
                                8.496738,
                                47.369191
                            ],
                            [
                                8.496449,
                                47.369456
                            ]
                        ]
                    ]
                ]
            }
        },
        {
            "type": "Feature",
            "properties": {
                "observation_date": null,
                "source": null,
                "sensor_name": null,
                "type": "observation",
                "current_phase": null,
                "is_occluded": null,
                "is_site_boundary": null,
                "score": 1.0
            },
            "geometry": {
                "type": "MultiPolygon",
                "coordinates": [
                    [
                        [
                            [
                                8.496449,
                                47.369456
                            ],
                            [
                                8.496327,
                                47.369851
                            ],
                            [
                                8.496948,
                                47.370372
                            ],
                            [
                                8.49708,
                                47.370367
                            ],
                            [
                                8.49755,
                                47.37031
                            ],
                            [
                                8.4979,
                                47.37025
                            ],
                            [
                                8.498182,
                                47.370059
                            ],
                            [
                                8.498401,
                                47.369786
                            ],
                            [
                                8.496738,
                                47.369191
                            ],
                            [
                                8.496449,
                                47.369456
                            ]
                        ]
                    ]
                ]
            }
        }
    ]
}