{
    "type": "FeatureCollection",
    "features": [
        {
            "type": "Feature",
            "properties": {
                "type": "site",
                "region_id": "CH_R001",
                "site_id": "CH_R001_0162",
                "version": "2.0.0",
                "status": "positive_excluded",
                "mgrs": "32TMT",
                "score": 1.0,
                "start_date": "2020-03-18",
                "end_date": null,
                "model_content": "annotation",
                "originator": "te",
                "validated": "True",
                "misc_info": {
                    "commit_hash": "8e2cc701facd37559ed12647d70a5e5b3622c6ca"
                }
            },
            "geometry": {
                "type": "Polygon",
                "coordinates": [
                    [
                        [
                            8.483968,
                            47.376392
                        ],
                        [
                            8.484265,
                            47.376472
                        ],
                        [
                            8.48423,
                            47.376748
                        ],
                        [
                            8.484105,
                            47.37692
                        ],
                        [
                            8.484609,
                            47.37706
                        ],
                        [
                            8.484758,
                            47.376283
                        ],
                        [
                            8.484698,
                            47.376017
                        ],
                        [
                            8.484627,
                            47.375844
                        ],
                        [
                            8.484385,
                            47.375765
                        ],
                        [
                            8.483968,
                            47.376392
                        ]
                    ]
                ]
            }
        },
        {
            "type": "Feature",
            "properties": {
                "observation_date": "2020-03-18",
                "source": null,
                "sensor_name": null,
                "type": "observation",
                "current_phase": null,
                "is_occluded": null,
                "is_site_boundary": null,
                "score": 1.0
            },
            "geometry": {
                "type": "MultiPolygon",
                "coordinates": [
                    [
                        [
                            [
                                8.483968,
                                47.376392
                            ],
                            [
                                8.484265,
                                47.376472
                            ],
                            [
                                8.48423,
                                47.376748
                            ],
                            [
                                8.484105,
                                47.37692
                            ],
                            [
                                8.484609,
                                47.37706
                            ],
                            [
                                8.484758,
                                47.376283
                            ],
                            [
                                8.484698,
                                47.376017
                            ],
                            [
                                8.484627,
                                47.375844
                            ],
                            [
                                8.484385,
                                47.375765
                            ],
                            [
                                8.483968,
                                47.376392
                            ]
                        ]
                    ]
                ]
            }
        },
        {
            "type": "Feature",
            "properties": {
                "observation_date": null,
                "source": null,
                "sensor_name": null,
                "type": "observation",
                "current_phase": null,
                "is_occluded": null,
                "is_site_boundary": null,
                "score": 1.0
            },
            "geometry": {
                "type": "MultiPolygon",
                "coordinates": [
                    [
                        [
                            [
                                8.483968,
                                47.376392
                            ],
                            [
                                8.484265,
                                47.376472
                            ],
                            [
                                8.48423,
                                47.376748
                            ],
                            [
                                8.484105,
                                47.37692
                            ],
                            [
                                8.484609,
                                47.37706
                            ],
                            [
                                8.484758,
                                47.376283
                            ],
                            [
                                8.484698,
                                47.376017
                            ],
                            [
                                8.484627,
                                47.375844
                            ],
                            [
                                8.484385,
                                47.375765
                            ],
                            [
                                8.483968,
                                47.376392
                            ]
                        ]
                    ]
                ]
            }
        }
    ]
}