{
    "type": "FeatureCollection",
    "features": [
        {
            "type": "Feature",
            "properties": {
                "type": "site",
                "region_id": "CH_R001",
                "site_id": "CH_R001_0186",
                "version": "2.0.0",
                "status": "positive_pending",
                "mgrs": "32TMT",
                "score": 1.0,
                "start_date": "2010-07-30",
                "end_date": "2017-08-23",
                "model_content": "annotation",
                "originator": "te",
                "validated": "True",
                "misc_info": {
                    "commit_hash": "8e2cc701facd37559ed12647d70a5e5b3622c6ca"
                }
            },
            "geometry": {
                "type": "Polygon",
                "coordinates": [
                    [
                        [
                            8.536379,
                            47.388026
                        ],
                        [
                            8.537061,
                            47.387209
                        ],
                        [
                            8.535592,
                            47.386932
                        ],
                        [
                            8.535231,
                            47.387115
                        ],
                        [
                            8.536379,
                            47.388026
                        ]
                    ]
                ]
            }
        },
        {
            "type": "Feature",
            "properties": {
                "observation_date": "2010-07-30",
                "source": null,
                "sensor_name": null,
                "type": "observation",
                "current_phase": null,
                "is_occluded": null,
                "is_site_boundary": null,
                "score": 1.0
            },
            "geometry": {
                "type": "MultiPolygon",
                "coordinates": [
                    [
                        [
                            [
                                8.536379,
                                47.388026
                            ],
                            [
                                8.537061,
                                47.387209
                            ],
                            [
                                8.535592,
                                47.386932
                            ],
                            [
                                8.535231,
                                47.387115
                            ],
                            [
                                8.536379,
                                47.388026
                            ]
                        ]
                    ]
                ]
            }
        },
        {
            "type": "Feature",
            "properties": {
                "observation_date": "2017-08-23",
                "source": null,
                "sensor_name": null,
                "type": "observation",
                "current_phase": null,
                "is_occluded": null,
                "is_site_boundary": null,
                "score": 1.0
            },
            "geometry": {
                "type": "MultiPolygon",
                "coordinates": [
                    [
                        [
                            [
                                8.536379,
                                47.388026
                            ],
                            [
                                8.537061,
                                47.387209
                            ],
                            [
                                8.535592,
                                47.386932
                            ],
                            [
                                8.535231,
                                47.387115
                            ],
                            [
                                8.536379,
                                47.388026
                            ]
                        ]
                    ]
                ]
            }
        }
    ]
}