{
    "type": "FeatureCollection",
    "features": [
        {
            "type": "Feature",
            "properties": {
                "type": "site",
                "region_id": "KR_R002",
                "site_id": "KR_R002_0005",
                "version": "2.1.0",
                "status": "positive_pending",
                "mgrs": "52SDG",
                "score": 1.0,
                "start_date": "2015-07-28",
                "end_date": "2019-10-30",
                "model_content": "annotation",
                "originator": "te",
                "validated": "True",
                "misc_info": {
                    "commit_hash": "b2a36269f1cbef9c8830197db1fd1e207add163e"
                }
            },
            "geometry": {
                "type": "Polygon",
                "coordinates": [
                    [
                        [
                            128.903764,
                            37.782014
                        ],
                        [
                            128.902917,
                            37.780869
                        ],
                        [
                            128.902875,
                            37.780421
                        ],
                        [
                            128.903103,
                            37.780051
                        ],
                        [
                            128.903524,
                            37.779866
                        ],
                        [
                            128.904085,
                            37.779802
                        ],
                        [
                            128.904773,
                            37.780166
                        ],
                        [
                            128.904842,
                            37.780404
                        ],
                        [
                            128.904341,
                            37.781007
                        ],
                        [
                            128.904361,
                            37.781443
                        ],
                        [
                            128.903764,
                            37.782014
                        ]
                    ]
                ]
            }
        },
        {
            "type": "Feature",
            "properties": {
                "observation_date": "2015-07-28",
                "source": null,
                "sensor_name": null,
                "type": "observation",
                "current_phase": null,
                "is_occluded": null,
                "is_site_boundary": null,
                "score": 1.0
            },
            "geometry": {
                "type": "MultiPolygon",
                "coordinates": [
                    [
                        [
                            [
                                128.903764,
                                37.782014
                            ],
                            [
                                128.902917,
                                37.780869
                            ],
                            [
                                128.902875,
                                37.780421
                            ],
                            [
                                128.903103,
                                37.780051
                            ],
                            [
                                128.903524,
                                37.779866
                            ],
                            [
                                128.904085,
                                37.779802
                            ],
                            [
                                128.904773,
                                37.780166
                            ],
                            [
                                128.904842,
                                37.780404
                            ],
                            [
                                128.904341,
                                37.781007
                            ],
                            [
                                128.904361,
                                37.781443
                            ],
                            [
                                128.903764,
                                37.782014
                            ]
                        ]
                    ]
                ]
            }
        },
        {
            "type": "Feature",
            "properties": {
                "observation_date": "2019-10-30",
                "source": null,
                "sensor_name": null,
                "type": "observation",
                "current_phase": null,
                "is_occluded": null,
                "is_site_boundary": null,
                "score": 1.0
            },
            "geometry": {
                "type": "MultiPolygon",
                "coordinates": [
                    [
                        [
                            [
                                128.903764,
                                37.782014
                            ],
                            [
                                128.902917,
                                37.780869
                            ],
                            [
                                128.902875,
                                37.780421
                            ],
                            [
                                128.903103,
                                37.780051
                            ],
                            [
                                128.903524,
                                37.779866
                            ],
                            [
                                128.904085,
                                37.779802
                            ],
                            [
                                128.904773,
                                37.780166
                            ],
                            [
                                128.904842,
                                37.780404
                            ],
                            [
                                128.904341,
                                37.781007
                            ],
                            [
                                128.904361,
                                37.781443
                            ],
                            [
                                128.903764,
                                37.782014
                            ]
                        ]
                    ]
                ]
            }
        }
    ]
}