{
    "type": "FeatureCollection",
    "features": [
        {
            "type": "Feature",
            "properties": {
                "type": "site",
                "region_id": "KR_R001",
                "site_id": "KR_R001_0025",
                "version": "2.0.0",
                "status": "positive_pending",
                "mgrs": "52SDG",
                "score": 1.0,
                "start_date": "2016-06-02",
                "end_date": "2018-01-31",
                "model_content": "annotation",
                "originator": "te",
                "validated": "True",
                "misc_info": {
                    "commit_hash": "8e2cc701facd37559ed12647d70a5e5b3622c6ca"
                }
            },
            "geometry": {
                "type": "Polygon",
                "coordinates": [
                    [
                        [
                            128.698308,
                            37.681788
                        ],
                        [
                            128.698696,
                            37.681221
                        ],
                        [
                            128.698917,
                            37.681436
                        ],
                        [
                            128.698919,
                            37.681675
                        ],
                        [
                            128.699237,
                            37.681765
                        ],
                        [
                            128.699399,
                            37.68155
                        ],
                        [
                            128.699833,
                            37.681712
                        ],
                        [
                            128.69988,
                            37.682165
                        ],
                        [
                            128.699785,
                            37.682726
                        ],
                        [
                            128.698532,
                            37.682684
                        ],
                        [
                            128.698502,
                            37.682776
                        ],
                        [
                            128.698001,
                            37.682646
                        ],
                        [
                            128.698308,
                            37.681788
                        ]
                    ]
                ]
            }
        },
        {
            "type": "Feature",
            "properties": {
                "observation_date": "2016-06-02",
                "source": null,
                "sensor_name": null,
                "type": "observation",
                "current_phase": null,
                "is_occluded": null,
                "is_site_boundary": null,
                "score": 1.0
            },
            "geometry": {
                "type": "MultiPolygon",
                "coordinates": [
                    [
                        [
                            [
                                128.698308,
                                37.681788
                            ],
                            [
                                128.698696,
                                37.681221
                            ],
                            [
                                128.698917,
                                37.681436
                            ],
                            [
                                128.698919,
                                37.681675
                            ],
                            [
                                128.699237,
                                37.681765
                            ],
                            [
                                128.699399,
                                37.68155
                            ],
                            [
                                128.699833,
                                37.681712
                            ],
                            [
                                128.69988,
                                37.682165
                            ],
                            [
                                128.699785,
                                37.682726
                            ],
                            [
                                128.698532,
                                37.682684
                            ],
                            [
                                128.698502,
                                37.682776
                            ],
                            [
                                128.698001,
                                37.682646
                            ],
                            [
                                128.698308,
                                37.681788
                            ]
                        ]
                    ]
                ]
            }
        },
        {
            "type": "Feature",
            "properties": {
                "observation_date": "2018-01-31",
                "source": null,
                "sensor_name": null,
                "type": "observation",
                "current_phase": null,
                "is_occluded": null,
                "is_site_boundary": null,
                "score": 1.0
            },
            "geometry": {
                "type": "MultiPolygon",
                "coordinates": [
                    [
                        [
                            [
                                128.698308,
                                37.681788
                            ],
                            [
                                128.698696,
                                37.681221
                            ],
                            [
                                128.698917,
                                37.681436
                            ],
                            [
                                128.698919,
                                37.681675
                            ],
                            [
                                128.699237,
                                37.681765
                            ],
                            [
                                128.699399,
                                37.68155
                            ],
                            [
                                128.699833,
                                37.681712
                            ],
                            [
                                128.69988,
                                37.682165
                            ],
                            [
                                128.699785,
                                37.682726
                            ],
                            [
                                128.698532,
                                37.682684
                            ],
                            [
                                128.698502,
                                37.682776
                            ],
                            [
                                128.698001,
                                37.682646
                            ],
                            [
                                128.698308,
                                37.681788
                            ]
                        ]
                    ]
                ]
            }
        }
    ]
}