{
    "type": "FeatureCollection",
    "features": [
        {
            "type": "Feature",
            "properties": {
                "type": "site",
                "region_id": "LT_R001",
                "site_id": "LT_R001_0132",
                "version": "2.0.0",
                "status": "positive_pending",
                "mgrs": "34UFF",
                "score": 1.0,
                "start_date": "2016-06-28",
                "end_date": "2017-07-31",
                "model_content": "annotation",
                "originator": "te",
                "validated": "True",
                "misc_info": {
                    "commit_hash": "8e2cc701facd37559ed12647d70a5e5b3622c6ca"
                }
            },
            "geometry": {
                "type": "Polygon",
                "coordinates": [
                    [
                        [
                            23.949345,
                            54.919905
                        ],
                        [
                            23.950821,
                            54.918837
                        ],
                        [
                            23.949852,
                            54.918372
                        ],
                        [
                            23.948458,
                            54.919564
                        ],
                        [
                            23.949345,
                            54.919905
                        ]
                    ]
                ]
            }
        },
        {
            "type": "Feature",
            "properties": {
                "observation_date": "2016-06-28",
                "source": null,
                "sensor_name": null,
                "type": "observation",
                "current_phase": null,
                "is_occluded": null,
                "is_site_boundary": null,
                "score": 1.0
            },
            "geometry": {
                "type": "MultiPolygon",
                "coordinates": [
                    [
                        [
                            [
                                23.949345,
                                54.919905
                            ],
                            [
                                23.950821,
                                54.918837
                            ],
                            [
                                23.949852,
                                54.918372
                            ],
                            [
                                23.948458,
                                54.919564
                            ],
                            [
                                23.949345,
                                54.919905
                            ]
                        ]
                    ]
                ]
            }
        },
        {
            "type": "Feature",
            "properties": {
                "observation_date": "2017-07-31",
                "source": null,
                "sensor_name": null,
                "type": "observation",
                "current_phase": null,
                "is_occluded": null,
                "is_site_boundary": null,
                "score": 1.0
            },
            "geometry": {
                "type": "MultiPolygon",
                "coordinates": [
                    [
                        [
                            [
                                23.949345,
                                54.919905
                            ],
                            [
                                23.950821,
                                54.918837
                            ],
                            [
                                23.949852,
                                54.918372
                            ],
                            [
                                23.948458,
                                54.919564
                            ],
                            [
                                23.949345,
                                54.919905
                            ]
                        ]
                    ]
                ]
            }
        }
    ]
}