{
    "type": "FeatureCollection",
    "features": [
        {
            "type": "Feature",
            "properties": {
                "type": "site",
                "region_id": "LT_R001",
                "site_id": "LT_R001_0140",
                "version": "2.0.0",
                "status": "positive_pending",
                "mgrs": "35ULA",
                "score": 1.0,
                "start_date": "2020-08-16",
                "end_date": "2023-09-14",
                "model_content": "annotation",
                "originator": "te",
                "validated": "True",
                "misc_info": {
                    "commit_hash": "8e2cc701facd37559ed12647d70a5e5b3622c6ca"
                }
            },
            "geometry": {
                "type": "Polygon",
                "coordinates": [
                    [
                        [
                            23.997901,
                            54.938477
                        ],
                        [
                            23.999345,
                            54.939059
                        ],
                        [
                            24.001213,
                            54.938305
                        ],
                        [
                            24.004976,
                            54.93566
                        ],
                        [
                            24.002109,
                            54.934899
                        ],
                        [
                            23.998824,
                            54.937276
                        ],
                        [
                            23.997901,
                            54.938477
                        ]
                    ]
                ]
            }
        },
        {
            "type": "Feature",
            "properties": {
                "observation_date": "2020-08-16",
                "source": null,
                "sensor_name": null,
                "type": "observation",
                "current_phase": null,
                "is_occluded": null,
                "is_site_boundary": null,
                "score": 1.0
            },
            "geometry": {
                "type": "MultiPolygon",
                "coordinates": [
                    [
                        [
                            [
                                23.997901,
                                54.938477
                            ],
                            [
                                23.999345,
                                54.939059
                            ],
                            [
                                24.001213,
                                54.938305
                            ],
                            [
                                24.004976,
                                54.93566
                            ],
                            [
                                24.002109,
                                54.934899
                            ],
                            [
                                23.998824,
                                54.937276
                            ],
                            [
                                23.997901,
                                54.938477
                            ]
                        ]
                    ]
                ]
            }
        },
        {
            "type": "Feature",
            "properties": {
                "observation_date": "2023-09-14",
                "source": null,
                "sensor_name": null,
                "type": "observation",
                "current_phase": null,
                "is_occluded": null,
                "is_site_boundary": null,
                "score": 1.0
            },
            "geometry": {
                "type": "MultiPolygon",
                "coordinates": [
                    [
                        [
                            [
                                23.997901,
                                54.938477
                            ],
                            [
                                23.999345,
                                54.939059
                            ],
                            [
                                24.001213,
                                54.938305
                            ],
                            [
                                24.004976,
                                54.93566
                            ],
                            [
                                24.002109,
                                54.934899
                            ],
                            [
                                23.998824,
                                54.937276
                            ],
                            [
                                23.997901,
                                54.938477
                            ]
                        ]
                    ]
                ]
            }
        }
    ]
}