{
    "type": "FeatureCollection",
    "features": [
        {
            "type": "Feature",
            "properties": {
                "type": "site",
                "region_id": "LT_R001",
                "site_id": "LT_R001_0144",
                "version": "2.0.0",
                "status": "positive_pending",
                "mgrs": "35ULA",
                "score": 1.0,
                "start_date": "2016-09-22",
                "end_date": "2019-06-05",
                "model_content": "annotation",
                "originator": "te",
                "validated": "True",
                "misc_info": {
                    "commit_hash": "8e2cc701facd37559ed12647d70a5e5b3622c6ca"
                }
            },
            "geometry": {
                "type": "Polygon",
                "coordinates": [
                    [
                        [
                            24.023918,
                            54.90251
                        ],
                        [
                            24.024298,
                            54.902566
                        ],
                        [
                            24.025229,
                            54.902044
                        ],
                        [
                            24.024294,
                            54.901614
                        ],
                        [
                            24.023847,
                            54.901825
                        ],
                        [
                            24.023543,
                            54.901766
                        ],
                        [
                            24.023043,
                            54.901933
                        ],
                        [
                            24.022636,
                            54.902072
                        ],
                        [
                            24.022525,
                            54.902185
                        ],
                        [
                            24.023918,
                            54.90251
                        ]
                    ]
                ]
            }
        },
        {
            "type": "Feature",
            "properties": {
                "observation_date": "2016-09-22",
                "source": null,
                "sensor_name": null,
                "type": "observation",
                "current_phase": null,
                "is_occluded": null,
                "is_site_boundary": null,
                "score": 1.0
            },
            "geometry": {
                "type": "MultiPolygon",
                "coordinates": [
                    [
                        [
                            [
                                24.023918,
                                54.90251
                            ],
                            [
                                24.024298,
                                54.902566
                            ],
                            [
                                24.025229,
                                54.902044
                            ],
                            [
                                24.024294,
                                54.901614
                            ],
                            [
                                24.023847,
                                54.901825
                            ],
                            [
                                24.023543,
                                54.901766
                            ],
                            [
                                24.023043,
                                54.901933
                            ],
                            [
                                24.022636,
                                54.902072
                            ],
                            [
                                24.022525,
                                54.902185
                            ],
                            [
                                24.023918,
                                54.90251
                            ]
                        ]
                    ]
                ]
            }
        },
        {
            "type": "Feature",
            "properties": {
                "observation_date": "2019-06-05",
                "source": null,
                "sensor_name": null,
                "type": "observation",
                "current_phase": null,
                "is_occluded": null,
                "is_site_boundary": null,
                "score": 1.0
            },
            "geometry": {
                "type": "MultiPolygon",
                "coordinates": [
                    [
                        [
                            [
                                24.023918,
                                54.90251
                            ],
                            [
                                24.024298,
                                54.902566
                            ],
                            [
                                24.025229,
                                54.902044
                            ],
                            [
                                24.024294,
                                54.901614
                            ],
                            [
                                24.023847,
                                54.901825
                            ],
                            [
                                24.023543,
                                54.901766
                            ],
                            [
                                24.023043,
                                54.901933
                            ],
                            [
                                24.022636,
                                54.902072
                            ],
                            [
                                24.022525,
                                54.902185
                            ],
                            [
                                24.023918,
                                54.90251
                            ]
                        ]
                    ]
                ]
            }
        }
    ]
}