{
    "type": "FeatureCollection",
    "features": [
        {
            "type": "Feature",
            "properties": {
                "type": "site",
                "region_id": "NZ_R002",
                "site_id": "NZ_R002_0008",
                "version": "2.2.0",
                "status": "positive_pending",
                "mgrs": "59GPM",
                "score": 1.0,
                "start_date": "2019-09-28",
                "end_date": "2021-03-05",
                "model_content": "annotation",
                "originator": "te",
                "validated": "True",
                "misc_info": {
                    "commit_hash": "b2a36269f1cbef9c8830197db1fd1e207add163e"
                }
            },
            "geometry": {
                "type": "Polygon",
                "coordinates": [
                    [
                        [
                            172.509719,
                            -43.561699
                        ],
                        [
                            172.508824,
                            -43.562805
                        ],
                        [
                            172.511132,
                            -43.563787
                        ],
                        [
                            172.51151,
                            -43.563312
                        ],
                        [
                            172.51245,
                            -43.563689
                        ],
                        [
                            172.513366,
                            -43.562554
                        ],
                        [
                            172.511893,
                            -43.56193
                        ],
                        [
                            172.511491,
                            -43.56241
                        ],
                        [
                            172.509719,
                            -43.561699
                        ]
                    ]
                ]
            }
        },
        {
            "type": "Feature",
            "properties": {
                "observation_date": "2019-09-28",
                "source": null,
                "sensor_name": null,
                "type": "observation",
                "current_phase": null,
                "is_occluded": null,
                "is_site_boundary": null,
                "score": 1.0
            },
            "geometry": {
                "type": "MultiPolygon",
                "coordinates": [
                    [
                        [
                            [
                                172.509719,
                                -43.561699
                            ],
                            [
                                172.508824,
                                -43.562805
                            ],
                            [
                                172.511132,
                                -43.563787
                            ],
                            [
                                172.51151,
                                -43.563312
                            ],
                            [
                                172.51245,
                                -43.563689
                            ],
                            [
                                172.513366,
                                -43.562554
                            ],
                            [
                                172.511893,
                                -43.56193
                            ],
                            [
                                172.511491,
                                -43.56241
                            ],
                            [
                                172.509719,
                                -43.561699
                            ]
                        ]
                    ]
                ]
            }
        },
        {
            "type": "Feature",
            "properties": {
                "observation_date": "2021-03-05",
                "source": null,
                "sensor_name": null,
                "type": "observation",
                "current_phase": null,
                "is_occluded": null,
                "is_site_boundary": null,
                "score": 1.0
            },
            "geometry": {
                "type": "MultiPolygon",
                "coordinates": [
                    [
                        [
                            [
                                172.509719,
                                -43.561699
                            ],
                            [
                                172.508824,
                                -43.562805
                            ],
                            [
                                172.511132,
                                -43.563787
                            ],
                            [
                                172.51151,
                                -43.563312
                            ],
                            [
                                172.51245,
                                -43.563689
                            ],
                            [
                                172.513366,
                                -43.562554
                            ],
                            [
                                172.511893,
                                -43.56193
                            ],
                            [
                                172.511491,
                                -43.56241
                            ],
                            [
                                172.509719,
                                -43.561699
                            ]
                        ]
                    ]
                ]
            }
        }
    ]
}