{
    "type": "FeatureCollection",
    "features": [
        {
            "type": "Feature",
            "properties": {
                "type": "site",
                "region_id": "NZ_R001",
                "site_id": "NZ_R001_0069",
                "version": "2.0.0",
                "status": "positive_excluded",
                "mgrs": "59GPM",
                "score": 1.0,
                "start_date": "2015-09-06",
                "end_date": "2017-11-29",
                "model_content": "annotation",
                "originator": "te",
                "validated": "True",
                "misc_info": {
                    "commit_hash": "8e2cc701facd37559ed12647d70a5e5b3622c6ca"
                }
            },
            "geometry": {
                "type": "Polygon",
                "coordinates": [
                    [
                        [
                            172.589464,
                            -43.535259
                        ],
                        [
                            172.589546,
                            -43.535093
                        ],
                        [
                            172.59002,
                            -43.535054
                        ],
                        [
                            172.589989,
                            -43.534867
                        ],
                        [
                            172.59085,
                            -43.534463
                        ],
                        [
                            172.591181,
                            -43.534734
                        ],
                        [
                            172.590954,
                            -43.534905
                        ],
                        [
                            172.590982,
                            -43.535234
                        ],
                        [
                            172.589473,
                            -43.535367
                        ],
                        [
                            172.589464,
                            -43.535259
                        ]
                    ]
                ]
            }
        },
        {
            "type": "Feature",
            "properties": {
                "observation_date": "2015-09-06",
                "source": null,
                "sensor_name": null,
                "type": "observation",
                "current_phase": null,
                "is_occluded": null,
                "is_site_boundary": null,
                "score": 1.0
            },
            "geometry": {
                "type": "MultiPolygon",
                "coordinates": [
                    [
                        [
                            [
                                172.589464,
                                -43.535259
                            ],
                            [
                                172.589546,
                                -43.535093
                            ],
                            [
                                172.59002,
                                -43.535054
                            ],
                            [
                                172.589989,
                                -43.534867
                            ],
                            [
                                172.59085,
                                -43.534463
                            ],
                            [
                                172.591181,
                                -43.534734
                            ],
                            [
                                172.590954,
                                -43.534905
                            ],
                            [
                                172.590982,
                                -43.535234
                            ],
                            [
                                172.589473,
                                -43.535367
                            ],
                            [
                                172.589464,
                                -43.535259
                            ]
                        ]
                    ]
                ]
            }
        },
        {
            "type": "Feature",
            "properties": {
                "observation_date": "2017-11-29",
                "source": null,
                "sensor_name": null,
                "type": "observation",
                "current_phase": null,
                "is_occluded": null,
                "is_site_boundary": null,
                "score": 1.0
            },
            "geometry": {
                "type": "MultiPolygon",
                "coordinates": [
                    [
                        [
                            [
                                172.589464,
                                -43.535259
                            ],
                            [
                                172.589546,
                                -43.535093
                            ],
                            [
                                172.59002,
                                -43.535054
                            ],
                            [
                                172.589989,
                                -43.534867
                            ],
                            [
                                172.59085,
                                -43.534463
                            ],
                            [
                                172.591181,
                                -43.534734
                            ],
                            [
                                172.590954,
                                -43.534905
                            ],
                            [
                                172.590982,
                                -43.535234
                            ],
                            [
                                172.589473,
                                -43.535367
                            ],
                            [
                                172.589464,
                                -43.535259
                            ]
                        ]
                    ]
                ]
            }
        }
    ]
}