{
    "type": "FeatureCollection",
    "features": [
        {
            "type": "Feature",
            "properties": {
                "type": "site",
                "region_id": "NZ_R001",
                "site_id": "NZ_R001_0070",
                "version": "2.0.0",
                "status": "positive_pending",
                "mgrs": "59GPM",
                "score": 1.0,
                "start_date": "2015-01-07",
                "end_date": "2016-02-08",
                "model_content": "annotation",
                "originator": "te",
                "validated": "True",
                "misc_info": {
                    "commit_hash": "8e2cc701facd37559ed12647d70a5e5b3622c6ca"
                }
            },
            "geometry": {
                "type": "Polygon",
                "coordinates": [
                    [
                        [
                            172.59481,
                            -43.535633
                        ],
                        [
                            172.595199,
                            -43.535609
                        ],
                        [
                            172.595312,
                            -43.536095
                        ],
                        [
                            172.595374,
                            -43.536104
                        ],
                        [
                            172.595433,
                            -43.536584
                        ],
                        [
                            172.594683,
                            -43.536639
                        ],
                        [
                            172.594607,
                            -43.536134
                        ],
                        [
                            172.594857,
                            -43.536119
                        ],
                        [
                            172.59481,
                            -43.535633
                        ]
                    ]
                ]
            }
        },
        {
            "type": "Feature",
            "properties": {
                "observation_date": "2015-01-07",
                "source": null,
                "sensor_name": null,
                "type": "observation",
                "current_phase": null,
                "is_occluded": null,
                "is_site_boundary": null,
                "score": 1.0
            },
            "geometry": {
                "type": "MultiPolygon",
                "coordinates": [
                    [
                        [
                            [
                                172.59481,
                                -43.535633
                            ],
                            [
                                172.595199,
                                -43.535609
                            ],
                            [
                                172.595312,
                                -43.536095
                            ],
                            [
                                172.595374,
                                -43.536104
                            ],
                            [
                                172.595433,
                                -43.536584
                            ],
                            [
                                172.594683,
                                -43.536639
                            ],
                            [
                                172.594607,
                                -43.536134
                            ],
                            [
                                172.594857,
                                -43.536119
                            ],
                            [
                                172.59481,
                                -43.535633
                            ]
                        ]
                    ]
                ]
            }
        },
        {
            "type": "Feature",
            "properties": {
                "observation_date": "2016-02-08",
                "source": null,
                "sensor_name": null,
                "type": "observation",
                "current_phase": null,
                "is_occluded": null,
                "is_site_boundary": null,
                "score": 1.0
            },
            "geometry": {
                "type": "MultiPolygon",
                "coordinates": [
                    [
                        [
                            [
                                172.59481,
                                -43.535633
                            ],
                            [
                                172.595199,
                                -43.535609
                            ],
                            [
                                172.595312,
                                -43.536095
                            ],
                            [
                                172.595374,
                                -43.536104
                            ],
                            [
                                172.595433,
                                -43.536584
                            ],
                            [
                                172.594683,
                                -43.536639
                            ],
                            [
                                172.594607,
                                -43.536134
                            ],
                            [
                                172.594857,
                                -43.536119
                            ],
                            [
                                172.59481,
                                -43.535633
                            ]
                        ]
                    ]
                ]
            }
        }
    ]
}