{
    "type": "FeatureCollection",
    "features": [
        {
            "type": "Feature",
            "properties": {
                "type": "site",
                "region_id": "NZ_R002",
                "site_id": "NZ_R002_0089",
                "version": "2.0.1",
                "status": "ignore",
                "mgrs": "59GPM",
                "score": 1.0,
                "start_date": "2017-11-01",
                "end_date": "2022-01-20",
                "model_content": "annotation",
                "originator": "te",
                "validated": "True",
                "misc_info": {
                    "commit_hash": "ffa8df67417e65c71e65c9308573eb6c88c9c0c8"
                }
            },
            "geometry": {
                "type": "Polygon",
                "coordinates": [
                    [
                        [
                            172.461751,
                            -43.523564
                        ],
                        [
                            172.463933,
                            -43.52234
                        ],
                        [
                            172.465072,
                            -43.523422
                        ],
                        [
                            172.464018,
                            -43.524019
                        ],
                        [
                            172.463641,
                            -43.523685
                        ],
                        [
                            172.462338,
                            -43.524357
                        ],
                        [
                            172.461751,
                            -43.523564
                        ]
                    ]
                ]
            }
        },
        {
            "type": "Feature",
            "properties": {
                "observation_date": "2017-11-01",
                "source": null,
                "sensor_name": null,
                "type": "observation",
                "current_phase": null,
                "is_occluded": null,
                "is_site_boundary": null,
                "score": 1.0
            },
            "geometry": {
                "type": "MultiPolygon",
                "coordinates": [
                    [
                        [
                            [
                                172.461751,
                                -43.523564
                            ],
                            [
                                172.463933,
                                -43.52234
                            ],
                            [
                                172.465072,
                                -43.523422
                            ],
                            [
                                172.464018,
                                -43.524019
                            ],
                            [
                                172.463641,
                                -43.523685
                            ],
                            [
                                172.462338,
                                -43.524357
                            ],
                            [
                                172.461751,
                                -43.523564
                            ]
                        ]
                    ]
                ]
            }
        },
        {
            "type": "Feature",
            "properties": {
                "observation_date": "2022-01-20",
                "source": null,
                "sensor_name": null,
                "type": "observation",
                "current_phase": null,
                "is_occluded": null,
                "is_site_boundary": null,
                "score": 1.0
            },
            "geometry": {
                "type": "MultiPolygon",
                "coordinates": [
                    [
                        [
                            [
                                172.461751,
                                -43.523564
                            ],
                            [
                                172.463933,
                                -43.52234
                            ],
                            [
                                172.465072,
                                -43.523422
                            ],
                            [
                                172.464018,
                                -43.524019
                            ],
                            [
                                172.463641,
                                -43.523685
                            ],
                            [
                                172.462338,
                                -43.524357
                            ],
                            [
                                172.461751,
                                -43.523564
                            ]
                        ]
                    ]
                ]
            }
        }
    ]
}