{
    "type": "FeatureCollection",
    "features": [
        {
            "type": "Feature",
            "properties": {
                "type": "site",
                "region_id": "US_R003",
                "site_id": "US_R003_0108",
                "version": "2.0.2",
                "status": "positive_excluded",
                "mgrs": "17RMP",
                "score": 1.0,
                "start_date": "2019-01-01",
                "end_date": "2022-03-01",
                "model_content": "annotation",
                "originator": "te",
                "validated": "True",
                "misc_info": {
                    "commit_hash": "ffa8df67417e65c71e65c9308573eb6c88c9c0c8"
                }
            },
            "geometry": {
                "type": "Polygon",
                "coordinates": [
                    [
                        [
                            -81.546573,
                            30.237535
                        ],
                        [
                            -81.546209,
                            30.237858
                        ],
                        [
                            -81.545405,
                            30.237217
                        ],
                        [
                            -81.545389,
                            30.237016
                        ],
                        [
                            -81.545675,
                            30.237129
                        ],
                        [
                            -81.545733,
                            30.237114
                        ],
                        [
                            -81.545841,
                            30.237183
                        ],
                        [
                            -81.546245,
                            30.236849
                        ],
                        [
                            -81.54662,
                            30.237129
                        ],
                        [
                            -81.546573,
                            30.237535
                        ]
                    ]
                ]
            }
        },
        {
            "type": "Feature",
            "properties": {
                "observation_date": "2019-01-01",
                "source": null,
                "sensor_name": null,
                "type": "observation",
                "current_phase": null,
                "is_occluded": null,
                "is_site_boundary": null,
                "score": 1.0
            },
            "geometry": {
                "type": "MultiPolygon",
                "coordinates": [
                    [
                        [
                            [
                                -81.546573,
                                30.237535
                            ],
                            [
                                -81.546209,
                                30.237858
                            ],
                            [
                                -81.545405,
                                30.237217
                            ],
                            [
                                -81.545389,
                                30.237016
                            ],
                            [
                                -81.545675,
                                30.237129
                            ],
                            [
                                -81.545733,
                                30.237114
                            ],
                            [
                                -81.545841,
                                30.237183
                            ],
                            [
                                -81.546245,
                                30.236849
                            ],
                            [
                                -81.54662,
                                30.237129
                            ],
                            [
                                -81.546573,
                                30.237535
                            ]
                        ]
                    ]
                ]
            }
        },
        {
            "type": "Feature",
            "properties": {
                "observation_date": "2022-03-01",
                "source": null,
                "sensor_name": null,
                "type": "observation",
                "current_phase": null,
                "is_occluded": null,
                "is_site_boundary": null,
                "score": 1.0
            },
            "geometry": {
                "type": "MultiPolygon",
                "coordinates": [
                    [
                        [
                            [
                                -81.546573,
                                30.237535
                            ],
                            [
                                -81.546209,
                                30.237858
                            ],
                            [
                                -81.545405,
                                30.237217
                            ],
                            [
                                -81.545389,
                                30.237016
                            ],
                            [
                                -81.545675,
                                30.237129
                            ],
                            [
                                -81.545733,
                                30.237114
                            ],
                            [
                                -81.545841,
                                30.237183
                            ],
                            [
                                -81.546245,
                                30.236849
                            ],
                            [
                                -81.54662,
                                30.237129
                            ],
                            [
                                -81.546573,
                                30.237535
                            ]
                        ]
                    ]
                ]
            }
        }
    ]
}