{
    "type": "FeatureCollection",
    "features": [
        {
            "type": "Feature",
            "properties": {
                "type": "site",
                "region_id": "US_R003",
                "site_id": "US_R003_0025",
                "version": "2.2.0",
                "status": "positive_pending",
                "mgrs": "17RMP",
                "score": 1.0,
                "start_date": "2017-11-25",
                "end_date": "2019-11-12",
                "model_content": "annotation",
                "originator": "te",
                "validated": "True",
                "misc_info": {
                    "commit_hash": "b2a36269f1cbef9c8830197db1fd1e207add163e"
                }
            },
            "geometry": {
                "type": "Polygon",
                "coordinates": [
                    [
                        [
                            -81.521366,
                            30.260169
                        ],
                        [
                            -81.518752,
                            30.260198
                        ],
                        [
                            -81.51932,
                            30.261766
                        ],
                        [
                            -81.521373,
                            30.261784
                        ],
                        [
                            -81.521366,
                            30.260169
                        ]
                    ]
                ]
            }
        },
        {
            "type": "Feature",
            "properties": {
                "observation_date": "2017-11-25",
                "source": null,
                "sensor_name": null,
                "type": "observation",
                "current_phase": null,
                "is_occluded": null,
                "is_site_boundary": null,
                "score": 1.0
            },
            "geometry": {
                "type": "MultiPolygon",
                "coordinates": [
                    [
                        [
                            [
                                -81.521366,
                                30.260169
                            ],
                            [
                                -81.518752,
                                30.260198
                            ],
                            [
                                -81.51932,
                                30.261766
                            ],
                            [
                                -81.521373,
                                30.261784
                            ],
                            [
                                -81.521366,
                                30.260169
                            ]
                        ]
                    ]
                ]
            }
        },
        {
            "type": "Feature",
            "properties": {
                "observation_date": "2019-11-12",
                "source": null,
                "sensor_name": null,
                "type": "observation",
                "current_phase": null,
                "is_occluded": null,
                "is_site_boundary": null,
                "score": 1.0
            },
            "geometry": {
                "type": "MultiPolygon",
                "coordinates": [
                    [
                        [
                            [
                                -81.521366,
                                30.260169
                            ],
                            [
                                -81.518752,
                                30.260198
                            ],
                            [
                                -81.51932,
                                30.261766
                            ],
                            [
                                -81.521373,
                                30.261784
                            ],
                            [
                                -81.521366,
                                30.260169
                            ]
                        ]
                    ]
                ]
            }
        }
    ]
}