{
    "type": "FeatureCollection",
    "features": [
        {
            "type": "Feature",
            "properties": {
                "type": "site",
                "region_id": "US_R012",
                "site_id": "US_R012_0029",
                "version": "2.0.1",
                "status": "ignore",
                "mgrs": "11SLT",
                "score": 1.0,
                "start_date": "2020-12-01",
                "end_date": "2024-02-14",
                "model_content": "annotation",
                "originator": "te",
                "validated": "True",
                "misc_info": {
                    "commit_hash": "ffa8df67417e65c71e65c9308573eb6c88c9c0c8"
                }
            },
            "geometry": {
                "type": "Polygon",
                "coordinates": [
                    [
                        [
                            -118.249874,
                            34.003794
                        ],
                        [
                            -118.248533,
                            34.003812
                        ],
                        [
                            -118.248533,
                            34.003324
                        ],
                        [
                            -118.248823,
                            34.00332
                        ],
                        [
                            -118.248811,
                            34.003492
                        ],
                        [
                            -118.249295,
                            34.003504
                        ],
                        [
                            -118.249281,
                            34.003074
                        ],
                        [
                            -118.248654,
                            34.003078
                        ],
                        [
                            -118.248618,
                            34.002583
                        ],
                        [
                            -118.249871,
                            34.002573
                        ],
                        [
                            -118.249874,
                            34.003794
                        ]
                    ]
                ]
            }
        },
        {
            "type": "Feature",
            "properties": {
                "observation_date": "2020-12-01",
                "source": null,
                "sensor_name": null,
                "type": "observation",
                "current_phase": null,
                "is_occluded": null,
                "is_site_boundary": null,
                "score": 1.0
            },
            "geometry": {
                "type": "MultiPolygon",
                "coordinates": [
                    [
                        [
                            [
                                -118.249874,
                                34.003794
                            ],
                            [
                                -118.248533,
                                34.003812
                            ],
                            [
                                -118.248533,
                                34.003324
                            ],
                            [
                                -118.248823,
                                34.00332
                            ],
                            [
                                -118.248811,
                                34.003492
                            ],
                            [
                                -118.249295,
                                34.003504
                            ],
                            [
                                -118.249281,
                                34.003074
                            ],
                            [
                                -118.248654,
                                34.003078
                            ],
                            [
                                -118.248618,
                                34.002583
                            ],
                            [
                                -118.249871,
                                34.002573
                            ],
                            [
                                -118.249874,
                                34.003794
                            ]
                        ]
                    ]
                ]
            }
        },
        {
            "type": "Feature",
            "properties": {
                "observation_date": "2024-02-14",
                "source": null,
                "sensor_name": null,
                "type": "observation",
                "current_phase": null,
                "is_occluded": null,
                "is_site_boundary": null,
                "score": 1.0
            },
            "geometry": {
                "type": "MultiPolygon",
                "coordinates": [
                    [
                        [
                            [
                                -118.249874,
                                34.003794
                            ],
                            [
                                -118.248533,
                                34.003812
                            ],
                            [
                                -118.248533,
                                34.003324
                            ],
                            [
                                -118.248823,
                                34.00332
                            ],
                            [
                                -118.248811,
                                34.003492
                            ],
                            [
                                -118.249295,
                                34.003504
                            ],
                            [
                                -118.249281,
                                34.003074
                            ],
                            [
                                -118.248654,
                                34.003078
                            ],
                            [
                                -118.248618,
                                34.002583
                            ],
                            [
                                -118.249871,
                                34.002573
                            ],
                            [
                                -118.249874,
                                34.003794
                            ]
                        ]
                    ]
                ]
            }
        }
    ]
}