{
    "type": "FeatureCollection",
    "features": [
        {
            "type": "Feature",
            "properties": {
                "type": "site",
                "region_id": "US_R004",
                "site_id": "US_R004_0091",
                "version": "2.0.1",
                "status": "negative",
                "mgrs": "11SKD",
                "score": 1.0,
                "start_date": "2015-04-01",
                "end_date": "2021-06-30",
                "model_content": "annotation",
                "originator": "te",
                "validated": "True",
                "misc_info": {
                    "commit_hash": "b2a36269f1cbef9c8830197db1fd1e207add163e"
                }
            },
            "geometry": {
                "type": "Polygon",
                "coordinates": [
                    [
                        [
                            -119.727964,
                            39.447419
                        ],
                        [
                            -119.728268,
                            39.448853
                        ],
                        [
                            -119.727722,
                            39.450315
                        ],
                        [
                            -119.725892,
                            39.449912
                        ],
                        [
                            -119.723629,
                            39.450137
                        ],
                        [
                            -119.722241,
                            39.448402
                        ],
                        [
                            -119.72374,
                            39.447733
                        ],
                        [
                            -119.722414,
                            39.445816
                        ],
                        [
                            -119.720623,
                            39.446624
                        ],
                        [
                            -119.718865,
                            39.445412
                        ],
                        [
                            -119.717959,
                            39.443992
                        ],
                        [
                            -119.718015,
                            39.442332
                        ],
                        [
                            -119.718484,
                            39.441673
                        ],
                        [
                            -119.719252,
                            39.44137
                        ],
                        [
                            -119.723371,
                            39.441146
                        ],
                        [
                            -119.724642,
                            39.441274
                        ],
                        [
                            -119.726761,
                            39.441903
                        ],
                        [
                            -119.728305,
                            39.44164
                        ],
                        [
                            -119.727616,
                            39.442632
                        ],
                        [
                            -119.727254,
                            39.44328
                        ],
                        [
                            -119.727037,
                            39.443819
                        ],
                        [
                            -119.726956,
                            39.444522
                        ],
                        [
                            -119.726966,
                            39.445354
                        ],
                        [
                            -119.727267,
                            39.446281
                        ],
                        [
                            -119.727964,
                            39.447419
                        ]
                    ]
                ]
            }
        },
        {
            "type": "Feature",
            "properties": {
                "observation_date": "2015-04-01",
                "source": null,
                "sensor_name": null,
                "type": "observation",
                "current_phase": null,
                "is_occluded": null,
                "is_site_boundary": null,
                "score": 1.0
            },
            "geometry": {
                "type": "MultiPolygon",
                "coordinates": [
                    [
                        [
                            [
                                -119.727964,
                                39.447419
                            ],
                            [
                                -119.728268,
                                39.448853
                            ],
                            [
                                -119.727722,
                                39.450315
                            ],
                            [
                                -119.725892,
                                39.449912
                            ],
                            [
                                -119.723629,
                                39.450137
                            ],
                            [
                                -119.722241,
                                39.448402
                            ],
                            [
                                -119.72374,
                                39.447733
                            ],
                            [
                                -119.722414,
                                39.445816
                            ],
                            [
                                -119.720623,
                                39.446624
                            ],
                            [
                                -119.718865,
                                39.445412
                            ],
                            [
                                -119.717959,
                                39.443992
                            ],
                            [
                                -119.718015,
                                39.442332
                            ],
                            [
                                -119.718484,
                                39.441673
                            ],
                            [
                                -119.719252,
                                39.44137
                            ],
                            [
                                -119.723371,
                                39.441146
                            ],
                            [
                                -119.724642,
                                39.441274
                            ],
                            [
                                -119.726761,
                                39.441903
                            ],
                            [
                                -119.728305,
                                39.44164
                            ],
                            [
                                -119.727616,
                                39.442632
                            ],
                            [
                                -119.727254,
                                39.44328
                            ],
                            [
                                -119.727037,
                                39.443819
                            ],
                            [
                                -119.726956,
                                39.444522
                            ],
                            [
                                -119.726966,
                                39.445354
                            ],
                            [
                                -119.727267,
                                39.446281
                            ],
                            [
                                -119.727964,
                                39.447419
                            ]
                        ]
                    ]
                ]
            }
        },
        {
            "type": "Feature",
            "properties": {
                "observation_date": "2021-06-30",
                "source": null,
                "sensor_name": null,
                "type": "observation",
                "current_phase": null,
                "is_occluded": null,
                "is_site_boundary": null,
                "score": 1.0
            },
            "geometry": {
                "type": "MultiPolygon",
                "coordinates": [
                    [
                        [
                            [
                                -119.727964,
                                39.447419
                            ],
                            [
                                -119.728268,
                                39.448853
                            ],
                            [
                                -119.727722,
                                39.450315
                            ],
                            [
                                -119.725892,
                                39.449912
                            ],
                            [
                                -119.723629,
                                39.450137
                            ],
                            [
                                -119.722241,
                                39.448402
                            ],
                            [
                                -119.72374,
                                39.447733
                            ],
                            [
                                -119.722414,
                                39.445816
                            ],
                            [
                                -119.720623,
                                39.446624
                            ],
                            [
                                -119.718865,
                                39.445412
                            ],
                            [
                                -119.717959,
                                39.443992
                            ],
                            [
                                -119.718015,
                                39.442332
                            ],
                            [
                                -119.718484,
                                39.441673
                            ],
                            [
                                -119.719252,
                                39.44137
                            ],
                            [
                                -119.723371,
                                39.441146
                            ],
                            [
                                -119.724642,
                                39.441274
                            ],
                            [
                                -119.726761,
                                39.441903
                            ],
                            [
                                -119.728305,
                                39.44164
                            ],
                            [
                                -119.727616,
                                39.442632
                            ],
                            [
                                -119.727254,
                                39.44328
                            ],
                            [
                                -119.727037,
                                39.443819
                            ],
                            [
                                -119.726956,
                                39.444522
                            ],
                            [
                                -119.726966,
                                39.445354
                            ],
                            [
                                -119.727267,
                                39.446281
                            ],
                            [
                                -119.727964,
                                39.447419
                            ]
                        ]
                    ]
                ]
            }
        }
    ]
}