{
    "type": "FeatureCollection",
    "features": [
        {
            "type": "Feature",
            "properties": {
                "type": "site",
                "region_id": "US_R003",
                "site_id": "US_R003_0017",
                "version": "2.2.0",
                "status": "positive_pending",
                "mgrs": "17RMP",
                "score": 1.0,
                "start_date": "2017-10-31",
                "end_date": "2021-05-03",
                "model_content": "annotation",
                "originator": "te",
                "validated": "True",
                "misc_info": {
                    "commit_hash": "b2a36269f1cbef9c8830197db1fd1e207add163e"
                }
            },
            "geometry": {
                "type": "Polygon",
                "coordinates": [
                    [
                        [
                            -81.505874,
                            30.224843
                        ],
                        [
                            -81.506022,
                            30.224017
                        ],
                        [
                            -81.506428,
                            30.223208
                        ],
                        [
                            -81.505991,
                            30.222825
                        ],
                        [
                            -81.50567,
                            30.223014
                        ],
                        [
                            -81.503154,
                            30.223654
                        ],
                        [
                            -81.503702,
                            30.224337
                        ],
                        [
                            -81.503992,
                            30.224304
                        ],
                        [
                            -81.504332,
                            30.22447
                        ],
                        [
                            -81.504685,
                            30.225497
                        ],
                        [
                            -81.504635,
                            30.226137
                        ],
                        [
                            -81.506171,
                            30.2261
                        ],
                        [
                            -81.505874,
                            30.224843
                        ]
                    ]
                ]
            }
        },
        {
            "type": "Feature",
            "properties": {
                "observation_date": "2017-10-31",
                "source": null,
                "sensor_name": null,
                "type": "observation",
                "current_phase": null,
                "is_occluded": null,
                "is_site_boundary": null,
                "score": 1.0
            },
            "geometry": {
                "type": "MultiPolygon",
                "coordinates": [
                    [
                        [
                            [
                                -81.505874,
                                30.224843
                            ],
                            [
                                -81.506022,
                                30.224017
                            ],
                            [
                                -81.506428,
                                30.223208
                            ],
                            [
                                -81.505991,
                                30.222825
                            ],
                            [
                                -81.50567,
                                30.223014
                            ],
                            [
                                -81.503154,
                                30.223654
                            ],
                            [
                                -81.503702,
                                30.224337
                            ],
                            [
                                -81.503992,
                                30.224304
                            ],
                            [
                                -81.504332,
                                30.22447
                            ],
                            [
                                -81.504685,
                                30.225497
                            ],
                            [
                                -81.504635,
                                30.226137
                            ],
                            [
                                -81.506171,
                                30.2261
                            ],
                            [
                                -81.505874,
                                30.224843
                            ]
                        ]
                    ]
                ]
            }
        },
        {
            "type": "Feature",
            "properties": {
                "observation_date": "2021-05-03",
                "source": null,
                "sensor_name": null,
                "type": "observation",
                "current_phase": null,
                "is_occluded": null,
                "is_site_boundary": null,
                "score": 1.0
            },
            "geometry": {
                "type": "MultiPolygon",
                "coordinates": [
                    [
                        [
                            [
                                -81.505874,
                                30.224843
                            ],
                            [
                                -81.506022,
                                30.224017
                            ],
                            [
                                -81.506428,
                                30.223208
                            ],
                            [
                                -81.505991,
                                30.222825
                            ],
                            [
                                -81.50567,
                                30.223014
                            ],
                            [
                                -81.503154,
                                30.223654
                            ],
                            [
                                -81.503702,
                                30.224337
                            ],
                            [
                                -81.503992,
                                30.224304
                            ],
                            [
                                -81.504332,
                                30.22447
                            ],
                            [
                                -81.504685,
                                30.225497
                            ],
                            [
                                -81.504635,
                                30.226137
                            ],
                            [
                                -81.506171,
                                30.2261
                            ],
                            [
                                -81.505874,
                                30.224843
                            ]
                        ]
                    ]
                ]
            }
        }
    ]
}