{
    "type": "FeatureCollection",
    "features": [
        {
            "type": "Feature",
            "properties": {
                "type": "site",
                "region_id": "US_R003",
                "site_id": "US_R003_0064",
                "version": "2.0.2",
                "status": "ignore",
                "mgrs": "17RMP",
                "score": 1.0,
                "start_date": "2019-01-01",
                "end_date": "2022-04-03",
                "model_content": "annotation",
                "originator": "te",
                "validated": "True",
                "misc_info": {
                    "commit_hash": "ffa8df67417e65c71e65c9308573eb6c88c9c0c8"
                }
            },
            "geometry": {
                "type": "Polygon",
                "coordinates": [
                    [
                        [
                            -81.56371,
                            30.229786
                        ],
                        [
                            -81.562019,
                            30.231239
                        ],
                        [
                            -81.561388,
                            30.233002
                        ],
                        [
                            -81.561767,
                            30.233281
                        ],
                        [
                            -81.562845,
                            30.233817
                        ],
                        [
                            -81.564257,
                            30.233386
                        ],
                        [
                            -81.564454,
                            30.233752
                        ],
                        [
                            -81.562985,
                            30.234274
                        ],
                        [
                            -81.560499,
                            30.233539
                        ],
                        [
                            -81.561164,
                            30.230616
                        ],
                        [
                            -81.560965,
                            30.230223
                        ],
                        [
                            -81.562982,
                            30.229153
                        ],
                        [
                            -81.56371,
                            30.229786
                        ]
                    ]
                ]
            }
        },
        {
            "type": "Feature",
            "properties": {
                "observation_date": "2019-01-01",
                "source": null,
                "sensor_name": null,
                "type": "observation",
                "current_phase": null,
                "is_occluded": null,
                "is_site_boundary": null,
                "score": 1.0
            },
            "geometry": {
                "type": "MultiPolygon",
                "coordinates": [
                    [
                        [
                            [
                                -81.56371,
                                30.229786
                            ],
                            [
                                -81.562019,
                                30.231239
                            ],
                            [
                                -81.561388,
                                30.233002
                            ],
                            [
                                -81.561767,
                                30.233281
                            ],
                            [
                                -81.562845,
                                30.233817
                            ],
                            [
                                -81.564257,
                                30.233386
                            ],
                            [
                                -81.564454,
                                30.233752
                            ],
                            [
                                -81.562985,
                                30.234274
                            ],
                            [
                                -81.560499,
                                30.233539
                            ],
                            [
                                -81.561164,
                                30.230616
                            ],
                            [
                                -81.560965,
                                30.230223
                            ],
                            [
                                -81.562982,
                                30.229153
                            ],
                            [
                                -81.56371,
                                30.229786
                            ]
                        ]
                    ]
                ]
            }
        },
        {
            "type": "Feature",
            "properties": {
                "observation_date": "2022-04-03",
                "source": null,
                "sensor_name": null,
                "type": "observation",
                "current_phase": null,
                "is_occluded": null,
                "is_site_boundary": null,
                "score": 1.0
            },
            "geometry": {
                "type": "MultiPolygon",
                "coordinates": [
                    [
                        [
                            [
                                -81.56371,
                                30.229786
                            ],
                            [
                                -81.562019,
                                30.231239
                            ],
                            [
                                -81.561388,
                                30.233002
                            ],
                            [
                                -81.561767,
                                30.233281
                            ],
                            [
                                -81.562845,
                                30.233817
                            ],
                            [
                                -81.564257,
                                30.233386
                            ],
                            [
                                -81.564454,
                                30.233752
                            ],
                            [
                                -81.562985,
                                30.234274
                            ],
                            [
                                -81.560499,
                                30.233539
                            ],
                            [
                                -81.561164,
                                30.230616
                            ],
                            [
                                -81.560965,
                                30.230223
                            ],
                            [
                                -81.562982,
                                30.229153
                            ],
                            [
                                -81.56371,
                                30.229786
                            ]
                        ]
                    ]
                ]
            }
        }
    ]
}