{
    "type": "FeatureCollection",
    "features": [
        {
            "type": "Feature",
            "properties": {
                "type": "site",
                "region_id": "US_R003",
                "site_id": "US_R003_0036",
                "version": "2.0.3",
                "status": "negative",
                "mgrs": "17RMP",
                "score": 1.0,
                "start_date": "2018-12-01",
                "end_date": "2023-03-04",
                "model_content": "annotation",
                "originator": "te",
                "validated": "True",
                "misc_info": {
                    "commit_hash": "ffa8df67417e65c71e65c9308573eb6c88c9c0c8"
                }
            },
            "geometry": {
                "type": "Polygon",
                "coordinates": [
                    [
                        [
                            -81.556022,
                            30.201582
                        ],
                        [
                            -81.555301,
                            30.20184
                        ],
                        [
                            -81.554571,
                            30.202172
                        ],
                        [
                            -81.554651,
                            30.202755
                        ],
                        [
                            -81.554162,
                            30.203097
                        ],
                        [
                            -81.552415,
                            30.203071
                        ],
                        [
                            -81.552747,
                            30.202383
                        ],
                        [
                            -81.553292,
                            30.201939
                        ],
                        [
                            -81.554478,
                            30.201472
                        ],
                        [
                            -81.55578,
                            30.201118
                        ],
                        [
                            -81.556022,
                            30.201582
                        ]
                    ]
                ]
            }
        },
        {
            "type": "Feature",
            "properties": {
                "observation_date": "2018-12-01",
                "source": null,
                "sensor_name": null,
                "type": "observation",
                "current_phase": null,
                "is_occluded": null,
                "is_site_boundary": null,
                "score": 1.0
            },
            "geometry": {
                "type": "MultiPolygon",
                "coordinates": [
                    [
                        [
                            [
                                -81.556022,
                                30.201582
                            ],
                            [
                                -81.555301,
                                30.20184
                            ],
                            [
                                -81.554571,
                                30.202172
                            ],
                            [
                                -81.554651,
                                30.202755
                            ],
                            [
                                -81.554162,
                                30.203097
                            ],
                            [
                                -81.552415,
                                30.203071
                            ],
                            [
                                -81.552747,
                                30.202383
                            ],
                            [
                                -81.553292,
                                30.201939
                            ],
                            [
                                -81.554478,
                                30.201472
                            ],
                            [
                                -81.55578,
                                30.201118
                            ],
                            [
                                -81.556022,
                                30.201582
                            ]
                        ]
                    ]
                ]
            }
        },
        {
            "type": "Feature",
            "properties": {
                "observation_date": "2023-03-04",
                "source": null,
                "sensor_name": null,
                "type": "observation",
                "current_phase": null,
                "is_occluded": null,
                "is_site_boundary": null,
                "score": 1.0
            },
            "geometry": {
                "type": "MultiPolygon",
                "coordinates": [
                    [
                        [
                            [
                                -81.556022,
                                30.201582
                            ],
                            [
                                -81.555301,
                                30.20184
                            ],
                            [
                                -81.554571,
                                30.202172
                            ],
                            [
                                -81.554651,
                                30.202755
                            ],
                            [
                                -81.554162,
                                30.203097
                            ],
                            [
                                -81.552415,
                                30.203071
                            ],
                            [
                                -81.552747,
                                30.202383
                            ],
                            [
                                -81.553292,
                                30.201939
                            ],
                            [
                                -81.554478,
                                30.201472
                            ],
                            [
                                -81.55578,
                                30.201118
                            ],
                            [
                                -81.556022,
                                30.201582
                            ]
                        ]
                    ]
                ]
            }
        }
    ]
}