{
    "type": "FeatureCollection",
    "features": [
        {
            "type": "Feature",
            "properties": {
                "type": "site",
                "region_id": "ZA_Rxxx",
                "site_id": "ZA_Rxxx_0033",
                "version": "2.0.1",
                "status": "positive_annotated_static",
                "mgrs": "35HLC",
                "score": 1.0,
                "start_date": "2018-12-02",
                "end_date": "2021-09-23",
                "model_content": "annotation",
                "originator": "te",
                "validated": "True",
                "misc_info": {
                    "commit_hash": "dbdea3485a8eb34730f81ec01861c62e6358b0b5"
                }
            },
            "geometry": {
                "type": "Polygon",
                "coordinates": [
                    [
                        [
                            25.633195,
                            -33.788914
                        ],
                        [
                            25.63351,
                            -33.788624
                        ],
                        [
                            25.632274,
                            -33.78776
                        ],
                        [
                            25.633175,
                            -33.786917
                        ],
                        [
                            25.634601,
                            -33.787937
                        ],
                        [
                            25.634261,
                            -33.788242
                        ],
                        [
                            25.634039,
                            -33.788185
                        ],
                        [
                            25.633646,
                            -33.788554
                        ],
                        [
                            25.633843,
                            -33.788724
                        ],
                        [
                            25.633458,
                            -33.789076
                        ],
                        [
                            25.633195,
                            -33.788914
                        ]
                    ]
                ]
            }
        },
        {
            "type": "Feature",
            "properties": {
                "observation_date": "2018-12-02",
                "source": "18DEC02090108-P1BS-014905702010_01_P008",
                "sensor_name": "WorldView",
                "type": "observation",
                "current_phase": "No Activity",
                "is_occluded": "False",
                "is_site_boundary": "True",
                "score": 1.0
            },
            "geometry": {
                "type": "MultiPolygon",
                "coordinates": [
                    [
                        [
                            [
                                25.63351,
                                -33.788624
                            ],
                            [
                                25.633195,
                                -33.788914
                            ],
                            [
                                25.633458,
                                -33.789076
                            ],
                            [
                                25.633843,
                                -33.788724
                            ],
                            [
                                25.633646,
                                -33.788554
                            ],
                            [
                                25.634039,
                                -33.788185
                            ],
                            [
                                25.634261,
                                -33.788242
                            ],
                            [
                                25.634601,
                                -33.787937
                            ],
                            [
                                25.633175,
                                -33.786917
                            ],
                            [
                                25.632274,
                                -33.78776
                            ],
                            [
                                25.63351,
                                -33.788624
                            ]
                        ]
                    ]
                ]
            }
        },
        {
            "type": "Feature",
            "properties": {
                "observation_date": "2019-02-26",
                "source": "19FEB26083210-P1BS-014905703010_01_P003",
                "sensor_name": "WorldView",
                "type": "observation",
                "current_phase": "No Activity",
                "is_occluded": "False",
                "is_site_boundary": "True",
                "score": 1.0
            },
            "geometry": {
                "type": "MultiPolygon",
                "coordinates": [
                    [
                        [
                            [
                                25.63351,
                                -33.788624
                            ],
                            [
                                25.633195,
                                -33.788914
                            ],
                            [
                                25.633458,
                                -33.789076
                            ],
                            [
                                25.633843,
                                -33.788724
                            ],
                            [
                                25.633646,
                                -33.788554
                            ],
                            [
                                25.634039,
                                -33.788185
                            ],
                            [
                                25.634261,
                                -33.788242
                            ],
                            [
                                25.634601,
                                -33.787937
                            ],
                            [
                                25.633175,
                                -33.786917
                            ],
                            [
                                25.632274,
                                -33.78776
                            ],
                            [
                                25.63351,
                                -33.788624
                            ]
                        ]
                    ]
                ]
            }
        },
        {
            "type": "Feature",
            "properties": {
                "observation_date": "2019-04-11",
                "source": "19APR11081714-M1BS-014905459010_01_P002",
                "sensor_name": "WorldView",
                "type": "observation",
                "current_phase": "No Activity",
                "is_occluded": "False",
                "is_site_boundary": "True",
                "score": 1.0
            },
            "geometry": {
                "type": "MultiPolygon",
                "coordinates": [
                    [
                        [
                            [
                                25.63351,
                                -33.788624
                            ],
                            [
                                25.633195,
                                -33.788914
                            ],
                            [
                                25.633458,
                                -33.789076
                            ],
                            [
                                25.633843,
                                -33.788724
                            ],
                            [
                                25.633646,
                                -33.788554
                            ],
                            [
                                25.634039,
                                -33.788185
                            ],
                            [
                                25.634261,
                                -33.788242
                            ],
                            [
                                25.634601,
                                -33.787937
                            ],
                            [
                                25.633175,
                                -33.786917
                            ],
                            [
                                25.632274,
                                -33.78776
                            ],
                            [
                                25.63351,
                                -33.788624
                            ]
                        ]
                    ]
                ]
            }
        },
        {
            "type": "Feature",
            "properties": {
                "observation_date": "2019-06-14",
                "source": "19JUN14084826-M1BS-014905718010_01_P002",
                "sensor_name": "WorldView",
                "type": "observation",
                "current_phase": "No Activity",
                "is_occluded": "False",
                "is_site_boundary": "True",
                "score": 1.0
            },
            "geometry": {
                "type": "MultiPolygon",
                "coordinates": [
                    [
                        [
                            [
                                25.63351,
                                -33.788624
                            ],
                            [
                                25.633195,
                                -33.788914
                            ],
                            [
                                25.633458,
                                -33.789076
                            ],
                            [
                                25.633843,
                                -33.788724
                            ],
                            [
                                25.633646,
                                -33.788554
                            ],
                            [
                                25.634039,
                                -33.788185
                            ],
                            [
                                25.634261,
                                -33.788242
                            ],
                            [
                                25.634601,
                                -33.787937
                            ],
                            [
                                25.633175,
                                -33.786917
                            ],
                            [
                                25.632274,
                                -33.78776
                            ],
                            [
                                25.63351,
                                -33.788624
                            ]
                        ]
                    ]
                ]
            }
        },
        {
            "type": "Feature",
            "properties": {
                "observation_date": "2019-06-20",
                "source": "19JUN20084506-M1BS-014905463010_01_P001",
                "sensor_name": "WorldView",
                "type": "observation",
                "current_phase": "No Activity",
                "is_occluded": "False",
                "is_site_boundary": "True",
                "score": 1.0
            },
            "geometry": {
                "type": "MultiPolygon",
                "coordinates": [
                    [
                        [
                            [
                                25.63351,
                                -33.788624
                            ],
                            [
                                25.633195,
                                -33.788914
                            ],
                            [
                                25.633458,
                                -33.789076
                            ],
                            [
                                25.633843,
                                -33.788724
                            ],
                            [
                                25.633646,
                                -33.788554
                            ],
                            [
                                25.634039,
                                -33.788185
                            ],
                            [
                                25.634261,
                                -33.788242
                            ],
                            [
                                25.634601,
                                -33.787937
                            ],
                            [
                                25.633175,
                                -33.786917
                            ],
                            [
                                25.632274,
                                -33.78776
                            ],
                            [
                                25.63351,
                                -33.788624
                            ]
                        ]
                    ]
                ]
            }
        },
        {
            "type": "Feature",
            "properties": {
                "observation_date": "2019-07-03",
                "source": "19JUL03085141-P1BS-014905472010_01_P001",
                "sensor_name": "WorldView",
                "type": "observation",
                "current_phase": "No Activity",
                "is_occluded": "False",
                "is_site_boundary": "True",
                "score": 1.0
            },
            "geometry": {
                "type": "MultiPolygon",
                "coordinates": [
                    [
                        [
                            [
                                25.63351,
                                -33.788624
                            ],
                            [
                                25.633195,
                                -33.788914
                            ],
                            [
                                25.633458,
                                -33.789076
                            ],
                            [
                                25.633843,
                                -33.788724
                            ],
                            [
                                25.633646,
                                -33.788554
                            ],
                            [
                                25.634039,
                                -33.788185
                            ],
                            [
                                25.634261,
                                -33.788242
                            ],
                            [
                                25.634601,
                                -33.787937
                            ],
                            [
                                25.633175,
                                -33.786917
                            ],
                            [
                                25.632274,
                                -33.78776
                            ],
                            [
                                25.63351,
                                -33.788624
                            ]
                        ]
                    ]
                ]
            }
        },
        {
            "type": "Feature",
            "properties": {
                "observation_date": "2019-08-03",
                "source": "19AUG03084416-P1BS-014905489010_01_P003",
                "sensor_name": "WorldView",
                "type": "observation",
                "current_phase": "No Activity",
                "is_occluded": "False",
                "is_site_boundary": "True",
                "score": 1.0
            },
            "geometry": {
                "type": "MultiPolygon",
                "coordinates": [
                    [
                        [
                            [
                                25.63351,
                                -33.788624
                            ],
                            [
                                25.633195,
                                -33.788914
                            ],
                            [
                                25.633458,
                                -33.789076
                            ],
                            [
                                25.633843,
                                -33.788724
                            ],
                            [
                                25.633646,
                                -33.788554
                            ],
                            [
                                25.634039,
                                -33.788185
                            ],
                            [
                                25.634261,
                                -33.788242
                            ],
                            [
                                25.634601,
                                -33.787937
                            ],
                            [
                                25.633175,
                                -33.786917
                            ],
                            [
                                25.632274,
                                -33.78776
                            ],
                            [
                                25.63351,
                                -33.788624
                            ]
                        ]
                    ]
                ]
            }
        },
        {
            "type": "Feature",
            "properties": {
                "observation_date": "2019-08-16",
                "source": "19AUG16083947-P1BS-014905493010_01_P008",
                "sensor_name": "WorldView",
                "type": "observation",
                "current_phase": "No Activity",
                "is_occluded": "False",
                "is_site_boundary": "True",
                "score": 1.0
            },
            "geometry": {
                "type": "MultiPolygon",
                "coordinates": [
                    [
                        [
                            [
                                25.63351,
                                -33.788624
                            ],
                            [
                                25.633195,
                                -33.788914
                            ],
                            [
                                25.633458,
                                -33.789076
                            ],
                            [
                                25.633843,
                                -33.788724
                            ],
                            [
                                25.633646,
                                -33.788554
                            ],
                            [
                                25.634039,
                                -33.788185
                            ],
                            [
                                25.634261,
                                -33.788242
                            ],
                            [
                                25.634601,
                                -33.787937
                            ],
                            [
                                25.633175,
                                -33.786917
                            ],
                            [
                                25.632274,
                                -33.78776
                            ],
                            [
                                25.63351,
                                -33.788624
                            ]
                        ]
                    ]
                ]
            }
        },
        {
            "type": "Feature",
            "properties": {
                "observation_date": "2019-09-07",
                "source": "19SEP07083050-P1BS-014905501010_01_P003",
                "sensor_name": "WorldView",
                "type": "observation",
                "current_phase": "No Activity",
                "is_occluded": "False",
                "is_site_boundary": "True",
                "score": 1.0
            },
            "geometry": {
                "type": "MultiPolygon",
                "coordinates": [
                    [
                        [
                            [
                                25.63351,
                                -33.788624
                            ],
                            [
                                25.633195,
                                -33.788914
                            ],
                            [
                                25.633458,
                                -33.789076
                            ],
                            [
                                25.633843,
                                -33.788724
                            ],
                            [
                                25.633646,
                                -33.788554
                            ],
                            [
                                25.634039,
                                -33.788185
                            ],
                            [
                                25.634261,
                                -33.788242
                            ],
                            [
                                25.634601,
                                -33.787937
                            ],
                            [
                                25.633175,
                                -33.786917
                            ],
                            [
                                25.632274,
                                -33.78776
                            ],
                            [
                                25.63351,
                                -33.788624
                            ]
                        ]
                    ]
                ]
            }
        },
        {
            "type": "Feature",
            "properties": {
                "observation_date": "2019-09-10",
                "source": "19SEP10082049-P1BS-014905512010_01_P008",
                "sensor_name": "WorldView",
                "type": "observation",
                "current_phase": "No Activity",
                "is_occluded": "False",
                "is_site_boundary": "True",
                "score": 1.0
            },
            "geometry": {
                "type": "MultiPolygon",
                "coordinates": [
                    [
                        [
                            [
                                25.63351,
                                -33.788624
                            ],
                            [
                                25.633195,
                                -33.788914
                            ],
                            [
                                25.633458,
                                -33.789076
                            ],
                            [
                                25.633843,
                                -33.788724
                            ],
                            [
                                25.633646,
                                -33.788554
                            ],
                            [
                                25.634039,
                                -33.788185
                            ],
                            [
                                25.634261,
                                -33.788242
                            ],
                            [
                                25.634601,
                                -33.787937
                            ],
                            [
                                25.633175,
                                -33.786917
                            ],
                            [
                                25.632274,
                                -33.78776
                            ],
                            [
                                25.63351,
                                -33.788624
                            ]
                        ]
                    ]
                ]
            }
        },
        {
            "type": "Feature",
            "properties": {
                "observation_date": "2019-09-18",
                "source": "19SEP18082614-P1BS-014905510010_01_P001",
                "sensor_name": "WorldView",
                "type": "observation",
                "current_phase": "No Activity",
                "is_occluded": "False",
                "is_site_boundary": "True",
                "score": 1.0
            },
            "geometry": {
                "type": "MultiPolygon",
                "coordinates": [
                    [
                        [
                            [
                                25.63351,
                                -33.788624
                            ],
                            [
                                25.633195,
                                -33.788914
                            ],
                            [
                                25.633458,
                                -33.789076
                            ],
                            [
                                25.633843,
                                -33.788724
                            ],
                            [
                                25.633646,
                                -33.788554
                            ],
                            [
                                25.634039,
                                -33.788185
                            ],
                            [
                                25.634261,
                                -33.788242
                            ],
                            [
                                25.634601,
                                -33.787937
                            ],
                            [
                                25.633175,
                                -33.786917
                            ],
                            [
                                25.632274,
                                -33.78776
                            ],
                            [
                                25.63351,
                                -33.788624
                            ]
                        ]
                    ]
                ]
            }
        },
        {
            "type": "Feature",
            "properties": {
                "observation_date": "2019-10-29",
                "source": "19OCT29081622-P1BS-014905528010_01_P003",
                "sensor_name": "WorldView",
                "type": "observation",
                "current_phase": "Site Preparation",
                "is_occluded": "False",
                "is_site_boundary": "True",
                "score": 1.0
            },
            "geometry": {
                "type": "MultiPolygon",
                "coordinates": [
                    [
                        [
                            [
                                25.63351,
                                -33.788624
                            ],
                            [
                                25.633195,
                                -33.788914
                            ],
                            [
                                25.633458,
                                -33.789076
                            ],
                            [
                                25.633843,
                                -33.788724
                            ],
                            [
                                25.633646,
                                -33.788554
                            ],
                            [
                                25.634039,
                                -33.788185
                            ],
                            [
                                25.634261,
                                -33.788242
                            ],
                            [
                                25.634601,
                                -33.787937
                            ],
                            [
                                25.633175,
                                -33.786917
                            ],
                            [
                                25.632274,
                                -33.78776
                            ],
                            [
                                25.63351,
                                -33.788624
                            ]
                        ]
                    ]
                ]
            }
        },
        {
            "type": "Feature",
            "properties": {
                "observation_date": "2019-12-06",
                "source": "19DEC06081710-P1BS-014905520010_01_P003",
                "sensor_name": "WorldView",
                "type": "observation",
                "current_phase": "Active Construction",
                "is_occluded": "False",
                "is_site_boundary": "True",
                "score": 1.0
            },
            "geometry": {
                "type": "MultiPolygon",
                "coordinates": [
                    [
                        [
                            [
                                25.63351,
                                -33.788624
                            ],
                            [
                                25.633195,
                                -33.788914
                            ],
                            [
                                25.633458,
                                -33.789076
                            ],
                            [
                                25.633843,
                                -33.788724
                            ],
                            [
                                25.633646,
                                -33.788554
                            ],
                            [
                                25.634039,
                                -33.788185
                            ],
                            [
                                25.634261,
                                -33.788242
                            ],
                            [
                                25.634601,
                                -33.787937
                            ],
                            [
                                25.633175,
                                -33.786917
                            ],
                            [
                                25.632274,
                                -33.78776
                            ],
                            [
                                25.63351,
                                -33.788624
                            ]
                        ]
                    ]
                ]
            }
        },
        {
            "type": "Feature",
            "properties": {
                "observation_date": "2020-01-24",
                "source": "20JAN24112221-P1BS-014905544010_01_P001",
                "sensor_name": "WorldView",
                "type": "observation",
                "current_phase": "Active Construction",
                "is_occluded": "False",
                "is_site_boundary": "True",
                "score": 1.0
            },
            "geometry": {
                "type": "MultiPolygon",
                "coordinates": [
                    [
                        [
                            [
                                25.63351,
                                -33.788624
                            ],
                            [
                                25.633195,
                                -33.788914
                            ],
                            [
                                25.633458,
                                -33.789076
                            ],
                            [
                                25.633843,
                                -33.788724
                            ],
                            [
                                25.633646,
                                -33.788554
                            ],
                            [
                                25.634039,
                                -33.788185
                            ],
                            [
                                25.634261,
                                -33.788242
                            ],
                            [
                                25.634601,
                                -33.787937
                            ],
                            [
                                25.633175,
                                -33.786917
                            ],
                            [
                                25.632274,
                                -33.78776
                            ],
                            [
                                25.63351,
                                -33.788624
                            ]
                        ]
                    ]
                ]
            }
        },
        {
            "type": "Feature",
            "properties": {
                "observation_date": "2020-01-29",
                "source": "20JAN29082853-M1BS-014905533010_01_P001",
                "sensor_name": "WorldView",
                "type": "observation",
                "current_phase": "Active Construction",
                "is_occluded": "False",
                "is_site_boundary": "True",
                "score": 1.0
            },
            "geometry": {
                "type": "MultiPolygon",
                "coordinates": [
                    [
                        [
                            [
                                25.63351,
                                -33.788624
                            ],
                            [
                                25.633195,
                                -33.788914
                            ],
                            [
                                25.633458,
                                -33.789076
                            ],
                            [
                                25.633843,
                                -33.788724
                            ],
                            [
                                25.633646,
                                -33.788554
                            ],
                            [
                                25.634039,
                                -33.788185
                            ],
                            [
                                25.634261,
                                -33.788242
                            ],
                            [
                                25.634601,
                                -33.787937
                            ],
                            [
                                25.633175,
                                -33.786917
                            ],
                            [
                                25.632274,
                                -33.78776
                            ],
                            [
                                25.63351,
                                -33.788624
                            ]
                        ]
                    ]
                ]
            }
        },
        {
            "type": "Feature",
            "properties": {
                "observation_date": "2020-02-20",
                "source": "20FEB20081844-M1BS-014905531010_01_P003",
                "sensor_name": "WorldView",
                "type": "observation",
                "current_phase": "Active Construction",
                "is_occluded": "False",
                "is_site_boundary": "True",
                "score": 1.0
            },
            "geometry": {
                "type": "MultiPolygon",
                "coordinates": [
                    [
                        [
                            [
                                25.63351,
                                -33.788624
                            ],
                            [
                                25.633195,
                                -33.788914
                            ],
                            [
                                25.633458,
                                -33.789076
                            ],
                            [
                                25.633843,
                                -33.788724
                            ],
                            [
                                25.633646,
                                -33.788554
                            ],
                            [
                                25.634039,
                                -33.788185
                            ],
                            [
                                25.634261,
                                -33.788242
                            ],
                            [
                                25.634601,
                                -33.787937
                            ],
                            [
                                25.633175,
                                -33.786917
                            ],
                            [
                                25.632274,
                                -33.78776
                            ],
                            [
                                25.63351,
                                -33.788624
                            ]
                        ]
                    ]
                ]
            }
        },
        {
            "type": "Feature",
            "properties": {
                "observation_date": "2020-03-21",
                "source": "20MAR21081302-M1BS-014905547010_01_P003",
                "sensor_name": "WorldView",
                "type": "observation",
                "current_phase": "Active Construction",
                "is_occluded": "False",
                "is_site_boundary": "True",
                "score": 1.0
            },
            "geometry": {
                "type": "MultiPolygon",
                "coordinates": [
                    [
                        [
                            [
                                25.63351,
                                -33.788624
                            ],
                            [
                                25.633195,
                                -33.788914
                            ],
                            [
                                25.633458,
                                -33.789076
                            ],
                            [
                                25.633843,
                                -33.788724
                            ],
                            [
                                25.633646,
                                -33.788554
                            ],
                            [
                                25.634039,
                                -33.788185
                            ],
                            [
                                25.634261,
                                -33.788242
                            ],
                            [
                                25.634601,
                                -33.787937
                            ],
                            [
                                25.633175,
                                -33.786917
                            ],
                            [
                                25.632274,
                                -33.78776
                            ],
                            [
                                25.63351,
                                -33.788624
                            ]
                        ]
                    ]
                ]
            }
        },
        {
            "type": "Feature",
            "properties": {
                "observation_date": "2020-04-09",
                "source": "20APR09081309-P1BS-014905565010_01_P002",
                "sensor_name": "WorldView",
                "type": "observation",
                "current_phase": "Active Construction",
                "is_occluded": "False",
                "is_site_boundary": "True",
                "score": 1.0
            },
            "geometry": {
                "type": "MultiPolygon",
                "coordinates": [
                    [
                        [
                            [
                                25.63351,
                                -33.788624
                            ],
                            [
                                25.633195,
                                -33.788914
                            ],
                            [
                                25.633458,
                                -33.789076
                            ],
                            [
                                25.633843,
                                -33.788724
                            ],
                            [
                                25.633646,
                                -33.788554
                            ],
                            [
                                25.634039,
                                -33.788185
                            ],
                            [
                                25.634261,
                                -33.788242
                            ],
                            [
                                25.634601,
                                -33.787937
                            ],
                            [
                                25.633175,
                                -33.786917
                            ],
                            [
                                25.632274,
                                -33.78776
                            ],
                            [
                                25.63351,
                                -33.788624
                            ]
                        ]
                    ]
                ]
            }
        },
        {
            "type": "Feature",
            "properties": {
                "observation_date": "2020-05-09",
                "source": "20MAY09080835-P1BS-014905573010_01_P003",
                "sensor_name": "WorldView",
                "type": "observation",
                "current_phase": "Active Construction",
                "is_occluded": "False",
                "is_site_boundary": "True",
                "score": 1.0
            },
            "geometry": {
                "type": "MultiPolygon",
                "coordinates": [
                    [
                        [
                            [
                                25.63351,
                                -33.788624
                            ],
                            [
                                25.633195,
                                -33.788914
                            ],
                            [
                                25.633458,
                                -33.789076
                            ],
                            [
                                25.633843,
                                -33.788724
                            ],
                            [
                                25.633646,
                                -33.788554
                            ],
                            [
                                25.634039,
                                -33.788185
                            ],
                            [
                                25.634261,
                                -33.788242
                            ],
                            [
                                25.634601,
                                -33.787937
                            ],
                            [
                                25.633175,
                                -33.786917
                            ],
                            [
                                25.632274,
                                -33.78776
                            ],
                            [
                                25.63351,
                                -33.788624
                            ]
                        ]
                    ]
                ]
            }
        },
        {
            "type": "Feature",
            "properties": {
                "observation_date": "2020-05-20",
                "source": "20MAY20080245-M1BS-014905567010_01_P003",
                "sensor_name": "WorldView",
                "type": "observation",
                "current_phase": "Active Construction",
                "is_occluded": "False",
                "is_site_boundary": "True",
                "score": 1.0
            },
            "geometry": {
                "type": "MultiPolygon",
                "coordinates": [
                    [
                        [
                            [
                                25.63351,
                                -33.788624
                            ],
                            [
                                25.633195,
                                -33.788914
                            ],
                            [
                                25.633458,
                                -33.789076
                            ],
                            [
                                25.633843,
                                -33.788724
                            ],
                            [
                                25.633646,
                                -33.788554
                            ],
                            [
                                25.634039,
                                -33.788185
                            ],
                            [
                                25.634261,
                                -33.788242
                            ],
                            [
                                25.634601,
                                -33.787937
                            ],
                            [
                                25.633175,
                                -33.786917
                            ],
                            [
                                25.632274,
                                -33.78776
                            ],
                            [
                                25.63351,
                                -33.788624
                            ]
                        ]
                    ]
                ]
            }
        },
        {
            "type": "Feature",
            "properties": {
                "observation_date": "2020-06-08",
                "source": "20JUN08080240-P1BS-014905570010_01_P002",
                "sensor_name": "WorldView",
                "type": "observation",
                "current_phase": "Active Construction",
                "is_occluded": "False",
                "is_site_boundary": "True",
                "score": 1.0
            },
            "geometry": {
                "type": "MultiPolygon",
                "coordinates": [
                    [
                        [
                            [
                                25.63351,
                                -33.788624
                            ],
                            [
                                25.633195,
                                -33.788914
                            ],
                            [
                                25.633458,
                                -33.789076
                            ],
                            [
                                25.633843,
                                -33.788724
                            ],
                            [
                                25.633646,
                                -33.788554
                            ],
                            [
                                25.634039,
                                -33.788185
                            ],
                            [
                                25.634261,
                                -33.788242
                            ],
                            [
                                25.634601,
                                -33.787937
                            ],
                            [
                                25.633175,
                                -33.786917
                            ],
                            [
                                25.632274,
                                -33.78776
                            ],
                            [
                                25.63351,
                                -33.788624
                            ]
                        ]
                    ]
                ]
            }
        },
        {
            "type": "Feature",
            "properties": {
                "observation_date": "2020-07-21",
                "source": "20JUL21081922-P1BS-014905581010_01_P003",
                "sensor_name": "WorldView",
                "type": "observation",
                "current_phase": "Active Construction",
                "is_occluded": "False",
                "is_site_boundary": "True",
                "score": 1.0
            },
            "geometry": {
                "type": "MultiPolygon",
                "coordinates": [
                    [
                        [
                            [
                                25.63351,
                                -33.788624
                            ],
                            [
                                25.633195,
                                -33.788914
                            ],
                            [
                                25.633458,
                                -33.789076
                            ],
                            [
                                25.633843,
                                -33.788724
                            ],
                            [
                                25.633646,
                                -33.788554
                            ],
                            [
                                25.634039,
                                -33.788185
                            ],
                            [
                                25.634261,
                                -33.788242
                            ],
                            [
                                25.634601,
                                -33.787937
                            ],
                            [
                                25.633175,
                                -33.786917
                            ],
                            [
                                25.632274,
                                -33.78776
                            ],
                            [
                                25.63351,
                                -33.788624
                            ]
                        ]
                    ]
                ]
            }
        },
        {
            "type": "Feature",
            "properties": {
                "observation_date": "2020-09-16",
                "source": "20SEP16081852-M1BS-014905009010_01_P002",
                "sensor_name": "WorldView",
                "type": "observation",
                "current_phase": "Active Construction",
                "is_occluded": "False",
                "is_site_boundary": "True",
                "score": 1.0
            },
            "geometry": {
                "type": "MultiPolygon",
                "coordinates": [
                    [
                        [
                            [
                                25.63351,
                                -33.788624
                            ],
                            [
                                25.633195,
                                -33.788914
                            ],
                            [
                                25.633458,
                                -33.789076
                            ],
                            [
                                25.633843,
                                -33.788724
                            ],
                            [
                                25.633646,
                                -33.788554
                            ],
                            [
                                25.634039,
                                -33.788185
                            ],
                            [
                                25.634261,
                                -33.788242
                            ],
                            [
                                25.634601,
                                -33.787937
                            ],
                            [
                                25.633175,
                                -33.786917
                            ],
                            [
                                25.632274,
                                -33.78776
                            ],
                            [
                                25.63351,
                                -33.788624
                            ]
                        ]
                    ]
                ]
            }
        },
        {
            "type": "Feature",
            "properties": {
                "observation_date": "2020-10-16",
                "source": "20OCT16081420-M1BS-014905001010_01_P003",
                "sensor_name": "WorldView",
                "type": "observation",
                "current_phase": "Active Construction",
                "is_occluded": "False",
                "is_site_boundary": "True",
                "score": 1.0
            },
            "geometry": {
                "type": "MultiPolygon",
                "coordinates": [
                    [
                        [
                            [
                                25.63351,
                                -33.788624
                            ],
                            [
                                25.633195,
                                -33.788914
                            ],
                            [
                                25.633458,
                                -33.789076
                            ],
                            [
                                25.633843,
                                -33.788724
                            ],
                            [
                                25.633646,
                                -33.788554
                            ],
                            [
                                25.634039,
                                -33.788185
                            ],
                            [
                                25.634261,
                                -33.788242
                            ],
                            [
                                25.634601,
                                -33.787937
                            ],
                            [
                                25.633175,
                                -33.786917
                            ],
                            [
                                25.632274,
                                -33.78776
                            ],
                            [
                                25.63351,
                                -33.788624
                            ]
                        ]
                    ]
                ]
            }
        },
        {
            "type": "Feature",
            "properties": {
                "observation_date": "2020-10-23",
                "source": "20OCT23081650-P1BS-014904979010_01_P001",
                "sensor_name": "WorldView",
                "type": "observation",
                "current_phase": "Active Construction",
                "is_occluded": "False",
                "is_site_boundary": "True",
                "score": 1.0
            },
            "geometry": {
                "type": "MultiPolygon",
                "coordinates": [
                    [
                        [
                            [
                                25.63351,
                                -33.788624
                            ],
                            [
                                25.633195,
                                -33.788914
                            ],
                            [
                                25.633458,
                                -33.789076
                            ],
                            [
                                25.633843,
                                -33.788724
                            ],
                            [
                                25.633646,
                                -33.788554
                            ],
                            [
                                25.634039,
                                -33.788185
                            ],
                            [
                                25.634261,
                                -33.788242
                            ],
                            [
                                25.634601,
                                -33.787937
                            ],
                            [
                                25.633175,
                                -33.786917
                            ],
                            [
                                25.632274,
                                -33.78776
                            ],
                            [
                                25.63351,
                                -33.788624
                            ]
                        ]
                    ]
                ]
            }
        },
        {
            "type": "Feature",
            "properties": {
                "observation_date": "2020-10-27",
                "source": "20OCT27080806-M1BS-014904995010_01_P002",
                "sensor_name": "WorldView",
                "type": "observation",
                "current_phase": "Active Construction",
                "is_occluded": "False",
                "is_site_boundary": "True",
                "score": 1.0
            },
            "geometry": {
                "type": "MultiPolygon",
                "coordinates": [
                    [
                        [
                            [
                                25.63351,
                                -33.788624
                            ],
                            [
                                25.633195,
                                -33.788914
                            ],
                            [
                                25.633458,
                                -33.789076
                            ],
                            [
                                25.633843,
                                -33.788724
                            ],
                            [
                                25.633646,
                                -33.788554
                            ],
                            [
                                25.634039,
                                -33.788185
                            ],
                            [
                                25.634261,
                                -33.788242
                            ],
                            [
                                25.634601,
                                -33.787937
                            ],
                            [
                                25.633175,
                                -33.786917
                            ],
                            [
                                25.632274,
                                -33.78776
                            ],
                            [
                                25.63351,
                                -33.788624
                            ]
                        ]
                    ]
                ]
            }
        },
        {
            "type": "Feature",
            "properties": {
                "observation_date": "2020-12-17",
                "source": "20DEC17112147-P1BS-014904997010_01_P003",
                "sensor_name": "WorldView",
                "type": "observation",
                "current_phase": "Active Construction",
                "is_occluded": "False",
                "is_site_boundary": "True",
                "score": 1.0
            },
            "geometry": {
                "type": "MultiPolygon",
                "coordinates": [
                    [
                        [
                            [
                                25.63351,
                                -33.788624
                            ],
                            [
                                25.633195,
                                -33.788914
                            ],
                            [
                                25.633458,
                                -33.789076
                            ],
                            [
                                25.633843,
                                -33.788724
                            ],
                            [
                                25.633646,
                                -33.788554
                            ],
                            [
                                25.634039,
                                -33.788185
                            ],
                            [
                                25.634261,
                                -33.788242
                            ],
                            [
                                25.634601,
                                -33.787937
                            ],
                            [
                                25.633175,
                                -33.786917
                            ],
                            [
                                25.632274,
                                -33.78776
                            ],
                            [
                                25.63351,
                                -33.788624
                            ]
                        ]
                    ]
                ]
            }
        },
        {
            "type": "Feature",
            "properties": {
                "observation_date": "2021-02-23",
                "source": "21FEB23112415-P1BS-014905000010_01_P007",
                "sensor_name": "WorldView",
                "type": "observation",
                "current_phase": "Active Construction",
                "is_occluded": "False",
                "is_site_boundary": "True",
                "score": 1.0
            },
            "geometry": {
                "type": "MultiPolygon",
                "coordinates": [
                    [
                        [
                            [
                                25.63351,
                                -33.788624
                            ],
                            [
                                25.633195,
                                -33.788914
                            ],
                            [
                                25.633458,
                                -33.789076
                            ],
                            [
                                25.633843,
                                -33.788724
                            ],
                            [
                                25.633646,
                                -33.788554
                            ],
                            [
                                25.634039,
                                -33.788185
                            ],
                            [
                                25.634261,
                                -33.788242
                            ],
                            [
                                25.634601,
                                -33.787937
                            ],
                            [
                                25.633175,
                                -33.786917
                            ],
                            [
                                25.632274,
                                -33.78776
                            ],
                            [
                                25.63351,
                                -33.788624
                            ]
                        ]
                    ]
                ]
            }
        },
        {
            "type": "Feature",
            "properties": {
                "observation_date": "2021-04-07",
                "source": "21APR07083424-M1BS-014905012010_01_P003",
                "sensor_name": "WorldView",
                "type": "observation",
                "current_phase": "Post Construction",
                "is_occluded": "False",
                "is_site_boundary": "True",
                "score": 1.0
            },
            "geometry": {
                "type": "MultiPolygon",
                "coordinates": [
                    [
                        [
                            [
                                25.63351,
                                -33.788624
                            ],
                            [
                                25.633195,
                                -33.788914
                            ],
                            [
                                25.633458,
                                -33.789076
                            ],
                            [
                                25.633843,
                                -33.788724
                            ],
                            [
                                25.633646,
                                -33.788554
                            ],
                            [
                                25.634039,
                                -33.788185
                            ],
                            [
                                25.634261,
                                -33.788242
                            ],
                            [
                                25.634601,
                                -33.787937
                            ],
                            [
                                25.633175,
                                -33.786917
                            ],
                            [
                                25.632274,
                                -33.78776
                            ],
                            [
                                25.63351,
                                -33.788624
                            ]
                        ]
                    ]
                ]
            }
        },
        {
            "type": "Feature",
            "properties": {
                "observation_date": "2021-05-27",
                "source": "21MAY27081812-M1BS-014905026010_01_P008",
                "sensor_name": "WorldView",
                "type": "observation",
                "current_phase": "Post Construction",
                "is_occluded": "False",
                "is_site_boundary": "True",
                "score": 1.0
            },
            "geometry": {
                "type": "MultiPolygon",
                "coordinates": [
                    [
                        [
                            [
                                25.63351,
                                -33.788624
                            ],
                            [
                                25.633195,
                                -33.788914
                            ],
                            [
                                25.633458,
                                -33.789076
                            ],
                            [
                                25.633843,
                                -33.788724
                            ],
                            [
                                25.633646,
                                -33.788554
                            ],
                            [
                                25.634039,
                                -33.788185
                            ],
                            [
                                25.634261,
                                -33.788242
                            ],
                            [
                                25.634601,
                                -33.787937
                            ],
                            [
                                25.633175,
                                -33.786917
                            ],
                            [
                                25.632274,
                                -33.78776
                            ],
                            [
                                25.63351,
                                -33.788624
                            ]
                        ]
                    ]
                ]
            }
        },
        {
            "type": "Feature",
            "properties": {
                "observation_date": "2021-05-29",
                "source": "21MAY29082004-P1BS-014905023010_01_P008",
                "sensor_name": "WorldView",
                "type": "observation",
                "current_phase": "Post Construction",
                "is_occluded": "False",
                "is_site_boundary": "True",
                "score": 1.0
            },
            "geometry": {
                "type": "MultiPolygon",
                "coordinates": [
                    [
                        [
                            [
                                25.63351,
                                -33.788624
                            ],
                            [
                                25.633195,
                                -33.788914
                            ],
                            [
                                25.633458,
                                -33.789076
                            ],
                            [
                                25.633843,
                                -33.788724
                            ],
                            [
                                25.633646,
                                -33.788554
                            ],
                            [
                                25.634039,
                                -33.788185
                            ],
                            [
                                25.634261,
                                -33.788242
                            ],
                            [
                                25.634601,
                                -33.787937
                            ],
                            [
                                25.633175,
                                -33.786917
                            ],
                            [
                                25.632274,
                                -33.78776
                            ],
                            [
                                25.63351,
                                -33.788624
                            ]
                        ]
                    ]
                ]
            }
        },
        {
            "type": "Feature",
            "properties": {
                "observation_date": "2021-09-23",
                "source": "21SEP23080836-P1BS-014905044010_01_P012",
                "sensor_name": "WorldView",
                "type": "observation",
                "current_phase": "Post Construction",
                "is_occluded": "False",
                "is_site_boundary": "True",
                "score": 1.0
            },
            "geometry": {
                "type": "MultiPolygon",
                "coordinates": [
                    [
                        [
                            [
                                25.63351,
                                -33.788624
                            ],
                            [
                                25.633195,
                                -33.788914
                            ],
                            [
                                25.633458,
                                -33.789076
                            ],
                            [
                                25.633843,
                                -33.788724
                            ],
                            [
                                25.633646,
                                -33.788554
                            ],
                            [
                                25.634039,
                                -33.788185
                            ],
                            [
                                25.634261,
                                -33.788242
                            ],
                            [
                                25.634601,
                                -33.787937
                            ],
                            [
                                25.633175,
                                -33.786917
                            ],
                            [
                                25.632274,
                                -33.78776
                            ],
                            [
                                25.63351,
                                -33.788624
                            ]
                        ]
                    ]
                ]
            }
        }
    ]
}