{
    "type": "FeatureCollection",
    "features": [
        {
            "type": "Feature",
            "properties": {
                "type": "region",
                "region_id": "AE_C000",
                "version": "2.0.3",
                "mgrs": "40RCN",
                "start_date": "2017-01-01",
                "end_date": "2021-08-31",
                "originator": "iMERIT",
                "model_content": "annotation",
                "comments": null
            },
            "geometry": {
                "type": "Polygon",
                "coordinates": [
                    [
                        [
                            55.201567,
                            25.04217
                        ],
                        [
                            55.243573,
                            24.988292
                        ],
                        [
                            55.322557,
                            25.05411
                        ],
                        [
                            55.392515,
                            25.083134
                        ],
                        [
                            55.361337,
                            25.121164
                        ],
                        [
                            55.201567,
                            25.04217
                        ]
                    ]
                ]
            }
        },
        {
            "type": "Feature",
            "properties": {
                "type": "site_summary",
                "status": "positive_pending",
                "version": "2.0.0",
                "site_id": "AE_C000_0000",
                "mgrs": "40RCN",
                "start_date": null,
                "end_date": null,
                "score": 0.0,
                "validated": "False",
                "originator": "iMERIT",
                "model_content": "annotation"
            },
            "geometry": {
                "type": "Polygon",
                "coordinates": [
                    [
                        [
                            55.36756210021841,
                            25.111438520622013
                        ],
                        [
                            55.36782314394088,
                            25.112119103407352
                        ],
                        [
                            55.368233341805265,
                            25.111737193681197
                        ],
                        [
                            55.36866575856433,
                            25.11161899924774
                        ],
                        [
                            55.36893047999431,
                            25.111053983463755
                        ],
                        [
                            55.36930743550734,
                            25.110753673790192
                        ],
                        [
                            55.36945572109681,
                            25.110240070439055
                        ],
                        [
                            55.369789219076004,
                            25.109822182630207
                        ],
                        [
                            55.36896686118333,
                            25.1097662979223
                        ],
                        [
                            55.36893238280931,
                            25.109941566668006
                        ],
                        [
                            55.36885777314325,
                            25.110233492559956
                        ],
                        [
                            55.36876552556969,
                            25.110400806940614
                        ],
                        [
                            55.36866353625477,
                            25.11057533271938
                        ],
                        [
                            55.36851618991222,
                            25.110775706459684
                        ],
                        [
                            55.368362763248115,
                            25.11094966590437
                        ],
                        [
                            55.368141475633394,
                            25.111149225379574
                        ],
                        [
                            55.36787552995056,
                            25.111321945625356
                        ],
                        [
                            55.36756210021841,
                            25.111438520622013
                        ]
                    ]
                ]
            }
        },
        {
            "type": "Feature",
            "properties": {
                "type": "site_summary",
                "status": "positive_pending",
                "version": "2.0.0",
                "site_id": "AE_C000_0001",
                "mgrs": "40RCN",
                "start_date": null,
                "end_date": null,
                "score": 0.0,
                "validated": "False",
                "originator": "iMERIT",
                "model_content": "annotation"
            },
            "geometry": {
                "type": "Polygon",
                "coordinates": [
                    [
                        [
                            55.24418144745154,
                            25.005240915510118
                        ],
                        [
                            55.24687620668028,
                            25.002258366460833
                        ],
                        [
                            55.249019282054995,
                            25.002289882275168
                        ],
                        [
                            55.25455558430609,
                            25.006824938374464
                        ],
                        [
                            55.257097544635485,
                            25.003927435451107
                        ],
                        [
                            55.25693759544169,
                            25.00069371340205
                        ],
                        [
                            55.2502960359096,
                            24.99424571389889
                        ],
                        [
                            55.2471905781086,
                            24.993974959926685
                        ],
                        [
                            55.24353500691685,
                            24.996250327995867
                        ],
                        [
                            55.239427506828214,
                            24.9977708408397
                        ],
                        [
                            55.23573836197851,
                            24.998780980542715
                        ],
                        [
                            55.24418144745154,
                            25.005240915510118
                        ]
                    ]
                ]
            }
        },
        {
            "type": "Feature",
            "properties": {
                "type": "site_summary",
                "status": "positive_pending",
                "version": "2.0.0",
                "site_id": "AE_C000_0002",
                "mgrs": "40RCN",
                "start_date": null,
                "end_date": null,
                "score": 0.0,
                "validated": "False",
                "originator": "iMERIT",
                "model_content": "annotation"
            },
            "geometry": {
                "type": "Polygon",
                "coordinates": [
                    [
                        [
                            55.240441850116625,
                            25.023965314722346
                        ],
                        [
                            55.25876451171267,
                            25.03422792469333
                        ],
                        [
                            55.26038333628334,
                            25.03427030752341
                        ],
                        [
                            55.261236748150374,
                            25.0339055916939
                        ],
                        [
                            55.267003210220835,
                            25.02964041758792
                        ],
                        [
                            55.269270279460166,
                            25.02836122018999
                        ],
                        [
                            55.272172107370416,
                            25.026720514879496
                        ],
                        [
                            55.2781924878289,
                            25.0235482848904
                        ],
                        [
                            55.2785406756905,
                            25.023001964964326
                        ],
                        [
                            55.27863167460647,
                            25.020624496271278
                        ],
                        [
                            55.27852199381988,
                            25.020195823667017
                        ],
                        [
                            55.27821900612417,
                            25.01980589562337
                        ],
                        [
                            55.27766067401844,
                            25.019295911895775
                        ],
                        [
                            55.261518484091006,
                            25.004787149588864
                        ],
                        [
                            55.25866471657705,
                            25.004870853748038
                        ],
                        [
                            55.255583174271834,
                            25.007434262022702
                        ],
                        [
                            55.240441850116625,
                            25.023965314722346
                        ]
                    ]
                ]
            }
        },
        {
            "type": "Feature",
            "properties": {
                "type": "site_summary",
                "status": "positive_pending",
                "version": "2.0.0",
                "site_id": "AE_C000_0003",
                "mgrs": "40RCN",
                "start_date": null,
                "end_date": null,
                "score": 0.0,
                "validated": "False",
                "originator": "iMERIT",
                "model_content": "annotation"
            },
            "geometry": {
                "type": "Polygon",
                "coordinates": [
                    [
                        [
                            55.26165437556089,
                            25.03436715170584
                        ],
                        [
                            55.26152502229309,
                            25.03533753190362
                        ],
                        [
                            55.26183638483105,
                            25.036043748858994
                        ],
                        [
                            55.30092097204597,
                            25.057555791006976
                        ],
                        [
                            55.30125426592135,
                            25.05762400806261
                        ],
                        [
                            55.301551099154075,
                            25.057539581334304
                        ],
                        [
                            55.30204083802137,
                            25.056983117717262
                        ],
                        [
                            55.30636820394783,
                            25.051722187958216
                        ],
                        [
                            55.30674784646352,
                            25.05122299946404
                        ],
                        [
                            55.306808747876275,
                            25.050532820430718
                        ],
                        [
                            55.306827262761125,
                            25.048249635818642
                        ],
                        [
                            55.30656412288556,
                            25.047754827205615
                        ],
                        [
                            55.30528360270108,
                            25.04646386118474
                        ],
                        [
                            55.28100398500997,
                            25.022379127218933
                        ],
                        [
                            55.276842723591415,
                            25.024953898592244
                        ],
                        [
                            55.26910638802772,
                            25.02905017776788
                        ],
                        [
                            55.26543140544108,
                            25.031284838584508
                        ],
                        [
                            55.262689842087326,
                            25.033395659774243
                        ],
                        [
                            55.26165437556089,
                            25.03436715170584
                        ]
                    ]
                ]
            }
        },
        {
            "type": "Feature",
            "properties": {
                "type": "site_summary",
                "status": "positive_pending",
                "version": "2.0.0",
                "site_id": "AE_C000_0004",
                "mgrs": "40RCN",
                "start_date": null,
                "end_date": null,
                "score": 0.0,
                "validated": "False",
                "originator": "iMERIT",
                "model_content": "annotation"
            },
            "geometry": {
                "type": "Polygon",
                "coordinates": [
                    [
                        [
                            55.37775098693331,
                            25.101141483943515
                        ],
                        [
                            55.37775083058993,
                            25.101141736662896
                        ],
                        [
                            55.37714279857555,
                            25.101242010919677
                        ],
                        [
                            55.3761524077096,
                            25.101254588593953
                        ],
                        [
                            55.37537130651995,
                            25.101000124860164
                        ],
                        [
                            55.36963062677033,
                            25.097506121821436
                        ],
                        [
                            55.37674533479552,
                            25.08848555463699
                        ],
                        [
                            55.37669029915416,
                            25.088448242112083
                        ],
                        [
                            55.382729492142936,
                            25.081384543169857
                        ],
                        [
                            55.38559926373681,
                            25.083533715539474
                        ],
                        [
                            55.38872141225349,
                            25.08568130767719
                        ],
                        [
                            55.38911368345993,
                            25.08616567685883
                        ],
                        [
                            55.38934891757507,
                            25.086859119882853
                        ],
                        [
                            55.38936567751268,
                            25.086958833164257
                        ],
                        [
                            55.37914739582508,
                            25.09943907240381
                        ],
                        [
                            55.37775098693331,
                            25.101141483943515
                        ]
                    ]
                ]
            }
        },
        {
            "type": "Feature",
            "properties": {
                "type": "site_summary",
                "status": "positive_pending",
                "version": "2.0.0",
                "site_id": "AE_C000_0005",
                "mgrs": "40RCN",
                "start_date": null,
                "end_date": null,
                "score": 0.0,
                "validated": "False",
                "originator": "iMERIT",
                "model_content": "annotation"
            },
            "geometry": {
                "type": "Polygon",
                "coordinates": [
                    [
                        [
                            55.340284826539104,
                            25.077508147966704
                        ],
                        [
                            55.34026568145378,
                            25.077497687743893
                        ],
                        [
                            55.34134688012366,
                            25.078364593540176
                        ],
                        [
                            55.342390390411865,
                            25.078212316905983
                        ],
                        [
                            55.34370071426975,
                            25.078297207715494
                        ],
                        [
                            55.344296579402865,
                            25.078924478364055
                        ],
                        [
                            55.34477460092691,
                            25.0787541641697
                        ],
                        [
                            55.34525891776096,
                            25.078115525462103
                        ],
                        [
                            55.34583919743734,
                            25.07703298109311
                        ],
                        [
                            55.34645472960116,
                            25.076196733270297
                        ],
                        [
                            55.3511528403267,
                            25.07484968218969
                        ],
                        [
                            55.35231593447737,
                            25.07584622876988
                        ],
                        [
                            55.35409510282842,
                            25.07740581992498
                        ],
                        [
                            55.35565999233652,
                            25.07864685037696
                        ],
                        [
                            55.36127075535738,
                            25.082145772464322
                        ],
                        [
                            55.36353706779482,
                            25.083347630551263
                        ],
                        [
                            55.36782073688102,
                            25.085142521198193
                        ],
                        [
                            55.368631429170854,
                            25.083156362462592
                        ],
                        [
                            55.369356066331996,
                            25.08135514693701
                        ],
                        [
                            55.370133958221174,
                            25.07989995425007
                        ],
                        [
                            55.37080402509095,
                            25.078818290237916
                        ],
                        [
                            55.37260645975316,
                            25.076695151776256
                        ],
                        [
                            55.372470459988726,
                            25.075311888001785
                        ],
                        [
                            55.37181916751542,
                            25.074976865546525
                        ],
                        [
                            55.368165334362644,
                            25.073215373962398
                        ],
                        [
                            55.36569702389353,
                            25.07222799989747
                        ],
                        [
                            55.363190190105286,
                            25.071240161331048
                        ],
                        [
                            55.36086102866368,
                            25.07042989263717
                        ],
                        [
                            55.357916275643234,
                            25.069507390123928
                        ],
                        [
                            55.353816843031986,
                            25.06840809061371
                        ],
                        [
                            55.351009678703534,
                            25.067779727217957
                        ],
                        [
                            55.34862328898085,
                            25.067413610510403
                        ],
                        [
                            55.33938860802563,
                            25.065788305784153
                        ],
                        [
                            55.3386732310619,
                            25.071166816849562
                        ],
                        [
                            55.340284826539104,
                            25.077508147966704
                        ]
                    ]
                ]
            }
        },
        {
            "type": "Feature",
            "properties": {
                "type": "site_summary",
                "status": "positive_pending",
                "version": "2.0.0",
                "site_id": "AE_C000_0006",
                "mgrs": "40RCN",
                "start_date": null,
                "end_date": null,
                "score": 0.0,
                "validated": "False",
                "originator": "iMERIT",
                "model_content": "annotation"
            },
            "geometry": {
                "type": "Polygon",
                "coordinates": [
                    [
                        [
                            55.21491270838014,
                            25.025055758099636
                        ],
                        [
                            55.21873508782141,
                            25.02713758067898
                        ],
                        [
                            55.2196269433997,
                            25.02767519191663
                        ],
                        [
                            55.22304665796642,
                            25.029378862154708
                        ],
                        [
                            55.2272597978719,
                            25.031326114419056
                        ],
                        [
                            55.22941462654385,
                            25.03252275207632
                        ],
                        [
                            55.23148038649931,
                            25.03365975264304
                        ],
                        [
                            55.231931485711634,
                            25.033571446057216
                        ],
                        [
                            55.23350805207107,
                            25.031178052072214
                        ],
                        [
                            55.23476677996484,
                            25.02943659248712
                        ],
                        [
                            55.236468048230975,
                            25.027302250925853
                        ],
                        [
                            55.23793428952571,
                            25.02542270883114
                        ],
                        [
                            55.23333655018501,
                            25.02296182643271
                        ],
                        [
                            55.221518708756236,
                            25.016582241522723
                        ],
                        [
                            55.21977534377073,
                            25.018816370838493
                        ],
                        [
                            55.21491270838014,
                            25.025055758099636
                        ]
                    ]
                ]
            }
        },
        {
            "type": "Feature",
            "properties": {
                "type": "site_summary",
                "status": "positive_pending",
                "version": "2.0.0",
                "site_id": "AE_C000_0007",
                "mgrs": "40RCN",
                "start_date": "2018-09-21",
                "end_date": "2021-06-07",
                "score": 0.0,
                "validated": "False",
                "originator": "iMERIT",
                "model_content": "annotation"
            },
            "geometry": {
                "type": "Polygon",
                "coordinates": [
                    [
                        [
                            55.235811229048906,
                            25.03054383188916
                        ],
                        [
                            55.23670385903788,
                            25.03103451586187
                        ],
                        [
                            55.23695319591188,
                            25.030674481072726
                        ],
                        [
                            55.23828122565324,
                            25.031275706780505
                        ],
                        [
                            55.238670737699515,
                            25.030999297233343
                        ],
                        [
                            55.23903304378575,
                            25.030827949453098
                        ],
                        [
                            55.239510496901005,
                            25.03069309353438
                        ],
                        [
                            55.239720607114045,
                            25.0303794268541
                        ],
                        [
                            55.239710096421604,
                            25.030215369589143
                        ],
                        [
                            55.2378739315929,
                            25.029198300004623
                        ],
                        [
                            55.23765565294006,
                            25.029184001823523
                        ],
                        [
                            55.23746131731273,
                            25.029292936809117
                        ],
                        [
                            55.236845998354006,
                            25.030081880829645
                        ],
                        [
                            55.236355213297614,
                            25.029800883783796
                        ],
                        [
                            55.235811229048906,
                            25.03054383188916
                        ]
                    ]
                ]
            }
        },
        {
            "type": "Feature",
            "properties": {
                "type": "site_summary",
                "status": "positive_pending",
                "version": "2.0.0",
                "site_id": "AE_C000_0008",
                "mgrs": "40RCN",
                "start_date": "2017-02-03",
                "end_date": null,
                "score": 0.0,
                "validated": "False",
                "originator": "iMERIT",
                "model_content": "annotation"
            },
            "geometry": {
                "type": "Polygon",
                "coordinates": [
                    [
                        [
                            55.35782485399158,
                            25.097072872820885
                        ],
                        [
                            55.35776669999899,
                            25.097575752331537
                        ],
                        [
                            55.35792775257582,
                            25.098034219736636
                        ],
                        [
                            55.36487100092348,
                            25.10197519453426
                        ],
                        [
                            55.365512588193134,
                            25.10208180185225
                        ],
                        [
                            55.365971467014134,
                            25.101905356229118
                        ],
                        [
                            55.36778697957009,
                            25.099557027947714
                        ],
                        [
                            55.360481380443254,
                            25.095307728755813
                        ],
                        [
                            55.35782485399158,
                            25.097072872820885
                        ]
                    ]
                ]
            }
        },
        {
            "type": "Feature",
            "properties": {
                "type": "site_summary",
                "status": "positive_pending",
                "version": "2.0.0",
                "site_id": "AE_C000_0009",
                "mgrs": "40RCN",
                "start_date": null,
                "end_date": null,
                "score": 0.0,
                "validated": "False",
                "originator": "iMERIT",
                "model_content": "annotation"
            },
            "geometry": {
                "type": "Polygon",
                "coordinates": [
                    [
                        [
                            55.312473314106725,
                            25.095629092414857
                        ],
                        [
                            55.313998842867115,
                            25.09691108846847
                        ],
                        [
                            55.317070507456926,
                            25.0979764302225
                        ],
                        [
                            55.317718506863486,
                            25.09760907226357
                        ],
                        [
                            55.32016958044198,
                            25.092332358836313
                        ],
                        [
                            55.31507900290831,
                            25.090342518719755
                        ],
                        [
                            55.312473314106725,
                            25.095629092414857
                        ]
                    ]
                ]
            }
        },
        {
            "type": "Feature",
            "properties": {
                "type": "site_summary",
                "status": "positive_pending",
                "version": "2.0.0",
                "site_id": "AE_C000_0010",
                "mgrs": "40RCN",
                "start_date": null,
                "end_date": null,
                "score": 0.0,
                "validated": "False",
                "originator": "iMERIT",
                "model_content": "annotation"
            },
            "geometry": {
                "type": "Polygon",
                "coordinates": [
                    [
                        [
                            55.31884212836347,
                            25.087456430062957
                        ],
                        [
                            55.31592753034178,
                            25.085656564623303
                        ],
                        [
                            55.31279608442166,
                            25.085222854081994
                        ],
                        [
                            55.31118682121888,
                            25.085368478981366
                        ],
                        [
                            55.310926805740685,
                            25.08557629313021
                        ],
                        [
                            55.31016827662012,
                            25.08744120385434
                        ],
                        [
                            55.310005787360396,
                            25.088973320624472
                        ],
                        [
                            55.310181918310256,
                            25.089256359432177
                        ],
                        [
                            55.31151931803146,
                            25.089248169514445
                        ],
                        [
                            55.31268861986758,
                            25.089308313629775
                        ],
                        [
                            55.314085490375305,
                            25.089652067795413
                        ],
                        [
                            55.31723251701157,
                            25.090835353369144
                        ],
                        [
                            55.317488370442895,
                            25.090931933387047
                        ],
                        [
                            55.31841395092293,
                            25.089068876180622
                        ],
                        [
                            55.319093898979105,
                            25.087763012011475
                        ],
                        [
                            55.31884212836347,
                            25.087456430062957
                        ]
                    ]
                ]
            }
        },
        {
            "type": "Feature",
            "properties": {
                "type": "site_summary",
                "status": "positive_pending",
                "version": "2.0.0",
                "site_id": "AE_C000_0011",
                "mgrs": "40RCN",
                "start_date": "2017-09-26",
                "end_date": null,
                "score": 0.0,
                "validated": "False",
                "originator": "iMERIT",
                "model_content": "annotation"
            },
            "geometry": {
                "type": "Polygon",
                "coordinates": [
                    [
                        [
                            55.32359868177189,
                            25.078015020283377
                        ],
                        [
                            55.32499777335272,
                            25.078188901805316
                        ],
                        [
                            55.32652060602791,
                            25.075881697197392
                        ],
                        [
                            55.32277362043111,
                            25.073693582977437
                        ],
                        [
                            55.32342014413981,
                            25.07696351717411
                        ],
                        [
                            55.3235704801791,
                            25.077725617325186
                        ],
                        [
                            55.32360387903935,
                            25.07786943903985
                        ],
                        [
                            55.32357443606705,
                            25.07790716307517
                        ],
                        [
                            55.32359868177189,
                            25.078015020283377
                        ]
                    ]
                ]
            }
        },
        {
            "type": "Feature",
            "properties": {
                "type": "site_summary",
                "status": "positive_pending",
                "version": "2.0.0",
                "site_id": "AE_C000_0012",
                "mgrs": "40RCN",
                "start_date": "2017-09-26",
                "end_date": "2018-03-30",
                "score": 0.0,
                "validated": "False",
                "originator": "iMERIT",
                "model_content": "annotation"
            },
            "geometry": {
                "type": "Polygon",
                "coordinates": [
                    [
                        [
                            55.32983056043656,
                            25.080202567554757
                        ],
                        [
                            55.33073331040657,
                            25.080950441954702
                        ],
                        [
                            55.331215638317644,
                            25.081412548650274
                        ],
                        [
                            55.33202650981528,
                            25.08229989957364
                        ],
                        [
                            55.332726599838686,
                            25.081874506842404
                        ],
                        [
                            55.33283698528857,
                            25.081793778816852
                        ],
                        [
                            55.3323252072596,
                            25.081132279935492
                        ],
                        [
                            55.33405730895799,
                            25.079980760189333
                        ],
                        [
                            55.3321246254119,
                            25.078855401419858
                        ],
                        [
                            55.330440634414956,
                            25.077882116672125
                        ],
                        [
                            55.33031342487865,
                            25.07825539799888
                        ],
                        [
                            55.330230096978966,
                            25.078711141371908
                        ],
                        [
                            55.33023167994028,
                            25.079068307161627
                        ],
                        [
                            55.330295714246574,
                            25.07956083805731
                        ],
                        [
                            55.330375225505655,
                            25.0798603318896
                        ],
                        [
                            55.329797350499355,
                            25.08016267326687
                        ],
                        [
                            55.32983056043656,
                            25.080202567554757
                        ]
                    ]
                ]
            }
        },
        {
            "type": "Feature",
            "properties": {
                "type": "site_summary",
                "status": "positive_pending",
                "version": "2.0.0",
                "site_id": "AE_C000_0013",
                "mgrs": "40RCN",
                "start_date": null,
                "end_date": null,
                "score": 0.0,
                "validated": "False",
                "originator": "iMERIT",
                "model_content": "annotation"
            },
            "geometry": {
                "type": "Polygon",
                "coordinates": [
                    [
                        [
                            55.301531163849155,
                            25.08612695622334
                        ],
                        [
                            55.30171058407021,
                            25.086169994099507
                        ],
                        [
                            55.30267240464473,
                            25.085888260569703
                        ],
                        [
                            55.30266486230701,
                            25.08573594878618
                        ],
                        [
                            55.302433115617504,
                            25.08482579900491
                        ],
                        [
                            55.30135604333584,
                            25.085074010212683
                        ],
                        [
                            55.301531163849155,
                            25.08612695622334
                        ]
                    ]
                ]
            }
        },
        {
            "type": "Feature",
            "properties": {
                "type": "site_summary",
                "status": "positive_pending",
                "version": "2.0.0",
                "site_id": "AE_C000_0014",
                "mgrs": "40RCN",
                "start_date": null,
                "end_date": "2019-05-09",
                "score": 0.0,
                "validated": "False",
                "originator": "iMERIT",
                "model_content": "annotation"
            },
            "geometry": {
                "type": "Polygon",
                "coordinates": [
                    [
                        [
                            55.232535249751926,
                            25.04446392891841
                        ],
                        [
                            55.23259339774044,
                            25.04466660858807
                        ],
                        [
                            55.23328729321477,
                            25.045128604803597
                        ],
                        [
                            55.233891996997386,
                            25.04542414159277
                        ],
                        [
                            55.234352384246286,
                            25.045587692917294
                        ],
                        [
                            55.23520320595984,
                            25.045638788343247
                        ],
                        [
                            55.23591763484433,
                            25.0455653097694
                        ],
                        [
                            55.23550608710446,
                            25.042887740146174
                        ],
                        [
                            55.23591772740057,
                            25.04162947284163
                        ],
                        [
                            55.23523473006464,
                            25.041865794450125
                        ],
                        [
                            55.23479885500725,
                            25.042235317396553
                        ],
                        [
                            55.233426857294425,
                            25.04357437355435
                        ],
                        [
                            55.232535249751926,
                            25.04446392891841
                        ]
                    ]
                ]
            }
        },
        {
            "type": "Feature",
            "properties": {
                "type": "site_summary",
                "status": "positive_pending",
                "version": "2.0.0",
                "site_id": "AE_C000_0015",
                "mgrs": "40RCN",
                "start_date": null,
                "end_date": null,
                "score": 0.0,
                "validated": "False",
                "originator": "iMERIT",
                "model_content": "annotation"
            },
            "geometry": {
                "type": "Polygon",
                "coordinates": [
                    [
                        [
                            55.232010451090474,
                            25.045431029149103
                        ],
                        [
                            55.232454542265906,
                            25.04583443558952
                        ],
                        [
                            55.23318855039045,
                            25.046188597597734
                        ],
                        [
                            55.23340601905368,
                            25.04626144112096
                        ],
                        [
                            55.233747724713865,
                            25.04551317406099
                        ],
                        [
                            55.23342532355276,
                            25.045362971672994
                        ],
                        [
                            55.23295651684004,
                            25.04511442399387
                        ],
                        [
                            55.23252456422083,
                            25.04476092860081
                        ],
                        [
                            55.232331877998654,
                            25.044752780732363
                        ],
                        [
                            55.232257143258245,
                            25.044810438403744
                        ],
                        [
                            55.23201147849638,
                            25.045135378293132
                        ],
                        [
                            55.23195709211789,
                            25.0453425732375
                        ],
                        [
                            55.232010451090474,
                            25.045431029149103
                        ]
                    ]
                ]
            }
        },
        {
            "type": "Feature",
            "properties": {
                "type": "site_summary",
                "status": "positive_pending",
                "version": "2.0.0",
                "site_id": "AE_C000_0016",
                "mgrs": "40RCN",
                "start_date": null,
                "end_date": "2020-05-13",
                "score": 0.0,
                "validated": "False",
                "originator": "iMERIT",
                "model_content": "annotation"
            },
            "geometry": {
                "type": "Polygon",
                "coordinates": [
                    [
                        [
                            55.234010107626034,
                            25.046488177386497
                        ],
                        [
                            55.23428899959082,
                            25.046535403791413
                        ],
                        [
                            55.23481515839545,
                            25.046594350860587
                        ],
                        [
                            55.23528449157696,
                            25.046582364228183
                        ],
                        [
                            55.23526388721151,
                            25.04577709532156
                        ],
                        [
                            55.23522308380241,
                            25.04570928119196
                        ],
                        [
                            55.23480862417279,
                            25.045704355810326
                        ],
                        [
                            55.234555269018514,
                            25.045669143445565
                        ],
                        [
                            55.23426995313419,
                            25.045621841242944
                        ],
                        [
                            55.234010107626034,
                            25.046488177386497
                        ]
                    ]
                ]
            }
        },
        {
            "type": "Feature",
            "properties": {
                "type": "site_summary",
                "status": "positive_pending",
                "version": "2.0.0",
                "site_id": "AE_C000_0017",
                "mgrs": "40RCN",
                "start_date": null,
                "end_date": null,
                "score": 0.0,
                "validated": "False",
                "originator": "iMERIT",
                "model_content": "annotation"
            },
            "geometry": {
                "type": "Polygon",
                "coordinates": [
                    [
                        [
                            55.226664428851876,
                            25.045133105645068
                        ],
                        [
                            55.22802936760316,
                            25.0456324099246
                        ],
                        [
                            55.22835799936359,
                            25.044901564690647
                        ],
                        [
                            55.22701690388801,
                            25.044308873026946
                        ],
                        [
                            55.226664428851876,
                            25.045133105645068
                        ]
                    ]
                ]
            }
        },
        {
            "type": "Feature",
            "properties": {
                "type": "site_summary",
                "status": "positive_pending",
                "version": "2.0.0",
                "site_id": "AE_C000_0018",
                "mgrs": "40RCN",
                "start_date": null,
                "end_date": null,
                "score": 0.0,
                "validated": "False",
                "originator": "iMERIT",
                "model_content": "annotation"
            },
            "geometry": {
                "type": "Polygon",
                "coordinates": [
                    [
                        [
                            55.22739406611736,
                            25.04355519039279
                        ],
                        [
                            55.2288001516382,
                            25.044432606833855
                        ],
                        [
                            55.22887027868831,
                            25.044360259243277
                        ],
                        [
                            55.22893708770316,
                            25.04429519043634
                        ],
                        [
                            55.22904122249703,
                            25.044204220466547
                        ],
                        [
                            55.22919063086071,
                            25.044093298715843
                        ],
                        [
                            55.22928485357318,
                            25.044021238187362
                        ],
                        [
                            55.229306724892425,
                            25.04395270609086
                        ],
                        [
                            55.229300908917956,
                            25.043910190106722
                        ],
                        [
                            55.229113363004814,
                            25.043656201595088
                        ],
                        [
                            55.22883331967459,
                            25.043354272219247
                        ],
                        [
                            55.2286584748014,
                            25.04333462301603
                        ],
                        [
                            55.22854779363523,
                            25.043210354117374
                        ],
                        [
                            55.228539753588876,
                            25.043099018755623
                        ],
                        [
                            55.22782727878079,
                            25.042813884712295
                        ],
                        [
                            55.227767674083914,
                            25.04282488295468
                        ],
                        [
                            55.22771407413293,
                            25.0428652263595
                        ],
                        [
                            55.227611868874185,
                            25.043045502729033
                        ],
                        [
                            55.22737981898203,
                            25.043540383594227
                        ],
                        [
                            55.22739406611736,
                            25.04355519039279
                        ]
                    ]
                ]
            }
        },
        {
            "type": "Feature",
            "properties": {
                "type": "site_summary",
                "status": "positive_pending",
                "version": "2.0.0",
                "site_id": "AE_C000_0019",
                "mgrs": "40RCN",
                "start_date": "2018-12-15",
                "end_date": "2020-02-18",
                "score": 0.0,
                "validated": "False",
                "originator": "iMERIT",
                "model_content": "annotation"
            },
            "geometry": {
                "type": "Polygon",
                "coordinates": [
                    [
                        [
                            55.229763772936685,
                            25.04222223220876
                        ],
                        [
                            55.230009540051206,
                            25.04211392152614
                        ],
                        [
                            55.23022443971227,
                            25.0419174219386
                        ],
                        [
                            55.230368742141366,
                            25.04171422622802
                        ],
                        [
                            55.23014028129548,
                            25.04151244396315
                        ],
                        [
                            55.22972783581345,
                            25.041144536806254
                        ],
                        [
                            55.228964011093076,
                            25.040631926460218
                        ],
                        [
                            55.22858225128309,
                            25.041259683048086
                        ],
                        [
                            55.22867900306957,
                            25.041682376002043
                        ],
                        [
                            55.229253934761566,
                            25.04192341949952
                        ],
                        [
                            55.229763772936685,
                            25.04222223220876
                        ]
                    ]
                ]
            }
        },
        {
            "type": "Feature",
            "properties": {
                "type": "site_summary",
                "status": "positive_pending",
                "version": "2.0.0",
                "site_id": "AE_C000_0020",
                "mgrs": "40RCN",
                "start_date": null,
                "end_date": "2021-09-30",
                "score": 0.0,
                "validated": "False",
                "originator": "iMERIT",
                "model_content": "annotation"
            },
            "geometry": {
                "type": "Polygon",
                "coordinates": [
                    [
                        [
                            55.24641525318974,
                            25.041881115195178
                        ],
                        [
                            55.24628724812542,
                            25.04206988318659
                        ],
                        [
                            55.25073758692408,
                            25.044569647345227
                        ],
                        [
                            55.25149642315128,
                            25.043630112345557
                        ],
                        [
                            55.24695313802151,
                            25.04111463767147
                        ],
                        [
                            55.24684966353999,
                            25.04116025442527
                        ],
                        [
                            55.24641525318974,
                            25.041881115195178
                        ]
                    ]
                ]
            }
        },
        {
            "type": "Feature",
            "properties": {
                "type": "site_summary",
                "status": "positive_pending",
                "version": "2.0.0",
                "site_id": "AE_C000_0021",
                "mgrs": "40RCN",
                "start_date": null,
                "end_date": null,
                "score": 0.0,
                "validated": "False",
                "originator": "iMERIT",
                "model_content": "annotation"
            },
            "geometry": {
                "type": "Polygon",
                "coordinates": [
                    [
                        [
                            55.24582276217827,
                            25.041742387450526
                        ],
                        [
                            55.24590856871577,
                            25.04175291473546
                        ],
                        [
                            55.246047051454774,
                            25.041731131047232
                        ],
                        [
                            55.2465032345135,
                            25.04106102562964
                        ],
                        [
                            55.246499057041845,
                            25.04090289814495
                        ],
                        [
                            55.24481630495808,
                            25.03992870070455
                        ],
                        [
                            55.244227804060124,
                            25.040864359504663
                        ],
                        [
                            55.24582276217827,
                            25.041742387450526
                        ]
                    ]
                ]
            }
        },
        {
            "type": "Feature",
            "properties": {
                "type": "site_summary",
                "status": "positive_pending",
                "version": "2.0.0",
                "site_id": "AE_C000_0022",
                "mgrs": "40RCN",
                "start_date": null,
                "end_date": null,
                "score": 0.0,
                "validated": "False",
                "originator": "iMERIT",
                "model_content": "annotation"
            },
            "geometry": {
                "type": "Polygon",
                "coordinates": [
                    [
                        [
                            55.22897557442122,
                            25.016833358632418
                        ],
                        [
                            55.229096834904865,
                            25.017338310015155
                        ],
                        [
                            55.23197855582354,
                            25.01891094591102
                        ],
                        [
                            55.23453280427435,
                            25.01508303327422
                        ],
                        [
                            55.231332636625496,
                            25.01331784505436
                        ],
                        [
                            55.22897557442122,
                            25.016833358632418
                        ]
                    ]
                ]
            }
        },
        {
            "type": "Feature",
            "properties": {
                "type": "site_summary",
                "status": "positive_pending",
                "version": "2.0.0",
                "site_id": "AE_C000_0023",
                "mgrs": "40RCN",
                "start_date": "2019-07-08",
                "end_date": null,
                "score": 0.0,
                "validated": "False",
                "originator": "iMERIT",
                "model_content": "annotation"
            },
            "geometry": {
                "type": "Polygon",
                "coordinates": [
                    [
                        [
                            55.31542411221909,
                            25.065659434268944
                        ],
                        [
                            55.325831577074695,
                            25.07177258175499
                        ],
                        [
                            55.32800840366338,
                            25.068635482748757
                        ],
                        [
                            55.32936462501266,
                            25.069119145444155
                        ],
                        [
                            55.329843904726324,
                            25.067906721935707
                        ],
                        [
                            55.329076452878795,
                            25.067617049632208
                        ],
                        [
                            55.32931482121543,
                            25.06710450238924
                        ],
                        [
                            55.330108931962144,
                            25.067324214578502
                        ],
                        [
                            55.33061009561233,
                            25.06639306888236
                        ],
                        [
                            55.330177178447656,
                            25.066083744922995
                        ],
                        [
                            55.33117726444076,
                            25.064385362152382
                        ],
                        [
                            55.32585640371384,
                            25.062381626332865
                        ],
                        [
                            55.31988299043628,
                            25.059222766436026
                        ],
                        [
                            55.31542411221909,
                            25.065659434268944
                        ]
                    ]
                ]
            }
        },
        {
            "type": "Feature",
            "properties": {
                "type": "site_summary",
                "status": "positive_pending",
                "version": "2.0.0",
                "site_id": "AE_C000_0024",
                "mgrs": "40RCN",
                "start_date": null,
                "end_date": null,
                "score": 0.0,
                "validated": "False",
                "originator": "iMERIT",
                "model_content": "annotation"
            },
            "geometry": {
                "type": "Polygon",
                "coordinates": [
                    [
                        [
                            55.29947913565998,
                            25.06719705207183
                        ],
                        [
                            55.30045309104814,
                            25.068031870975965
                        ],
                        [
                            55.30546410552725,
                            25.0710258733377
                        ],
                        [
                            55.306703283673016,
                            25.071765681185916
                        ],
                        [
                            55.30703989624396,
                            25.07181376869605
                        ],
                        [
                            55.30789082323097,
                            25.071845284510385
                        ],
                        [
                            55.30839507626032,
                            25.071750737067383
                        ],
                        [
                            55.309056908361335,
                            25.071277999852374
                        ],
                        [
                            55.30943509813334,
                            25.07077374682303
                        ],
                        [
                            55.309624193019346,
                            25.07033252542235
                        ],
                        [
                            55.30990783534835,
                            25.069513114249666
                        ],
                        [
                            55.30993935116268,
                            25.068882797962985
                        ],
                        [
                            55.30997086697702,
                            25.068189450047637
                        ],
                        [
                            55.30975025627668,
                            25.067464586317953
                        ],
                        [
                            55.30943509813334,
                            25.06664517514527
                        ],
                        [
                            55.30876564998799,
                            25.065440168483633
                        ],
                        [
                            55.30434448036237,
                            25.062918555071334
                        ],
                        [
                            55.30354164085288,
                            25.06283176161085
                        ],
                        [
                            55.30265919805152,
                            25.062894793239515
                        ],
                        [
                            55.30193433432184,
                            25.06308388812552
                        ],
                        [
                            55.30105189152049,
                            25.063525109526196
                        ],
                        [
                            55.300421575233806,
                            25.063997846741206
                        ],
                        [
                            55.29991732220446,
                            25.064628163027887
                        ],
                        [
                            55.299633679875456,
                            25.065163931871567
                        ],
                        [
                            55.29944458498945,
                            25.065857279786915
                        ],
                        [
                            55.29944458498945,
                            25.066393048630594
                        ],
                        [
                            55.29944458498945,
                            25.066834270031272
                        ],
                        [
                            55.29947913565998,
                            25.06719705207183
                        ]
                    ]
                ]
            }
        },
        {
            "type": "Feature",
            "properties": {
                "type": "site_summary",
                "status": "positive_pending",
                "version": "2.0.0",
                "site_id": "AE_C000_0025",
                "mgrs": "40RCN",
                "start_date": null,
                "end_date": null,
                "score": 0.0,
                "validated": "False",
                "originator": "iMERIT",
                "model_content": "annotation"
            },
            "geometry": {
                "type": "Polygon",
                "coordinates": [
                    [
                        [
                            55.21709887907365,
                            25.044252353751546
                        ],
                        [
                            55.21730428639396,
                            25.04426945604664
                        ],
                        [
                            55.21791485428351,
                            25.043600566936103
                        ],
                        [
                            55.21787744341949,
                            25.04352107978978
                        ],
                        [
                            55.21776651960206,
                            25.043414364459878
                        ],
                        [
                            55.21750671182924,
                            25.04315949521405
                        ],
                        [
                            55.21726047575227,
                            25.042855023614823
                        ],
                        [
                            55.217056476796856,
                            25.04229637981666
                        ],
                        [
                            55.216990876394995,
                            25.04194431119024
                        ],
                        [
                            55.21699798822021,
                            25.041452602901348
                        ],
                        [
                            55.217128368026735,
                            25.04088040856149
                        ],
                        [
                            55.21738420712824,
                            25.040520488448635
                        ],
                        [
                            55.217840670032224,
                            25.040063445245146
                        ],
                        [
                            55.21846900696394,
                            25.039719701014466
                        ],
                        [
                            55.21899149077935,
                            25.039585453771295
                        ],
                        [
                            55.219506195628405,
                            25.039544786486914
                        ],
                        [
                            55.21951316911471,
                            25.03861690116151
                        ],
                        [
                            55.21939878166634,
                            25.038527709684406
                        ],
                        [
                            55.21914244600416,
                            25.038477799331062
                        ],
                        [
                            55.21813054429527,
                            25.03868228848183
                        ],
                        [
                            55.21792324234306,
                            25.03879689552246
                        ],
                        [
                            55.21703594885358,
                            25.03927218749385
                        ],
                        [
                            55.21627926193048,
                            25.040047631215792
                        ],
                        [
                            55.21590673454458,
                            25.040921360149873
                        ],
                        [
                            55.215773455019395,
                            25.04213753355429
                        ],
                        [
                            55.216145599846556,
                            25.043067043464237
                        ],
                        [
                            55.216916813126,
                            25.043954506538117
                        ],
                        [
                            55.21709887907365,
                            25.044252353751546
                        ]
                    ]
                ]
            }
        },
        {
            "type": "Feature",
            "properties": {
                "type": "site_summary",
                "status": "positive_pending",
                "version": "2.0.0",
                "site_id": "AE_C000_0026",
                "mgrs": "40RCN",
                "start_date": null,
                "end_date": null,
                "score": 0.0,
                "validated": "False",
                "originator": "iMERIT",
                "model_content": "annotation"
            },
            "geometry": {
                "type": "Polygon",
                "coordinates": [
                    [
                        [
                            55.37104357120878,
                            25.108335642144674
                        ],
                        [
                            55.371326312085266,
                            25.10835045834953
                        ],
                        [
                            55.37209181122075,
                            25.107843630781854
                        ],
                        [
                            55.373021373374655,
                            25.10660087630401
                        ],
                        [
                            55.372884576753606,
                            25.106248078353886
                        ],
                        [
                            55.371123264240225,
                            25.105233398363456
                        ],
                        [
                            55.37058351414087,
                            25.105204047976304
                        ],
                        [
                            55.37002252238889,
                            25.105806795757214
                        ],
                        [
                            55.36955060415953,
                            25.106480779983585
                        ],
                        [
                            55.37050476328579,
                            25.10726412191809
                        ],
                        [
                            55.37104357120878,
                            25.108335642144674
                        ]
                    ]
                ]
            }
        },
        {
            "type": "Feature",
            "properties": {
                "type": "site_summary",
                "status": "positive_pending",
                "version": "2.0.0",
                "site_id": "AE_C000_0027",
                "mgrs": "40RCN",
                "start_date": null,
                "end_date": null,
                "score": 0.0,
                "validated": "False",
                "originator": "iMERIT",
                "model_content": "annotation"
            },
            "geometry": {
                "type": "Polygon",
                "coordinates": [
                    [
                        [
                            55.368918959393355,
                            25.10901487533592
                        ],
                        [
                            55.370583587618405,
                            25.10859405970019
                        ],
                        [
                            55.3706403781473,
                            25.108190692980642
                        ],
                        [
                            55.37039026339955,
                            25.107655144443246
                        ],
                        [
                            55.370004201994995,
                            25.107188360271024
                        ],
                        [
                            55.36952805470948,
                            25.106726439461386
                        ],
                        [
                            55.3692060427884,
                            25.106763882475196
                        ],
                        [
                            55.36813507246601,
                            25.107999200076875
                        ],
                        [
                            55.3681847980181,
                            25.108128555982002
                        ],
                        [
                            55.368554597086685,
                            25.108366823221097
                        ],
                        [
                            55.368800683965254,
                            25.10872082720769
                        ],
                        [
                            55.368918959393355,
                            25.10901487533592
                        ]
                    ]
                ]
            }
        },
        {
            "type": "Feature",
            "properties": {
                "type": "site_summary",
                "status": "positive_pending",
                "version": "2.0.0",
                "site_id": "AE_C000_0028",
                "mgrs": "40RCN",
                "start_date": null,
                "end_date": null,
                "score": 0.0,
                "validated": "False",
                "originator": "iMERIT",
                "model_content": "annotation"
            },
            "geometry": {
                "type": "Polygon",
                "coordinates": [
                    [
                        [
                            55.36438514093202,
                            25.112425186781117
                        ],
                        [
                            55.36453633603293,
                            25.11266105196699
                        ],
                        [
                            55.366084841934864,
                            25.11324020121842
                        ],
                        [
                            55.3664825492291,
                            25.113314843538248
                        ],
                        [
                            55.36656110634185,
                            25.113210320478466
                        ],
                        [
                            55.366787390580015,
                            25.113119134910647
                        ],
                        [
                            55.366789730821466,
                            25.11149149012697
                        ],
                        [
                            55.366420806695565,
                            25.11142887588223
                        ],
                        [
                            55.36589645960841,
                            25.11120646448094
                        ],
                        [
                            55.365641611701896,
                            25.111028007191585
                        ],
                        [
                            55.36438514093202,
                            25.112425186781117
                        ]
                    ]
                ]
            }
        }
    ]
}