{
    "type": "FeatureCollection",
    "features": [
        {
            "type": "Feature",
            "properties": {
                "type": "site",
                "region_id": "AE_C000",
                "version": "2.0.0",
                "mgrs": "40RCN",
                "start_date": null,
                "end_date": null,
                "site_id": "AE_C000_0013",
                "status": "positive_pending",
                "originator": "iMERIT",
                "validated": "False",
                "model_content": "annotation",
                "score": 0.0,
                "misc_info": {
                    "commit_hash": "b8980b308111f4d719b33abcdfd4475cdb0511ce"
                }
            },
            "geometry": {
                "type": "Polygon",
                "coordinates": [
                    [
                        [
                            55.301531163849155,
                            25.08612695622334
                        ],
                        [
                            55.30171058407021,
                            25.086169994099507
                        ],
                        [
                            55.30267240464473,
                            25.085888260569703
                        ],
                        [
                            55.30266486230701,
                            25.08573594878618
                        ],
                        [
                            55.302433115617504,
                            25.08482579900491
                        ],
                        [
                            55.30135604333584,
                            25.085074010212683
                        ],
                        [
                            55.301531163849155,
                            25.08612695622334
                        ]
                    ]
                ]
            }
        },
        {
            "type": "Feature",
            "properties": {
                "type": "observation",
                "score": 0.0,
                "observation_date": null,
                "source": null,
                "sensor_name": null,
                "current_phase": null,
                "is_occluded": null,
                "is_site_boundary": null
            },
            "geometry": {
                "type": "Polygon",
                "coordinates": [
                    [
                        [
                            55.301531163849155,
                            25.08612695622334
                        ],
                        [
                            55.30171058407021,
                            25.086169994099507
                        ],
                        [
                            55.30267240464473,
                            25.085888260569703
                        ],
                        [
                            55.30266486230701,
                            25.08573594878618
                        ],
                        [
                            55.302433115617504,
                            25.08482579900491
                        ],
                        [
                            55.30135604333584,
                            25.085074010212683
                        ],
                        [
                            55.301531163849155,
                            25.08612695622334
                        ]
                    ]
                ]
            }
        },
        {
            "type": "Feature",
            "properties": {
                "type": "observation",
                "score": 0.0,
                "observation_date": null,
                "source": null,
                "sensor_name": null,
                "current_phase": null,
                "is_occluded": null,
                "is_site_boundary": null
            },
            "geometry": {
                "type": "Polygon",
                "coordinates": [
                    [
                        [
                            55.301531163849155,
                            25.08612695622334
                        ],
                        [
                            55.30171058407021,
                            25.086169994099507
                        ],
                        [
                            55.30267240464473,
                            25.085888260569703
                        ],
                        [
                            55.30266486230701,
                            25.08573594878618
                        ],
                        [
                            55.302433115617504,
                            25.08482579900491
                        ],
                        [
                            55.30135604333584,
                            25.085074010212683
                        ],
                        [
                            55.301531163849155,
                            25.08612695622334
                        ]
                    ]
                ]
            }
        }
    ]
}