{
    "type": "FeatureCollection",
    "features": [
        {
            "type": "Feature",
            "properties": {
                "type": "site",
                "region_id": "AE_C000",
                "version": "2.0.0",
                "mgrs": "40RCN",
                "start_date": null,
                "end_date": null,
                "site_id": "AE_C000_0025",
                "status": "positive_pending",
                "originator": "iMERIT",
                "validated": "False",
                "model_content": "annotation",
                "score": 0.0,
                "misc_info": {
                    "commit_hash": "b8980b308111f4d719b33abcdfd4475cdb0511ce"
                }
            },
            "geometry": {
                "type": "Polygon",
                "coordinates": [
                    [
                        [
                            55.21709887907365,
                            25.044252353751546
                        ],
                        [
                            55.21730428639396,
                            25.04426945604664
                        ],
                        [
                            55.21791485428351,
                            25.043600566936103
                        ],
                        [
                            55.21787744341949,
                            25.04352107978978
                        ],
                        [
                            55.21776651960206,
                            25.043414364459878
                        ],
                        [
                            55.21750671182924,
                            25.04315949521405
                        ],
                        [
                            55.21726047575227,
                            25.042855023614823
                        ],
                        [
                            55.217056476796856,
                            25.04229637981666
                        ],
                        [
                            55.216990876394995,
                            25.04194431119024
                        ],
                        [
                            55.21699798822021,
                            25.041452602901348
                        ],
                        [
                            55.217128368026735,
                            25.04088040856149
                        ],
                        [
                            55.21738420712824,
                            25.040520488448635
                        ],
                        [
                            55.217840670032224,
                            25.040063445245146
                        ],
                        [
                            55.21846900696394,
                            25.039719701014466
                        ],
                        [
                            55.21899149077935,
                            25.039585453771295
                        ],
                        [
                            55.219506195628405,
                            25.039544786486914
                        ],
                        [
                            55.21951316911471,
                            25.03861690116151
                        ],
                        [
                            55.21939878166634,
                            25.038527709684406
                        ],
                        [
                            55.21914244600416,
                            25.038477799331062
                        ],
                        [
                            55.21813054429527,
                            25.03868228848183
                        ],
                        [
                            55.21792324234306,
                            25.03879689552246
                        ],
                        [
                            55.21703594885358,
                            25.03927218749385
                        ],
                        [
                            55.21627926193048,
                            25.040047631215792
                        ],
                        [
                            55.21590673454458,
                            25.040921360149873
                        ],
                        [
                            55.215773455019395,
                            25.04213753355429
                        ],
                        [
                            55.216145599846556,
                            25.043067043464237
                        ],
                        [
                            55.216916813126,
                            25.043954506538117
                        ],
                        [
                            55.21709887907365,
                            25.044252353751546
                        ]
                    ]
                ]
            }
        },
        {
            "type": "Feature",
            "properties": {
                "type": "observation",
                "score": 0.0,
                "observation_date": null,
                "source": null,
                "sensor_name": null,
                "current_phase": null,
                "is_occluded": null,
                "is_site_boundary": null
            },
            "geometry": {
                "type": "Polygon",
                "coordinates": [
                    [
                        [
                            55.21709887907365,
                            25.044252353751546
                        ],
                        [
                            55.21730428639396,
                            25.04426945604664
                        ],
                        [
                            55.21791485428351,
                            25.043600566936103
                        ],
                        [
                            55.21787744341949,
                            25.04352107978978
                        ],
                        [
                            55.21776651960206,
                            25.043414364459878
                        ],
                        [
                            55.21750671182924,
                            25.04315949521405
                        ],
                        [
                            55.21726047575227,
                            25.042855023614823
                        ],
                        [
                            55.217056476796856,
                            25.04229637981666
                        ],
                        [
                            55.216990876394995,
                            25.04194431119024
                        ],
                        [
                            55.21699798822021,
                            25.041452602901348
                        ],
                        [
                            55.217128368026735,
                            25.04088040856149
                        ],
                        [
                            55.21738420712824,
                            25.040520488448635
                        ],
                        [
                            55.217840670032224,
                            25.040063445245146
                        ],
                        [
                            55.21846900696394,
                            25.039719701014466
                        ],
                        [
                            55.21899149077935,
                            25.039585453771295
                        ],
                        [
                            55.219506195628405,
                            25.039544786486914
                        ],
                        [
                            55.21951316911471,
                            25.03861690116151
                        ],
                        [
                            55.21939878166634,
                            25.038527709684406
                        ],
                        [
                            55.21914244600416,
                            25.038477799331062
                        ],
                        [
                            55.21813054429527,
                            25.03868228848183
                        ],
                        [
                            55.21792324234306,
                            25.03879689552246
                        ],
                        [
                            55.21703594885358,
                            25.03927218749385
                        ],
                        [
                            55.21627926193048,
                            25.040047631215792
                        ],
                        [
                            55.21590673454458,
                            25.040921360149873
                        ],
                        [
                            55.215773455019395,
                            25.04213753355429
                        ],
                        [
                            55.216145599846556,
                            25.043067043464237
                        ],
                        [
                            55.216916813126,
                            25.043954506538117
                        ],
                        [
                            55.21709887907365,
                            25.044252353751546
                        ]
                    ]
                ]
            }
        },
        {
            "type": "Feature",
            "properties": {
                "type": "observation",
                "score": 0.0,
                "observation_date": null,
                "source": null,
                "sensor_name": null,
                "current_phase": null,
                "is_occluded": null,
                "is_site_boundary": null
            },
            "geometry": {
                "type": "Polygon",
                "coordinates": [
                    [
                        [
                            55.21709887907365,
                            25.044252353751546
                        ],
                        [
                            55.21730428639396,
                            25.04426945604664
                        ],
                        [
                            55.21791485428351,
                            25.043600566936103
                        ],
                        [
                            55.21787744341949,
                            25.04352107978978
                        ],
                        [
                            55.21776651960206,
                            25.043414364459878
                        ],
                        [
                            55.21750671182924,
                            25.04315949521405
                        ],
                        [
                            55.21726047575227,
                            25.042855023614823
                        ],
                        [
                            55.217056476796856,
                            25.04229637981666
                        ],
                        [
                            55.216990876394995,
                            25.04194431119024
                        ],
                        [
                            55.21699798822021,
                            25.041452602901348
                        ],
                        [
                            55.217128368026735,
                            25.04088040856149
                        ],
                        [
                            55.21738420712824,
                            25.040520488448635
                        ],
                        [
                            55.217840670032224,
                            25.040063445245146
                        ],
                        [
                            55.21846900696394,
                            25.039719701014466
                        ],
                        [
                            55.21899149077935,
                            25.039585453771295
                        ],
                        [
                            55.219506195628405,
                            25.039544786486914
                        ],
                        [
                            55.21951316911471,
                            25.03861690116151
                        ],
                        [
                            55.21939878166634,
                            25.038527709684406
                        ],
                        [
                            55.21914244600416,
                            25.038477799331062
                        ],
                        [
                            55.21813054429527,
                            25.03868228848183
                        ],
                        [
                            55.21792324234306,
                            25.03879689552246
                        ],
                        [
                            55.21703594885358,
                            25.03927218749385
                        ],
                        [
                            55.21627926193048,
                            25.040047631215792
                        ],
                        [
                            55.21590673454458,
                            25.040921360149873
                        ],
                        [
                            55.215773455019395,
                            25.04213753355429
                        ],
                        [
                            55.216145599846556,
                            25.043067043464237
                        ],
                        [
                            55.216916813126,
                            25.043954506538117
                        ],
                        [
                            55.21709887907365,
                            25.044252353751546
                        ]
                    ]
                ]
            }
        }
    ]
}