{
    "type": "FeatureCollection",
    "features": [
        {
            "type": "Feature",
            "properties": {
                "type": "site",
                "region_id": "AE_C000",
                "version": "2.0.0",
                "mgrs": "40RCN",
                "start_date": null,
                "end_date": null,
                "site_id": "AE_C000_0004",
                "status": "positive_pending",
                "originator": "iMERIT",
                "validated": "False",
                "model_content": "annotation",
                "score": 0.0,
                "misc_info": {
                    "commit_hash": "b8980b308111f4d719b33abcdfd4475cdb0511ce"
                }
            },
            "geometry": {
                "type": "Polygon",
                "coordinates": [
                    [
                        [
                            55.37775098693331,
                            25.101141483943515
                        ],
                        [
                            55.37775083058993,
                            25.101141736662896
                        ],
                        [
                            55.37714279857555,
                            25.101242010919677
                        ],
                        [
                            55.3761524077096,
                            25.101254588593953
                        ],
                        [
                            55.37537130651995,
                            25.101000124860164
                        ],
                        [
                            55.36963062677033,
                            25.097506121821436
                        ],
                        [
                            55.37674533479552,
                            25.08848555463699
                        ],
                        [
                            55.37669029915416,
                            25.088448242112083
                        ],
                        [
                            55.382729492142936,
                            25.081384543169857
                        ],
                        [
                            55.38559926373681,
                            25.083533715539474
                        ],
                        [
                            55.38872141225349,
                            25.08568130767719
                        ],
                        [
                            55.38911368345993,
                            25.08616567685883
                        ],
                        [
                            55.38934891757507,
                            25.086859119882853
                        ],
                        [
                            55.38936567751268,
                            25.086958833164257
                        ],
                        [
                            55.37914739582508,
                            25.09943907240381
                        ],
                        [
                            55.37775098693331,
                            25.101141483943515
                        ]
                    ]
                ]
            }
        },
        {
            "type": "Feature",
            "properties": {
                "type": "observation",
                "score": 0.0,
                "observation_date": null,
                "source": null,
                "sensor_name": null,
                "current_phase": null,
                "is_occluded": null,
                "is_site_boundary": null
            },
            "geometry": {
                "type": "Polygon",
                "coordinates": [
                    [
                        [
                            55.37775098693331,
                            25.101141483943515
                        ],
                        [
                            55.37775083058993,
                            25.101141736662896
                        ],
                        [
                            55.37714279857555,
                            25.101242010919677
                        ],
                        [
                            55.3761524077096,
                            25.101254588593953
                        ],
                        [
                            55.37537130651995,
                            25.101000124860164
                        ],
                        [
                            55.36963062677033,
                            25.097506121821436
                        ],
                        [
                            55.37674533479552,
                            25.08848555463699
                        ],
                        [
                            55.37669029915416,
                            25.088448242112083
                        ],
                        [
                            55.382729492142936,
                            25.081384543169857
                        ],
                        [
                            55.38559926373681,
                            25.083533715539474
                        ],
                        [
                            55.38872141225349,
                            25.08568130767719
                        ],
                        [
                            55.38911368345993,
                            25.08616567685883
                        ],
                        [
                            55.38934891757507,
                            25.086859119882853
                        ],
                        [
                            55.38936567751268,
                            25.086958833164257
                        ],
                        [
                            55.37914739582508,
                            25.09943907240381
                        ],
                        [
                            55.37775098693331,
                            25.101141483943515
                        ]
                    ]
                ]
            }
        },
        {
            "type": "Feature",
            "properties": {
                "type": "observation",
                "score": 0.0,
                "observation_date": null,
                "source": null,
                "sensor_name": null,
                "current_phase": null,
                "is_occluded": null,
                "is_site_boundary": null
            },
            "geometry": {
                "type": "Polygon",
                "coordinates": [
                    [
                        [
                            55.37775098693331,
                            25.101141483943515
                        ],
                        [
                            55.37775083058993,
                            25.101141736662896
                        ],
                        [
                            55.37714279857555,
                            25.101242010919677
                        ],
                        [
                            55.3761524077096,
                            25.101254588593953
                        ],
                        [
                            55.37537130651995,
                            25.101000124860164
                        ],
                        [
                            55.36963062677033,
                            25.097506121821436
                        ],
                        [
                            55.37674533479552,
                            25.08848555463699
                        ],
                        [
                            55.37669029915416,
                            25.088448242112083
                        ],
                        [
                            55.382729492142936,
                            25.081384543169857
                        ],
                        [
                            55.38559926373681,
                            25.083533715539474
                        ],
                        [
                            55.38872141225349,
                            25.08568130767719
                        ],
                        [
                            55.38911368345993,
                            25.08616567685883
                        ],
                        [
                            55.38934891757507,
                            25.086859119882853
                        ],
                        [
                            55.38936567751268,
                            25.086958833164257
                        ],
                        [
                            55.37914739582508,
                            25.09943907240381
                        ],
                        [
                            55.37775098693331,
                            25.101141483943515
                        ]
                    ]
                ]
            }
        }
    ]
}