{
    "type": "FeatureCollection",
    "features": [
        {
            "type": "Feature",
            "properties": {
                "type": "site",
                "region_id": "AE_C000",
                "version": "2.0.0",
                "mgrs": "40RCN",
                "start_date": "2018-09-21",
                "end_date": "2021-06-07",
                "site_id": "AE_C000_0007",
                "status": "positive_pending",
                "originator": "iMERIT",
                "validated": "False",
                "model_content": "annotation",
                "score": 0.0,
                "misc_info": {
                    "commit_hash": "b8980b308111f4d719b33abcdfd4475cdb0511ce"
                }
            },
            "geometry": {
                "type": "Polygon",
                "coordinates": [
                    [
                        [
                            55.235811229048906,
                            25.03054383188916
                        ],
                        [
                            55.23670385903788,
                            25.03103451586187
                        ],
                        [
                            55.23695319591188,
                            25.030674481072726
                        ],
                        [
                            55.23828122565324,
                            25.031275706780505
                        ],
                        [
                            55.238670737699515,
                            25.030999297233343
                        ],
                        [
                            55.23903304378575,
                            25.030827949453098
                        ],
                        [
                            55.239510496901005,
                            25.03069309353438
                        ],
                        [
                            55.239720607114045,
                            25.0303794268541
                        ],
                        [
                            55.239710096421604,
                            25.030215369589143
                        ],
                        [
                            55.2378739315929,
                            25.029198300004623
                        ],
                        [
                            55.23765565294006,
                            25.029184001823523
                        ],
                        [
                            55.23746131731273,
                            25.029292936809117
                        ],
                        [
                            55.236845998354006,
                            25.030081880829645
                        ],
                        [
                            55.236355213297614,
                            25.029800883783796
                        ],
                        [
                            55.235811229048906,
                            25.03054383188916
                        ]
                    ]
                ]
            }
        },
        {
            "type": "Feature",
            "properties": {
                "type": "observation",
                "score": 0.0,
                "observation_date": "2018-09-21",
                "source": null,
                "sensor_name": null,
                "current_phase": null,
                "is_occluded": null,
                "is_site_boundary": null
            },
            "geometry": {
                "type": "Polygon",
                "coordinates": [
                    [
                        [
                            55.235811229048906,
                            25.03054383188916
                        ],
                        [
                            55.23670385903788,
                            25.03103451586187
                        ],
                        [
                            55.23695319591188,
                            25.030674481072726
                        ],
                        [
                            55.23828122565324,
                            25.031275706780505
                        ],
                        [
                            55.238670737699515,
                            25.030999297233343
                        ],
                        [
                            55.23903304378575,
                            25.030827949453098
                        ],
                        [
                            55.239510496901005,
                            25.03069309353438
                        ],
                        [
                            55.239720607114045,
                            25.0303794268541
                        ],
                        [
                            55.239710096421604,
                            25.030215369589143
                        ],
                        [
                            55.2378739315929,
                            25.029198300004623
                        ],
                        [
                            55.23765565294006,
                            25.029184001823523
                        ],
                        [
                            55.23746131731273,
                            25.029292936809117
                        ],
                        [
                            55.236845998354006,
                            25.030081880829645
                        ],
                        [
                            55.236355213297614,
                            25.029800883783796
                        ],
                        [
                            55.235811229048906,
                            25.03054383188916
                        ]
                    ]
                ]
            }
        },
        {
            "type": "Feature",
            "properties": {
                "type": "observation",
                "score": 0.0,
                "observation_date": "2021-06-07",
                "source": null,
                "sensor_name": null,
                "current_phase": null,
                "is_occluded": null,
                "is_site_boundary": null
            },
            "geometry": {
                "type": "Polygon",
                "coordinates": [
                    [
                        [
                            55.235811229048906,
                            25.03054383188916
                        ],
                        [
                            55.23670385903788,
                            25.03103451586187
                        ],
                        [
                            55.23695319591188,
                            25.030674481072726
                        ],
                        [
                            55.23828122565324,
                            25.031275706780505
                        ],
                        [
                            55.238670737699515,
                            25.030999297233343
                        ],
                        [
                            55.23903304378575,
                            25.030827949453098
                        ],
                        [
                            55.239510496901005,
                            25.03069309353438
                        ],
                        [
                            55.239720607114045,
                            25.0303794268541
                        ],
                        [
                            55.239710096421604,
                            25.030215369589143
                        ],
                        [
                            55.2378739315929,
                            25.029198300004623
                        ],
                        [
                            55.23765565294006,
                            25.029184001823523
                        ],
                        [
                            55.23746131731273,
                            25.029292936809117
                        ],
                        [
                            55.236845998354006,
                            25.030081880829645
                        ],
                        [
                            55.236355213297614,
                            25.029800883783796
                        ],
                        [
                            55.235811229048906,
                            25.03054383188916
                        ]
                    ]
                ]
            }
        }
    ]
}