{
    "type": "FeatureCollection",
    "features": [
        {
            "type": "Feature",
            "properties": {
                "type": "site",
                "region_id": "AE_C000",
                "version": "2.0.0",
                "mgrs": "40RCN",
                "start_date": null,
                "end_date": null,
                "site_id": "AE_C000_0005",
                "status": "positive_pending",
                "originator": "iMERIT",
                "validated": "False",
                "model_content": "annotation",
                "score": 0.0,
                "misc_info": {
                    "commit_hash": "b8980b308111f4d719b33abcdfd4475cdb0511ce"
                }
            },
            "geometry": {
                "type": "Polygon",
                "coordinates": [
                    [
                        [
                            55.340284826539104,
                            25.077508147966704
                        ],
                        [
                            55.34026568145378,
                            25.077497687743893
                        ],
                        [
                            55.34134688012366,
                            25.078364593540176
                        ],
                        [
                            55.342390390411865,
                            25.078212316905983
                        ],
                        [
                            55.34370071426975,
                            25.078297207715494
                        ],
                        [
                            55.344296579402865,
                            25.078924478364055
                        ],
                        [
                            55.34477460092691,
                            25.0787541641697
                        ],
                        [
                            55.34525891776096,
                            25.078115525462103
                        ],
                        [
                            55.34583919743734,
                            25.07703298109311
                        ],
                        [
                            55.34645472960116,
                            25.076196733270297
                        ],
                        [
                            55.3511528403267,
                            25.07484968218969
                        ],
                        [
                            55.35231593447737,
                            25.07584622876988
                        ],
                        [
                            55.35409510282842,
                            25.07740581992498
                        ],
                        [
                            55.35565999233652,
                            25.07864685037696
                        ],
                        [
                            55.36127075535738,
                            25.082145772464322
                        ],
                        [
                            55.36353706779482,
                            25.083347630551263
                        ],
                        [
                            55.36782073688102,
                            25.085142521198193
                        ],
                        [
                            55.368631429170854,
                            25.083156362462592
                        ],
                        [
                            55.369356066331996,
                            25.08135514693701
                        ],
                        [
                            55.370133958221174,
                            25.07989995425007
                        ],
                        [
                            55.37080402509095,
                            25.078818290237916
                        ],
                        [
                            55.37260645975316,
                            25.076695151776256
                        ],
                        [
                            55.372470459988726,
                            25.075311888001785
                        ],
                        [
                            55.37181916751542,
                            25.074976865546525
                        ],
                        [
                            55.368165334362644,
                            25.073215373962398
                        ],
                        [
                            55.36569702389353,
                            25.07222799989747
                        ],
                        [
                            55.363190190105286,
                            25.071240161331048
                        ],
                        [
                            55.36086102866368,
                            25.07042989263717
                        ],
                        [
                            55.357916275643234,
                            25.069507390123928
                        ],
                        [
                            55.353816843031986,
                            25.06840809061371
                        ],
                        [
                            55.351009678703534,
                            25.067779727217957
                        ],
                        [
                            55.34862328898085,
                            25.067413610510403
                        ],
                        [
                            55.33938860802563,
                            25.065788305784153
                        ],
                        [
                            55.3386732310619,
                            25.071166816849562
                        ],
                        [
                            55.340284826539104,
                            25.077508147966704
                        ]
                    ]
                ]
            }
        },
        {
            "type": "Feature",
            "properties": {
                "type": "observation",
                "score": 0.0,
                "observation_date": null,
                "source": null,
                "sensor_name": null,
                "current_phase": null,
                "is_occluded": null,
                "is_site_boundary": null
            },
            "geometry": {
                "type": "Polygon",
                "coordinates": [
                    [
                        [
                            55.340284826539104,
                            25.077508147966704
                        ],
                        [
                            55.34026568145378,
                            25.077497687743893
                        ],
                        [
                            55.34134688012366,
                            25.078364593540176
                        ],
                        [
                            55.342390390411865,
                            25.078212316905983
                        ],
                        [
                            55.34370071426975,
                            25.078297207715494
                        ],
                        [
                            55.344296579402865,
                            25.078924478364055
                        ],
                        [
                            55.34477460092691,
                            25.0787541641697
                        ],
                        [
                            55.34525891776096,
                            25.078115525462103
                        ],
                        [
                            55.34583919743734,
                            25.07703298109311
                        ],
                        [
                            55.34645472960116,
                            25.076196733270297
                        ],
                        [
                            55.3511528403267,
                            25.07484968218969
                        ],
                        [
                            55.35231593447737,
                            25.07584622876988
                        ],
                        [
                            55.35409510282842,
                            25.07740581992498
                        ],
                        [
                            55.35565999233652,
                            25.07864685037696
                        ],
                        [
                            55.36127075535738,
                            25.082145772464322
                        ],
                        [
                            55.36353706779482,
                            25.083347630551263
                        ],
                        [
                            55.36782073688102,
                            25.085142521198193
                        ],
                        [
                            55.368631429170854,
                            25.083156362462592
                        ],
                        [
                            55.369356066331996,
                            25.08135514693701
                        ],
                        [
                            55.370133958221174,
                            25.07989995425007
                        ],
                        [
                            55.37080402509095,
                            25.078818290237916
                        ],
                        [
                            55.37260645975316,
                            25.076695151776256
                        ],
                        [
                            55.372470459988726,
                            25.075311888001785
                        ],
                        [
                            55.37181916751542,
                            25.074976865546525
                        ],
                        [
                            55.368165334362644,
                            25.073215373962398
                        ],
                        [
                            55.36569702389353,
                            25.07222799989747
                        ],
                        [
                            55.363190190105286,
                            25.071240161331048
                        ],
                        [
                            55.36086102866368,
                            25.07042989263717
                        ],
                        [
                            55.357916275643234,
                            25.069507390123928
                        ],
                        [
                            55.353816843031986,
                            25.06840809061371
                        ],
                        [
                            55.351009678703534,
                            25.067779727217957
                        ],
                        [
                            55.34862328898085,
                            25.067413610510403
                        ],
                        [
                            55.33938860802563,
                            25.065788305784153
                        ],
                        [
                            55.3386732310619,
                            25.071166816849562
                        ],
                        [
                            55.340284826539104,
                            25.077508147966704
                        ]
                    ]
                ]
            }
        },
        {
            "type": "Feature",
            "properties": {
                "type": "observation",
                "score": 0.0,
                "observation_date": null,
                "source": null,
                "sensor_name": null,
                "current_phase": null,
                "is_occluded": null,
                "is_site_boundary": null
            },
            "geometry": {
                "type": "Polygon",
                "coordinates": [
                    [
                        [
                            55.340284826539104,
                            25.077508147966704
                        ],
                        [
                            55.34026568145378,
                            25.077497687743893
                        ],
                        [
                            55.34134688012366,
                            25.078364593540176
                        ],
                        [
                            55.342390390411865,
                            25.078212316905983
                        ],
                        [
                            55.34370071426975,
                            25.078297207715494
                        ],
                        [
                            55.344296579402865,
                            25.078924478364055
                        ],
                        [
                            55.34477460092691,
                            25.0787541641697
                        ],
                        [
                            55.34525891776096,
                            25.078115525462103
                        ],
                        [
                            55.34583919743734,
                            25.07703298109311
                        ],
                        [
                            55.34645472960116,
                            25.076196733270297
                        ],
                        [
                            55.3511528403267,
                            25.07484968218969
                        ],
                        [
                            55.35231593447737,
                            25.07584622876988
                        ],
                        [
                            55.35409510282842,
                            25.07740581992498
                        ],
                        [
                            55.35565999233652,
                            25.07864685037696
                        ],
                        [
                            55.36127075535738,
                            25.082145772464322
                        ],
                        [
                            55.36353706779482,
                            25.083347630551263
                        ],
                        [
                            55.36782073688102,
                            25.085142521198193
                        ],
                        [
                            55.368631429170854,
                            25.083156362462592
                        ],
                        [
                            55.369356066331996,
                            25.08135514693701
                        ],
                        [
                            55.370133958221174,
                            25.07989995425007
                        ],
                        [
                            55.37080402509095,
                            25.078818290237916
                        ],
                        [
                            55.37260645975316,
                            25.076695151776256
                        ],
                        [
                            55.372470459988726,
                            25.075311888001785
                        ],
                        [
                            55.37181916751542,
                            25.074976865546525
                        ],
                        [
                            55.368165334362644,
                            25.073215373962398
                        ],
                        [
                            55.36569702389353,
                            25.07222799989747
                        ],
                        [
                            55.363190190105286,
                            25.071240161331048
                        ],
                        [
                            55.36086102866368,
                            25.07042989263717
                        ],
                        [
                            55.357916275643234,
                            25.069507390123928
                        ],
                        [
                            55.353816843031986,
                            25.06840809061371
                        ],
                        [
                            55.351009678703534,
                            25.067779727217957
                        ],
                        [
                            55.34862328898085,
                            25.067413610510403
                        ],
                        [
                            55.33938860802563,
                            25.065788305784153
                        ],
                        [
                            55.3386732310619,
                            25.071166816849562
                        ],
                        [
                            55.340284826539104,
                            25.077508147966704
                        ]
                    ]
                ]
            }
        }
    ]
}