{
    "type": "FeatureCollection",
    "features": [
        {
            "type": "Feature",
            "properties": {
                "type": "site",
                "region_id": "AE_C000",
                "version": "2.0.0",
                "mgrs": "40RCN",
                "start_date": "2017-09-26",
                "end_date": null,
                "site_id": "AE_C000_0011",
                "status": "positive_pending",
                "originator": "iMERIT",
                "validated": "False",
                "model_content": "annotation",
                "score": 0.0,
                "misc_info": {
                    "commit_hash": "b8980b308111f4d719b33abcdfd4475cdb0511ce"
                }
            },
            "geometry": {
                "type": "Polygon",
                "coordinates": [
                    [
                        [
                            55.32359868177189,
                            25.078015020283377
                        ],
                        [
                            55.32499777335272,
                            25.078188901805316
                        ],
                        [
                            55.32652060602791,
                            25.075881697197392
                        ],
                        [
                            55.32277362043111,
                            25.073693582977437
                        ],
                        [
                            55.32342014413981,
                            25.07696351717411
                        ],
                        [
                            55.3235704801791,
                            25.077725617325186
                        ],
                        [
                            55.32360387903935,
                            25.07786943903985
                        ],
                        [
                            55.32357443606705,
                            25.07790716307517
                        ],
                        [
                            55.32359868177189,
                            25.078015020283377
                        ]
                    ]
                ]
            }
        },
        {
            "type": "Feature",
            "properties": {
                "type": "observation",
                "score": 0.0,
                "observation_date": "2017-09-26",
                "source": null,
                "sensor_name": null,
                "current_phase": null,
                "is_occluded": null,
                "is_site_boundary": null
            },
            "geometry": {
                "type": "Polygon",
                "coordinates": [
                    [
                        [
                            55.32359868177189,
                            25.078015020283377
                        ],
                        [
                            55.32499777335272,
                            25.078188901805316
                        ],
                        [
                            55.32652060602791,
                            25.075881697197392
                        ],
                        [
                            55.32277362043111,
                            25.073693582977437
                        ],
                        [
                            55.32342014413981,
                            25.07696351717411
                        ],
                        [
                            55.3235704801791,
                            25.077725617325186
                        ],
                        [
                            55.32360387903935,
                            25.07786943903985
                        ],
                        [
                            55.32357443606705,
                            25.07790716307517
                        ],
                        [
                            55.32359868177189,
                            25.078015020283377
                        ]
                    ]
                ]
            }
        },
        {
            "type": "Feature",
            "properties": {
                "type": "observation",
                "score": 0.0,
                "observation_date": null,
                "source": null,
                "sensor_name": null,
                "current_phase": null,
                "is_occluded": null,
                "is_site_boundary": null
            },
            "geometry": {
                "type": "Polygon",
                "coordinates": [
                    [
                        [
                            55.32359868177189,
                            25.078015020283377
                        ],
                        [
                            55.32499777335272,
                            25.078188901805316
                        ],
                        [
                            55.32652060602791,
                            25.075881697197392
                        ],
                        [
                            55.32277362043111,
                            25.073693582977437
                        ],
                        [
                            55.32342014413981,
                            25.07696351717411
                        ],
                        [
                            55.3235704801791,
                            25.077725617325186
                        ],
                        [
                            55.32360387903935,
                            25.07786943903985
                        ],
                        [
                            55.32357443606705,
                            25.07790716307517
                        ],
                        [
                            55.32359868177189,
                            25.078015020283377
                        ]
                    ]
                ]
            }
        }
    ]
}