{
    "type": "FeatureCollection",
    "features": [
        {
            "type": "Feature",
            "properties": {
                "type": "site",
                "region_id": "AE_C000",
                "version": "2.0.0",
                "mgrs": "40RCN",
                "start_date": null,
                "end_date": "2020-05-13",
                "site_id": "AE_C000_0016",
                "status": "positive_pending",
                "originator": "iMERIT",
                "validated": "False",
                "model_content": "annotation",
                "score": 0.0,
                "misc_info": {
                    "commit_hash": "b8980b308111f4d719b33abcdfd4475cdb0511ce"
                }
            },
            "geometry": {
                "type": "Polygon",
                "coordinates": [
                    [
                        [
                            55.234010107626034,
                            25.046488177386497
                        ],
                        [
                            55.23428899959082,
                            25.046535403791413
                        ],
                        [
                            55.23481515839545,
                            25.046594350860587
                        ],
                        [
                            55.23528449157696,
                            25.046582364228183
                        ],
                        [
                            55.23526388721151,
                            25.04577709532156
                        ],
                        [
                            55.23522308380241,
                            25.04570928119196
                        ],
                        [
                            55.23480862417279,
                            25.045704355810326
                        ],
                        [
                            55.234555269018514,
                            25.045669143445565
                        ],
                        [
                            55.23426995313419,
                            25.045621841242944
                        ],
                        [
                            55.234010107626034,
                            25.046488177386497
                        ]
                    ]
                ]
            }
        },
        {
            "type": "Feature",
            "properties": {
                "type": "observation",
                "score": 0.0,
                "observation_date": null,
                "source": null,
                "sensor_name": null,
                "current_phase": null,
                "is_occluded": null,
                "is_site_boundary": null
            },
            "geometry": {
                "type": "Polygon",
                "coordinates": [
                    [
                        [
                            55.234010107626034,
                            25.046488177386497
                        ],
                        [
                            55.23428899959082,
                            25.046535403791413
                        ],
                        [
                            55.23481515839545,
                            25.046594350860587
                        ],
                        [
                            55.23528449157696,
                            25.046582364228183
                        ],
                        [
                            55.23526388721151,
                            25.04577709532156
                        ],
                        [
                            55.23522308380241,
                            25.04570928119196
                        ],
                        [
                            55.23480862417279,
                            25.045704355810326
                        ],
                        [
                            55.234555269018514,
                            25.045669143445565
                        ],
                        [
                            55.23426995313419,
                            25.045621841242944
                        ],
                        [
                            55.234010107626034,
                            25.046488177386497
                        ]
                    ]
                ]
            }
        },
        {
            "type": "Feature",
            "properties": {
                "type": "observation",
                "score": 0.0,
                "observation_date": "2020-05-13",
                "source": null,
                "sensor_name": null,
                "current_phase": null,
                "is_occluded": null,
                "is_site_boundary": null
            },
            "geometry": {
                "type": "Polygon",
                "coordinates": [
                    [
                        [
                            55.234010107626034,
                            25.046488177386497
                        ],
                        [
                            55.23428899959082,
                            25.046535403791413
                        ],
                        [
                            55.23481515839545,
                            25.046594350860587
                        ],
                        [
                            55.23528449157696,
                            25.046582364228183
                        ],
                        [
                            55.23526388721151,
                            25.04577709532156
                        ],
                        [
                            55.23522308380241,
                            25.04570928119196
                        ],
                        [
                            55.23480862417279,
                            25.045704355810326
                        ],
                        [
                            55.234555269018514,
                            25.045669143445565
                        ],
                        [
                            55.23426995313419,
                            25.045621841242944
                        ],
                        [
                            55.234010107626034,
                            25.046488177386497
                        ]
                    ]
                ]
            }
        }
    ]
}