{
    "type": "FeatureCollection",
    "features": [
        {
            "type": "Feature",
            "properties": {
                "type": "site",
                "region_id": "AE_C000",
                "version": "2.0.0",
                "mgrs": "40RCN",
                "start_date": null,
                "end_date": null,
                "site_id": "AE_C000_0021",
                "status": "positive_pending",
                "originator": "iMERIT",
                "validated": "False",
                "model_content": "annotation",
                "score": 0.0,
                "misc_info": {
                    "commit_hash": "b8980b308111f4d719b33abcdfd4475cdb0511ce"
                }
            },
            "geometry": {
                "type": "Polygon",
                "coordinates": [
                    [
                        [
                            55.24582276217827,
                            25.041742387450526
                        ],
                        [
                            55.24590856871577,
                            25.04175291473546
                        ],
                        [
                            55.246047051454774,
                            25.041731131047232
                        ],
                        [
                            55.2465032345135,
                            25.04106102562964
                        ],
                        [
                            55.246499057041845,
                            25.04090289814495
                        ],
                        [
                            55.24481630495808,
                            25.03992870070455
                        ],
                        [
                            55.244227804060124,
                            25.040864359504663
                        ],
                        [
                            55.24582276217827,
                            25.041742387450526
                        ]
                    ]
                ]
            }
        },
        {
            "type": "Feature",
            "properties": {
                "type": "observation",
                "score": 0.0,
                "observation_date": null,
                "source": null,
                "sensor_name": null,
                "current_phase": null,
                "is_occluded": null,
                "is_site_boundary": null
            },
            "geometry": {
                "type": "Polygon",
                "coordinates": [
                    [
                        [
                            55.24582276217827,
                            25.041742387450526
                        ],
                        [
                            55.24590856871577,
                            25.04175291473546
                        ],
                        [
                            55.246047051454774,
                            25.041731131047232
                        ],
                        [
                            55.2465032345135,
                            25.04106102562964
                        ],
                        [
                            55.246499057041845,
                            25.04090289814495
                        ],
                        [
                            55.24481630495808,
                            25.03992870070455
                        ],
                        [
                            55.244227804060124,
                            25.040864359504663
                        ],
                        [
                            55.24582276217827,
                            25.041742387450526
                        ]
                    ]
                ]
            }
        },
        {
            "type": "Feature",
            "properties": {
                "type": "observation",
                "score": 0.0,
                "observation_date": null,
                "source": null,
                "sensor_name": null,
                "current_phase": null,
                "is_occluded": null,
                "is_site_boundary": null
            },
            "geometry": {
                "type": "Polygon",
                "coordinates": [
                    [
                        [
                            55.24582276217827,
                            25.041742387450526
                        ],
                        [
                            55.24590856871577,
                            25.04175291473546
                        ],
                        [
                            55.246047051454774,
                            25.041731131047232
                        ],
                        [
                            55.2465032345135,
                            25.04106102562964
                        ],
                        [
                            55.246499057041845,
                            25.04090289814495
                        ],
                        [
                            55.24481630495808,
                            25.03992870070455
                        ],
                        [
                            55.244227804060124,
                            25.040864359504663
                        ],
                        [
                            55.24582276217827,
                            25.041742387450526
                        ]
                    ]
                ]
            }
        }
    ]
}