{
    "type": "FeatureCollection",
    "features": [
        {
            "type": "Feature",
            "properties": {
                "type": "site",
                "region_id": "BR_C000",
                "version": "2.0.1",
                "mgrs": "23KLQ",
                "model_content": "annotation",
                "start_date": "2021-04-11",
                "end_date": "2023-07-25",
                "originator": "iMERIT",
                "site_id": "BR_C000_0861",
                "status": "positive_pending",
                "validated": "False",
                "score": 0.0,
                "misc_info": {
                    "commit_hash": "b8980b308111f4d719b33abcdfd4475cdb0511ce"
                }
            },
            "geometry": {
                "type": "Polygon",
                "coordinates": [
                    [
                        [
                            -46.45797689722583,
                            -23.498340208415815
                        ],
                        [
                            -46.45864001430484,
                            -23.49919458890398
                        ],
                        [
                            -46.45797817724822,
                            -23.49941471653166
                        ],
                        [
                            -46.45699164063062,
                            -23.49839318554318
                        ],
                        [
                            -46.45797689722583,
                            -23.498340208415815
                        ]
                    ]
                ]
            }
        },
        {
            "type": "Feature",
            "properties": {
                "type": "observation",
                "score": 0.0,
                "observation_date": "2021-04-11",
                "source": null,
                "sensor_name": null,
                "current_phase": null,
                "is_occluded": null,
                "is_site_boundary": null
            },
            "geometry": {
                "type": "Polygon",
                "coordinates": [
                    [
                        [
                            -46.45797689722583,
                            -23.498340208415815
                        ],
                        [
                            -46.45864001430484,
                            -23.49919458890398
                        ],
                        [
                            -46.45797817724822,
                            -23.49941471653166
                        ],
                        [
                            -46.45699164063062,
                            -23.49839318554318
                        ],
                        [
                            -46.45797689722583,
                            -23.498340208415815
                        ]
                    ]
                ]
            }
        },
        {
            "type": "Feature",
            "properties": {
                "type": "observation",
                "score": 0.0,
                "observation_date": "2023-07-25",
                "source": null,
                "sensor_name": null,
                "current_phase": null,
                "is_occluded": null,
                "is_site_boundary": null
            },
            "geometry": {
                "type": "Polygon",
                "coordinates": [
                    [
                        [
                            -46.45797689722583,
                            -23.498340208415815
                        ],
                        [
                            -46.45864001430484,
                            -23.49919458890398
                        ],
                        [
                            -46.45797817724822,
                            -23.49941471653166
                        ],
                        [
                            -46.45699164063062,
                            -23.49839318554318
                        ],
                        [
                            -46.45797689722583,
                            -23.498340208415815
                        ]
                    ]
                ]
            }
        }
    ]
}