{
    "type": "FeatureCollection",
    "features": [
        {
            "type": "Feature",
            "properties": {
                "type": "site",
                "region_id": "BR_C000",
                "version": "2.0.1",
                "mgrs": "23KLP",
                "model_content": "annotation",
                "start_date": "2018-07-16",
                "end_date": "2021-05-31",
                "originator": "iMERIT",
                "site_id": "BR_C000_0605",
                "status": "positive_pending",
                "validated": "False",
                "score": 0.0,
                "misc_info": {
                    "commit_hash": "b8980b308111f4d719b33abcdfd4475cdb0511ce"
                }
            },
            "geometry": {
                "type": "Polygon",
                "coordinates": [
                    [
                        [
                            -46.383367688566516,
                            -23.54974085812212
                        ],
                        [
                            -46.382851430156656,
                            -23.54952397651619
                        ],
                        [
                            -46.38289103301072,
                            -23.54943464385635
                        ],
                        [
                            -46.38224584654767,
                            -23.549155332234836
                        ],
                        [
                            -46.38197431594205,
                            -23.54968840198244
                        ],
                        [
                            -46.383135424594975,
                            -23.55019106478241
                        ],
                        [
                            -46.383367688566516,
                            -23.54974085812212
                        ]
                    ]
                ]
            }
        },
        {
            "type": "Feature",
            "properties": {
                "type": "observation",
                "score": 0.0,
                "observation_date": "2018-07-16",
                "source": null,
                "sensor_name": null,
                "current_phase": null,
                "is_occluded": null,
                "is_site_boundary": null
            },
            "geometry": {
                "type": "Polygon",
                "coordinates": [
                    [
                        [
                            -46.383367688566516,
                            -23.54974085812212
                        ],
                        [
                            -46.382851430156656,
                            -23.54952397651619
                        ],
                        [
                            -46.38289103301072,
                            -23.54943464385635
                        ],
                        [
                            -46.38224584654767,
                            -23.549155332234836
                        ],
                        [
                            -46.38197431594205,
                            -23.54968840198244
                        ],
                        [
                            -46.383135424594975,
                            -23.55019106478241
                        ],
                        [
                            -46.383367688566516,
                            -23.54974085812212
                        ]
                    ]
                ]
            }
        },
        {
            "type": "Feature",
            "properties": {
                "type": "observation",
                "score": 0.0,
                "observation_date": "2021-05-31",
                "source": null,
                "sensor_name": null,
                "current_phase": null,
                "is_occluded": null,
                "is_site_boundary": null
            },
            "geometry": {
                "type": "Polygon",
                "coordinates": [
                    [
                        [
                            -46.383367688566516,
                            -23.54974085812212
                        ],
                        [
                            -46.382851430156656,
                            -23.54952397651619
                        ],
                        [
                            -46.38289103301072,
                            -23.54943464385635
                        ],
                        [
                            -46.38224584654767,
                            -23.549155332234836
                        ],
                        [
                            -46.38197431594205,
                            -23.54968840198244
                        ],
                        [
                            -46.383135424594975,
                            -23.55019106478241
                        ],
                        [
                            -46.383367688566516,
                            -23.54974085812212
                        ]
                    ]
                ]
            }
        }
    ]
}