{
    "type": "FeatureCollection",
    "features": [
        {
            "type": "Feature",
            "properties": {
                "type": "site",
                "region_id": "BR_C000",
                "version": "2.0.0",
                "mgrs": "23KLP",
                "model_content": "annotation",
                "start_date": "2019-06-26",
                "end_date": "2021-11-14",
                "originator": "iMERIT",
                "site_id": "BR_C000_0513",
                "status": "positive_pending",
                "validated": "False",
                "score": 0.0,
                "misc_info": {
                    "commit_hash": "b8980b308111f4d719b33abcdfd4475cdb0511ce"
                }
            },
            "geometry": {
                "type": "Polygon",
                "coordinates": [
                    [
                        [
                            -46.55041714898836,
                            -23.68152402493578
                        ],
                        [
                            -46.550444071954935,
                            -23.682625909478865
                        ],
                        [
                            -46.54994780649792,
                            -23.682630877644822
                        ],
                        [
                            -46.54992572726388,
                            -23.68154603202353
                        ],
                        [
                            -46.55041714898836,
                            -23.68152402493578
                        ]
                    ]
                ]
            }
        },
        {
            "type": "Feature",
            "properties": {
                "type": "observation",
                "score": 0.0,
                "observation_date": "2019-06-26",
                "source": null,
                "sensor_name": null,
                "current_phase": null,
                "is_occluded": null,
                "is_site_boundary": null
            },
            "geometry": {
                "type": "Polygon",
                "coordinates": [
                    [
                        [
                            -46.55041714898836,
                            -23.68152402493578
                        ],
                        [
                            -46.550444071954935,
                            -23.682625909478865
                        ],
                        [
                            -46.54994780649792,
                            -23.682630877644822
                        ],
                        [
                            -46.54992572726388,
                            -23.68154603202353
                        ],
                        [
                            -46.55041714898836,
                            -23.68152402493578
                        ]
                    ]
                ]
            }
        },
        {
            "type": "Feature",
            "properties": {
                "type": "observation",
                "score": 0.0,
                "observation_date": "2021-11-14",
                "source": null,
                "sensor_name": null,
                "current_phase": null,
                "is_occluded": null,
                "is_site_boundary": null
            },
            "geometry": {
                "type": "Polygon",
                "coordinates": [
                    [
                        [
                            -46.55041714898836,
                            -23.68152402493578
                        ],
                        [
                            -46.550444071954935,
                            -23.682625909478865
                        ],
                        [
                            -46.54994780649792,
                            -23.682630877644822
                        ],
                        [
                            -46.54992572726388,
                            -23.68154603202353
                        ],
                        [
                            -46.55041714898836,
                            -23.68152402493578
                        ]
                    ]
                ]
            }
        }
    ]
}