{
    "type": "FeatureCollection",
    "features": [
        {
            "type": "Feature",
            "properties": {
                "type": "site",
                "region_id": "BR_C000",
                "version": "2.0.1",
                "mgrs": "23KLP",
                "model_content": "annotation",
                "start_date": "2021-02-15",
                "end_date": "2023-02-10",
                "originator": "iMERIT",
                "site_id": "BR_C000_0481",
                "status": "positive_pending",
                "validated": "False",
                "score": 0.0,
                "misc_info": {
                    "commit_hash": "b8980b308111f4d719b33abcdfd4475cdb0511ce"
                }
            },
            "geometry": {
                "type": "Polygon",
                "coordinates": [
                    [
                        [
                            -46.605328829163675,
                            -23.511387676478638
                        ],
                        [
                            -46.604739576370505,
                            -23.51163260685652
                        ],
                        [
                            -46.60509099821704,
                            -23.51252358547751
                        ],
                        [
                            -46.60577609333198,
                            -23.51233190083395
                        ],
                        [
                            -46.60564830356961,
                            -23.512058572731096
                        ],
                        [
                            -46.60590743280997,
                            -23.51195208126245
                        ],
                        [
                            -46.6057299470289,
                            -23.511504817094146
                        ],
                        [
                            -46.60542822120107,
                            -23.511597109700304
                        ],
                        [
                            -46.605328829163675,
                            -23.511387676478638
                        ]
                    ]
                ]
            }
        },
        {
            "type": "Feature",
            "properties": {
                "type": "observation",
                "score": 0.0,
                "observation_date": "2021-02-15",
                "source": null,
                "sensor_name": null,
                "current_phase": null,
                "is_occluded": null,
                "is_site_boundary": null
            },
            "geometry": {
                "type": "Polygon",
                "coordinates": [
                    [
                        [
                            -46.605328829163675,
                            -23.511387676478638
                        ],
                        [
                            -46.604739576370505,
                            -23.51163260685652
                        ],
                        [
                            -46.60509099821704,
                            -23.51252358547751
                        ],
                        [
                            -46.60577609333198,
                            -23.51233190083395
                        ],
                        [
                            -46.60564830356961,
                            -23.512058572731096
                        ],
                        [
                            -46.60590743280997,
                            -23.51195208126245
                        ],
                        [
                            -46.6057299470289,
                            -23.511504817094146
                        ],
                        [
                            -46.60542822120107,
                            -23.511597109700304
                        ],
                        [
                            -46.605328829163675,
                            -23.511387676478638
                        ]
                    ]
                ]
            }
        },
        {
            "type": "Feature",
            "properties": {
                "type": "observation",
                "score": 0.0,
                "observation_date": "2023-02-10",
                "source": null,
                "sensor_name": null,
                "current_phase": null,
                "is_occluded": null,
                "is_site_boundary": null
            },
            "geometry": {
                "type": "Polygon",
                "coordinates": [
                    [
                        [
                            -46.605328829163675,
                            -23.511387676478638
                        ],
                        [
                            -46.604739576370505,
                            -23.51163260685652
                        ],
                        [
                            -46.60509099821704,
                            -23.51252358547751
                        ],
                        [
                            -46.60577609333198,
                            -23.51233190083395
                        ],
                        [
                            -46.60564830356961,
                            -23.512058572731096
                        ],
                        [
                            -46.60590743280997,
                            -23.51195208126245
                        ],
                        [
                            -46.6057299470289,
                            -23.511504817094146
                        ],
                        [
                            -46.60542822120107,
                            -23.511597109700304
                        ],
                        [
                            -46.605328829163675,
                            -23.511387676478638
                        ]
                    ]
                ]
            }
        }
    ]
}