{
    "type": "FeatureCollection",
    "features": [
        {
            "type": "Feature",
            "properties": {
                "type": "site",
                "region_id": "BR_C000",
                "version": "2.0.1",
                "mgrs": "23KLQ",
                "model_content": "annotation",
                "start_date": "2021-08-09",
                "end_date": "2022-09-01",
                "originator": "iMERIT",
                "site_id": "BR_C000_0805",
                "status": "positive_pending",
                "validated": "False",
                "score": 0.0,
                "misc_info": {
                    "commit_hash": "b8980b308111f4d719b33abcdfd4475cdb0511ce"
                }
            },
            "geometry": {
                "type": "Polygon",
                "coordinates": [
                    [
                        [
                            -46.3586908183873,
                            -23.400816155751688
                        ],
                        [
                            -46.358191790609645,
                            -23.40053211792856
                        ],
                        [
                            -46.35882947424789,
                            -23.3997973750401
                        ],
                        [
                            -46.35904322685934,
                            -23.39988159210327
                        ],
                        [
                            -46.35913511471017,
                            -23.39973773207291
                        ],
                        [
                            -46.35936338859856,
                            -23.39980197159322
                        ],
                        [
                            -46.35930326107191,
                            -23.39999345540567
                        ],
                        [
                            -46.35935775801136,
                            -23.40002485052964
                        ],
                        [
                            -46.3586908183873,
                            -23.400816155751688
                        ]
                    ]
                ]
            }
        },
        {
            "type": "Feature",
            "properties": {
                "type": "observation",
                "score": 0.0,
                "observation_date": "2021-08-09",
                "source": null,
                "sensor_name": null,
                "current_phase": null,
                "is_occluded": null,
                "is_site_boundary": null
            },
            "geometry": {
                "type": "Polygon",
                "coordinates": [
                    [
                        [
                            -46.3586908183873,
                            -23.400816155751688
                        ],
                        [
                            -46.358191790609645,
                            -23.40053211792856
                        ],
                        [
                            -46.35882947424789,
                            -23.3997973750401
                        ],
                        [
                            -46.35904322685934,
                            -23.39988159210327
                        ],
                        [
                            -46.35913511471017,
                            -23.39973773207291
                        ],
                        [
                            -46.35936338859856,
                            -23.39980197159322
                        ],
                        [
                            -46.35930326107191,
                            -23.39999345540567
                        ],
                        [
                            -46.35935775801136,
                            -23.40002485052964
                        ],
                        [
                            -46.3586908183873,
                            -23.400816155751688
                        ]
                    ]
                ]
            }
        },
        {
            "type": "Feature",
            "properties": {
                "type": "observation",
                "score": 0.0,
                "observation_date": "2022-09-01",
                "source": null,
                "sensor_name": null,
                "current_phase": null,
                "is_occluded": null,
                "is_site_boundary": null
            },
            "geometry": {
                "type": "Polygon",
                "coordinates": [
                    [
                        [
                            -46.3586908183873,
                            -23.400816155751688
                        ],
                        [
                            -46.358191790609645,
                            -23.40053211792856
                        ],
                        [
                            -46.35882947424789,
                            -23.3997973750401
                        ],
                        [
                            -46.35904322685934,
                            -23.39988159210327
                        ],
                        [
                            -46.35913511471017,
                            -23.39973773207291
                        ],
                        [
                            -46.35936338859856,
                            -23.39980197159322
                        ],
                        [
                            -46.35930326107191,
                            -23.39999345540567
                        ],
                        [
                            -46.35935775801136,
                            -23.40002485052964
                        ],
                        [
                            -46.3586908183873,
                            -23.400816155751688
                        ]
                    ]
                ]
            }
        }
    ]
}