{
    "type": "FeatureCollection",
    "features": [
        {
            "type": "Feature",
            "properties": {
                "type": "site",
                "region_id": "BR_C000",
                "version": "2.0.1",
                "mgrs": "23KLQ",
                "model_content": "annotation",
                "start_date": "2019-03-23",
                "end_date": "2021-09-18",
                "originator": "iMERIT",
                "site_id": "BR_C000_0818",
                "status": "positive_pending",
                "validated": "False",
                "score": 0.0,
                "misc_info": {
                    "commit_hash": "b8980b308111f4d719b33abcdfd4475cdb0511ce"
                }
            },
            "geometry": {
                "type": "Polygon",
                "coordinates": [
                    [
                        [
                            -46.52388911769754,
                            -23.425381742060914
                        ],
                        [
                            -46.523378687664575,
                            -23.425182269868817
                        ],
                        [
                            -46.522551359937296,
                            -23.426541506880753
                        ],
                        [
                            -46.5230217996526,
                            -23.42682359730558
                        ],
                        [
                            -46.52388911769754,
                            -23.425381742060914
                        ]
                    ]
                ]
            }
        },
        {
            "type": "Feature",
            "properties": {
                "type": "observation",
                "score": 0.0,
                "observation_date": "2019-03-23",
                "source": null,
                "sensor_name": null,
                "current_phase": null,
                "is_occluded": null,
                "is_site_boundary": null
            },
            "geometry": {
                "type": "Polygon",
                "coordinates": [
                    [
                        [
                            -46.52388911769754,
                            -23.425381742060914
                        ],
                        [
                            -46.523378687664575,
                            -23.425182269868817
                        ],
                        [
                            -46.522551359937296,
                            -23.426541506880753
                        ],
                        [
                            -46.5230217996526,
                            -23.42682359730558
                        ],
                        [
                            -46.52388911769754,
                            -23.425381742060914
                        ]
                    ]
                ]
            }
        },
        {
            "type": "Feature",
            "properties": {
                "type": "observation",
                "score": 0.0,
                "observation_date": "2021-09-18",
                "source": null,
                "sensor_name": null,
                "current_phase": null,
                "is_occluded": null,
                "is_site_boundary": null
            },
            "geometry": {
                "type": "Polygon",
                "coordinates": [
                    [
                        [
                            -46.52388911769754,
                            -23.425381742060914
                        ],
                        [
                            -46.523378687664575,
                            -23.425182269868817
                        ],
                        [
                            -46.522551359937296,
                            -23.426541506880753
                        ],
                        [
                            -46.5230217996526,
                            -23.42682359730558
                        ],
                        [
                            -46.52388911769754,
                            -23.425381742060914
                        ]
                    ]
                ]
            }
        }
    ]
}