{
    "type": "FeatureCollection",
    "features": [
        {
            "type": "Feature",
            "properties": {
                "type": "site",
                "region_id": "BR_C000",
                "version": "2.0.1",
                "mgrs": "23JLP",
                "model_content": "annotation",
                "start_date": "2020-05-11",
                "end_date": "2021-07-10",
                "originator": "iMERIT",
                "site_id": "BR_C000_0019",
                "status": "positive_pending",
                "validated": "False",
                "score": 0.0,
                "misc_info": {
                    "commit_hash": "b8980b308111f4d719b33abcdfd4475cdb0511ce"
                }
            },
            "geometry": {
                "type": "Polygon",
                "coordinates": [
                    [
                        [
                            -46.2709097745538,
                            -24.007241972855642
                        ],
                        [
                            -46.26991064416009,
                            -24.00738424818093
                        ],
                        [
                            -46.27060062544394,
                            -24.00871637716541
                        ],
                        [
                            -46.2709097745538,
                            -24.007241972855642
                        ]
                    ]
                ]
            }
        },
        {
            "type": "Feature",
            "properties": {
                "type": "observation",
                "score": 0.0,
                "observation_date": "2020-05-11",
                "source": null,
                "sensor_name": null,
                "current_phase": null,
                "is_occluded": null,
                "is_site_boundary": null
            },
            "geometry": {
                "type": "Polygon",
                "coordinates": [
                    [
                        [
                            -46.2709097745538,
                            -24.007241972855642
                        ],
                        [
                            -46.26991064416009,
                            -24.00738424818093
                        ],
                        [
                            -46.27060062544394,
                            -24.00871637716541
                        ],
                        [
                            -46.2709097745538,
                            -24.007241972855642
                        ]
                    ]
                ]
            }
        },
        {
            "type": "Feature",
            "properties": {
                "type": "observation",
                "score": 0.0,
                "observation_date": "2021-07-10",
                "source": null,
                "sensor_name": null,
                "current_phase": null,
                "is_occluded": null,
                "is_site_boundary": null
            },
            "geometry": {
                "type": "Polygon",
                "coordinates": [
                    [
                        [
                            -46.2709097745538,
                            -24.007241972855642
                        ],
                        [
                            -46.26991064416009,
                            -24.00738424818093
                        ],
                        [
                            -46.27060062544394,
                            -24.00871637716541
                        ],
                        [
                            -46.2709097745538,
                            -24.007241972855642
                        ]
                    ]
                ]
            }
        }
    ]
}