{
    "type": "FeatureCollection",
    "features": [
        {
            "type": "Feature",
            "properties": {
                "type": "site",
                "region_id": "BR_C000",
                "version": "2.0.1",
                "mgrs": "23KKQ",
                "model_content": "annotation",
                "start_date": "2017-09-24",
                "end_date": "2021-05-21",
                "originator": "iMERIT",
                "site_id": "BR_C000_0035",
                "status": "positive_pending",
                "validated": "False",
                "score": 0.0,
                "misc_info": {
                    "commit_hash": "b8980b308111f4d719b33abcdfd4475cdb0511ce"
                }
            },
            "geometry": {
                "type": "Polygon",
                "coordinates": [
                    [
                        [
                            -47.10909324127122,
                            -23.431856336830325
                        ],
                        [
                            -47.110162171247545,
                            -23.431495072351403
                        ],
                        [
                            -47.109838889578015,
                            -23.430597720844883
                        ],
                        [
                            -47.11007639345653,
                            -23.43047633582202
                        ],
                        [
                            -47.10985824308056,
                            -23.430063105454693
                        ],
                        [
                            -47.10853849955448,
                            -23.430759158031247
                        ],
                        [
                            -47.10909324127122,
                            -23.431856336830325
                        ]
                    ]
                ]
            }
        },
        {
            "type": "Feature",
            "properties": {
                "type": "observation",
                "score": 0.0,
                "observation_date": "2017-09-24",
                "source": null,
                "sensor_name": null,
                "current_phase": null,
                "is_occluded": null,
                "is_site_boundary": null
            },
            "geometry": {
                "type": "Polygon",
                "coordinates": [
                    [
                        [
                            -47.10909324127122,
                            -23.431856336830325
                        ],
                        [
                            -47.110162171247545,
                            -23.431495072351403
                        ],
                        [
                            -47.109838889578015,
                            -23.430597720844883
                        ],
                        [
                            -47.11007639345653,
                            -23.43047633582202
                        ],
                        [
                            -47.10985824308056,
                            -23.430063105454693
                        ],
                        [
                            -47.10853849955448,
                            -23.430759158031247
                        ],
                        [
                            -47.10909324127122,
                            -23.431856336830325
                        ]
                    ]
                ]
            }
        },
        {
            "type": "Feature",
            "properties": {
                "type": "observation",
                "score": 0.0,
                "observation_date": "2021-05-21",
                "source": null,
                "sensor_name": null,
                "current_phase": null,
                "is_occluded": null,
                "is_site_boundary": null
            },
            "geometry": {
                "type": "Polygon",
                "coordinates": [
                    [
                        [
                            -47.10909324127122,
                            -23.431856336830325
                        ],
                        [
                            -47.110162171247545,
                            -23.431495072351403
                        ],
                        [
                            -47.109838889578015,
                            -23.430597720844883
                        ],
                        [
                            -47.11007639345653,
                            -23.43047633582202
                        ],
                        [
                            -47.10985824308056,
                            -23.430063105454693
                        ],
                        [
                            -47.10853849955448,
                            -23.430759158031247
                        ],
                        [
                            -47.10909324127122,
                            -23.431856336830325
                        ]
                    ]
                ]
            }
        }
    ]
}