{
    "type": "FeatureCollection",
    "features": [
        {
            "type": "Feature",
            "properties": {
                "type": "site",
                "region_id": "BR_C000",
                "version": "2.0.0",
                "mgrs": "23KLP",
                "model_content": "annotation",
                "start_date": "2021-06-30",
                "end_date": null,
                "originator": "iMERIT",
                "site_id": "BR_C000_0379",
                "status": "positive_pending",
                "validated": "False",
                "score": 0.0,
                "misc_info": {
                    "commit_hash": "b8980b308111f4d719b33abcdfd4475cdb0511ce"
                }
            },
            "geometry": {
                "type": "Polygon",
                "coordinates": [
                    [
                        [
                            -46.54758050989205,
                            -23.557747895438514
                        ],
                        [
                            -46.54635620315616,
                            -23.55928982125933
                        ],
                        [
                            -46.54542319511077,
                            -23.5591845725399
                        ],
                        [
                            -46.54673537967283,
                            -23.557568155361718
                        ],
                        [
                            -46.54758050989205,
                            -23.557747895438514
                        ]
                    ]
                ]
            }
        },
        {
            "type": "Feature",
            "properties": {
                "type": "observation",
                "score": 0.0,
                "observation_date": "2021-06-30",
                "source": null,
                "sensor_name": null,
                "current_phase": null,
                "is_occluded": null,
                "is_site_boundary": null
            },
            "geometry": {
                "type": "Polygon",
                "coordinates": [
                    [
                        [
                            -46.54758050989205,
                            -23.557747895438514
                        ],
                        [
                            -46.54635620315616,
                            -23.55928982125933
                        ],
                        [
                            -46.54542319511077,
                            -23.5591845725399
                        ],
                        [
                            -46.54673537967283,
                            -23.557568155361718
                        ],
                        [
                            -46.54758050989205,
                            -23.557747895438514
                        ]
                    ]
                ]
            }
        },
        {
            "type": "Feature",
            "properties": {
                "type": "observation",
                "score": 0.0,
                "observation_date": null,
                "source": null,
                "sensor_name": null,
                "current_phase": null,
                "is_occluded": null,
                "is_site_boundary": null
            },
            "geometry": {
                "type": "Polygon",
                "coordinates": [
                    [
                        [
                            -46.54758050989205,
                            -23.557747895438514
                        ],
                        [
                            -46.54635620315616,
                            -23.55928982125933
                        ],
                        [
                            -46.54542319511077,
                            -23.5591845725399
                        ],
                        [
                            -46.54673537967283,
                            -23.557568155361718
                        ],
                        [
                            -46.54758050989205,
                            -23.557747895438514
                        ]
                    ]
                ]
            }
        }
    ]
}