{
    "type": "FeatureCollection",
    "features": [
        {
            "type": "Feature",
            "properties": {
                "type": "site",
                "region_id": "BR_C000",
                "version": "2.0.1",
                "mgrs": "23KLQ",
                "model_content": "annotation",
                "start_date": "2019-10-04",
                "end_date": "2021-05-01",
                "originator": "iMERIT",
                "site_id": "BR_C000_0655",
                "status": "positive_pending",
                "validated": "False",
                "score": 0.0,
                "misc_info": {
                    "commit_hash": "b8980b308111f4d719b33abcdfd4475cdb0511ce"
                }
            },
            "geometry": {
                "type": "Polygon",
                "coordinates": [
                    [
                        [
                            -46.699574979995276,
                            -23.31669070378909
                        ],
                        [
                            -46.69989059319435,
                            -23.31740873844707
                        ],
                        [
                            -46.699093628086196,
                            -23.3176174331147
                        ],
                        [
                            -46.698943391353296,
                            -23.31703806460279
                        ],
                        [
                            -46.699574979995276,
                            -23.31669070378909
                        ]
                    ]
                ]
            }
        },
        {
            "type": "Feature",
            "properties": {
                "type": "observation",
                "score": 0.0,
                "observation_date": "2019-10-04",
                "source": null,
                "sensor_name": null,
                "current_phase": null,
                "is_occluded": null,
                "is_site_boundary": null
            },
            "geometry": {
                "type": "Polygon",
                "coordinates": [
                    [
                        [
                            -46.699574979995276,
                            -23.31669070378909
                        ],
                        [
                            -46.69989059319435,
                            -23.31740873844707
                        ],
                        [
                            -46.699093628086196,
                            -23.3176174331147
                        ],
                        [
                            -46.698943391353296,
                            -23.31703806460279
                        ],
                        [
                            -46.699574979995276,
                            -23.31669070378909
                        ]
                    ]
                ]
            }
        },
        {
            "type": "Feature",
            "properties": {
                "type": "observation",
                "score": 0.0,
                "observation_date": "2021-05-01",
                "source": null,
                "sensor_name": null,
                "current_phase": null,
                "is_occluded": null,
                "is_site_boundary": null
            },
            "geometry": {
                "type": "Polygon",
                "coordinates": [
                    [
                        [
                            -46.699574979995276,
                            -23.31669070378909
                        ],
                        [
                            -46.69989059319435,
                            -23.31740873844707
                        ],
                        [
                            -46.699093628086196,
                            -23.3176174331147
                        ],
                        [
                            -46.698943391353296,
                            -23.31703806460279
                        ],
                        [
                            -46.699574979995276,
                            -23.31669070378909
                        ]
                    ]
                ]
            }
        }
    ]
}