{
    "type": "FeatureCollection",
    "features": [
        {
            "type": "Feature",
            "properties": {
                "type": "site",
                "region_id": "BR_C000",
                "version": "2.0.1",
                "mgrs": "23KLP",
                "model_content": "annotation",
                "start_date": "2017-06-11",
                "end_date": "2019-05-27",
                "originator": "iMERIT",
                "site_id": "BR_C000_0329",
                "status": "positive_pending",
                "validated": "False",
                "score": 0.0,
                "misc_info": {
                    "commit_hash": "b8980b308111f4d719b33abcdfd4475cdb0511ce"
                }
            },
            "geometry": {
                "type": "Polygon",
                "coordinates": [
                    [
                        [
                            -46.81616458800619,
                            -23.51195785781272
                        ],
                        [
                            -46.81623533328007,
                            -23.51330489559179
                        ],
                        [
                            -46.8173126004144,
                            -23.5133140716844
                        ],
                        [
                            -46.81736881626624,
                            -23.51321814463261
                        ],
                        [
                            -46.81704229531316,
                            -23.51311137068308
                        ],
                        [
                            -46.81681816165406,
                            -23.51287305022654
                        ],
                        [
                            -46.81675821722192,
                            -23.51270687785598
                        ],
                        [
                            -46.81672592071007,
                            -23.51258027225705
                        ],
                        [
                            -46.81660098648636,
                            -23.51217798136823
                        ],
                        [
                            -46.81655919525812,
                            -23.51197446052752
                        ],
                        [
                            -46.8164708717738,
                            -23.51188113405868
                        ],
                        [
                            -46.81641283654444,
                            -23.51185894516638
                        ],
                        [
                            -46.81633291835367,
                            -23.51189209402006
                        ],
                        [
                            -46.81616458800619,
                            -23.51195785781272
                        ]
                    ]
                ]
            }
        },
        {
            "type": "Feature",
            "properties": {
                "type": "observation",
                "score": 0.0,
                "observation_date": "2017-06-11",
                "source": null,
                "sensor_name": null,
                "current_phase": null,
                "is_occluded": null,
                "is_site_boundary": null
            },
            "geometry": {
                "type": "Polygon",
                "coordinates": [
                    [
                        [
                            -46.81616458800619,
                            -23.51195785781272
                        ],
                        [
                            -46.81623533328007,
                            -23.51330489559179
                        ],
                        [
                            -46.8173126004144,
                            -23.5133140716844
                        ],
                        [
                            -46.81736881626624,
                            -23.51321814463261
                        ],
                        [
                            -46.81704229531316,
                            -23.51311137068308
                        ],
                        [
                            -46.81681816165406,
                            -23.51287305022654
                        ],
                        [
                            -46.81675821722192,
                            -23.51270687785598
                        ],
                        [
                            -46.81672592071007,
                            -23.51258027225705
                        ],
                        [
                            -46.81660098648636,
                            -23.51217798136823
                        ],
                        [
                            -46.81655919525812,
                            -23.51197446052752
                        ],
                        [
                            -46.8164708717738,
                            -23.51188113405868
                        ],
                        [
                            -46.81641283654444,
                            -23.51185894516638
                        ],
                        [
                            -46.81633291835367,
                            -23.51189209402006
                        ],
                        [
                            -46.81616458800619,
                            -23.51195785781272
                        ]
                    ]
                ]
            }
        },
        {
            "type": "Feature",
            "properties": {
                "type": "observation",
                "score": 0.0,
                "observation_date": "2019-05-27",
                "source": null,
                "sensor_name": null,
                "current_phase": null,
                "is_occluded": null,
                "is_site_boundary": null
            },
            "geometry": {
                "type": "Polygon",
                "coordinates": [
                    [
                        [
                            -46.81616458800619,
                            -23.51195785781272
                        ],
                        [
                            -46.81623533328007,
                            -23.51330489559179
                        ],
                        [
                            -46.8173126004144,
                            -23.5133140716844
                        ],
                        [
                            -46.81736881626624,
                            -23.51321814463261
                        ],
                        [
                            -46.81704229531316,
                            -23.51311137068308
                        ],
                        [
                            -46.81681816165406,
                            -23.51287305022654
                        ],
                        [
                            -46.81675821722192,
                            -23.51270687785598
                        ],
                        [
                            -46.81672592071007,
                            -23.51258027225705
                        ],
                        [
                            -46.81660098648636,
                            -23.51217798136823
                        ],
                        [
                            -46.81655919525812,
                            -23.51197446052752
                        ],
                        [
                            -46.8164708717738,
                            -23.51188113405868
                        ],
                        [
                            -46.81641283654444,
                            -23.51185894516638
                        ],
                        [
                            -46.81633291835367,
                            -23.51189209402006
                        ],
                        [
                            -46.81616458800619,
                            -23.51195785781272
                        ]
                    ]
                ]
            }
        }
    ]
}