{
    "type": "FeatureCollection",
    "features": [
        {
            "type": "Feature",
            "properties": {
                "type": "site",
                "region_id": "BR_C000",
                "version": "2.0.1",
                "mgrs": "23KLQ",
                "model_content": "annotation",
                "start_date": "2021-07-15",
                "end_date": "2023-05-26",
                "originator": "iMERIT",
                "site_id": "BR_C000_0852",
                "status": "positive_pending",
                "validated": "False",
                "score": 0.0,
                "misc_info": {
                    "commit_hash": "b8980b308111f4d719b33abcdfd4475cdb0511ce"
                }
            },
            "geometry": {
                "type": "Polygon",
                "coordinates": [
                    [
                        [
                            -46.444789884167534,
                            -23.447283321522285
                        ],
                        [
                            -46.44434038469101,
                            -23.449892823524983
                        ],
                        [
                            -46.44298071209835,
                            -23.44970499363948
                        ],
                        [
                            -46.44288191809375,
                            -23.446609558736725
                        ],
                        [
                            -46.444789884167534,
                            -23.447283321522285
                        ]
                    ]
                ]
            }
        },
        {
            "type": "Feature",
            "properties": {
                "type": "observation",
                "score": 0.0,
                "observation_date": "2021-07-15",
                "source": null,
                "sensor_name": null,
                "current_phase": null,
                "is_occluded": null,
                "is_site_boundary": null
            },
            "geometry": {
                "type": "Polygon",
                "coordinates": [
                    [
                        [
                            -46.444789884167534,
                            -23.447283321522285
                        ],
                        [
                            -46.44434038469101,
                            -23.449892823524983
                        ],
                        [
                            -46.44298071209835,
                            -23.44970499363948
                        ],
                        [
                            -46.44288191809375,
                            -23.446609558736725
                        ],
                        [
                            -46.444789884167534,
                            -23.447283321522285
                        ]
                    ]
                ]
            }
        },
        {
            "type": "Feature",
            "properties": {
                "type": "observation",
                "score": 0.0,
                "observation_date": "2023-05-26",
                "source": null,
                "sensor_name": null,
                "current_phase": null,
                "is_occluded": null,
                "is_site_boundary": null
            },
            "geometry": {
                "type": "Polygon",
                "coordinates": [
                    [
                        [
                            -46.444789884167534,
                            -23.447283321522285
                        ],
                        [
                            -46.44434038469101,
                            -23.449892823524983
                        ],
                        [
                            -46.44298071209835,
                            -23.44970499363948
                        ],
                        [
                            -46.44288191809375,
                            -23.446609558736725
                        ],
                        [
                            -46.444789884167534,
                            -23.447283321522285
                        ]
                    ]
                ]
            }
        }
    ]
}