{
    "type": "FeatureCollection",
    "features": [
        {
            "type": "Feature",
            "properties": {
                "type": "site",
                "region_id": "BR_C000",
                "version": "2.0.0",
                "mgrs": "23KLP",
                "model_content": "annotation",
                "start_date": "2017-08-30",
                "end_date": "2021-04-11",
                "originator": "iMERIT",
                "site_id": "BR_C000_0223",
                "status": "positive_pending",
                "validated": "False",
                "score": 0.0,
                "misc_info": {
                    "commit_hash": "b8980b308111f4d719b33abcdfd4475cdb0511ce"
                }
            },
            "geometry": {
                "type": "Polygon",
                "coordinates": [
                    [
                        [
                            -46.7435970038148,
                            -23.528680315919345
                        ],
                        [
                            -46.74259629283258,
                            -23.527869228932705
                        ],
                        [
                            -46.742023507870954,
                            -23.528470048006643
                        ],
                        [
                            -46.74302138908135,
                            -23.529278843735806
                        ],
                        [
                            -46.7435970038148,
                            -23.528680315919345
                        ]
                    ]
                ]
            }
        },
        {
            "type": "Feature",
            "properties": {
                "type": "observation",
                "score": 0.0,
                "observation_date": "2017-08-30",
                "source": null,
                "sensor_name": null,
                "current_phase": null,
                "is_occluded": null,
                "is_site_boundary": null
            },
            "geometry": {
                "type": "Polygon",
                "coordinates": [
                    [
                        [
                            -46.7435970038148,
                            -23.528680315919345
                        ],
                        [
                            -46.74259629283258,
                            -23.527869228932705
                        ],
                        [
                            -46.742023507870954,
                            -23.528470048006643
                        ],
                        [
                            -46.74302138908135,
                            -23.529278843735806
                        ],
                        [
                            -46.7435970038148,
                            -23.528680315919345
                        ]
                    ]
                ]
            }
        },
        {
            "type": "Feature",
            "properties": {
                "type": "observation",
                "score": 0.0,
                "observation_date": "2021-04-11",
                "source": null,
                "sensor_name": null,
                "current_phase": null,
                "is_occluded": null,
                "is_site_boundary": null
            },
            "geometry": {
                "type": "Polygon",
                "coordinates": [
                    [
                        [
                            -46.7435970038148,
                            -23.528680315919345
                        ],
                        [
                            -46.74259629283258,
                            -23.527869228932705
                        ],
                        [
                            -46.742023507870954,
                            -23.528470048006643
                        ],
                        [
                            -46.74302138908135,
                            -23.529278843735806
                        ],
                        [
                            -46.7435970038148,
                            -23.528680315919345
                        ]
                    ]
                ]
            }
        }
    ]
}