{
    "type": "FeatureCollection",
    "features": [
        {
            "type": "Feature",
            "properties": {
                "type": "site",
                "region_id": "BR_C000",
                "version": "2.0.1",
                "mgrs": "23KLP",
                "model_content": "annotation",
                "start_date": "2020-10-23",
                "end_date": "2021-11-22",
                "originator": "iMERIT",
                "site_id": "BR_C000_0083",
                "status": "positive_pending",
                "validated": "False",
                "score": 0.0,
                "misc_info": {
                    "commit_hash": "b8980b308111f4d719b33abcdfd4475cdb0511ce"
                }
            },
            "geometry": {
                "type": "Polygon",
                "coordinates": [
                    [
                        [
                            -46.878690645570465,
                            -23.61769112847761
                        ],
                        [
                            -46.8773308965136,
                            -23.61712037344718
                        ],
                        [
                            -46.87751516756477,
                            -23.61678259300127
                        ],
                        [
                            -46.87886800376618,
                            -23.61735988318229
                        ],
                        [
                            -46.878690645570465,
                            -23.61769112847761
                        ]
                    ]
                ]
            }
        },
        {
            "type": "Feature",
            "properties": {
                "type": "observation",
                "score": 0.0,
                "observation_date": "2020-10-23",
                "source": null,
                "sensor_name": null,
                "current_phase": null,
                "is_occluded": null,
                "is_site_boundary": null
            },
            "geometry": {
                "type": "Polygon",
                "coordinates": [
                    [
                        [
                            -46.878690645570465,
                            -23.61769112847761
                        ],
                        [
                            -46.8773308965136,
                            -23.61712037344718
                        ],
                        [
                            -46.87751516756477,
                            -23.61678259300127
                        ],
                        [
                            -46.87886800376618,
                            -23.61735988318229
                        ],
                        [
                            -46.878690645570465,
                            -23.61769112847761
                        ]
                    ]
                ]
            }
        },
        {
            "type": "Feature",
            "properties": {
                "type": "observation",
                "score": 0.0,
                "observation_date": "2021-11-22",
                "source": null,
                "sensor_name": null,
                "current_phase": null,
                "is_occluded": null,
                "is_site_boundary": null
            },
            "geometry": {
                "type": "Polygon",
                "coordinates": [
                    [
                        [
                            -46.878690645570465,
                            -23.61769112847761
                        ],
                        [
                            -46.8773308965136,
                            -23.61712037344718
                        ],
                        [
                            -46.87751516756477,
                            -23.61678259300127
                        ],
                        [
                            -46.87886800376618,
                            -23.61735988318229
                        ],
                        [
                            -46.878690645570465,
                            -23.61769112847761
                        ]
                    ]
                ]
            }
        }
    ]
}