{
    "type": "FeatureCollection",
    "features": [
        {
            "type": "Feature",
            "properties": {
                "type": "site",
                "region_id": "BR_C000",
                "version": "2.0.0",
                "mgrs": "23KLP",
                "model_content": "annotation",
                "start_date": "2018-07-16",
                "end_date": "2020-03-27",
                "originator": "iMERIT",
                "site_id": "BR_C000_0614",
                "status": "positive_pending",
                "validated": "False",
                "score": 0.0,
                "misc_info": {
                    "commit_hash": "b8980b308111f4d719b33abcdfd4475cdb0511ce"
                }
            },
            "geometry": {
                "type": "Polygon",
                "coordinates": [
                    [
                        [
                            -46.43091226407078,
                            -23.56242568729911
                        ],
                        [
                            -46.42958444921831,
                            -23.56300829993846
                        ],
                        [
                            -46.43063450688225,
                            -23.5649119528647
                        ],
                        [
                            -46.43184037955439,
                            -23.564403860446664
                        ],
                        [
                            -46.43091226407078,
                            -23.56242568729911
                        ]
                    ]
                ]
            }
        },
        {
            "type": "Feature",
            "properties": {
                "type": "observation",
                "score": 0.0,
                "observation_date": "2018-07-16",
                "source": null,
                "sensor_name": null,
                "current_phase": null,
                "is_occluded": null,
                "is_site_boundary": null
            },
            "geometry": {
                "type": "Polygon",
                "coordinates": [
                    [
                        [
                            -46.43091226407078,
                            -23.56242568729911
                        ],
                        [
                            -46.42958444921831,
                            -23.56300829993846
                        ],
                        [
                            -46.43063450688225,
                            -23.5649119528647
                        ],
                        [
                            -46.43184037955439,
                            -23.564403860446664
                        ],
                        [
                            -46.43091226407078,
                            -23.56242568729911
                        ]
                    ]
                ]
            }
        },
        {
            "type": "Feature",
            "properties": {
                "type": "observation",
                "score": 0.0,
                "observation_date": "2020-03-27",
                "source": null,
                "sensor_name": null,
                "current_phase": null,
                "is_occluded": null,
                "is_site_boundary": null
            },
            "geometry": {
                "type": "Polygon",
                "coordinates": [
                    [
                        [
                            -46.43091226407078,
                            -23.56242568729911
                        ],
                        [
                            -46.42958444921831,
                            -23.56300829993846
                        ],
                        [
                            -46.43063450688225,
                            -23.5649119528647
                        ],
                        [
                            -46.43184037955439,
                            -23.564403860446664
                        ],
                        [
                            -46.43091226407078,
                            -23.56242568729911
                        ]
                    ]
                ]
            }
        }
    ]
}