{
    "type": "FeatureCollection",
    "features": [
        {
            "type": "Feature",
            "properties": {
                "type": "site",
                "region_id": "BR_C000",
                "version": "2.0.0",
                "mgrs": "23KLP",
                "model_content": "annotation",
                "start_date": "2020-04-26",
                "end_date": null,
                "originator": "iMERIT",
                "site_id": "BR_C000_0554",
                "status": "positive_pending",
                "validated": "False",
                "score": 0.0,
                "misc_info": {
                    "commit_hash": "b8980b308111f4d719b33abcdfd4475cdb0511ce"
                }
            },
            "geometry": {
                "type": "Polygon",
                "coordinates": [
                    [
                        [
                            -46.32531197558966,
                            -23.53941753172088
                        ],
                        [
                            -46.32509365778559,
                            -23.53890390703133
                        ],
                        [
                            -46.32386442430866,
                            -23.53930249501995
                        ],
                        [
                            -46.32365917728475,
                            -23.53881370859562
                        ],
                        [
                            -46.32250878214833,
                            -23.53920951598537
                        ],
                        [
                            -46.32298514823682,
                            -23.54024697345346
                        ],
                        [
                            -46.32531197558966,
                            -23.53941753172088
                        ]
                    ]
                ]
            }
        },
        {
            "type": "Feature",
            "properties": {
                "type": "observation",
                "score": 0.0,
                "observation_date": "2020-04-26",
                "source": null,
                "sensor_name": null,
                "current_phase": null,
                "is_occluded": null,
                "is_site_boundary": null
            },
            "geometry": {
                "type": "Polygon",
                "coordinates": [
                    [
                        [
                            -46.32531197558966,
                            -23.53941753172088
                        ],
                        [
                            -46.32509365778559,
                            -23.53890390703133
                        ],
                        [
                            -46.32386442430866,
                            -23.53930249501995
                        ],
                        [
                            -46.32365917728475,
                            -23.53881370859562
                        ],
                        [
                            -46.32250878214833,
                            -23.53920951598537
                        ],
                        [
                            -46.32298514823682,
                            -23.54024697345346
                        ],
                        [
                            -46.32531197558966,
                            -23.53941753172088
                        ]
                    ]
                ]
            }
        },
        {
            "type": "Feature",
            "properties": {
                "type": "observation",
                "score": 0.0,
                "observation_date": null,
                "source": null,
                "sensor_name": null,
                "current_phase": null,
                "is_occluded": null,
                "is_site_boundary": null
            },
            "geometry": {
                "type": "Polygon",
                "coordinates": [
                    [
                        [
                            -46.32531197558966,
                            -23.53941753172088
                        ],
                        [
                            -46.32509365778559,
                            -23.53890390703133
                        ],
                        [
                            -46.32386442430866,
                            -23.53930249501995
                        ],
                        [
                            -46.32365917728475,
                            -23.53881370859562
                        ],
                        [
                            -46.32250878214833,
                            -23.53920951598537
                        ],
                        [
                            -46.32298514823682,
                            -23.54024697345346
                        ],
                        [
                            -46.32531197558966,
                            -23.53941753172088
                        ]
                    ]
                ]
            }
        }
    ]
}