{
    "type": "FeatureCollection",
    "features": [
        {
            "type": "Feature",
            "properties": {
                "type": "site",
                "region_id": "BR_C000",
                "version": "2.0.1",
                "mgrs": "23JLP",
                "model_content": "annotation",
                "start_date": "2018-04-07",
                "end_date": "2020-03-22",
                "originator": "iMERIT",
                "site_id": "BR_C000_0011",
                "status": "positive_pending",
                "validated": "False",
                "score": 0.0,
                "misc_info": {
                    "commit_hash": "b8980b308111f4d719b33abcdfd4475cdb0511ce"
                }
            },
            "geometry": {
                "type": "Polygon",
                "coordinates": [
                    [
                        [
                            -46.53357906433284,
                            -24.04266899317661
                        ],
                        [
                            -46.532460375001094,
                            -24.042050173904776
                        ],
                        [
                            -46.53136810117047,
                            -24.04273906479361
                        ],
                        [
                            -46.53132332811236,
                            -24.042830047860548
                        ],
                        [
                            -46.53132435176736,
                            -24.042916361897145
                        ],
                        [
                            -46.53135963563863,
                            -24.04299180579959
                        ],
                        [
                            -46.53238068191995,
                            -24.043562842307026
                        ],
                        [
                            -46.53357906433284,
                            -24.04266899317661
                        ]
                    ]
                ]
            }
        },
        {
            "type": "Feature",
            "properties": {
                "type": "observation",
                "score": 0.0,
                "observation_date": "2018-04-07",
                "source": null,
                "sensor_name": null,
                "current_phase": null,
                "is_occluded": null,
                "is_site_boundary": null
            },
            "geometry": {
                "type": "Polygon",
                "coordinates": [
                    [
                        [
                            -46.53357906433284,
                            -24.04266899317661
                        ],
                        [
                            -46.532460375001094,
                            -24.042050173904776
                        ],
                        [
                            -46.53136810117047,
                            -24.04273906479361
                        ],
                        [
                            -46.53132332811236,
                            -24.042830047860548
                        ],
                        [
                            -46.53132435176736,
                            -24.042916361897145
                        ],
                        [
                            -46.53135963563863,
                            -24.04299180579959
                        ],
                        [
                            -46.53238068191995,
                            -24.043562842307026
                        ],
                        [
                            -46.53357906433284,
                            -24.04266899317661
                        ]
                    ]
                ]
            }
        },
        {
            "type": "Feature",
            "properties": {
                "type": "observation",
                "score": 0.0,
                "observation_date": "2020-03-22",
                "source": null,
                "sensor_name": null,
                "current_phase": null,
                "is_occluded": null,
                "is_site_boundary": null
            },
            "geometry": {
                "type": "Polygon",
                "coordinates": [
                    [
                        [
                            -46.53357906433284,
                            -24.04266899317661
                        ],
                        [
                            -46.532460375001094,
                            -24.042050173904776
                        ],
                        [
                            -46.53136810117047,
                            -24.04273906479361
                        ],
                        [
                            -46.53132332811236,
                            -24.042830047860548
                        ],
                        [
                            -46.53132435176736,
                            -24.042916361897145
                        ],
                        [
                            -46.53135963563863,
                            -24.04299180579959
                        ],
                        [
                            -46.53238068191995,
                            -24.043562842307026
                        ],
                        [
                            -46.53357906433284,
                            -24.04266899317661
                        ]
                    ]
                ]
            }
        }
    ]
}