{
    "type": "FeatureCollection",
    "features": [
        {
            "type": "Feature",
            "properties": {
                "type": "site",
                "region_id": "BR_C000",
                "version": "2.0.1",
                "mgrs": "23KLP",
                "model_content": "annotation",
                "start_date": "2020-08-04",
                "end_date": "2022-05-21",
                "originator": "iMERIT",
                "site_id": "BR_C000_0436",
                "status": "positive_pending",
                "validated": "False",
                "score": 0.0,
                "misc_info": {
                    "commit_hash": "b8980b308111f4d719b33abcdfd4475cdb0511ce"
                }
            },
            "geometry": {
                "type": "Polygon",
                "coordinates": [
                    [
                        [
                            -46.6001363696249,
                            -23.648075860260832
                        ],
                        [
                            -46.59927741345386,
                            -23.648885063186608
                        ],
                        [
                            -46.59984051086309,
                            -23.64945092312429
                        ],
                        [
                            -46.60069874554925,
                            -23.64858244023752
                        ],
                        [
                            -46.6001363696249,
                            -23.648075860260832
                        ]
                    ]
                ]
            }
        },
        {
            "type": "Feature",
            "properties": {
                "type": "observation",
                "score": 0.0,
                "observation_date": "2020-08-04",
                "source": null,
                "sensor_name": null,
                "current_phase": null,
                "is_occluded": null,
                "is_site_boundary": null
            },
            "geometry": {
                "type": "Polygon",
                "coordinates": [
                    [
                        [
                            -46.6001363696249,
                            -23.648075860260832
                        ],
                        [
                            -46.59927741345386,
                            -23.648885063186608
                        ],
                        [
                            -46.59984051086309,
                            -23.64945092312429
                        ],
                        [
                            -46.60069874554925,
                            -23.64858244023752
                        ],
                        [
                            -46.6001363696249,
                            -23.648075860260832
                        ]
                    ]
                ]
            }
        },
        {
            "type": "Feature",
            "properties": {
                "type": "observation",
                "score": 0.0,
                "observation_date": "2022-05-21",
                "source": null,
                "sensor_name": null,
                "current_phase": null,
                "is_occluded": null,
                "is_site_boundary": null
            },
            "geometry": {
                "type": "Polygon",
                "coordinates": [
                    [
                        [
                            -46.6001363696249,
                            -23.648075860260832
                        ],
                        [
                            -46.59927741345386,
                            -23.648885063186608
                        ],
                        [
                            -46.59984051086309,
                            -23.64945092312429
                        ],
                        [
                            -46.60069874554925,
                            -23.64858244023752
                        ],
                        [
                            -46.6001363696249,
                            -23.648075860260832
                        ]
                    ]
                ]
            }
        }
    ]
}