{
    "type": "FeatureCollection",
    "features": [
        {
            "type": "Feature",
            "properties": {
                "type": "site",
                "region_id": "BR_C000",
                "version": "2.0.1",
                "mgrs": "23KLP",
                "model_content": "annotation",
                "start_date": "2018-08-30",
                "end_date": "2023-04-01",
                "originator": "iMERIT",
                "site_id": "BR_C000_0619",
                "status": "positive_pending",
                "validated": "False",
                "score": 0.0,
                "misc_info": {
                    "commit_hash": "b8980b308111f4d719b33abcdfd4475cdb0511ce"
                }
            },
            "geometry": {
                "type": "Polygon",
                "coordinates": [
                    [
                        [
                            -46.4509717527348,
                            -23.57528381275819
                        ],
                        [
                            -46.44919681655446,
                            -23.57321757025818
                        ],
                        [
                            -46.44893938306266,
                            -23.573508876577854
                        ],
                        [
                            -46.45034849270201,
                            -23.57581900343852
                        ],
                        [
                            -46.4509717527348,
                            -23.57528381275819
                        ]
                    ]
                ]
            }
        },
        {
            "type": "Feature",
            "properties": {
                "type": "observation",
                "score": 0.0,
                "observation_date": "2018-08-30",
                "source": null,
                "sensor_name": null,
                "current_phase": null,
                "is_occluded": null,
                "is_site_boundary": null
            },
            "geometry": {
                "type": "Polygon",
                "coordinates": [
                    [
                        [
                            -46.4509717527348,
                            -23.57528381275819
                        ],
                        [
                            -46.44919681655446,
                            -23.57321757025818
                        ],
                        [
                            -46.44893938306266,
                            -23.573508876577854
                        ],
                        [
                            -46.45034849270201,
                            -23.57581900343852
                        ],
                        [
                            -46.4509717527348,
                            -23.57528381275819
                        ]
                    ]
                ]
            }
        },
        {
            "type": "Feature",
            "properties": {
                "type": "observation",
                "score": 0.0,
                "observation_date": "2023-04-01",
                "source": null,
                "sensor_name": null,
                "current_phase": null,
                "is_occluded": null,
                "is_site_boundary": null
            },
            "geometry": {
                "type": "Polygon",
                "coordinates": [
                    [
                        [
                            -46.4509717527348,
                            -23.57528381275819
                        ],
                        [
                            -46.44919681655446,
                            -23.57321757025818
                        ],
                        [
                            -46.44893938306266,
                            -23.573508876577854
                        ],
                        [
                            -46.45034849270201,
                            -23.57581900343852
                        ],
                        [
                            -46.4509717527348,
                            -23.57528381275819
                        ]
                    ]
                ]
            }
        }
    ]
}