{
    "type": "FeatureCollection",
    "features": [
        {
            "type": "Feature",
            "properties": {
                "type": "site",
                "region_id": "BR_C000",
                "version": "2.0.0",
                "mgrs": "23KLP",
                "model_content": "annotation",
                "start_date": "2021-06-05",
                "end_date": null,
                "originator": "iMERIT",
                "site_id": "BR_C000_0557",
                "status": "positive_pending",
                "validated": "False",
                "score": 0.0,
                "misc_info": {
                    "commit_hash": "b8980b308111f4d719b33abcdfd4475cdb0511ce"
                }
            },
            "geometry": {
                "type": "Polygon",
                "coordinates": [
                    [
                        [
                            -46.32461842987537,
                            -23.56510390616499
                        ],
                        [
                            -46.32452591153465,
                            -23.56470948260458
                        ],
                        [
                            -46.32379047022871,
                            -23.56480978916138
                        ],
                        [
                            -46.32380617693514,
                            -23.56499559783949
                        ],
                        [
                            -46.3225980161648,
                            -23.56521885255611
                        ],
                        [
                            -46.32272686037476,
                            -23.56608871684799
                        ],
                        [
                            -46.32461842987537,
                            -23.56510390616499
                        ]
                    ]
                ]
            }
        },
        {
            "type": "Feature",
            "properties": {
                "type": "observation",
                "score": 0.0,
                "observation_date": "2021-06-05",
                "source": null,
                "sensor_name": null,
                "current_phase": null,
                "is_occluded": null,
                "is_site_boundary": null
            },
            "geometry": {
                "type": "Polygon",
                "coordinates": [
                    [
                        [
                            -46.32461842987537,
                            -23.56510390616499
                        ],
                        [
                            -46.32452591153465,
                            -23.56470948260458
                        ],
                        [
                            -46.32379047022871,
                            -23.56480978916138
                        ],
                        [
                            -46.32380617693514,
                            -23.56499559783949
                        ],
                        [
                            -46.3225980161648,
                            -23.56521885255611
                        ],
                        [
                            -46.32272686037476,
                            -23.56608871684799
                        ],
                        [
                            -46.32461842987537,
                            -23.56510390616499
                        ]
                    ]
                ]
            }
        },
        {
            "type": "Feature",
            "properties": {
                "type": "observation",
                "score": 0.0,
                "observation_date": null,
                "source": null,
                "sensor_name": null,
                "current_phase": null,
                "is_occluded": null,
                "is_site_boundary": null
            },
            "geometry": {
                "type": "Polygon",
                "coordinates": [
                    [
                        [
                            -46.32461842987537,
                            -23.56510390616499
                        ],
                        [
                            -46.32452591153465,
                            -23.56470948260458
                        ],
                        [
                            -46.32379047022871,
                            -23.56480978916138
                        ],
                        [
                            -46.32380617693514,
                            -23.56499559783949
                        ],
                        [
                            -46.3225980161648,
                            -23.56521885255611
                        ],
                        [
                            -46.32272686037476,
                            -23.56608871684799
                        ],
                        [
                            -46.32461842987537,
                            -23.56510390616499
                        ]
                    ]
                ]
            }
        }
    ]
}