{
    "type": "FeatureCollection",
    "features": [
        {
            "type": "Feature",
            "properties": {
                "type": "site",
                "region_id": "BR_C000",
                "version": "2.0.0",
                "mgrs": "23KLP",
                "model_content": "annotation",
                "start_date": "2019-05-27",
                "end_date": "2020-10-13",
                "originator": "iMERIT",
                "site_id": "BR_C000_0529",
                "status": "positive_pending",
                "validated": "False",
                "score": 0.0,
                "misc_info": {
                    "commit_hash": "b8980b308111f4d719b33abcdfd4475cdb0511ce"
                }
            },
            "geometry": {
                "type": "Polygon",
                "coordinates": [
                    [
                        [
                            -46.34637609117915,
                            -23.52729230076444
                        ],
                        [
                            -46.34571820053616,
                            -23.5278328763059
                        ],
                        [
                            -46.34612851644192,
                            -23.52828529414865
                        ],
                        [
                            -46.34676241502138,
                            -23.52767599461533
                        ],
                        [
                            -46.34708430662711,
                            -23.52792498798253
                        ],
                        [
                            -46.34720820909479,
                            -23.52778663863381
                        ],
                        [
                            -46.34637609117915,
                            -23.52729230076444
                        ]
                    ]
                ]
            }
        },
        {
            "type": "Feature",
            "properties": {
                "type": "observation",
                "score": 0.0,
                "observation_date": "2019-05-27",
                "source": null,
                "sensor_name": null,
                "current_phase": null,
                "is_occluded": null,
                "is_site_boundary": null
            },
            "geometry": {
                "type": "Polygon",
                "coordinates": [
                    [
                        [
                            -46.34637609117915,
                            -23.52729230076444
                        ],
                        [
                            -46.34571820053616,
                            -23.5278328763059
                        ],
                        [
                            -46.34612851644192,
                            -23.52828529414865
                        ],
                        [
                            -46.34676241502138,
                            -23.52767599461533
                        ],
                        [
                            -46.34708430662711,
                            -23.52792498798253
                        ],
                        [
                            -46.34720820909479,
                            -23.52778663863381
                        ],
                        [
                            -46.34637609117915,
                            -23.52729230076444
                        ]
                    ]
                ]
            }
        },
        {
            "type": "Feature",
            "properties": {
                "type": "observation",
                "score": 0.0,
                "observation_date": "2020-10-13",
                "source": null,
                "sensor_name": null,
                "current_phase": null,
                "is_occluded": null,
                "is_site_boundary": null
            },
            "geometry": {
                "type": "Polygon",
                "coordinates": [
                    [
                        [
                            -46.34637609117915,
                            -23.52729230076444
                        ],
                        [
                            -46.34571820053616,
                            -23.5278328763059
                        ],
                        [
                            -46.34612851644192,
                            -23.52828529414865
                        ],
                        [
                            -46.34676241502138,
                            -23.52767599461533
                        ],
                        [
                            -46.34708430662711,
                            -23.52792498798253
                        ],
                        [
                            -46.34720820909479,
                            -23.52778663863381
                        ],
                        [
                            -46.34637609117915,
                            -23.52729230076444
                        ]
                    ]
                ]
            }
        }
    ]
}