{
    "type": "FeatureCollection",
    "features": [
        {
            "type": "Feature",
            "properties": {
                "type": "site",
                "region_id": "BR_C000",
                "version": "2.0.1",
                "mgrs": "23KLP",
                "model_content": "annotation",
                "start_date": "2016-04-17",
                "end_date": "2019-03-18",
                "originator": "iMERIT",
                "site_id": "BR_C000_0383",
                "status": "positive_pending",
                "validated": "False",
                "score": 0.0,
                "misc_info": {
                    "commit_hash": "b8980b308111f4d719b33abcdfd4475cdb0511ce"
                }
            },
            "geometry": {
                "type": "Polygon",
                "coordinates": [
                    [
                        [
                            -46.55328849437814,
                            -23.51977459206579
                        ],
                        [
                            -46.552562479072904,
                            -23.521409748511996
                        ],
                        [
                            -46.55214741245806,
                            -23.521193015352097
                        ],
                        [
                            -46.55181002328192,
                            -23.520791446060166
                        ],
                        [
                            -46.55169466003422,
                            -23.52003181232482
                        ],
                        [
                            -46.55175586568384,
                            -23.519577186031167
                        ],
                        [
                            -46.55185499790461,
                            -23.519330783741818
                        ],
                        [
                            -46.55328849437814,
                            -23.51977459206579
                        ]
                    ]
                ]
            }
        },
        {
            "type": "Feature",
            "properties": {
                "type": "observation",
                "score": 0.0,
                "observation_date": "2016-04-17",
                "source": null,
                "sensor_name": null,
                "current_phase": null,
                "is_occluded": null,
                "is_site_boundary": null
            },
            "geometry": {
                "type": "Polygon",
                "coordinates": [
                    [
                        [
                            -46.55328849437814,
                            -23.51977459206579
                        ],
                        [
                            -46.552562479072904,
                            -23.521409748511996
                        ],
                        [
                            -46.55214741245806,
                            -23.521193015352097
                        ],
                        [
                            -46.55181002328192,
                            -23.520791446060166
                        ],
                        [
                            -46.55169466003422,
                            -23.52003181232482
                        ],
                        [
                            -46.55175586568384,
                            -23.519577186031167
                        ],
                        [
                            -46.55185499790461,
                            -23.519330783741818
                        ],
                        [
                            -46.55328849437814,
                            -23.51977459206579
                        ]
                    ]
                ]
            }
        },
        {
            "type": "Feature",
            "properties": {
                "type": "observation",
                "score": 0.0,
                "observation_date": "2019-03-18",
                "source": null,
                "sensor_name": null,
                "current_phase": null,
                "is_occluded": null,
                "is_site_boundary": null
            },
            "geometry": {
                "type": "Polygon",
                "coordinates": [
                    [
                        [
                            -46.55328849437814,
                            -23.51977459206579
                        ],
                        [
                            -46.552562479072904,
                            -23.521409748511996
                        ],
                        [
                            -46.55214741245806,
                            -23.521193015352097
                        ],
                        [
                            -46.55181002328192,
                            -23.520791446060166
                        ],
                        [
                            -46.55169466003422,
                            -23.52003181232482
                        ],
                        [
                            -46.55175586568384,
                            -23.519577186031167
                        ],
                        [
                            -46.55185499790461,
                            -23.519330783741818
                        ],
                        [
                            -46.55328849437814,
                            -23.51977459206579
                        ]
                    ]
                ]
            }
        }
    ]
}