{
    "type": "FeatureCollection",
    "features": [
        {
            "type": "Feature",
            "properties": {
                "type": "site",
                "region_id": "BR_C000",
                "version": "2.0.1",
                "mgrs": "23KKP",
                "model_content": "annotation",
                "start_date": "2019-09-29",
                "end_date": "2021-05-01",
                "originator": "iMERIT",
                "site_id": "BR_C000_0042",
                "status": "positive_pending",
                "validated": "False",
                "score": 0.0,
                "misc_info": {
                    "commit_hash": "b8980b308111f4d719b33abcdfd4475cdb0511ce"
                }
            },
            "geometry": {
                "type": "Polygon",
                "coordinates": [
                    [
                        [
                            -47.017131670603284,
                            -23.633796594846867
                        ],
                        [
                            -47.0164895453693,
                            -23.632232831041772
                        ],
                        [
                            -47.01645363972252,
                            -23.632243602735805
                        ],
                        [
                            -47.01572206059111,
                            -23.63249884220587
                        ],
                        [
                            -47.015884925363245,
                            -23.633012659653456
                        ],
                        [
                            -47.01587215233448,
                            -23.6330299322719
                        ],
                        [
                            -47.01532281522586,
                            -23.63319752159505
                        ],
                        [
                            -47.01576364864999,
                            -23.63430376396126
                        ],
                        [
                            -47.016080130200734,
                            -23.634186434215618
                        ],
                        [
                            -47.017131670603284,
                            -23.633796594846867
                        ]
                    ]
                ]
            }
        },
        {
            "type": "Feature",
            "properties": {
                "type": "observation",
                "score": 0.0,
                "observation_date": "2019-09-29",
                "source": null,
                "sensor_name": null,
                "current_phase": null,
                "is_occluded": null,
                "is_site_boundary": null
            },
            "geometry": {
                "type": "Polygon",
                "coordinates": [
                    [
                        [
                            -47.017131670603284,
                            -23.633796594846867
                        ],
                        [
                            -47.0164895453693,
                            -23.632232831041772
                        ],
                        [
                            -47.01645363972252,
                            -23.632243602735805
                        ],
                        [
                            -47.01572206059111,
                            -23.63249884220587
                        ],
                        [
                            -47.015884925363245,
                            -23.633012659653456
                        ],
                        [
                            -47.01587215233448,
                            -23.6330299322719
                        ],
                        [
                            -47.01532281522586,
                            -23.63319752159505
                        ],
                        [
                            -47.01576364864999,
                            -23.63430376396126
                        ],
                        [
                            -47.016080130200734,
                            -23.634186434215618
                        ],
                        [
                            -47.017131670603284,
                            -23.633796594846867
                        ]
                    ]
                ]
            }
        },
        {
            "type": "Feature",
            "properties": {
                "type": "observation",
                "score": 0.0,
                "observation_date": "2021-05-01",
                "source": null,
                "sensor_name": null,
                "current_phase": null,
                "is_occluded": null,
                "is_site_boundary": null
            },
            "geometry": {
                "type": "Polygon",
                "coordinates": [
                    [
                        [
                            -47.017131670603284,
                            -23.633796594846867
                        ],
                        [
                            -47.0164895453693,
                            -23.632232831041772
                        ],
                        [
                            -47.01645363972252,
                            -23.632243602735805
                        ],
                        [
                            -47.01572206059111,
                            -23.63249884220587
                        ],
                        [
                            -47.015884925363245,
                            -23.633012659653456
                        ],
                        [
                            -47.01587215233448,
                            -23.6330299322719
                        ],
                        [
                            -47.01532281522586,
                            -23.63319752159505
                        ],
                        [
                            -47.01576364864999,
                            -23.63430376396126
                        ],
                        [
                            -47.016080130200734,
                            -23.634186434215618
                        ],
                        [
                            -47.017131670603284,
                            -23.633796594846867
                        ]
                    ]
                ]
            }
        }
    ]
}