{
    "type": "FeatureCollection",
    "features": [
        {
            "type": "Feature",
            "properties": {
                "type": "site",
                "region_id": "BR_C000",
                "version": "2.0.1",
                "mgrs": "23KLQ",
                "model_content": "annotation",
                "start_date": "2017-02-22",
                "end_date": "2019-03-08",
                "originator": "iMERIT",
                "site_id": "BR_C000_0888",
                "status": "positive_pending",
                "validated": "False",
                "score": 0.0,
                "misc_info": {
                    "commit_hash": "b8980b308111f4d719b33abcdfd4475cdb0511ce"
                }
            },
            "geometry": {
                "type": "Polygon",
                "coordinates": [
                    [
                        [
                            -46.394240241900384,
                            -23.412257370663166
                        ],
                        [
                            -46.39328733998083,
                            -23.414580662326046
                        ],
                        [
                            -46.39263348850844,
                            -23.41435601617553
                        ],
                        [
                            -46.39355403925729,
                            -23.412053058128574
                        ],
                        [
                            -46.394240241900384,
                            -23.412257370663166
                        ]
                    ]
                ]
            }
        },
        {
            "type": "Feature",
            "properties": {
                "type": "observation",
                "score": 0.0,
                "observation_date": "2017-02-22",
                "source": null,
                "sensor_name": null,
                "current_phase": null,
                "is_occluded": null,
                "is_site_boundary": null
            },
            "geometry": {
                "type": "Polygon",
                "coordinates": [
                    [
                        [
                            -46.394240241900384,
                            -23.412257370663166
                        ],
                        [
                            -46.39328733998083,
                            -23.414580662326046
                        ],
                        [
                            -46.39263348850844,
                            -23.41435601617553
                        ],
                        [
                            -46.39355403925729,
                            -23.412053058128574
                        ],
                        [
                            -46.394240241900384,
                            -23.412257370663166
                        ]
                    ]
                ]
            }
        },
        {
            "type": "Feature",
            "properties": {
                "type": "observation",
                "score": 0.0,
                "observation_date": "2019-03-08",
                "source": null,
                "sensor_name": null,
                "current_phase": null,
                "is_occluded": null,
                "is_site_boundary": null
            },
            "geometry": {
                "type": "Polygon",
                "coordinates": [
                    [
                        [
                            -46.394240241900384,
                            -23.412257370663166
                        ],
                        [
                            -46.39328733998083,
                            -23.414580662326046
                        ],
                        [
                            -46.39263348850844,
                            -23.41435601617553
                        ],
                        [
                            -46.39355403925729,
                            -23.412053058128574
                        ],
                        [
                            -46.394240241900384,
                            -23.412257370663166
                        ]
                    ]
                ]
            }
        }
    ]
}