{
    "type": "FeatureCollection",
    "features": [
        {
            "type": "Feature",
            "properties": {
                "type": "site",
                "region_id": "BR_C000",
                "version": "2.0.0",
                "mgrs": "23KLP",
                "model_content": "annotation",
                "start_date": "2019-03-23",
                "end_date": "2019-10-14",
                "originator": "iMERIT",
                "site_id": "BR_C000_0302",
                "status": "positive_pending",
                "validated": "False",
                "score": 0.0,
                "misc_info": {
                    "commit_hash": "b8980b308111f4d719b33abcdfd4475cdb0511ce"
                }
            },
            "geometry": {
                "type": "Polygon",
                "coordinates": [
                    [
                        [
                            -46.76427787866302,
                            -23.53715768562135
                        ],
                        [
                            -46.76308945102451,
                            -23.537211931140007
                        ],
                        [
                            -46.76276208561178,
                            -23.538568254372166
                        ],
                        [
                            -46.76404915512054,
                            -23.5385477675508
                        ],
                        [
                            -46.76427787866302,
                            -23.53715768562135
                        ]
                    ]
                ]
            }
        },
        {
            "type": "Feature",
            "properties": {
                "type": "observation",
                "score": 0.0,
                "observation_date": "2019-03-23",
                "source": null,
                "sensor_name": null,
                "current_phase": null,
                "is_occluded": null,
                "is_site_boundary": null
            },
            "geometry": {
                "type": "Polygon",
                "coordinates": [
                    [
                        [
                            -46.76427787866302,
                            -23.53715768562135
                        ],
                        [
                            -46.76308945102451,
                            -23.537211931140007
                        ],
                        [
                            -46.76276208561178,
                            -23.538568254372166
                        ],
                        [
                            -46.76404915512054,
                            -23.5385477675508
                        ],
                        [
                            -46.76427787866302,
                            -23.53715768562135
                        ]
                    ]
                ]
            }
        },
        {
            "type": "Feature",
            "properties": {
                "type": "observation",
                "score": 0.0,
                "observation_date": "2019-10-14",
                "source": null,
                "sensor_name": null,
                "current_phase": null,
                "is_occluded": null,
                "is_site_boundary": null
            },
            "geometry": {
                "type": "Polygon",
                "coordinates": [
                    [
                        [
                            -46.76427787866302,
                            -23.53715768562135
                        ],
                        [
                            -46.76308945102451,
                            -23.537211931140007
                        ],
                        [
                            -46.76276208561178,
                            -23.538568254372166
                        ],
                        [
                            -46.76404915512054,
                            -23.5385477675508
                        ],
                        [
                            -46.76427787866302,
                            -23.53715768562135
                        ]
                    ]
                ]
            }
        }
    ]
}