{
    "type": "FeatureCollection",
    "features": [
        {
            "type": "Feature",
            "properties": {
                "type": "site",
                "region_id": "BR_C000",
                "version": "2.0.1",
                "mgrs": "23KLP",
                "model_content": "annotation",
                "start_date": "2019-10-04",
                "end_date": "2022-06-05",
                "originator": "iMERIT",
                "site_id": "BR_C000_0516",
                "status": "positive_pending",
                "validated": "False",
                "score": 0.0,
                "misc_info": {
                    "commit_hash": "b8980b308111f4d719b33abcdfd4475cdb0511ce"
                }
            },
            "geometry": {
                "type": "Polygon",
                "coordinates": [
                    [
                        [
                            -46.562208879651656,
                            -23.710551099448832
                        ],
                        [
                            -46.56231534491717,
                            -23.710498587037492
                        ],
                        [
                            -46.56248317733642,
                            -23.71041580618879
                        ],
                        [
                            -46.56292153904676,
                            -23.710215486594155
                        ],
                        [
                            -46.56300026304971,
                            -23.71020098480414
                        ],
                        [
                            -46.56316504100445,
                            -23.71020312680785
                        ],
                        [
                            -46.563298585587205,
                            -23.71024449017419
                        ],
                        [
                            -46.56384136687069,
                            -23.710491020604476
                        ],
                        [
                            -46.5643986499442,
                            -23.71084942198632
                        ],
                        [
                            -46.5644504420514,
                            -23.710901214093525
                        ],
                        [
                            -46.56456240551182,
                            -23.711287718093867
                        ],
                        [
                            -46.564578610048166,
                            -23.711339078326056
                        ],
                        [
                            -46.56400552849003,
                            -23.711322909455074
                        ],
                        [
                            -46.56329395008035,
                            -23.711289706802837
                        ],
                        [
                            -46.56204976478761,
                            -23.711231652411318
                        ],
                        [
                            -46.56198306606425,
                            -23.71122854021105
                        ],
                        [
                            -46.56204236700708,
                            -23.71099277705908
                        ],
                        [
                            -46.56210991522398,
                            -23.710724225164885
                        ],
                        [
                            -46.562208879651656,
                            -23.710551099448832
                        ]
                    ]
                ]
            }
        },
        {
            "type": "Feature",
            "properties": {
                "type": "observation",
                "score": 0.0,
                "observation_date": "2019-10-04",
                "source": null,
                "sensor_name": null,
                "current_phase": null,
                "is_occluded": null,
                "is_site_boundary": null
            },
            "geometry": {
                "type": "Polygon",
                "coordinates": [
                    [
                        [
                            -46.562208879651656,
                            -23.710551099448832
                        ],
                        [
                            -46.56231534491717,
                            -23.710498587037492
                        ],
                        [
                            -46.56248317733642,
                            -23.71041580618879
                        ],
                        [
                            -46.56292153904676,
                            -23.710215486594155
                        ],
                        [
                            -46.56300026304971,
                            -23.71020098480414
                        ],
                        [
                            -46.56316504100445,
                            -23.71020312680785
                        ],
                        [
                            -46.563298585587205,
                            -23.71024449017419
                        ],
                        [
                            -46.56384136687069,
                            -23.710491020604476
                        ],
                        [
                            -46.5643986499442,
                            -23.71084942198632
                        ],
                        [
                            -46.5644504420514,
                            -23.710901214093525
                        ],
                        [
                            -46.56456240551182,
                            -23.711287718093867
                        ],
                        [
                            -46.564578610048166,
                            -23.711339078326056
                        ],
                        [
                            -46.56400552849003,
                            -23.711322909455074
                        ],
                        [
                            -46.56329395008035,
                            -23.711289706802837
                        ],
                        [
                            -46.56204976478761,
                            -23.711231652411318
                        ],
                        [
                            -46.56198306606425,
                            -23.71122854021105
                        ],
                        [
                            -46.56204236700708,
                            -23.71099277705908
                        ],
                        [
                            -46.56210991522398,
                            -23.710724225164885
                        ],
                        [
                            -46.562208879651656,
                            -23.710551099448832
                        ]
                    ]
                ]
            }
        },
        {
            "type": "Feature",
            "properties": {
                "type": "observation",
                "score": 0.0,
                "observation_date": "2022-06-05",
                "source": null,
                "sensor_name": null,
                "current_phase": null,
                "is_occluded": null,
                "is_site_boundary": null
            },
            "geometry": {
                "type": "Polygon",
                "coordinates": [
                    [
                        [
                            -46.562208879651656,
                            -23.710551099448832
                        ],
                        [
                            -46.56231534491717,
                            -23.710498587037492
                        ],
                        [
                            -46.56248317733642,
                            -23.71041580618879
                        ],
                        [
                            -46.56292153904676,
                            -23.710215486594155
                        ],
                        [
                            -46.56300026304971,
                            -23.71020098480414
                        ],
                        [
                            -46.56316504100445,
                            -23.71020312680785
                        ],
                        [
                            -46.563298585587205,
                            -23.71024449017419
                        ],
                        [
                            -46.56384136687069,
                            -23.710491020604476
                        ],
                        [
                            -46.5643986499442,
                            -23.71084942198632
                        ],
                        [
                            -46.5644504420514,
                            -23.710901214093525
                        ],
                        [
                            -46.56456240551182,
                            -23.711287718093867
                        ],
                        [
                            -46.564578610048166,
                            -23.711339078326056
                        ],
                        [
                            -46.56400552849003,
                            -23.711322909455074
                        ],
                        [
                            -46.56329395008035,
                            -23.711289706802837
                        ],
                        [
                            -46.56204976478761,
                            -23.711231652411318
                        ],
                        [
                            -46.56198306606425,
                            -23.71122854021105
                        ],
                        [
                            -46.56204236700708,
                            -23.71099277705908
                        ],
                        [
                            -46.56210991522398,
                            -23.710724225164885
                        ],
                        [
                            -46.562208879651656,
                            -23.710551099448832
                        ]
                    ]
                ]
            }
        }
    ]
}