{
    "type": "FeatureCollection",
    "features": [
        {
            "type": "Feature",
            "properties": {
                "type": "site",
                "region_id": "BR_C000",
                "version": "2.0.0",
                "mgrs": "23KLP",
                "model_content": "annotation",
                "start_date": "2020-04-06",
                "end_date": "2020-08-04",
                "originator": "iMERIT",
                "site_id": "BR_C000_0025",
                "status": "positive_pending",
                "validated": "False",
                "score": 0.0,
                "misc_info": {
                    "commit_hash": "b8980b308111f4d719b33abcdfd4475cdb0511ce"
                }
            },
            "geometry": {
                "type": "Polygon",
                "coordinates": [
                    [
                        [
                            -46.327483200697955,
                            -23.956690290636086
                        ],
                        [
                            -46.32746024155125,
                            -23.9563085125749
                        ],
                        [
                            -46.3274526923721,
                            -23.956182980427936
                        ],
                        [
                            -46.32743572755453,
                            -23.95590087956229
                        ],
                        [
                            -46.32676323279117,
                            -23.955908554684836
                        ],
                        [
                            -46.32678403383011,
                            -23.95611794946759
                        ],
                        [
                            -46.32651924391097,
                            -23.95612369007733
                        ],
                        [
                            -46.32650929444434,
                            -23.956294412151856
                        ],
                        [
                            -46.326494116706556,
                            -23.95655484569845
                        ],
                        [
                            -46.32699976571629,
                            -23.95653523392547
                        ],
                        [
                            -46.32700155955189,
                            -23.956710498930665
                        ],
                        [
                            -46.32705754949941,
                            -23.956708149751485
                        ],
                        [
                            -46.327483200697955,
                            -23.956690290636086
                        ]
                    ]
                ]
            }
        },
        {
            "type": "Feature",
            "properties": {
                "type": "observation",
                "score": 0.0,
                "observation_date": "2020-04-06",
                "source": null,
                "sensor_name": null,
                "current_phase": null,
                "is_occluded": null,
                "is_site_boundary": null
            },
            "geometry": {
                "type": "Polygon",
                "coordinates": [
                    [
                        [
                            -46.327483200697955,
                            -23.956690290636086
                        ],
                        [
                            -46.32746024155125,
                            -23.9563085125749
                        ],
                        [
                            -46.3274526923721,
                            -23.956182980427936
                        ],
                        [
                            -46.32743572755453,
                            -23.95590087956229
                        ],
                        [
                            -46.32676323279117,
                            -23.955908554684836
                        ],
                        [
                            -46.32678403383011,
                            -23.95611794946759
                        ],
                        [
                            -46.32651924391097,
                            -23.95612369007733
                        ],
                        [
                            -46.32650929444434,
                            -23.956294412151856
                        ],
                        [
                            -46.326494116706556,
                            -23.95655484569845
                        ],
                        [
                            -46.32699976571629,
                            -23.95653523392547
                        ],
                        [
                            -46.32700155955189,
                            -23.956710498930665
                        ],
                        [
                            -46.32705754949941,
                            -23.956708149751485
                        ],
                        [
                            -46.327483200697955,
                            -23.956690290636086
                        ]
                    ]
                ]
            }
        },
        {
            "type": "Feature",
            "properties": {
                "type": "observation",
                "score": 0.0,
                "observation_date": "2020-08-04",
                "source": null,
                "sensor_name": null,
                "current_phase": null,
                "is_occluded": null,
                "is_site_boundary": null
            },
            "geometry": {
                "type": "Polygon",
                "coordinates": [
                    [
                        [
                            -46.327483200697955,
                            -23.956690290636086
                        ],
                        [
                            -46.32746024155125,
                            -23.9563085125749
                        ],
                        [
                            -46.3274526923721,
                            -23.956182980427936
                        ],
                        [
                            -46.32743572755453,
                            -23.95590087956229
                        ],
                        [
                            -46.32676323279117,
                            -23.955908554684836
                        ],
                        [
                            -46.32678403383011,
                            -23.95611794946759
                        ],
                        [
                            -46.32651924391097,
                            -23.95612369007733
                        ],
                        [
                            -46.32650929444434,
                            -23.956294412151856
                        ],
                        [
                            -46.326494116706556,
                            -23.95655484569845
                        ],
                        [
                            -46.32699976571629,
                            -23.95653523392547
                        ],
                        [
                            -46.32700155955189,
                            -23.956710498930665
                        ],
                        [
                            -46.32705754949941,
                            -23.956708149751485
                        ],
                        [
                            -46.327483200697955,
                            -23.956690290636086
                        ]
                    ]
                ]
            }
        }
    ]
}