{
    "type": "FeatureCollection",
    "features": [
        {
            "type": "Feature",
            "properties": {
                "type": "site",
                "region_id": "BR_C000",
                "version": "2.0.1",
                "mgrs": "23KLQ",
                "model_content": "annotation",
                "start_date": "2021-01-31",
                "end_date": "2022-05-26",
                "originator": "iMERIT",
                "site_id": "BR_C000_0875",
                "status": "positive_pending",
                "validated": "False",
                "score": 0.0,
                "misc_info": {
                    "commit_hash": "b8980b308111f4d719b33abcdfd4475cdb0511ce"
                }
            },
            "geometry": {
                "type": "Polygon",
                "coordinates": [
                    [
                        [
                            -46.443817894696686,
                            -23.455779714760855
                        ],
                        [
                            -46.44002283654279,
                            -23.458380053749842
                        ],
                        [
                            -46.439144560418825,
                            -23.45801990465357
                        ],
                        [
                            -46.43882762055001,
                            -23.45733892626686
                        ],
                        [
                            -46.44153511567404,
                            -23.454608382447145
                        ],
                        [
                            -46.44329623545018,
                            -23.454752427045094
                        ],
                        [
                            -46.443817894696686,
                            -23.455779714760855
                        ]
                    ]
                ]
            }
        },
        {
            "type": "Feature",
            "properties": {
                "type": "observation",
                "score": 0.0,
                "observation_date": "2021-01-31",
                "source": null,
                "sensor_name": null,
                "current_phase": null,
                "is_occluded": null,
                "is_site_boundary": null
            },
            "geometry": {
                "type": "Polygon",
                "coordinates": [
                    [
                        [
                            -46.443817894696686,
                            -23.455779714760855
                        ],
                        [
                            -46.44002283654279,
                            -23.458380053749842
                        ],
                        [
                            -46.439144560418825,
                            -23.45801990465357
                        ],
                        [
                            -46.43882762055001,
                            -23.45733892626686
                        ],
                        [
                            -46.44153511567404,
                            -23.454608382447145
                        ],
                        [
                            -46.44329623545018,
                            -23.454752427045094
                        ],
                        [
                            -46.443817894696686,
                            -23.455779714760855
                        ]
                    ]
                ]
            }
        },
        {
            "type": "Feature",
            "properties": {
                "type": "observation",
                "score": 0.0,
                "observation_date": "2022-05-26",
                "source": null,
                "sensor_name": null,
                "current_phase": null,
                "is_occluded": null,
                "is_site_boundary": null
            },
            "geometry": {
                "type": "Polygon",
                "coordinates": [
                    [
                        [
                            -46.443817894696686,
                            -23.455779714760855
                        ],
                        [
                            -46.44002283654279,
                            -23.458380053749842
                        ],
                        [
                            -46.439144560418825,
                            -23.45801990465357
                        ],
                        [
                            -46.43882762055001,
                            -23.45733892626686
                        ],
                        [
                            -46.44153511567404,
                            -23.454608382447145
                        ],
                        [
                            -46.44329623545018,
                            -23.454752427045094
                        ],
                        [
                            -46.443817894696686,
                            -23.455779714760855
                        ]
                    ]
                ]
            }
        }
    ]
}