{
    "type": "FeatureCollection",
    "features": [
        {
            "type": "Feature",
            "properties": {
                "type": "site",
                "region_id": "BR_C000",
                "version": "2.0.1",
                "mgrs": "23KKQ",
                "model_content": "annotation",
                "start_date": "2017-09-19",
                "end_date": "2020-11-07",
                "originator": "iMERIT",
                "site_id": "BR_C000_0138",
                "status": "positive_pending",
                "validated": "False",
                "score": 0.0,
                "misc_info": {
                    "commit_hash": "b8980b308111f4d719b33abcdfd4475cdb0511ce"
                }
            },
            "geometry": {
                "type": "Polygon",
                "coordinates": [
                    [
                        [
                            -47.0354201413779,
                            -23.43871026355796
                        ],
                        [
                            -47.035434076857705,
                            -23.438691233810452
                        ],
                        [
                            -47.035756216469096,
                            -23.4383060711259
                        ],
                        [
                            -47.03538547210473,
                            -23.437980049510085
                        ],
                        [
                            -47.03518303981132,
                            -23.438138635326197
                        ],
                        [
                            -47.03482998235638,
                            -23.437859529513915
                        ],
                        [
                            -47.03499180804878,
                            -23.43772251853236
                        ],
                        [
                            -47.03477047264597,
                            -23.437517538549628
                        ],
                        [
                            -47.03470338600197,
                            -23.437502158845426
                        ],
                        [
                            -47.034205532616525,
                            -23.4379656580512
                        ],
                        [
                            -47.03497793638786,
                            -23.438739743890633
                        ],
                        [
                            -47.0354201413779,
                            -23.43871026355796
                        ]
                    ]
                ]
            }
        },
        {
            "type": "Feature",
            "properties": {
                "type": "observation",
                "score": 0.0,
                "observation_date": "2017-09-19",
                "source": null,
                "sensor_name": null,
                "current_phase": null,
                "is_occluded": null,
                "is_site_boundary": null
            },
            "geometry": {
                "type": "Polygon",
                "coordinates": [
                    [
                        [
                            -47.0354201413779,
                            -23.43871026355796
                        ],
                        [
                            -47.035434076857705,
                            -23.438691233810452
                        ],
                        [
                            -47.035756216469096,
                            -23.4383060711259
                        ],
                        [
                            -47.03538547210473,
                            -23.437980049510085
                        ],
                        [
                            -47.03518303981132,
                            -23.438138635326197
                        ],
                        [
                            -47.03482998235638,
                            -23.437859529513915
                        ],
                        [
                            -47.03499180804878,
                            -23.43772251853236
                        ],
                        [
                            -47.03477047264597,
                            -23.437517538549628
                        ],
                        [
                            -47.03470338600197,
                            -23.437502158845426
                        ],
                        [
                            -47.034205532616525,
                            -23.4379656580512
                        ],
                        [
                            -47.03497793638786,
                            -23.438739743890633
                        ],
                        [
                            -47.0354201413779,
                            -23.43871026355796
                        ]
                    ]
                ]
            }
        },
        {
            "type": "Feature",
            "properties": {
                "type": "observation",
                "score": 0.0,
                "observation_date": "2020-11-07",
                "source": null,
                "sensor_name": null,
                "current_phase": null,
                "is_occluded": null,
                "is_site_boundary": null
            },
            "geometry": {
                "type": "Polygon",
                "coordinates": [
                    [
                        [
                            -47.0354201413779,
                            -23.43871026355796
                        ],
                        [
                            -47.035434076857705,
                            -23.438691233810452
                        ],
                        [
                            -47.035756216469096,
                            -23.4383060711259
                        ],
                        [
                            -47.03538547210473,
                            -23.437980049510085
                        ],
                        [
                            -47.03518303981132,
                            -23.438138635326197
                        ],
                        [
                            -47.03482998235638,
                            -23.437859529513915
                        ],
                        [
                            -47.03499180804878,
                            -23.43772251853236
                        ],
                        [
                            -47.03477047264597,
                            -23.437517538549628
                        ],
                        [
                            -47.03470338600197,
                            -23.437502158845426
                        ],
                        [
                            -47.034205532616525,
                            -23.4379656580512
                        ],
                        [
                            -47.03497793638786,
                            -23.438739743890633
                        ],
                        [
                            -47.0354201413779,
                            -23.43871026355796
                        ]
                    ]
                ]
            }
        }
    ]
}