{
    "type": "FeatureCollection",
    "features": [
        {
            "type": "Feature",
            "properties": {
                "type": "site",
                "region_id": "BR_C000",
                "version": "2.0.1",
                "mgrs": "23KKP",
                "model_content": "annotation",
                "start_date": "2021-02-03",
                "end_date": null,
                "originator": "iMERIT",
                "site_id": "BR_C000_0055",
                "status": "positive_pending",
                "validated": "False",
                "score": 0.0,
                "misc_info": {
                    "commit_hash": "b8980b308111f4d719b33abcdfd4475cdb0511ce"
                }
            },
            "geometry": {
                "type": "Polygon",
                "coordinates": [
                    [
                        [
                            -46.96433377563616,
                            -23.632968787271288
                        ],
                        [
                            -46.96444190458925,
                            -23.631014148503926
                        ],
                        [
                            -46.96405929444755,
                            -23.630972560445045
                        ],
                        [
                            -46.96405097683578,
                            -23.630456868514933
                        ],
                        [
                            -46.963111086705084,
                            -23.630431915679605
                        ],
                        [
                            -46.96281165268115,
                            -23.630656491197556
                        ],
                        [
                            -46.960715614513596,
                            -23.630922654774388
                        ],
                        [
                            -46.960898601972666,
                            -23.633609243378043
                        ],
                        [
                            -46.96104000137286,
                            -23.63432455799078
                        ],
                        [
                            -46.96356023774099,
                            -23.634266334708347
                        ],
                        [
                            -46.963701637141185,
                            -23.63313513950681
                        ],
                        [
                            -46.96433377563616,
                            -23.632968787271288
                        ]
                    ]
                ]
            }
        },
        {
            "type": "Feature",
            "properties": {
                "type": "observation",
                "score": 0.0,
                "observation_date": "2021-02-03",
                "source": null,
                "sensor_name": null,
                "current_phase": null,
                "is_occluded": null,
                "is_site_boundary": null
            },
            "geometry": {
                "type": "Polygon",
                "coordinates": [
                    [
                        [
                            -46.96433377563616,
                            -23.632968787271288
                        ],
                        [
                            -46.96444190458925,
                            -23.631014148503926
                        ],
                        [
                            -46.96405929444755,
                            -23.630972560445045
                        ],
                        [
                            -46.96405097683578,
                            -23.630456868514933
                        ],
                        [
                            -46.963111086705084,
                            -23.630431915679605
                        ],
                        [
                            -46.96281165268115,
                            -23.630656491197556
                        ],
                        [
                            -46.960715614513596,
                            -23.630922654774388
                        ],
                        [
                            -46.960898601972666,
                            -23.633609243378043
                        ],
                        [
                            -46.96104000137286,
                            -23.63432455799078
                        ],
                        [
                            -46.96356023774099,
                            -23.634266334708347
                        ],
                        [
                            -46.963701637141185,
                            -23.63313513950681
                        ],
                        [
                            -46.96433377563616,
                            -23.632968787271288
                        ]
                    ]
                ]
            }
        },
        {
            "type": "Feature",
            "properties": {
                "type": "observation",
                "score": 0.0,
                "observation_date": null,
                "source": null,
                "sensor_name": null,
                "current_phase": null,
                "is_occluded": null,
                "is_site_boundary": null
            },
            "geometry": {
                "type": "Polygon",
                "coordinates": [
                    [
                        [
                            -46.96433377563616,
                            -23.632968787271288
                        ],
                        [
                            -46.96444190458925,
                            -23.631014148503926
                        ],
                        [
                            -46.96405929444755,
                            -23.630972560445045
                        ],
                        [
                            -46.96405097683578,
                            -23.630456868514933
                        ],
                        [
                            -46.963111086705084,
                            -23.630431915679605
                        ],
                        [
                            -46.96281165268115,
                            -23.630656491197556
                        ],
                        [
                            -46.960715614513596,
                            -23.630922654774388
                        ],
                        [
                            -46.960898601972666,
                            -23.633609243378043
                        ],
                        [
                            -46.96104000137286,
                            -23.63432455799078
                        ],
                        [
                            -46.96356023774099,
                            -23.634266334708347
                        ],
                        [
                            -46.963701637141185,
                            -23.63313513950681
                        ],
                        [
                            -46.96433377563616,
                            -23.632968787271288
                        ]
                    ]
                ]
            }
        }
    ]
}