{
    "type": "FeatureCollection",
    "features": [
        {
            "type": "Feature",
            "properties": {
                "type": "site",
                "region_id": "BR_C000",
                "version": "2.0.0",
                "mgrs": "23KLP",
                "model_content": "annotation",
                "start_date": "2018-08-20",
                "end_date": "2019-01-27",
                "originator": "iMERIT",
                "site_id": "BR_C000_0417",
                "status": "positive_pending",
                "validated": "False",
                "score": 0.0,
                "misc_info": {
                    "commit_hash": "b8980b308111f4d719b33abcdfd4475cdb0511ce"
                }
            },
            "geometry": {
                "type": "Polygon",
                "coordinates": [
                    [
                        [
                            -46.569099210101136,
                            -23.71232328847986
                        ],
                        [
                            -46.56906092051366,
                            -23.71335659536964
                        ],
                        [
                            -46.56993681728055,
                            -23.71335680102575
                        ],
                        [
                            -46.569943047330185,
                            -23.71234509769403
                        ],
                        [
                            -46.569099210101136,
                            -23.71232328847986
                        ]
                    ]
                ]
            }
        },
        {
            "type": "Feature",
            "properties": {
                "type": "observation",
                "score": 0.0,
                "observation_date": "2018-08-20",
                "source": null,
                "sensor_name": null,
                "current_phase": null,
                "is_occluded": null,
                "is_site_boundary": null
            },
            "geometry": {
                "type": "Polygon",
                "coordinates": [
                    [
                        [
                            -46.569099210101136,
                            -23.71232328847986
                        ],
                        [
                            -46.56906092051366,
                            -23.71335659536964
                        ],
                        [
                            -46.56993681728055,
                            -23.71335680102575
                        ],
                        [
                            -46.569943047330185,
                            -23.71234509769403
                        ],
                        [
                            -46.569099210101136,
                            -23.71232328847986
                        ]
                    ]
                ]
            }
        },
        {
            "type": "Feature",
            "properties": {
                "type": "observation",
                "score": 0.0,
                "observation_date": "2019-01-27",
                "source": null,
                "sensor_name": null,
                "current_phase": null,
                "is_occluded": null,
                "is_site_boundary": null
            },
            "geometry": {
                "type": "Polygon",
                "coordinates": [
                    [
                        [
                            -46.569099210101136,
                            -23.71232328847986
                        ],
                        [
                            -46.56906092051366,
                            -23.71335659536964
                        ],
                        [
                            -46.56993681728055,
                            -23.71335680102575
                        ],
                        [
                            -46.569943047330185,
                            -23.71234509769403
                        ],
                        [
                            -46.569099210101136,
                            -23.71232328847986
                        ]
                    ]
                ]
            }
        }
    ]
}