{
    "type": "FeatureCollection",
    "features": [
        {
            "type": "Feature",
            "properties": {
                "type": "site",
                "region_id": "BR_C000",
                "version": "2.0.1",
                "mgrs": "23JLP",
                "model_content": "annotation",
                "start_date": "2019-04-27",
                "end_date": "2021-03-22",
                "originator": "iMERIT",
                "site_id": "BR_C000_0008",
                "status": "positive_pending",
                "validated": "False",
                "score": 0.0,
                "misc_info": {
                    "commit_hash": "b8980b308111f4d719b33abcdfd4475cdb0511ce"
                }
            },
            "geometry": {
                "type": "Polygon",
                "coordinates": [
                    [
                        [
                            -46.47400302012188,
                            -24.011439934380217
                        ],
                        [
                            -46.47519320220915,
                            -24.011975433190365
                        ],
                        [
                            -46.47510071406332,
                            -24.012213259851062
                        ],
                        [
                            -46.475042578657366,
                            -24.012555465990626
                        ],
                        [
                            -46.475049845583115,
                            -24.012871907575267
                        ],
                        [
                            -46.47354830336348,
                            -24.012193590235718
                        ],
                        [
                            -46.47375699343037,
                            -24.012004500893337
                        ],
                        [
                            -46.47400302012188,
                            -24.011439934380217
                        ]
                    ]
                ]
            }
        },
        {
            "type": "Feature",
            "properties": {
                "type": "observation",
                "score": 0.0,
                "observation_date": "2019-04-27",
                "source": null,
                "sensor_name": null,
                "current_phase": null,
                "is_occluded": null,
                "is_site_boundary": null
            },
            "geometry": {
                "type": "Polygon",
                "coordinates": [
                    [
                        [
                            -46.47400302012188,
                            -24.011439934380217
                        ],
                        [
                            -46.47519320220915,
                            -24.011975433190365
                        ],
                        [
                            -46.47510071406332,
                            -24.012213259851062
                        ],
                        [
                            -46.475042578657366,
                            -24.012555465990626
                        ],
                        [
                            -46.475049845583115,
                            -24.012871907575267
                        ],
                        [
                            -46.47354830336348,
                            -24.012193590235718
                        ],
                        [
                            -46.47375699343037,
                            -24.012004500893337
                        ],
                        [
                            -46.47400302012188,
                            -24.011439934380217
                        ]
                    ]
                ]
            }
        },
        {
            "type": "Feature",
            "properties": {
                "type": "observation",
                "score": 0.0,
                "observation_date": "2021-03-22",
                "source": null,
                "sensor_name": null,
                "current_phase": null,
                "is_occluded": null,
                "is_site_boundary": null
            },
            "geometry": {
                "type": "Polygon",
                "coordinates": [
                    [
                        [
                            -46.47400302012188,
                            -24.011439934380217
                        ],
                        [
                            -46.47519320220915,
                            -24.011975433190365
                        ],
                        [
                            -46.47510071406332,
                            -24.012213259851062
                        ],
                        [
                            -46.475042578657366,
                            -24.012555465990626
                        ],
                        [
                            -46.475049845583115,
                            -24.012871907575267
                        ],
                        [
                            -46.47354830336348,
                            -24.012193590235718
                        ],
                        [
                            -46.47375699343037,
                            -24.012004500893337
                        ],
                        [
                            -46.47400302012188,
                            -24.011439934380217
                        ]
                    ]
                ]
            }
        }
    ]
}