{
    "type": "FeatureCollection",
    "features": [
        {
            "type": "Feature",
            "properties": {
                "type": "site",
                "region_id": "BR_C000",
                "version": "2.0.0",
                "mgrs": "23KLP",
                "model_content": "annotation",
                "start_date": "2020-11-07",
                "end_date": null,
                "originator": "iMERIT",
                "site_id": "BR_C000_0452",
                "status": "positive_pending",
                "validated": "False",
                "score": 0.0,
                "misc_info": {
                    "commit_hash": "b8980b308111f4d719b33abcdfd4475cdb0511ce"
                }
            },
            "geometry": {
                "type": "Polygon",
                "coordinates": [
                    [
                        [
                            -46.58049519224183,
                            -23.646390032918198
                        ],
                        [
                            -46.57952315356607,
                            -23.64475115361265
                        ],
                        [
                            -46.57890937958284,
                            -23.645302955162215
                        ],
                        [
                            -46.57985425378272,
                            -23.646951112014303
                        ],
                        [
                            -46.5799880651502,
                            -23.6469794272472
                        ],
                        [
                            -46.58049519224183,
                            -23.646390032918198
                        ]
                    ]
                ]
            }
        },
        {
            "type": "Feature",
            "properties": {
                "type": "observation",
                "score": 0.0,
                "observation_date": "2020-11-07",
                "source": null,
                "sensor_name": null,
                "current_phase": null,
                "is_occluded": null,
                "is_site_boundary": null
            },
            "geometry": {
                "type": "Polygon",
                "coordinates": [
                    [
                        [
                            -46.58049519224183,
                            -23.646390032918198
                        ],
                        [
                            -46.57952315356607,
                            -23.64475115361265
                        ],
                        [
                            -46.57890937958284,
                            -23.645302955162215
                        ],
                        [
                            -46.57985425378272,
                            -23.646951112014303
                        ],
                        [
                            -46.5799880651502,
                            -23.6469794272472
                        ],
                        [
                            -46.58049519224183,
                            -23.646390032918198
                        ]
                    ]
                ]
            }
        },
        {
            "type": "Feature",
            "properties": {
                "type": "observation",
                "score": 0.0,
                "observation_date": null,
                "source": null,
                "sensor_name": null,
                "current_phase": null,
                "is_occluded": null,
                "is_site_boundary": null
            },
            "geometry": {
                "type": "Polygon",
                "coordinates": [
                    [
                        [
                            -46.58049519224183,
                            -23.646390032918198
                        ],
                        [
                            -46.57952315356607,
                            -23.64475115361265
                        ],
                        [
                            -46.57890937958284,
                            -23.645302955162215
                        ],
                        [
                            -46.57985425378272,
                            -23.646951112014303
                        ],
                        [
                            -46.5799880651502,
                            -23.6469794272472
                        ],
                        [
                            -46.58049519224183,
                            -23.646390032918198
                        ]
                    ]
                ]
            }
        }
    ]
}