{
    "type": "FeatureCollection",
    "features": [
        {
            "type": "Feature",
            "properties": {
                "type": "site",
                "region_id": "BR_C000",
                "version": "2.0.1",
                "mgrs": "23KLQ",
                "model_content": "annotation",
                "start_date": "2016-07-06",
                "end_date": "2020-04-06",
                "originator": "iMERIT",
                "site_id": "BR_C000_0798",
                "status": "positive_pending",
                "validated": "False",
                "score": 0.0,
                "misc_info": {
                    "commit_hash": "b8980b308111f4d719b33abcdfd4475cdb0511ce"
                }
            },
            "geometry": {
                "type": "Polygon",
                "coordinates": [
                    [
                        [
                            -46.345092215899435,
                            -23.46363692104661
                        ],
                        [
                            -46.3450189997557,
                            -23.464238690109013
                        ],
                        [
                            -46.34373691355427,
                            -23.464831445086997
                        ],
                        [
                            -46.34384284524419,
                            -23.46408434057471
                        ],
                        [
                            -46.345092215899435,
                            -23.46363692104661
                        ]
                    ]
                ]
            }
        },
        {
            "type": "Feature",
            "properties": {
                "type": "observation",
                "score": 0.0,
                "observation_date": "2016-07-06",
                "source": null,
                "sensor_name": null,
                "current_phase": null,
                "is_occluded": null,
                "is_site_boundary": null
            },
            "geometry": {
                "type": "Polygon",
                "coordinates": [
                    [
                        [
                            -46.345092215899435,
                            -23.46363692104661
                        ],
                        [
                            -46.3450189997557,
                            -23.464238690109013
                        ],
                        [
                            -46.34373691355427,
                            -23.464831445086997
                        ],
                        [
                            -46.34384284524419,
                            -23.46408434057471
                        ],
                        [
                            -46.345092215899435,
                            -23.46363692104661
                        ]
                    ]
                ]
            }
        },
        {
            "type": "Feature",
            "properties": {
                "type": "observation",
                "score": 0.0,
                "observation_date": "2020-04-06",
                "source": null,
                "sensor_name": null,
                "current_phase": null,
                "is_occluded": null,
                "is_site_boundary": null
            },
            "geometry": {
                "type": "Polygon",
                "coordinates": [
                    [
                        [
                            -46.345092215899435,
                            -23.46363692104661
                        ],
                        [
                            -46.3450189997557,
                            -23.464238690109013
                        ],
                        [
                            -46.34373691355427,
                            -23.464831445086997
                        ],
                        [
                            -46.34384284524419,
                            -23.46408434057471
                        ],
                        [
                            -46.345092215899435,
                            -23.46363692104661
                        ]
                    ]
                ]
            }
        }
    ]
}