{
    "type": "FeatureCollection",
    "features": [
        {
            "type": "Feature",
            "properties": {
                "type": "site",
                "region_id": "BR_C000",
                "version": "2.0.1",
                "mgrs": "23KLQ",
                "model_content": "annotation",
                "start_date": "2019-01-27",
                "end_date": "2021-10-23",
                "originator": "iMERIT",
                "site_id": "BR_C000_0841",
                "status": "positive_pending",
                "validated": "False",
                "score": 0.0,
                "misc_info": {
                    "commit_hash": "b8980b308111f4d719b33abcdfd4475cdb0511ce"
                }
            },
            "geometry": {
                "type": "Polygon",
                "coordinates": [
                    [
                        [
                            -46.37512924455752,
                            -23.483436339017075
                        ],
                        [
                            -46.37403487701333,
                            -23.48253182393899
                        ],
                        [
                            -46.373552066037796,
                            -23.48325779049544
                        ],
                        [
                            -46.37472779573221,
                            -23.483959512170536
                        ],
                        [
                            -46.37512924455752,
                            -23.483436339017075
                        ]
                    ]
                ]
            }
        },
        {
            "type": "Feature",
            "properties": {
                "type": "observation",
                "score": 0.0,
                "observation_date": "2019-01-27",
                "source": null,
                "sensor_name": null,
                "current_phase": null,
                "is_occluded": null,
                "is_site_boundary": null
            },
            "geometry": {
                "type": "Polygon",
                "coordinates": [
                    [
                        [
                            -46.37512924455752,
                            -23.483436339017075
                        ],
                        [
                            -46.37403487701333,
                            -23.48253182393899
                        ],
                        [
                            -46.373552066037796,
                            -23.48325779049544
                        ],
                        [
                            -46.37472779573221,
                            -23.483959512170536
                        ],
                        [
                            -46.37512924455752,
                            -23.483436339017075
                        ]
                    ]
                ]
            }
        },
        {
            "type": "Feature",
            "properties": {
                "type": "observation",
                "score": 0.0,
                "observation_date": "2021-10-23",
                "source": null,
                "sensor_name": null,
                "current_phase": null,
                "is_occluded": null,
                "is_site_boundary": null
            },
            "geometry": {
                "type": "Polygon",
                "coordinates": [
                    [
                        [
                            -46.37512924455752,
                            -23.483436339017075
                        ],
                        [
                            -46.37403487701333,
                            -23.48253182393899
                        ],
                        [
                            -46.373552066037796,
                            -23.48325779049544
                        ],
                        [
                            -46.37472779573221,
                            -23.483959512170536
                        ],
                        [
                            -46.37512924455752,
                            -23.483436339017075
                        ]
                    ]
                ]
            }
        }
    ]
}