{
    "type": "FeatureCollection",
    "features": [
        {
            "type": "Feature",
            "properties": {
                "type": "site",
                "region_id": "BR_C000",
                "version": "2.0.0",
                "mgrs": "23KLP",
                "model_content": "annotation",
                "start_date": "2017-07-06",
                "end_date": "2020-11-07",
                "originator": "iMERIT",
                "site_id": "BR_C000_0336",
                "status": "positive_pending",
                "validated": "False",
                "score": 0.0,
                "misc_info": {
                    "commit_hash": "b8980b308111f4d719b33abcdfd4475cdb0511ce"
                }
            },
            "geometry": {
                "type": "Polygon",
                "coordinates": [
                    [
                        [
                            -46.84150840160744,
                            -23.579951154423764
                        ],
                        [
                            -46.84182198558847,
                            -23.579266609348
                        ],
                        [
                            -46.841462158682624,
                            -23.578628540001446
                        ],
                        [
                            -46.840620151056655,
                            -23.5794780568554
                        ],
                        [
                            -46.84150840160744,
                            -23.579951154423764
                        ]
                    ]
                ]
            }
        },
        {
            "type": "Feature",
            "properties": {
                "type": "observation",
                "score": 0.0,
                "observation_date": "2017-07-06",
                "source": null,
                "sensor_name": null,
                "current_phase": null,
                "is_occluded": null,
                "is_site_boundary": null
            },
            "geometry": {
                "type": "Polygon",
                "coordinates": [
                    [
                        [
                            -46.84150840160744,
                            -23.579951154423764
                        ],
                        [
                            -46.84182198558847,
                            -23.579266609348
                        ],
                        [
                            -46.841462158682624,
                            -23.578628540001446
                        ],
                        [
                            -46.840620151056655,
                            -23.5794780568554
                        ],
                        [
                            -46.84150840160744,
                            -23.579951154423764
                        ]
                    ]
                ]
            }
        },
        {
            "type": "Feature",
            "properties": {
                "type": "observation",
                "score": 0.0,
                "observation_date": "2020-11-07",
                "source": null,
                "sensor_name": null,
                "current_phase": null,
                "is_occluded": null,
                "is_site_boundary": null
            },
            "geometry": {
                "type": "Polygon",
                "coordinates": [
                    [
                        [
                            -46.84150840160744,
                            -23.579951154423764
                        ],
                        [
                            -46.84182198558847,
                            -23.579266609348
                        ],
                        [
                            -46.841462158682624,
                            -23.578628540001446
                        ],
                        [
                            -46.840620151056655,
                            -23.5794780568554
                        ],
                        [
                            -46.84150840160744,
                            -23.579951154423764
                        ]
                    ]
                ]
            }
        }
    ]
}