{
    "type": "FeatureCollection",
    "features": [
        {
            "type": "Feature",
            "properties": {
                "type": "site",
                "region_id": "BR_C000",
                "version": "2.0.1",
                "mgrs": "23KLP",
                "model_content": "annotation",
                "start_date": "2019-09-19",
                "end_date": "2022-01-16",
                "originator": "iMERIT",
                "site_id": "BR_C000_0396",
                "status": "positive_pending",
                "validated": "False",
                "score": 0.0,
                "misc_info": {
                    "commit_hash": "b8980b308111f4d719b33abcdfd4475cdb0511ce"
                }
            },
            "geometry": {
                "type": "Polygon",
                "coordinates": [
                    [
                        [
                            -46.524530041029415,
                            -23.522493842158728
                        ],
                        [
                            -46.52439310026616,
                            -23.52186937199231
                        ],
                        [
                            -46.52523144727164,
                            -23.521578930779867
                        ],
                        [
                            -46.5255932109318,
                            -23.5223699202316
                        ],
                        [
                            -46.524530041029415,
                            -23.522493842158728
                        ]
                    ]
                ]
            }
        },
        {
            "type": "Feature",
            "properties": {
                "type": "observation",
                "score": 0.0,
                "observation_date": "2019-09-19",
                "source": null,
                "sensor_name": null,
                "current_phase": null,
                "is_occluded": null,
                "is_site_boundary": null
            },
            "geometry": {
                "type": "Polygon",
                "coordinates": [
                    [
                        [
                            -46.524530041029415,
                            -23.522493842158728
                        ],
                        [
                            -46.52439310026616,
                            -23.52186937199231
                        ],
                        [
                            -46.52523144727164,
                            -23.521578930779867
                        ],
                        [
                            -46.5255932109318,
                            -23.5223699202316
                        ],
                        [
                            -46.524530041029415,
                            -23.522493842158728
                        ]
                    ]
                ]
            }
        },
        {
            "type": "Feature",
            "properties": {
                "type": "observation",
                "score": 0.0,
                "observation_date": "2022-01-16",
                "source": null,
                "sensor_name": null,
                "current_phase": null,
                "is_occluded": null,
                "is_site_boundary": null
            },
            "geometry": {
                "type": "Polygon",
                "coordinates": [
                    [
                        [
                            -46.524530041029415,
                            -23.522493842158728
                        ],
                        [
                            -46.52439310026616,
                            -23.52186937199231
                        ],
                        [
                            -46.52523144727164,
                            -23.521578930779867
                        ],
                        [
                            -46.5255932109318,
                            -23.5223699202316
                        ],
                        [
                            -46.524530041029415,
                            -23.522493842158728
                        ]
                    ]
                ]
            }
        }
    ]
}