{
    "type": "FeatureCollection",
    "features": [
        {
            "type": "Feature",
            "properties": {
                "type": "site",
                "region_id": "BR_C000",
                "version": "2.0.0",
                "mgrs": "23KLP",
                "model_content": "annotation",
                "start_date": "2020-10-23",
                "end_date": null,
                "originator": "iMERIT",
                "site_id": "BR_C000_0191",
                "status": "positive_pending",
                "validated": "False",
                "score": 0.0,
                "misc_info": {
                    "commit_hash": "b8980b308111f4d719b33abcdfd4475cdb0511ce"
                }
            },
            "geometry": {
                "type": "Polygon",
                "coordinates": [
                    [
                        [
                            -46.71314658168961,
                            -23.62382967565224
                        ],
                        [
                            -46.710929908100084,
                            -23.623813130880983
                        ],
                        [
                            -46.71093273584556,
                            -23.623345608140717
                        ],
                        [
                            -46.70974912379745,
                            -23.623366858955695
                        ],
                        [
                            -46.70974209762276,
                            -23.622825630122207
                        ],
                        [
                            -46.71212497912707,
                            -23.622618915160924
                        ],
                        [
                            -46.71325140265454,
                            -23.622991954903945
                        ],
                        [
                            -46.71314658168961,
                            -23.62382967565224
                        ]
                    ]
                ]
            }
        },
        {
            "type": "Feature",
            "properties": {
                "type": "observation",
                "score": 0.0,
                "observation_date": "2020-10-23",
                "source": null,
                "sensor_name": null,
                "current_phase": null,
                "is_occluded": null,
                "is_site_boundary": null
            },
            "geometry": {
                "type": "Polygon",
                "coordinates": [
                    [
                        [
                            -46.71314658168961,
                            -23.62382967565224
                        ],
                        [
                            -46.710929908100084,
                            -23.623813130880983
                        ],
                        [
                            -46.71093273584556,
                            -23.623345608140717
                        ],
                        [
                            -46.70974912379745,
                            -23.623366858955695
                        ],
                        [
                            -46.70974209762276,
                            -23.622825630122207
                        ],
                        [
                            -46.71212497912707,
                            -23.622618915160924
                        ],
                        [
                            -46.71325140265454,
                            -23.622991954903945
                        ],
                        [
                            -46.71314658168961,
                            -23.62382967565224
                        ]
                    ]
                ]
            }
        },
        {
            "type": "Feature",
            "properties": {
                "type": "observation",
                "score": 0.0,
                "observation_date": null,
                "source": null,
                "sensor_name": null,
                "current_phase": null,
                "is_occluded": null,
                "is_site_boundary": null
            },
            "geometry": {
                "type": "Polygon",
                "coordinates": [
                    [
                        [
                            -46.71314658168961,
                            -23.62382967565224
                        ],
                        [
                            -46.710929908100084,
                            -23.623813130880983
                        ],
                        [
                            -46.71093273584556,
                            -23.623345608140717
                        ],
                        [
                            -46.70974912379745,
                            -23.623366858955695
                        ],
                        [
                            -46.70974209762276,
                            -23.622825630122207
                        ],
                        [
                            -46.71212497912707,
                            -23.622618915160924
                        ],
                        [
                            -46.71325140265454,
                            -23.622991954903945
                        ],
                        [
                            -46.71314658168961,
                            -23.62382967565224
                        ]
                    ]
                ]
            }
        }
    ]
}