{
    "type": "FeatureCollection",
    "features": [
        {
            "type": "Feature",
            "properties": {
                "type": "site",
                "region_id": "BR_C000",
                "version": "2.0.1",
                "mgrs": "23KLQ",
                "model_content": "annotation",
                "start_date": "2021-07-16",
                "end_date": "2021-09-18",
                "originator": "iMERIT",
                "site_id": "BR_C000_0686",
                "status": "positive_pending",
                "validated": "False",
                "score": 0.0,
                "misc_info": {
                    "commit_hash": "b8980b308111f4d719b33abcdfd4475cdb0511ce"
                }
            },
            "geometry": {
                "type": "Polygon",
                "coordinates": [
                    [
                        [
                            -46.57648889172101,
                            -23.31131971611272
                        ],
                        [
                            -46.57719641975748,
                            -23.31013957604883
                        ],
                        [
                            -46.57627769068344,
                            -23.30973953835129
                        ],
                        [
                            -46.57589529450816,
                            -23.31034500158075
                        ],
                        [
                            -46.5761610405075,
                            -23.31135276563021
                        ],
                        [
                            -46.57648889172101,
                            -23.31131971611272
                        ]
                    ]
                ]
            }
        },
        {
            "type": "Feature",
            "properties": {
                "type": "observation",
                "score": 0.0,
                "observation_date": "2021-07-16",
                "source": null,
                "sensor_name": null,
                "current_phase": null,
                "is_occluded": null,
                "is_site_boundary": null
            },
            "geometry": {
                "type": "Polygon",
                "coordinates": [
                    [
                        [
                            -46.57648889172101,
                            -23.31131971611272
                        ],
                        [
                            -46.57719641975748,
                            -23.31013957604883
                        ],
                        [
                            -46.57627769068344,
                            -23.30973953835129
                        ],
                        [
                            -46.57589529450816,
                            -23.31034500158075
                        ],
                        [
                            -46.5761610405075,
                            -23.31135276563021
                        ],
                        [
                            -46.57648889172101,
                            -23.31131971611272
                        ]
                    ]
                ]
            }
        },
        {
            "type": "Feature",
            "properties": {
                "type": "observation",
                "score": 0.0,
                "observation_date": "2021-09-18",
                "source": null,
                "sensor_name": null,
                "current_phase": null,
                "is_occluded": null,
                "is_site_boundary": null
            },
            "geometry": {
                "type": "Polygon",
                "coordinates": [
                    [
                        [
                            -46.57648889172101,
                            -23.31131971611272
                        ],
                        [
                            -46.57719641975748,
                            -23.31013957604883
                        ],
                        [
                            -46.57627769068344,
                            -23.30973953835129
                        ],
                        [
                            -46.57589529450816,
                            -23.31034500158075
                        ],
                        [
                            -46.5761610405075,
                            -23.31135276563021
                        ],
                        [
                            -46.57648889172101,
                            -23.31131971611272
                        ]
                    ]
                ]
            }
        }
    ]
}