{
    "type": "FeatureCollection",
    "features": [
        {
            "type": "Feature",
            "properties": {
                "type": "site",
                "region_id": "BR_C000",
                "version": "2.0.1",
                "mgrs": "23KLP",
                "model_content": "annotation",
                "start_date": "2015-08-30",
                "end_date": "2018-11-28",
                "originator": "iMERIT",
                "site_id": "BR_C000_0466",
                "status": "positive_pending",
                "validated": "False",
                "score": 0.0,
                "misc_info": {
                    "commit_hash": "b8980b308111f4d719b33abcdfd4475cdb0511ce"
                }
            },
            "geometry": {
                "type": "Polygon",
                "coordinates": [
                    [
                        [
                            -46.623917802444694,
                            -23.554154650286204
                        ],
                        [
                            -46.623484737138874,
                            -23.554193697158038
                        ],
                        [
                            -46.623511360006034,
                            -23.554475899549946
                        ],
                        [
                            -46.62319721017353,
                            -23.554506072132728
                        ],
                        [
                            -46.62316526273294,
                            -23.554758101941854
                        ],
                        [
                            -46.62289903406133,
                            -23.554717280212206
                        ],
                        [
                            -46.62287418605198,
                            -23.555024330613463
                        ],
                        [
                            -46.623310801073416,
                            -23.5554272233365
                        ],
                        [
                            -46.62404026763363,
                            -23.554806023102742
                        ],
                        [
                            -46.623917802444694,
                            -23.554154650286204
                        ]
                    ]
                ]
            }
        },
        {
            "type": "Feature",
            "properties": {
                "type": "observation",
                "score": 0.0,
                "observation_date": "2015-08-30",
                "source": null,
                "sensor_name": null,
                "current_phase": null,
                "is_occluded": null,
                "is_site_boundary": null
            },
            "geometry": {
                "type": "Polygon",
                "coordinates": [
                    [
                        [
                            -46.623917802444694,
                            -23.554154650286204
                        ],
                        [
                            -46.623484737138874,
                            -23.554193697158038
                        ],
                        [
                            -46.623511360006034,
                            -23.554475899549946
                        ],
                        [
                            -46.62319721017353,
                            -23.554506072132728
                        ],
                        [
                            -46.62316526273294,
                            -23.554758101941854
                        ],
                        [
                            -46.62289903406133,
                            -23.554717280212206
                        ],
                        [
                            -46.62287418605198,
                            -23.555024330613463
                        ],
                        [
                            -46.623310801073416,
                            -23.5554272233365
                        ],
                        [
                            -46.62404026763363,
                            -23.554806023102742
                        ],
                        [
                            -46.623917802444694,
                            -23.554154650286204
                        ]
                    ]
                ]
            }
        },
        {
            "type": "Feature",
            "properties": {
                "type": "observation",
                "score": 0.0,
                "observation_date": "2018-11-28",
                "source": null,
                "sensor_name": null,
                "current_phase": null,
                "is_occluded": null,
                "is_site_boundary": null
            },
            "geometry": {
                "type": "Polygon",
                "coordinates": [
                    [
                        [
                            -46.623917802444694,
                            -23.554154650286204
                        ],
                        [
                            -46.623484737138874,
                            -23.554193697158038
                        ],
                        [
                            -46.623511360006034,
                            -23.554475899549946
                        ],
                        [
                            -46.62319721017353,
                            -23.554506072132728
                        ],
                        [
                            -46.62316526273294,
                            -23.554758101941854
                        ],
                        [
                            -46.62289903406133,
                            -23.554717280212206
                        ],
                        [
                            -46.62287418605198,
                            -23.555024330613463
                        ],
                        [
                            -46.623310801073416,
                            -23.5554272233365
                        ],
                        [
                            -46.62404026763363,
                            -23.554806023102742
                        ],
                        [
                            -46.623917802444694,
                            -23.554154650286204
                        ]
                    ]
                ]
            }
        }
    ]
}