{
    "type": "FeatureCollection",
    "features": [
        {
            "type": "Feature",
            "properties": {
                "type": "site",
                "region_id": "BR_C000",
                "version": "2.0.1",
                "mgrs": "23KLQ",
                "model_content": "annotation",
                "start_date": "2017-11-13",
                "end_date": "2019-04-27",
                "originator": "iMERIT",
                "site_id": "BR_C000_0862",
                "status": "positive_pending",
                "validated": "False",
                "score": 0.0,
                "misc_info": {
                    "commit_hash": "b8980b308111f4d719b33abcdfd4475cdb0511ce"
                }
            },
            "geometry": {
                "type": "Polygon",
                "coordinates": [
                    [
                        [
                            -46.46447631313016,
                            -23.49063606008094
                        ],
                        [
                            -46.46290842636434,
                            -23.491866308307376
                        ],
                        [
                            -46.462396504679255,
                            -23.491336285238674
                        ],
                        [
                            -46.46398418578487,
                            -23.489989166299598
                        ],
                        [
                            -46.46447631313016,
                            -23.49063606008094
                        ]
                    ]
                ]
            }
        },
        {
            "type": "Feature",
            "properties": {
                "type": "observation",
                "score": 0.0,
                "observation_date": "2017-11-13",
                "source": null,
                "sensor_name": null,
                "current_phase": null,
                "is_occluded": null,
                "is_site_boundary": null
            },
            "geometry": {
                "type": "Polygon",
                "coordinates": [
                    [
                        [
                            -46.46447631313016,
                            -23.49063606008094
                        ],
                        [
                            -46.46290842636434,
                            -23.491866308307376
                        ],
                        [
                            -46.462396504679255,
                            -23.491336285238674
                        ],
                        [
                            -46.46398418578487,
                            -23.489989166299598
                        ],
                        [
                            -46.46447631313016,
                            -23.49063606008094
                        ]
                    ]
                ]
            }
        },
        {
            "type": "Feature",
            "properties": {
                "type": "observation",
                "score": 0.0,
                "observation_date": "2019-04-27",
                "source": null,
                "sensor_name": null,
                "current_phase": null,
                "is_occluded": null,
                "is_site_boundary": null
            },
            "geometry": {
                "type": "Polygon",
                "coordinates": [
                    [
                        [
                            -46.46447631313016,
                            -23.49063606008094
                        ],
                        [
                            -46.46290842636434,
                            -23.491866308307376
                        ],
                        [
                            -46.462396504679255,
                            -23.491336285238674
                        ],
                        [
                            -46.46398418578487,
                            -23.489989166299598
                        ],
                        [
                            -46.46447631313016,
                            -23.49063606008094
                        ]
                    ]
                ]
            }
        }
    ]
}