{
    "type": "FeatureCollection",
    "features": [
        {
            "type": "Feature",
            "properties": {
                "type": "site",
                "region_id": "BR_C000",
                "version": "2.0.1",
                "mgrs": "23KLQ",
                "model_content": "annotation",
                "start_date": "2018-07-01",
                "end_date": "2019-02-01",
                "originator": "iMERIT",
                "site_id": "BR_C000_0831",
                "status": "positive_pending",
                "validated": "False",
                "score": 0.0,
                "misc_info": {
                    "commit_hash": "b8980b308111f4d719b33abcdfd4475cdb0511ce"
                }
            },
            "geometry": {
                "type": "Polygon",
                "coordinates": [
                    [
                        [
                            -46.498318625096026,
                            -23.42799960076718
                        ],
                        [
                            -46.49725502914299,
                            -23.427223098341248
                        ],
                        [
                            -46.496879133906255,
                            -23.426777791304666
                        ],
                        [
                            -46.49746003196499,
                            -23.42607329756628
                        ],
                        [
                            -46.49785987617953,
                            -23.42565166379989
                        ],
                        [
                            -46.49866779099429,
                            -23.42521833493296
                        ],
                        [
                            -46.498318625096026,
                            -23.42799960076718
                        ]
                    ]
                ]
            }
        },
        {
            "type": "Feature",
            "properties": {
                "type": "observation",
                "score": 0.0,
                "observation_date": "2018-07-01",
                "source": null,
                "sensor_name": null,
                "current_phase": null,
                "is_occluded": null,
                "is_site_boundary": null
            },
            "geometry": {
                "type": "Polygon",
                "coordinates": [
                    [
                        [
                            -46.498318625096026,
                            -23.42799960076718
                        ],
                        [
                            -46.49725502914299,
                            -23.427223098341248
                        ],
                        [
                            -46.496879133906255,
                            -23.426777791304666
                        ],
                        [
                            -46.49746003196499,
                            -23.42607329756628
                        ],
                        [
                            -46.49785987617953,
                            -23.42565166379989
                        ],
                        [
                            -46.49866779099429,
                            -23.42521833493296
                        ],
                        [
                            -46.498318625096026,
                            -23.42799960076718
                        ]
                    ]
                ]
            }
        },
        {
            "type": "Feature",
            "properties": {
                "type": "observation",
                "score": 0.0,
                "observation_date": "2019-02-01",
                "source": null,
                "sensor_name": null,
                "current_phase": null,
                "is_occluded": null,
                "is_site_boundary": null
            },
            "geometry": {
                "type": "Polygon",
                "coordinates": [
                    [
                        [
                            -46.498318625096026,
                            -23.42799960076718
                        ],
                        [
                            -46.49725502914299,
                            -23.427223098341248
                        ],
                        [
                            -46.496879133906255,
                            -23.426777791304666
                        ],
                        [
                            -46.49746003196499,
                            -23.42607329756628
                        ],
                        [
                            -46.49785987617953,
                            -23.42565166379989
                        ],
                        [
                            -46.49866779099429,
                            -23.42521833493296
                        ],
                        [
                            -46.498318625096026,
                            -23.42799960076718
                        ]
                    ]
                ]
            }
        }
    ]
}