{
    "type": "FeatureCollection",
    "features": [
        {
            "type": "Feature",
            "properties": {
                "type": "site",
                "region_id": "BR_C000",
                "version": "2.0.1",
                "mgrs": "23KLQ",
                "model_content": "annotation",
                "start_date": "2021-01-21",
                "end_date": "2023-07-25",
                "originator": "iMERIT",
                "site_id": "BR_C000_0854",
                "status": "positive_pending",
                "validated": "False",
                "score": 0.0,
                "misc_info": {
                    "commit_hash": "b8980b308111f4d719b33abcdfd4475cdb0511ce"
                }
            },
            "geometry": {
                "type": "Polygon",
                "coordinates": [
                    [
                        [
                            -46.43996523303364,
                            -23.40845809544021
                        ],
                        [
                            -46.439382318028485,
                            -23.4097761659523
                        ],
                        [
                            -46.43764776550473,
                            -23.409020550718544
                        ],
                        [
                            -46.43822102980577,
                            -23.407812801535883
                        ],
                        [
                            -46.43996523303364,
                            -23.40845809544021
                        ]
                    ]
                ]
            }
        },
        {
            "type": "Feature",
            "properties": {
                "type": "observation",
                "score": 0.0,
                "observation_date": "2021-01-21",
                "source": null,
                "sensor_name": null,
                "current_phase": null,
                "is_occluded": null,
                "is_site_boundary": null
            },
            "geometry": {
                "type": "Polygon",
                "coordinates": [
                    [
                        [
                            -46.43996523303364,
                            -23.40845809544021
                        ],
                        [
                            -46.439382318028485,
                            -23.4097761659523
                        ],
                        [
                            -46.43764776550473,
                            -23.409020550718544
                        ],
                        [
                            -46.43822102980577,
                            -23.407812801535883
                        ],
                        [
                            -46.43996523303364,
                            -23.40845809544021
                        ]
                    ]
                ]
            }
        },
        {
            "type": "Feature",
            "properties": {
                "type": "observation",
                "score": 0.0,
                "observation_date": "2023-07-25",
                "source": null,
                "sensor_name": null,
                "current_phase": null,
                "is_occluded": null,
                "is_site_boundary": null
            },
            "geometry": {
                "type": "Polygon",
                "coordinates": [
                    [
                        [
                            -46.43996523303364,
                            -23.40845809544021
                        ],
                        [
                            -46.439382318028485,
                            -23.4097761659523
                        ],
                        [
                            -46.43764776550473,
                            -23.409020550718544
                        ],
                        [
                            -46.43822102980577,
                            -23.407812801535883
                        ],
                        [
                            -46.43996523303364,
                            -23.40845809544021
                        ]
                    ]
                ]
            }
        }
    ]
}