{
    "type": "FeatureCollection",
    "features": [
        {
            "type": "Feature",
            "properties": {
                "type": "site",
                "region_id": "BR_C000",
                "version": "2.0.0",
                "mgrs": "23KLP",
                "model_content": "annotation",
                "start_date": "2018-05-22",
                "end_date": "2020-05-31",
                "originator": "iMERIT",
                "site_id": "BR_C000_0361",
                "status": "positive_pending",
                "validated": "False",
                "score": 0.0,
                "misc_info": {
                    "commit_hash": "b8980b308111f4d719b33abcdfd4475cdb0511ce"
                }
            },
            "geometry": {
                "type": "Polygon",
                "coordinates": [
                    [
                        [
                            -46.46665548746358,
                            -23.60724853150813
                        ],
                        [
                            -46.46554203438579,
                            -23.60646174641912
                        ],
                        [
                            -46.464983549823586,
                            -23.60729991353221
                        ],
                        [
                            -46.46603004303766,
                            -23.607969875267717
                        ],
                        [
                            -46.46665548746358,
                            -23.60724853150813
                        ]
                    ]
                ]
            }
        },
        {
            "type": "Feature",
            "properties": {
                "type": "observation",
                "score": 0.0,
                "observation_date": "2018-05-22",
                "source": null,
                "sensor_name": null,
                "current_phase": null,
                "is_occluded": null,
                "is_site_boundary": null
            },
            "geometry": {
                "type": "Polygon",
                "coordinates": [
                    [
                        [
                            -46.46665548746358,
                            -23.60724853150813
                        ],
                        [
                            -46.46554203438579,
                            -23.60646174641912
                        ],
                        [
                            -46.464983549823586,
                            -23.60729991353221
                        ],
                        [
                            -46.46603004303766,
                            -23.607969875267717
                        ],
                        [
                            -46.46665548746358,
                            -23.60724853150813
                        ]
                    ]
                ]
            }
        },
        {
            "type": "Feature",
            "properties": {
                "type": "observation",
                "score": 0.0,
                "observation_date": "2020-05-31",
                "source": null,
                "sensor_name": null,
                "current_phase": null,
                "is_occluded": null,
                "is_site_boundary": null
            },
            "geometry": {
                "type": "Polygon",
                "coordinates": [
                    [
                        [
                            -46.46665548746358,
                            -23.60724853150813
                        ],
                        [
                            -46.46554203438579,
                            -23.60646174641912
                        ],
                        [
                            -46.464983549823586,
                            -23.60729991353221
                        ],
                        [
                            -46.46603004303766,
                            -23.607969875267717
                        ],
                        [
                            -46.46665548746358,
                            -23.60724853150813
                        ]
                    ]
                ]
            }
        }
    ]
}