{
    "type": "FeatureCollection",
    "features": [
        {
            "type": "Feature",
            "properties": {
                "type": "site",
                "region_id": "BR_C000",
                "version": "2.0.1",
                "mgrs": "23KLQ",
                "model_content": "annotation",
                "start_date": "2018-04-30",
                "end_date": "2021-05-26",
                "originator": "iMERIT",
                "site_id": "BR_C000_0777",
                "status": "positive_pending",
                "validated": "False",
                "score": 0.0,
                "misc_info": {
                    "commit_hash": "b8980b308111f4d719b33abcdfd4475cdb0511ce"
                }
            },
            "geometry": {
                "type": "Polygon",
                "coordinates": [
                    [
                        [
                            -46.3588770600383,
                            -23.464747603719932
                        ],
                        [
                            -46.35862957666806,
                            -23.46733649538403
                        ],
                        [
                            -46.357528383498334,
                            -23.467064388156427
                        ],
                        [
                            -46.35734432838493,
                            -23.466893608166274
                        ],
                        [
                            -46.357258470234974,
                            -23.466520159990786
                        ],
                        [
                            -46.357289940714956,
                            -23.466032170590534
                        ],
                        [
                            -46.35703451883633,
                            -23.466013371280667
                        ],
                        [
                            -46.35732128125306,
                            -23.46464022674162
                        ],
                        [
                            -46.358066901167675,
                            -23.46446135323878
                        ],
                        [
                            -46.3588770600383,
                            -23.464747603719932
                        ]
                    ]
                ]
            }
        },
        {
            "type": "Feature",
            "properties": {
                "type": "observation",
                "score": 0.0,
                "observation_date": "2018-04-30",
                "source": null,
                "sensor_name": null,
                "current_phase": null,
                "is_occluded": null,
                "is_site_boundary": null
            },
            "geometry": {
                "type": "Polygon",
                "coordinates": [
                    [
                        [
                            -46.3588770600383,
                            -23.464747603719932
                        ],
                        [
                            -46.35862957666806,
                            -23.46733649538403
                        ],
                        [
                            -46.357528383498334,
                            -23.467064388156427
                        ],
                        [
                            -46.35734432838493,
                            -23.466893608166274
                        ],
                        [
                            -46.357258470234974,
                            -23.466520159990786
                        ],
                        [
                            -46.357289940714956,
                            -23.466032170590534
                        ],
                        [
                            -46.35703451883633,
                            -23.466013371280667
                        ],
                        [
                            -46.35732128125306,
                            -23.46464022674162
                        ],
                        [
                            -46.358066901167675,
                            -23.46446135323878
                        ],
                        [
                            -46.3588770600383,
                            -23.464747603719932
                        ]
                    ]
                ]
            }
        },
        {
            "type": "Feature",
            "properties": {
                "type": "observation",
                "score": 0.0,
                "observation_date": "2021-05-26",
                "source": null,
                "sensor_name": null,
                "current_phase": null,
                "is_occluded": null,
                "is_site_boundary": null
            },
            "geometry": {
                "type": "Polygon",
                "coordinates": [
                    [
                        [
                            -46.3588770600383,
                            -23.464747603719932
                        ],
                        [
                            -46.35862957666806,
                            -23.46733649538403
                        ],
                        [
                            -46.357528383498334,
                            -23.467064388156427
                        ],
                        [
                            -46.35734432838493,
                            -23.466893608166274
                        ],
                        [
                            -46.357258470234974,
                            -23.466520159990786
                        ],
                        [
                            -46.357289940714956,
                            -23.466032170590534
                        ],
                        [
                            -46.35703451883633,
                            -23.466013371280667
                        ],
                        [
                            -46.35732128125306,
                            -23.46464022674162
                        ],
                        [
                            -46.358066901167675,
                            -23.46446135323878
                        ],
                        [
                            -46.3588770600383,
                            -23.464747603719932
                        ]
                    ]
                ]
            }
        }
    ]
}