{
    "type": "FeatureCollection",
    "features": [
        {
            "type": "Feature",
            "properties": {
                "type": "site",
                "region_id": "BR_C000",
                "version": "2.0.1",
                "mgrs": "23KLQ",
                "model_content": "annotation",
                "start_date": "2017-07-21",
                "end_date": "2018-07-01",
                "originator": "iMERIT",
                "site_id": "BR_C000_0774",
                "status": "positive_pending",
                "validated": "False",
                "score": 0.0,
                "misc_info": {
                    "commit_hash": "b8980b308111f4d719b33abcdfd4475cdb0511ce"
                }
            },
            "geometry": {
                "type": "Polygon",
                "coordinates": [
                    [
                        [
                            -46.362060688264485,
                            -23.44840600985666
                        ],
                        [
                            -46.36242123399591,
                            -23.449093976207283
                        ],
                        [
                            -46.361707742218464,
                            -23.44939451599739
                        ],
                        [
                            -46.36139271091209,
                            -23.448669895558115
                        ],
                        [
                            -46.362060688264485,
                            -23.44840600985666
                        ]
                    ]
                ]
            }
        },
        {
            "type": "Feature",
            "properties": {
                "type": "observation",
                "score": 0.0,
                "observation_date": "2017-07-21",
                "source": null,
                "sensor_name": null,
                "current_phase": null,
                "is_occluded": null,
                "is_site_boundary": null
            },
            "geometry": {
                "type": "Polygon",
                "coordinates": [
                    [
                        [
                            -46.362060688264485,
                            -23.44840600985666
                        ],
                        [
                            -46.36242123399591,
                            -23.449093976207283
                        ],
                        [
                            -46.361707742218464,
                            -23.44939451599739
                        ],
                        [
                            -46.36139271091209,
                            -23.448669895558115
                        ],
                        [
                            -46.362060688264485,
                            -23.44840600985666
                        ]
                    ]
                ]
            }
        },
        {
            "type": "Feature",
            "properties": {
                "type": "observation",
                "score": 0.0,
                "observation_date": "2018-07-01",
                "source": null,
                "sensor_name": null,
                "current_phase": null,
                "is_occluded": null,
                "is_site_boundary": null
            },
            "geometry": {
                "type": "Polygon",
                "coordinates": [
                    [
                        [
                            -46.362060688264485,
                            -23.44840600985666
                        ],
                        [
                            -46.36242123399591,
                            -23.449093976207283
                        ],
                        [
                            -46.361707742218464,
                            -23.44939451599739
                        ],
                        [
                            -46.36139271091209,
                            -23.448669895558115
                        ],
                        [
                            -46.362060688264485,
                            -23.44840600985666
                        ]
                    ]
                ]
            }
        }
    ]
}