{
    "type": "FeatureCollection",
    "features": [
        {
            "type": "Feature",
            "properties": {
                "type": "site",
                "region_id": "BR_C000",
                "version": "2.0.1",
                "mgrs": "23KLQ",
                "model_content": "annotation",
                "start_date": "2017-06-22",
                "end_date": "2023-01-16",
                "originator": "iMERIT",
                "site_id": "BR_C000_0748",
                "status": "positive_pending",
                "validated": "False",
                "score": 0.0,
                "misc_info": {
                    "commit_hash": "b8980b308111f4d719b33abcdfd4475cdb0511ce"
                }
            },
            "geometry": {
                "type": "Polygon",
                "coordinates": [
                    [
                        [
                            -46.72333454682009,
                            -23.50045938741429
                        ],
                        [
                            -46.72229354142314,
                            -23.501430316134122
                        ],
                        [
                            -46.72224216713116,
                            -23.502095093756445
                        ],
                        [
                            -46.72199471144982,
                            -23.502552936515016
                        ],
                        [
                            -46.72012779872112,
                            -23.50309017515828
                        ],
                        [
                            -46.71813765934569,
                            -23.503382747780666
                        ],
                        [
                            -46.71631575764867,
                            -23.499675875498603
                        ],
                        [
                            -46.71962498188376,
                            -23.499288819576513
                        ],
                        [
                            -46.721880320123866,
                            -23.5008877428415
                        ],
                        [
                            -46.722949696516196,
                            -23.500094639922484
                        ],
                        [
                            -46.72333454682009,
                            -23.50045938741429
                        ]
                    ]
                ]
            }
        },
        {
            "type": "Feature",
            "properties": {
                "type": "observation",
                "score": 0.0,
                "observation_date": "2017-06-22",
                "source": null,
                "sensor_name": null,
                "current_phase": null,
                "is_occluded": null,
                "is_site_boundary": null
            },
            "geometry": {
                "type": "Polygon",
                "coordinates": [
                    [
                        [
                            -46.72333454682009,
                            -23.50045938741429
                        ],
                        [
                            -46.72229354142314,
                            -23.501430316134122
                        ],
                        [
                            -46.72224216713116,
                            -23.502095093756445
                        ],
                        [
                            -46.72199471144982,
                            -23.502552936515016
                        ],
                        [
                            -46.72012779872112,
                            -23.50309017515828
                        ],
                        [
                            -46.71813765934569,
                            -23.503382747780666
                        ],
                        [
                            -46.71631575764867,
                            -23.499675875498603
                        ],
                        [
                            -46.71962498188376,
                            -23.499288819576513
                        ],
                        [
                            -46.721880320123866,
                            -23.5008877428415
                        ],
                        [
                            -46.722949696516196,
                            -23.500094639922484
                        ],
                        [
                            -46.72333454682009,
                            -23.50045938741429
                        ]
                    ]
                ]
            }
        },
        {
            "type": "Feature",
            "properties": {
                "type": "observation",
                "score": 0.0,
                "observation_date": "2023-01-16",
                "source": null,
                "sensor_name": null,
                "current_phase": null,
                "is_occluded": null,
                "is_site_boundary": null
            },
            "geometry": {
                "type": "Polygon",
                "coordinates": [
                    [
                        [
                            -46.72333454682009,
                            -23.50045938741429
                        ],
                        [
                            -46.72229354142314,
                            -23.501430316134122
                        ],
                        [
                            -46.72224216713116,
                            -23.502095093756445
                        ],
                        [
                            -46.72199471144982,
                            -23.502552936515016
                        ],
                        [
                            -46.72012779872112,
                            -23.50309017515828
                        ],
                        [
                            -46.71813765934569,
                            -23.503382747780666
                        ],
                        [
                            -46.71631575764867,
                            -23.499675875498603
                        ],
                        [
                            -46.71962498188376,
                            -23.499288819576513
                        ],
                        [
                            -46.721880320123866,
                            -23.5008877428415
                        ],
                        [
                            -46.722949696516196,
                            -23.500094639922484
                        ],
                        [
                            -46.72333454682009,
                            -23.50045938741429
                        ]
                    ]
                ]
            }
        }
    ]
}