{
    "type": "FeatureCollection",
    "features": [
        {
            "type": "Feature",
            "properties": {
                "type": "site",
                "region_id": "BR_C000",
                "version": "2.0.0",
                "mgrs": "23KLP",
                "model_content": "annotation",
                "start_date": "2018-08-20",
                "end_date": null,
                "originator": "iMERIT",
                "site_id": "BR_C000_0582",
                "status": "positive_pending",
                "validated": "False",
                "score": 0.0,
                "misc_info": {
                    "commit_hash": "b8980b308111f4d719b33abcdfd4475cdb0511ce"
                }
            },
            "geometry": {
                "type": "Polygon",
                "coordinates": [
                    [
                        [
                            -46.42794122457381,
                            -23.60861154205529
                        ],
                        [
                            -46.42702123108555,
                            -23.61087610740403
                        ],
                        [
                            -46.42878915633032,
                            -23.61228177378525
                        ],
                        [
                            -46.42901093579812,
                            -23.61238931532296
                        ],
                        [
                            -46.42940772975822,
                            -23.61282582306337
                        ],
                        [
                            -46.42965353144499,
                            -23.6126540851855
                        ],
                        [
                            -46.43048833053579,
                            -23.61279319474546
                        ],
                        [
                            -46.43068000727884,
                            -23.61144153786237
                        ],
                        [
                            -46.42829339307907,
                            -23.60855767374798
                        ],
                        [
                            -46.42794122457381,
                            -23.60861154205529
                        ]
                    ]
                ]
            }
        },
        {
            "type": "Feature",
            "properties": {
                "type": "observation",
                "score": 0.0,
                "observation_date": "2018-08-20",
                "source": null,
                "sensor_name": null,
                "current_phase": null,
                "is_occluded": null,
                "is_site_boundary": null
            },
            "geometry": {
                "type": "Polygon",
                "coordinates": [
                    [
                        [
                            -46.42794122457381,
                            -23.60861154205529
                        ],
                        [
                            -46.42702123108555,
                            -23.61087610740403
                        ],
                        [
                            -46.42878915633032,
                            -23.61228177378525
                        ],
                        [
                            -46.42901093579812,
                            -23.61238931532296
                        ],
                        [
                            -46.42940772975822,
                            -23.61282582306337
                        ],
                        [
                            -46.42965353144499,
                            -23.6126540851855
                        ],
                        [
                            -46.43048833053579,
                            -23.61279319474546
                        ],
                        [
                            -46.43068000727884,
                            -23.61144153786237
                        ],
                        [
                            -46.42829339307907,
                            -23.60855767374798
                        ],
                        [
                            -46.42794122457381,
                            -23.60861154205529
                        ]
                    ]
                ]
            }
        },
        {
            "type": "Feature",
            "properties": {
                "type": "observation",
                "score": 0.0,
                "observation_date": null,
                "source": null,
                "sensor_name": null,
                "current_phase": null,
                "is_occluded": null,
                "is_site_boundary": null
            },
            "geometry": {
                "type": "Polygon",
                "coordinates": [
                    [
                        [
                            -46.42794122457381,
                            -23.60861154205529
                        ],
                        [
                            -46.42702123108555,
                            -23.61087610740403
                        ],
                        [
                            -46.42878915633032,
                            -23.61228177378525
                        ],
                        [
                            -46.42901093579812,
                            -23.61238931532296
                        ],
                        [
                            -46.42940772975822,
                            -23.61282582306337
                        ],
                        [
                            -46.42965353144499,
                            -23.6126540851855
                        ],
                        [
                            -46.43048833053579,
                            -23.61279319474546
                        ],
                        [
                            -46.43068000727884,
                            -23.61144153786237
                        ],
                        [
                            -46.42829339307907,
                            -23.60855767374798
                        ],
                        [
                            -46.42794122457381,
                            -23.60861154205529
                        ]
                    ]
                ]
            }
        }
    ]
}