{
    "type": "FeatureCollection",
    "features": [
        {
            "type": "Feature",
            "properties": {
                "type": "site",
                "region_id": "BR_C000",
                "version": "2.0.0",
                "mgrs": "23KLP",
                "model_content": "annotation",
                "start_date": "2018-08-30",
                "end_date": "2020-08-09",
                "originator": "iMERIT",
                "site_id": "BR_C000_0251",
                "status": "positive_pending",
                "validated": "False",
                "score": 0.0,
                "misc_info": {
                    "commit_hash": "b8980b308111f4d719b33abcdfd4475cdb0511ce"
                }
            },
            "geometry": {
                "type": "Polygon",
                "coordinates": [
                    [
                        [
                            -46.801515408893046,
                            -23.69611139251987
                        ],
                        [
                            -46.801180673247366,
                            -23.696094748205997
                        ],
                        [
                            -46.80115293272424,
                            -23.696509006684632
                        ],
                        [
                            -46.80042613101843,
                            -23.696385099014684
                        ],
                        [
                            -46.8004649677508,
                            -23.69692881326789
                        ],
                        [
                            -46.80133232144044,
                            -23.6970675158835
                        ],
                        [
                            -46.8014358860601,
                            -23.69652195226209
                        ],
                        [
                            -46.801515408893046,
                            -23.69611139251987
                        ]
                    ]
                ]
            }
        },
        {
            "type": "Feature",
            "properties": {
                "type": "observation",
                "score": 0.0,
                "observation_date": "2018-08-30",
                "source": null,
                "sensor_name": null,
                "current_phase": null,
                "is_occluded": null,
                "is_site_boundary": null
            },
            "geometry": {
                "type": "Polygon",
                "coordinates": [
                    [
                        [
                            -46.801515408893046,
                            -23.69611139251987
                        ],
                        [
                            -46.801180673247366,
                            -23.696094748205997
                        ],
                        [
                            -46.80115293272424,
                            -23.696509006684632
                        ],
                        [
                            -46.80042613101843,
                            -23.696385099014684
                        ],
                        [
                            -46.8004649677508,
                            -23.69692881326789
                        ],
                        [
                            -46.80133232144044,
                            -23.6970675158835
                        ],
                        [
                            -46.8014358860601,
                            -23.69652195226209
                        ],
                        [
                            -46.801515408893046,
                            -23.69611139251987
                        ]
                    ]
                ]
            }
        },
        {
            "type": "Feature",
            "properties": {
                "type": "observation",
                "score": 0.0,
                "observation_date": "2020-08-09",
                "source": null,
                "sensor_name": null,
                "current_phase": null,
                "is_occluded": null,
                "is_site_boundary": null
            },
            "geometry": {
                "type": "Polygon",
                "coordinates": [
                    [
                        [
                            -46.801515408893046,
                            -23.69611139251987
                        ],
                        [
                            -46.801180673247366,
                            -23.696094748205997
                        ],
                        [
                            -46.80115293272424,
                            -23.696509006684632
                        ],
                        [
                            -46.80042613101843,
                            -23.696385099014684
                        ],
                        [
                            -46.8004649677508,
                            -23.69692881326789
                        ],
                        [
                            -46.80133232144044,
                            -23.6970675158835
                        ],
                        [
                            -46.8014358860601,
                            -23.69652195226209
                        ],
                        [
                            -46.801515408893046,
                            -23.69611139251987
                        ]
                    ]
                ]
            }
        }
    ]
}