{
    "type": "FeatureCollection",
    "features": [
        {
            "type": "Feature",
            "properties": {
                "type": "site",
                "region_id": "BR_C000",
                "version": "2.0.0",
                "mgrs": "23KLP",
                "model_content": "annotation",
                "start_date": "2018-08-30",
                "end_date": "2020-09-03",
                "originator": "iMERIT",
                "site_id": "BR_C000_0547",
                "status": "positive_pending",
                "validated": "False",
                "score": 0.0,
                "misc_info": {
                    "commit_hash": "b8980b308111f4d719b33abcdfd4475cdb0511ce"
                }
            },
            "geometry": {
                "type": "Polygon",
                "coordinates": [
                    [
                        [
                            -46.32606451375401,
                            -23.56974197199042
                        ],
                        [
                            -46.32615920775063,
                            -23.56869172563209
                        ],
                        [
                            -46.32575197758287,
                            -23.5686517036202
                        ],
                        [
                            -46.32566369161408,
                            -23.56826896301385
                        ],
                        [
                            -46.32492406296959,
                            -23.56788175879703
                        ],
                        [
                            -46.32480318917797,
                            -23.56809862994658
                        ],
                        [
                            -46.32519476782402,
                            -23.56851745567732
                        ],
                        [
                            -46.32565548005655,
                            -23.56917991353573
                        ],
                        [
                            -46.32606451375401,
                            -23.56974197199042
                        ]
                    ]
                ]
            }
        },
        {
            "type": "Feature",
            "properties": {
                "type": "observation",
                "score": 0.0,
                "observation_date": "2018-08-30",
                "source": null,
                "sensor_name": null,
                "current_phase": null,
                "is_occluded": null,
                "is_site_boundary": null
            },
            "geometry": {
                "type": "Polygon",
                "coordinates": [
                    [
                        [
                            -46.32606451375401,
                            -23.56974197199042
                        ],
                        [
                            -46.32615920775063,
                            -23.56869172563209
                        ],
                        [
                            -46.32575197758287,
                            -23.5686517036202
                        ],
                        [
                            -46.32566369161408,
                            -23.56826896301385
                        ],
                        [
                            -46.32492406296959,
                            -23.56788175879703
                        ],
                        [
                            -46.32480318917797,
                            -23.56809862994658
                        ],
                        [
                            -46.32519476782402,
                            -23.56851745567732
                        ],
                        [
                            -46.32565548005655,
                            -23.56917991353573
                        ],
                        [
                            -46.32606451375401,
                            -23.56974197199042
                        ]
                    ]
                ]
            }
        },
        {
            "type": "Feature",
            "properties": {
                "type": "observation",
                "score": 0.0,
                "observation_date": "2020-09-03",
                "source": null,
                "sensor_name": null,
                "current_phase": null,
                "is_occluded": null,
                "is_site_boundary": null
            },
            "geometry": {
                "type": "Polygon",
                "coordinates": [
                    [
                        [
                            -46.32606451375401,
                            -23.56974197199042
                        ],
                        [
                            -46.32615920775063,
                            -23.56869172563209
                        ],
                        [
                            -46.32575197758287,
                            -23.5686517036202
                        ],
                        [
                            -46.32566369161408,
                            -23.56826896301385
                        ],
                        [
                            -46.32492406296959,
                            -23.56788175879703
                        ],
                        [
                            -46.32480318917797,
                            -23.56809862994658
                        ],
                        [
                            -46.32519476782402,
                            -23.56851745567732
                        ],
                        [
                            -46.32565548005655,
                            -23.56917991353573
                        ],
                        [
                            -46.32606451375401,
                            -23.56974197199042
                        ]
                    ]
                ]
            }
        }
    ]
}