{
    "type": "FeatureCollection",
    "features": [
        {
            "type": "Feature",
            "properties": {
                "type": "site",
                "region_id": "BR_C000",
                "version": "2.0.1",
                "mgrs": "23KLP",
                "model_content": "annotation",
                "start_date": "2019-05-27",
                "end_date": "2023-01-01",
                "originator": "iMERIT",
                "site_id": "BR_C000_0073",
                "status": "positive_pending",
                "validated": "False",
                "score": 0.0,
                "misc_info": {
                    "commit_hash": "b8980b308111f4d719b33abcdfd4475cdb0511ce"
                }
            },
            "geometry": {
                "type": "Polygon",
                "coordinates": [
                    [
                        [
                            -46.86795286551231,
                            -23.664031840134207
                        ],
                        [
                            -46.86704185528925,
                            -23.66401174432046
                        ],
                        [
                            -46.866895253769556,
                            -23.6634030293148
                        ],
                        [
                            -46.867221321763004,
                            -23.66323868820749
                        ],
                        [
                            -46.86775337060565,
                            -23.66322705954483
                        ],
                        [
                            -46.86795286551231,
                            -23.664031840134207
                        ]
                    ]
                ]
            }
        },
        {
            "type": "Feature",
            "properties": {
                "type": "observation",
                "score": 0.0,
                "observation_date": "2019-05-27",
                "source": null,
                "sensor_name": null,
                "current_phase": null,
                "is_occluded": null,
                "is_site_boundary": null
            },
            "geometry": {
                "type": "Polygon",
                "coordinates": [
                    [
                        [
                            -46.86795286551231,
                            -23.664031840134207
                        ],
                        [
                            -46.86704185528925,
                            -23.66401174432046
                        ],
                        [
                            -46.866895253769556,
                            -23.6634030293148
                        ],
                        [
                            -46.867221321763004,
                            -23.66323868820749
                        ],
                        [
                            -46.86775337060565,
                            -23.66322705954483
                        ],
                        [
                            -46.86795286551231,
                            -23.664031840134207
                        ]
                    ]
                ]
            }
        },
        {
            "type": "Feature",
            "properties": {
                "type": "observation",
                "score": 0.0,
                "observation_date": "2023-01-01",
                "source": null,
                "sensor_name": null,
                "current_phase": null,
                "is_occluded": null,
                "is_site_boundary": null
            },
            "geometry": {
                "type": "Polygon",
                "coordinates": [
                    [
                        [
                            -46.86795286551231,
                            -23.664031840134207
                        ],
                        [
                            -46.86704185528925,
                            -23.66401174432046
                        ],
                        [
                            -46.866895253769556,
                            -23.6634030293148
                        ],
                        [
                            -46.867221321763004,
                            -23.66323868820749
                        ],
                        [
                            -46.86775337060565,
                            -23.66322705954483
                        ],
                        [
                            -46.86795286551231,
                            -23.664031840134207
                        ]
                    ]
                ]
            }
        }
    ]
}