{
    "type": "FeatureCollection",
    "features": [
        {
            "type": "Feature",
            "properties": {
                "type": "site",
                "region_id": "BR_C000",
                "version": "2.0.1",
                "mgrs": "23JLP",
                "model_content": "annotation",
                "start_date": "2020-09-03",
                "end_date": "2023-05-07",
                "originator": "iMERIT",
                "site_id": "BR_C000_0012",
                "status": "positive_pending",
                "validated": "False",
                "score": 0.0,
                "misc_info": {
                    "commit_hash": "b8980b308111f4d719b33abcdfd4475cdb0511ce"
                }
            },
            "geometry": {
                "type": "Polygon",
                "coordinates": [
                    [
                        [
                            -46.43877622642606,
                            -24.011004718859805
                        ],
                        [
                            -46.437280398779606,
                            -24.010343912721815
                        ],
                        [
                            -46.43614940689421,
                            -24.01226877451479
                        ],
                        [
                            -46.4376974762114,
                            -24.01287617201218
                        ],
                        [
                            -46.43877622642606,
                            -24.011004718859805
                        ]
                    ]
                ]
            }
        },
        {
            "type": "Feature",
            "properties": {
                "type": "observation",
                "score": 0.0,
                "observation_date": "2020-09-03",
                "source": null,
                "sensor_name": null,
                "current_phase": null,
                "is_occluded": null,
                "is_site_boundary": null
            },
            "geometry": {
                "type": "Polygon",
                "coordinates": [
                    [
                        [
                            -46.43877622642606,
                            -24.011004718859805
                        ],
                        [
                            -46.437280398779606,
                            -24.010343912721815
                        ],
                        [
                            -46.43614940689421,
                            -24.01226877451479
                        ],
                        [
                            -46.4376974762114,
                            -24.01287617201218
                        ],
                        [
                            -46.43877622642606,
                            -24.011004718859805
                        ]
                    ]
                ]
            }
        },
        {
            "type": "Feature",
            "properties": {
                "type": "observation",
                "score": 0.0,
                "observation_date": "2023-05-07",
                "source": null,
                "sensor_name": null,
                "current_phase": null,
                "is_occluded": null,
                "is_site_boundary": null
            },
            "geometry": {
                "type": "Polygon",
                "coordinates": [
                    [
                        [
                            -46.43877622642606,
                            -24.011004718859805
                        ],
                        [
                            -46.437280398779606,
                            -24.010343912721815
                        ],
                        [
                            -46.43614940689421,
                            -24.01226877451479
                        ],
                        [
                            -46.4376974762114,
                            -24.01287617201218
                        ],
                        [
                            -46.43877622642606,
                            -24.011004718859805
                        ]
                    ]
                ]
            }
        }
    ]
}