{
    "type": "FeatureCollection",
    "features": [
        {
            "type": "Feature",
            "properties": {
                "type": "site",
                "region_id": "BR_C000",
                "version": "2.0.1",
                "mgrs": "23KLP",
                "model_content": "annotation",
                "start_date": "2016-09-29",
                "end_date": "2018-08-10",
                "originator": "iMERIT",
                "site_id": "BR_C000_0576",
                "status": "positive_pending",
                "validated": "False",
                "score": 0.0,
                "misc_info": {
                    "commit_hash": "b8980b308111f4d719b33abcdfd4475cdb0511ce"
                }
            },
            "geometry": {
                "type": "Polygon",
                "coordinates": [
                    [
                        [
                            -46.3790504211081,
                            -23.66845605194224
                        ],
                        [
                            -46.378743938006636,
                            -23.66833029333029
                        ],
                        [
                            -46.37834780367946,
                            -23.66919330826597
                        ],
                        [
                            -46.37779802301062,
                            -23.66893222506347
                        ],
                        [
                            -46.378595232398816,
                            -23.66775239157609
                        ],
                        [
                            -46.37922203087202,
                            -23.668014224933476
                        ],
                        [
                            -46.3790504211081,
                            -23.66845605194224
                        ]
                    ]
                ]
            }
        },
        {
            "type": "Feature",
            "properties": {
                "type": "observation",
                "score": 0.0,
                "observation_date": "2016-09-29",
                "source": null,
                "sensor_name": null,
                "current_phase": null,
                "is_occluded": null,
                "is_site_boundary": null
            },
            "geometry": {
                "type": "Polygon",
                "coordinates": [
                    [
                        [
                            -46.3790504211081,
                            -23.66845605194224
                        ],
                        [
                            -46.378743938006636,
                            -23.66833029333029
                        ],
                        [
                            -46.37834780367946,
                            -23.66919330826597
                        ],
                        [
                            -46.37779802301062,
                            -23.66893222506347
                        ],
                        [
                            -46.378595232398816,
                            -23.66775239157609
                        ],
                        [
                            -46.37922203087202,
                            -23.668014224933476
                        ],
                        [
                            -46.3790504211081,
                            -23.66845605194224
                        ]
                    ]
                ]
            }
        },
        {
            "type": "Feature",
            "properties": {
                "type": "observation",
                "score": 0.0,
                "observation_date": "2018-08-10",
                "source": null,
                "sensor_name": null,
                "current_phase": null,
                "is_occluded": null,
                "is_site_boundary": null
            },
            "geometry": {
                "type": "Polygon",
                "coordinates": [
                    [
                        [
                            -46.3790504211081,
                            -23.66845605194224
                        ],
                        [
                            -46.378743938006636,
                            -23.66833029333029
                        ],
                        [
                            -46.37834780367946,
                            -23.66919330826597
                        ],
                        [
                            -46.37779802301062,
                            -23.66893222506347
                        ],
                        [
                            -46.378595232398816,
                            -23.66775239157609
                        ],
                        [
                            -46.37922203087202,
                            -23.668014224933476
                        ],
                        [
                            -46.3790504211081,
                            -23.66845605194224
                        ]
                    ]
                ]
            }
        }
    ]
}