{
    "type": "FeatureCollection",
    "features": [
        {
            "type": "Feature",
            "properties": {
                "type": "site",
                "region_id": "BR_C000",
                "version": "2.0.0",
                "mgrs": "23KLP",
                "model_content": "annotation",
                "start_date": "2018-04-27",
                "end_date": "2019-04-02",
                "originator": "iMERIT",
                "site_id": "BR_C000_0128",
                "status": "positive_pending",
                "validated": "False",
                "score": 0.0,
                "misc_info": {
                    "commit_hash": "b8980b308111f4d719b33abcdfd4475cdb0511ce"
                }
            },
            "geometry": {
                "type": "Polygon",
                "coordinates": [
                    [
                        [
                            -46.86548140470103,
                            -23.510555797471504
                        ],
                        [
                            -46.865952311266675,
                            -23.510714901747203
                        ],
                        [
                            -46.86602380259835,
                            -23.51084883817533
                        ],
                        [
                            -46.86556492474294,
                            -23.511872775490218
                        ],
                        [
                            -46.865119471306365,
                            -23.511709086172146
                        ],
                        [
                            -46.86510781159247,
                            -23.51154019933505
                        ],
                        [
                            -46.86548140470103,
                            -23.510555797471504
                        ]
                    ]
                ]
            }
        },
        {
            "type": "Feature",
            "properties": {
                "type": "observation",
                "score": 0.0,
                "observation_date": "2018-04-27",
                "source": null,
                "sensor_name": null,
                "current_phase": null,
                "is_occluded": null,
                "is_site_boundary": null
            },
            "geometry": {
                "type": "Polygon",
                "coordinates": [
                    [
                        [
                            -46.86548140470103,
                            -23.510555797471504
                        ],
                        [
                            -46.865952311266675,
                            -23.510714901747203
                        ],
                        [
                            -46.86602380259835,
                            -23.51084883817533
                        ],
                        [
                            -46.86556492474294,
                            -23.511872775490218
                        ],
                        [
                            -46.865119471306365,
                            -23.511709086172146
                        ],
                        [
                            -46.86510781159247,
                            -23.51154019933505
                        ],
                        [
                            -46.86548140470103,
                            -23.510555797471504
                        ]
                    ]
                ]
            }
        },
        {
            "type": "Feature",
            "properties": {
                "type": "observation",
                "score": 0.0,
                "observation_date": "2019-04-02",
                "source": null,
                "sensor_name": null,
                "current_phase": null,
                "is_occluded": null,
                "is_site_boundary": null
            },
            "geometry": {
                "type": "Polygon",
                "coordinates": [
                    [
                        [
                            -46.86548140470103,
                            -23.510555797471504
                        ],
                        [
                            -46.865952311266675,
                            -23.510714901747203
                        ],
                        [
                            -46.86602380259835,
                            -23.51084883817533
                        ],
                        [
                            -46.86556492474294,
                            -23.511872775490218
                        ],
                        [
                            -46.865119471306365,
                            -23.511709086172146
                        ],
                        [
                            -46.86510781159247,
                            -23.51154019933505
                        ],
                        [
                            -46.86548140470103,
                            -23.510555797471504
                        ]
                    ]
                ]
            }
        }
    ]
}