{
    "type": "FeatureCollection",
    "features": [
        {
            "type": "Feature",
            "properties": {
                "type": "site",
                "region_id": "BR_C000",
                "version": "2.0.0",
                "mgrs": "23KLP",
                "model_content": "annotation",
                "start_date": "2018-07-26",
                "end_date": "2021-11-07",
                "originator": "iMERIT",
                "site_id": "BR_C000_0604",
                "status": "positive_pending",
                "validated": "False",
                "score": 0.0,
                "misc_info": {
                    "commit_hash": "b8980b308111f4d719b33abcdfd4475cdb0511ce"
                }
            },
            "geometry": {
                "type": "Polygon",
                "coordinates": [
                    [
                        [
                            -46.41639820363671,
                            -23.572113151081044
                        ],
                        [
                            -46.41630749678311,
                            -23.570882643360626
                        ],
                        [
                            -46.41575953998164,
                            -23.570803585915193
                        ],
                        [
                            -46.41577408518607,
                            -23.57258531642134
                        ],
                        [
                            -46.416270008873525,
                            -23.572488342470837
                        ],
                        [
                            -46.41639820363671,
                            -23.572113151081044
                        ]
                    ]
                ]
            }
        },
        {
            "type": "Feature",
            "properties": {
                "type": "observation",
                "score": 0.0,
                "observation_date": "2018-07-26",
                "source": null,
                "sensor_name": null,
                "current_phase": null,
                "is_occluded": null,
                "is_site_boundary": null
            },
            "geometry": {
                "type": "Polygon",
                "coordinates": [
                    [
                        [
                            -46.41639820363671,
                            -23.572113151081044
                        ],
                        [
                            -46.41630749678311,
                            -23.570882643360626
                        ],
                        [
                            -46.41575953998164,
                            -23.570803585915193
                        ],
                        [
                            -46.41577408518607,
                            -23.57258531642134
                        ],
                        [
                            -46.416270008873525,
                            -23.572488342470837
                        ],
                        [
                            -46.41639820363671,
                            -23.572113151081044
                        ]
                    ]
                ]
            }
        },
        {
            "type": "Feature",
            "properties": {
                "type": "observation",
                "score": 0.0,
                "observation_date": "2021-11-07",
                "source": null,
                "sensor_name": null,
                "current_phase": null,
                "is_occluded": null,
                "is_site_boundary": null
            },
            "geometry": {
                "type": "Polygon",
                "coordinates": [
                    [
                        [
                            -46.41639820363671,
                            -23.572113151081044
                        ],
                        [
                            -46.41630749678311,
                            -23.570882643360626
                        ],
                        [
                            -46.41575953998164,
                            -23.570803585915193
                        ],
                        [
                            -46.41577408518607,
                            -23.57258531642134
                        ],
                        [
                            -46.416270008873525,
                            -23.572488342470837
                        ],
                        [
                            -46.41639820363671,
                            -23.572113151081044
                        ]
                    ]
                ]
            }
        }
    ]
}