{
    "type": "FeatureCollection",
    "features": [
        {
            "type": "Feature",
            "properties": {
                "type": "site",
                "region_id": "BR_C000",
                "version": "2.0.0",
                "mgrs": "23KLP",
                "model_content": "annotation",
                "start_date": "2019-02-03",
                "end_date": "2021-02-15",
                "originator": "iMERIT",
                "site_id": "BR_C000_0266",
                "status": "positive_pending",
                "validated": "False",
                "score": 0.0,
                "misc_info": {
                    "commit_hash": "b8980b308111f4d719b33abcdfd4475cdb0511ce"
                }
            },
            "geometry": {
                "type": "Polygon",
                "coordinates": [
                    [
                        [
                            -46.82301678670345,
                            -23.58970193134289
                        ],
                        [
                            -46.82245761671556,
                            -23.590129322416434
                        ],
                        [
                            -46.82255377970711,
                            -23.59063506852013
                        ],
                        [
                            -46.82359376465271,
                            -23.59040000342968
                        ],
                        [
                            -46.823629380575504,
                            -23.58987288777231
                        ],
                        [
                            -46.82301678670345,
                            -23.58970193134289
                        ]
                    ]
                ]
            }
        },
        {
            "type": "Feature",
            "properties": {
                "type": "observation",
                "score": 0.0,
                "observation_date": "2019-02-03",
                "source": null,
                "sensor_name": null,
                "current_phase": null,
                "is_occluded": null,
                "is_site_boundary": null
            },
            "geometry": {
                "type": "Polygon",
                "coordinates": [
                    [
                        [
                            -46.82301678670345,
                            -23.58970193134289
                        ],
                        [
                            -46.82245761671556,
                            -23.590129322416434
                        ],
                        [
                            -46.82255377970711,
                            -23.59063506852013
                        ],
                        [
                            -46.82359376465271,
                            -23.59040000342968
                        ],
                        [
                            -46.823629380575504,
                            -23.58987288777231
                        ],
                        [
                            -46.82301678670345,
                            -23.58970193134289
                        ]
                    ]
                ]
            }
        },
        {
            "type": "Feature",
            "properties": {
                "type": "observation",
                "score": 0.0,
                "observation_date": "2021-02-15",
                "source": null,
                "sensor_name": null,
                "current_phase": null,
                "is_occluded": null,
                "is_site_boundary": null
            },
            "geometry": {
                "type": "Polygon",
                "coordinates": [
                    [
                        [
                            -46.82301678670345,
                            -23.58970193134289
                        ],
                        [
                            -46.82245761671556,
                            -23.590129322416434
                        ],
                        [
                            -46.82255377970711,
                            -23.59063506852013
                        ],
                        [
                            -46.82359376465271,
                            -23.59040000342968
                        ],
                        [
                            -46.823629380575504,
                            -23.58987288777231
                        ],
                        [
                            -46.82301678670345,
                            -23.58970193134289
                        ]
                    ]
                ]
            }
        }
    ]
}