{
    "type": "FeatureCollection",
    "features": [
        {
            "type": "Feature",
            "properties": {
                "type": "site",
                "region_id": "BR_C000",
                "version": "2.0.0",
                "mgrs": "23KLP",
                "model_content": "annotation",
                "start_date": "2020-05-11",
                "end_date": "2021-10-23",
                "originator": "iMERIT",
                "site_id": "BR_C000_0542",
                "status": "positive_pending",
                "validated": "False",
                "score": 0.0,
                "misc_info": {
                    "commit_hash": "b8980b308111f4d719b33abcdfd4475cdb0511ce"
                }
            },
            "geometry": {
                "type": "Polygon",
                "coordinates": [
                    [
                        [
                            -46.3001660413634,
                            -23.51752568298478
                        ],
                        [
                            -46.30055165655048,
                            -23.51668139738598
                        ],
                        [
                            -46.29966386107585,
                            -23.51647837137389
                        ],
                        [
                            -46.29930104589707,
                            -23.51730365785765
                        ],
                        [
                            -46.3001660413634,
                            -23.51752568298478
                        ]
                    ]
                ]
            }
        },
        {
            "type": "Feature",
            "properties": {
                "type": "observation",
                "score": 0.0,
                "observation_date": "2020-05-11",
                "source": null,
                "sensor_name": null,
                "current_phase": null,
                "is_occluded": null,
                "is_site_boundary": null
            },
            "geometry": {
                "type": "Polygon",
                "coordinates": [
                    [
                        [
                            -46.3001660413634,
                            -23.51752568298478
                        ],
                        [
                            -46.30055165655048,
                            -23.51668139738598
                        ],
                        [
                            -46.29966386107585,
                            -23.51647837137389
                        ],
                        [
                            -46.29930104589707,
                            -23.51730365785765
                        ],
                        [
                            -46.3001660413634,
                            -23.51752568298478
                        ]
                    ]
                ]
            }
        },
        {
            "type": "Feature",
            "properties": {
                "type": "observation",
                "score": 0.0,
                "observation_date": "2021-10-23",
                "source": null,
                "sensor_name": null,
                "current_phase": null,
                "is_occluded": null,
                "is_site_boundary": null
            },
            "geometry": {
                "type": "Polygon",
                "coordinates": [
                    [
                        [
                            -46.3001660413634,
                            -23.51752568298478
                        ],
                        [
                            -46.30055165655048,
                            -23.51668139738598
                        ],
                        [
                            -46.29966386107585,
                            -23.51647837137389
                        ],
                        [
                            -46.29930104589707,
                            -23.51730365785765
                        ],
                        [
                            -46.3001660413634,
                            -23.51752568298478
                        ]
                    ]
                ]
            }
        }
    ]
}