{
    "type": "FeatureCollection",
    "features": [
        {
            "type": "Feature",
            "properties": {
                "type": "site",
                "region_id": "BR_C000",
                "version": "2.0.1",
                "mgrs": "23KLQ",
                "model_content": "annotation",
                "start_date": "2018-12-13",
                "end_date": "2021-02-15",
                "originator": "iMERIT",
                "site_id": "BR_C000_0846",
                "status": "positive_pending",
                "validated": "False",
                "score": 0.0,
                "misc_info": {
                    "commit_hash": "b8980b308111f4d719b33abcdfd4475cdb0511ce"
                }
            },
            "geometry": {
                "type": "Polygon",
                "coordinates": [
                    [
                        [
                            -46.37371309345326,
                            -23.489259781790714
                        ],
                        [
                            -46.37321427988284,
                            -23.488999260571322
                        ],
                        [
                            -46.37252315229847,
                            -23.49006055913147
                        ],
                        [
                            -46.37300587469653,
                            -23.490330556354454
                        ],
                        [
                            -46.37371309345326,
                            -23.489259781790714
                        ]
                    ]
                ]
            }
        },
        {
            "type": "Feature",
            "properties": {
                "type": "observation",
                "score": 0.0,
                "observation_date": "2018-12-13",
                "source": null,
                "sensor_name": null,
                "current_phase": null,
                "is_occluded": null,
                "is_site_boundary": null
            },
            "geometry": {
                "type": "Polygon",
                "coordinates": [
                    [
                        [
                            -46.37371309345326,
                            -23.489259781790714
                        ],
                        [
                            -46.37321427988284,
                            -23.488999260571322
                        ],
                        [
                            -46.37252315229847,
                            -23.49006055913147
                        ],
                        [
                            -46.37300587469653,
                            -23.490330556354454
                        ],
                        [
                            -46.37371309345326,
                            -23.489259781790714
                        ]
                    ]
                ]
            }
        },
        {
            "type": "Feature",
            "properties": {
                "type": "observation",
                "score": 0.0,
                "observation_date": "2021-02-15",
                "source": null,
                "sensor_name": null,
                "current_phase": null,
                "is_occluded": null,
                "is_site_boundary": null
            },
            "geometry": {
                "type": "Polygon",
                "coordinates": [
                    [
                        [
                            -46.37371309345326,
                            -23.489259781790714
                        ],
                        [
                            -46.37321427988284,
                            -23.488999260571322
                        ],
                        [
                            -46.37252315229847,
                            -23.49006055913147
                        ],
                        [
                            -46.37300587469653,
                            -23.490330556354454
                        ],
                        [
                            -46.37371309345326,
                            -23.489259781790714
                        ]
                    ]
                ]
            }
        }
    ]
}