{
    "type": "FeatureCollection",
    "features": [
        {
            "type": "Feature",
            "properties": {
                "type": "site",
                "region_id": "BR_C000",
                "version": "2.0.1",
                "mgrs": "23JLP",
                "model_content": "annotation",
                "start_date": "2015-03-26",
                "end_date": "2018-12-21",
                "originator": "iMERIT",
                "site_id": "BR_C000_0001",
                "status": "positive_pending",
                "validated": "False",
                "score": 0.0,
                "misc_info": {
                    "commit_hash": "b8980b308111f4d719b33abcdfd4475cdb0511ce"
                }
            },
            "geometry": {
                "type": "Polygon",
                "coordinates": [
                    [
                        [
                            -46.66552431586465,
                            -24.108869893008137
                        ],
                        [
                            -46.66404352117024,
                            -24.1071545276138
                        ],
                        [
                            -46.66424635773998,
                            -24.10699104739342
                        ],
                        [
                            -46.66523607536659,
                            -24.108036189487983
                        ],
                        [
                            -46.66564198125635,
                            -24.10776650523944
                        ],
                        [
                            -46.666177983653135,
                            -24.108402545753428
                        ],
                        [
                            -46.66552431586465,
                            -24.108869893008137
                        ]
                    ]
                ]
            }
        },
        {
            "type": "Feature",
            "properties": {
                "type": "observation",
                "score": 0.0,
                "observation_date": "2015-03-26",
                "source": null,
                "sensor_name": null,
                "current_phase": null,
                "is_occluded": null,
                "is_site_boundary": null
            },
            "geometry": {
                "type": "Polygon",
                "coordinates": [
                    [
                        [
                            -46.66552431586465,
                            -24.108869893008137
                        ],
                        [
                            -46.66404352117024,
                            -24.1071545276138
                        ],
                        [
                            -46.66424635773998,
                            -24.10699104739342
                        ],
                        [
                            -46.66523607536659,
                            -24.108036189487983
                        ],
                        [
                            -46.66564198125635,
                            -24.10776650523944
                        ],
                        [
                            -46.666177983653135,
                            -24.108402545753428
                        ],
                        [
                            -46.66552431586465,
                            -24.108869893008137
                        ]
                    ]
                ]
            }
        },
        {
            "type": "Feature",
            "properties": {
                "type": "observation",
                "score": 0.0,
                "observation_date": "2018-12-21",
                "source": null,
                "sensor_name": null,
                "current_phase": null,
                "is_occluded": null,
                "is_site_boundary": null
            },
            "geometry": {
                "type": "Polygon",
                "coordinates": [
                    [
                        [
                            -46.66552431586465,
                            -24.108869893008137
                        ],
                        [
                            -46.66404352117024,
                            -24.1071545276138
                        ],
                        [
                            -46.66424635773998,
                            -24.10699104739342
                        ],
                        [
                            -46.66523607536659,
                            -24.108036189487983
                        ],
                        [
                            -46.66564198125635,
                            -24.10776650523944
                        ],
                        [
                            -46.666177983653135,
                            -24.108402545753428
                        ],
                        [
                            -46.66552431586465,
                            -24.108869893008137
                        ]
                    ]
                ]
            }
        }
    ]
}