{
    "type": "FeatureCollection",
    "features": [
        {
            "type": "Feature",
            "properties": {
                "type": "site",
                "region_id": "BR_C000",
                "version": "2.0.1",
                "mgrs": "23KLP",
                "model_content": "annotation",
                "start_date": "2015-08-09",
                "end_date": "2018-11-23",
                "originator": "iMERIT",
                "site_id": "BR_C000_0641",
                "status": "positive_pending",
                "validated": "False",
                "score": 0.0,
                "misc_info": {
                    "commit_hash": "b8980b308111f4d719b33abcdfd4475cdb0511ce"
                }
            },
            "geometry": {
                "type": "Polygon",
                "coordinates": [
                    [
                        [
                            -46.038017743750665,
                            -23.796344835059667
                        ],
                        [
                            -46.03729909864274,
                            -23.795778090299734
                        ],
                        [
                            -46.036918559550365,
                            -23.79574954162008
                        ],
                        [
                            -46.03665698153973,
                            -23.795801846787985
                        ],
                        [
                            -46.03631678468829,
                            -23.79606464677051
                        ],
                        [
                            -46.03620935836478,
                            -23.796372542490463
                        ],
                        [
                            -46.03795276158445,
                            -23.79667577603274
                        ],
                        [
                            -46.038017743750665,
                            -23.796344835059667
                        ]
                    ]
                ]
            }
        },
        {
            "type": "Feature",
            "properties": {
                "type": "observation",
                "score": 0.0,
                "observation_date": "2015-08-09",
                "source": null,
                "sensor_name": null,
                "current_phase": null,
                "is_occluded": null,
                "is_site_boundary": null
            },
            "geometry": {
                "type": "Polygon",
                "coordinates": [
                    [
                        [
                            -46.038017743750665,
                            -23.796344835059667
                        ],
                        [
                            -46.03729909864274,
                            -23.795778090299734
                        ],
                        [
                            -46.036918559550365,
                            -23.79574954162008
                        ],
                        [
                            -46.03665698153973,
                            -23.795801846787985
                        ],
                        [
                            -46.03631678468829,
                            -23.79606464677051
                        ],
                        [
                            -46.03620935836478,
                            -23.796372542490463
                        ],
                        [
                            -46.03795276158445,
                            -23.79667577603274
                        ],
                        [
                            -46.038017743750665,
                            -23.796344835059667
                        ]
                    ]
                ]
            }
        },
        {
            "type": "Feature",
            "properties": {
                "type": "observation",
                "score": 0.0,
                "observation_date": "2018-11-23",
                "source": null,
                "sensor_name": null,
                "current_phase": null,
                "is_occluded": null,
                "is_site_boundary": null
            },
            "geometry": {
                "type": "Polygon",
                "coordinates": [
                    [
                        [
                            -46.038017743750665,
                            -23.796344835059667
                        ],
                        [
                            -46.03729909864274,
                            -23.795778090299734
                        ],
                        [
                            -46.036918559550365,
                            -23.79574954162008
                        ],
                        [
                            -46.03665698153973,
                            -23.795801846787985
                        ],
                        [
                            -46.03631678468829,
                            -23.79606464677051
                        ],
                        [
                            -46.03620935836478,
                            -23.796372542490463
                        ],
                        [
                            -46.03795276158445,
                            -23.79667577603274
                        ],
                        [
                            -46.038017743750665,
                            -23.796344835059667
                        ]
                    ]
                ]
            }
        }
    ]
}