{
    "type": "FeatureCollection",
    "features": [
        {
            "type": "Feature",
            "properties": {
                "type": "site",
                "region_id": "BR_C000",
                "version": "2.0.1",
                "mgrs": "23KLQ",
                "model_content": "annotation",
                "start_date": "2011-07-16",
                "end_date": "2019-01-07",
                "originator": "iMERIT",
                "site_id": "BR_C000_0679",
                "status": "positive_pending",
                "validated": "False",
                "score": 0.0,
                "misc_info": {
                    "commit_hash": "b8980b308111f4d719b33abcdfd4475cdb0511ce"
                }
            },
            "geometry": {
                "type": "Polygon",
                "coordinates": [
                    [
                        [
                            -46.56308796295836,
                            -23.42629412991836
                        ],
                        [
                            -46.56362398409636,
                            -23.42576555351839
                        ],
                        [
                            -46.56365609958755,
                            -23.42534002326015
                        ],
                        [
                            -46.56328275700249,
                            -23.424918507438313
                        ],
                        [
                            -46.562648476051535,
                            -23.42534002326015
                        ],
                        [
                            -46.56257621619636,
                            -23.425223604604597
                        ],
                        [
                            -46.562323306703256,
                            -23.425376153187738
                        ],
                        [
                            -46.562718070277214,
                            -23.426046867997865
                        ],
                        [
                            -46.56286927005344,
                            -23.425964268120115
                        ],
                        [
                            -46.56308796295836,
                            -23.42629412991836
                        ]
                    ]
                ]
            }
        },
        {
            "type": "Feature",
            "properties": {
                "type": "observation",
                "score": 0.0,
                "observation_date": "2011-07-16",
                "source": null,
                "sensor_name": null,
                "current_phase": null,
                "is_occluded": null,
                "is_site_boundary": null
            },
            "geometry": {
                "type": "Polygon",
                "coordinates": [
                    [
                        [
                            -46.56308796295836,
                            -23.42629412991836
                        ],
                        [
                            -46.56362398409636,
                            -23.42576555351839
                        ],
                        [
                            -46.56365609958755,
                            -23.42534002326015
                        ],
                        [
                            -46.56328275700249,
                            -23.424918507438313
                        ],
                        [
                            -46.562648476051535,
                            -23.42534002326015
                        ],
                        [
                            -46.56257621619636,
                            -23.425223604604597
                        ],
                        [
                            -46.562323306703256,
                            -23.425376153187738
                        ],
                        [
                            -46.562718070277214,
                            -23.426046867997865
                        ],
                        [
                            -46.56286927005344,
                            -23.425964268120115
                        ],
                        [
                            -46.56308796295836,
                            -23.42629412991836
                        ]
                    ]
                ]
            }
        },
        {
            "type": "Feature",
            "properties": {
                "type": "observation",
                "score": 0.0,
                "observation_date": "2019-01-07",
                "source": null,
                "sensor_name": null,
                "current_phase": null,
                "is_occluded": null,
                "is_site_boundary": null
            },
            "geometry": {
                "type": "Polygon",
                "coordinates": [
                    [
                        [
                            -46.56308796295836,
                            -23.42629412991836
                        ],
                        [
                            -46.56362398409636,
                            -23.42576555351839
                        ],
                        [
                            -46.56365609958755,
                            -23.42534002326015
                        ],
                        [
                            -46.56328275700249,
                            -23.424918507438313
                        ],
                        [
                            -46.562648476051535,
                            -23.42534002326015
                        ],
                        [
                            -46.56257621619636,
                            -23.425223604604597
                        ],
                        [
                            -46.562323306703256,
                            -23.425376153187738
                        ],
                        [
                            -46.562718070277214,
                            -23.426046867997865
                        ],
                        [
                            -46.56286927005344,
                            -23.425964268120115
                        ],
                        [
                            -46.56308796295836,
                            -23.42629412991836
                        ]
                    ]
                ]
            }
        }
    ]
}