{
    "type": "FeatureCollection",
    "features": [
        {
            "type": "Feature",
            "properties": {
                "type": "site",
                "region_id": "BR_C000",
                "version": "2.0.1",
                "mgrs": "23KLQ",
                "model_content": "annotation",
                "start_date": "2017-06-11",
                "end_date": "2021-04-11",
                "originator": "iMERIT",
                "site_id": "BR_C000_0758",
                "status": "positive_pending",
                "validated": "False",
                "score": 0.0,
                "misc_info": {
                    "commit_hash": "b8980b308111f4d719b33abcdfd4475cdb0511ce"
                }
            },
            "geometry": {
                "type": "Polygon",
                "coordinates": [
                    [
                        [
                            -46.7370012052167,
                            -23.40615738018487
                        ],
                        [
                            -46.736343826015045,
                            -23.40786827221665
                        ],
                        [
                            -46.73552870853357,
                            -23.40770512633431
                        ],
                        [
                            -46.73620905847445,
                            -23.405711076178832
                        ],
                        [
                            -46.7370012052167,
                            -23.40615738018487
                        ]
                    ]
                ]
            }
        },
        {
            "type": "Feature",
            "properties": {
                "type": "observation",
                "score": 0.0,
                "observation_date": "2017-06-11",
                "source": null,
                "sensor_name": null,
                "current_phase": null,
                "is_occluded": null,
                "is_site_boundary": null
            },
            "geometry": {
                "type": "Polygon",
                "coordinates": [
                    [
                        [
                            -46.7370012052167,
                            -23.40615738018487
                        ],
                        [
                            -46.736343826015045,
                            -23.40786827221665
                        ],
                        [
                            -46.73552870853357,
                            -23.40770512633431
                        ],
                        [
                            -46.73620905847445,
                            -23.405711076178832
                        ],
                        [
                            -46.7370012052167,
                            -23.40615738018487
                        ]
                    ]
                ]
            }
        },
        {
            "type": "Feature",
            "properties": {
                "type": "observation",
                "score": 0.0,
                "observation_date": "2021-04-11",
                "source": null,
                "sensor_name": null,
                "current_phase": null,
                "is_occluded": null,
                "is_site_boundary": null
            },
            "geometry": {
                "type": "Polygon",
                "coordinates": [
                    [
                        [
                            -46.7370012052167,
                            -23.40615738018487
                        ],
                        [
                            -46.736343826015045,
                            -23.40786827221665
                        ],
                        [
                            -46.73552870853357,
                            -23.40770512633431
                        ],
                        [
                            -46.73620905847445,
                            -23.405711076178832
                        ],
                        [
                            -46.7370012052167,
                            -23.40615738018487
                        ]
                    ]
                ]
            }
        }
    ]
}