{
    "type": "FeatureCollection",
    "features": [
        {
            "type": "Feature",
            "properties": {
                "type": "site",
                "region_id": "BR_C000",
                "version": "2.0.0",
                "mgrs": "23KLP",
                "model_content": "annotation",
                "start_date": "2020-08-09",
                "end_date": null,
                "originator": "iMERIT",
                "site_id": "BR_C000_0380",
                "status": "positive_pending",
                "validated": "False",
                "score": 0.0,
                "misc_info": {
                    "commit_hash": "b8980b308111f4d719b33abcdfd4475cdb0511ce"
                }
            },
            "geometry": {
                "type": "Polygon",
                "coordinates": [
                    [
                        [
                            -46.56062656105306,
                            -23.564231135258233
                        ],
                        [
                            -46.56039844819703,
                            -23.56433310114309
                        ],
                        [
                            -46.559100696292866,
                            -23.5650442481426
                        ],
                        [
                            -46.55882990977486,
                            -23.564658394648575
                        ],
                        [
                            -46.55954092103533,
                            -23.564175990664957
                        ],
                        [
                            -46.559577672363666,
                            -23.56410280645298
                        ],
                        [
                            -46.55854160736859,
                            -23.562787971677633
                        ],
                        [
                            -46.5599725370864,
                            -23.562971992976383
                        ],
                        [
                            -46.56062656105306,
                            -23.564231135258233
                        ]
                    ]
                ]
            }
        },
        {
            "type": "Feature",
            "properties": {
                "type": "observation",
                "score": 0.0,
                "observation_date": "2020-08-09",
                "source": null,
                "sensor_name": null,
                "current_phase": null,
                "is_occluded": null,
                "is_site_boundary": null
            },
            "geometry": {
                "type": "Polygon",
                "coordinates": [
                    [
                        [
                            -46.56062656105306,
                            -23.564231135258233
                        ],
                        [
                            -46.56039844819703,
                            -23.56433310114309
                        ],
                        [
                            -46.559100696292866,
                            -23.5650442481426
                        ],
                        [
                            -46.55882990977486,
                            -23.564658394648575
                        ],
                        [
                            -46.55954092103533,
                            -23.564175990664957
                        ],
                        [
                            -46.559577672363666,
                            -23.56410280645298
                        ],
                        [
                            -46.55854160736859,
                            -23.562787971677633
                        ],
                        [
                            -46.5599725370864,
                            -23.562971992976383
                        ],
                        [
                            -46.56062656105306,
                            -23.564231135258233
                        ]
                    ]
                ]
            }
        },
        {
            "type": "Feature",
            "properties": {
                "type": "observation",
                "score": 0.0,
                "observation_date": null,
                "source": null,
                "sensor_name": null,
                "current_phase": null,
                "is_occluded": null,
                "is_site_boundary": null
            },
            "geometry": {
                "type": "Polygon",
                "coordinates": [
                    [
                        [
                            -46.56062656105306,
                            -23.564231135258233
                        ],
                        [
                            -46.56039844819703,
                            -23.56433310114309
                        ],
                        [
                            -46.559100696292866,
                            -23.5650442481426
                        ],
                        [
                            -46.55882990977486,
                            -23.564658394648575
                        ],
                        [
                            -46.55954092103533,
                            -23.564175990664957
                        ],
                        [
                            -46.559577672363666,
                            -23.56410280645298
                        ],
                        [
                            -46.55854160736859,
                            -23.562787971677633
                        ],
                        [
                            -46.5599725370864,
                            -23.562971992976383
                        ],
                        [
                            -46.56062656105306,
                            -23.564231135258233
                        ]
                    ]
                ]
            }
        }
    ]
}