{
    "type": "FeatureCollection",
    "features": [
        {
            "type": "Feature",
            "properties": {
                "type": "site",
                "region_id": "BR_C000",
                "version": "2.0.1",
                "mgrs": "23KLP",
                "model_content": "annotation",
                "start_date": "2018-11-28",
                "end_date": "2021-08-23",
                "originator": "iMERIT",
                "site_id": "BR_C000_0338",
                "status": "positive_pending",
                "validated": "False",
                "score": 0.0,
                "misc_info": {
                    "commit_hash": "b8980b308111f4d719b33abcdfd4475cdb0511ce"
                }
            },
            "geometry": {
                "type": "Polygon",
                "coordinates": [
                    [
                        [
                            -46.84056169330222,
                            -23.511405792673326
                        ],
                        [
                            -46.83951736345776,
                            -23.511412910407955
                        ],
                        [
                            -46.83952566748152,
                            -23.512490851777148
                        ],
                        [
                            -46.83997724820184,
                            -23.512481361464285
                        ],
                        [
                            -46.83996495873959,
                            -23.51211757883771
                        ],
                        [
                            -46.84057751049032,
                            -23.51211123926269
                        ],
                        [
                            -46.84056169330222,
                            -23.511405792673326
                        ]
                    ]
                ]
            }
        },
        {
            "type": "Feature",
            "properties": {
                "type": "observation",
                "score": 0.0,
                "observation_date": "2018-11-28",
                "source": null,
                "sensor_name": null,
                "current_phase": null,
                "is_occluded": null,
                "is_site_boundary": null
            },
            "geometry": {
                "type": "Polygon",
                "coordinates": [
                    [
                        [
                            -46.84056169330222,
                            -23.511405792673326
                        ],
                        [
                            -46.83951736345776,
                            -23.511412910407955
                        ],
                        [
                            -46.83952566748152,
                            -23.512490851777148
                        ],
                        [
                            -46.83997724820184,
                            -23.512481361464285
                        ],
                        [
                            -46.83996495873959,
                            -23.51211757883771
                        ],
                        [
                            -46.84057751049032,
                            -23.51211123926269
                        ],
                        [
                            -46.84056169330222,
                            -23.511405792673326
                        ]
                    ]
                ]
            }
        },
        {
            "type": "Feature",
            "properties": {
                "type": "observation",
                "score": 0.0,
                "observation_date": "2021-08-23",
                "source": null,
                "sensor_name": null,
                "current_phase": null,
                "is_occluded": null,
                "is_site_boundary": null
            },
            "geometry": {
                "type": "Polygon",
                "coordinates": [
                    [
                        [
                            -46.84056169330222,
                            -23.511405792673326
                        ],
                        [
                            -46.83951736345776,
                            -23.511412910407955
                        ],
                        [
                            -46.83952566748152,
                            -23.512490851777148
                        ],
                        [
                            -46.83997724820184,
                            -23.512481361464285
                        ],
                        [
                            -46.83996495873959,
                            -23.51211757883771
                        ],
                        [
                            -46.84057751049032,
                            -23.51211123926269
                        ],
                        [
                            -46.84056169330222,
                            -23.511405792673326
                        ]
                    ]
                ]
            }
        }
    ]
}