{
    "type": "FeatureCollection",
    "features": [
        {
            "type": "Feature",
            "properties": {
                "type": "site",
                "region_id": "BR_C000",
                "version": "2.0.1",
                "mgrs": "23KLQ",
                "model_content": "annotation",
                "start_date": "2018-04-27",
                "end_date": "2021-02-10",
                "originator": "iMERIT",
                "site_id": "BR_C000_0721",
                "status": "positive_pending",
                "validated": "False",
                "score": 0.0,
                "misc_info": {
                    "commit_hash": "b8980b308111f4d719b33abcdfd4475cdb0511ce"
                }
            },
            "geometry": {
                "type": "Polygon",
                "coordinates": [
                    [
                        [
                            -46.85558100280552,
                            -23.403507388077546
                        ],
                        [
                            -46.855576910193726,
                            -23.40321385820931
                        ],
                        [
                            -46.85557643569231,
                            -23.403179825760056
                        ],
                        [
                            -46.85269128850877,
                            -23.403231083956108
                        ],
                        [
                            -46.85215333545151,
                            -23.40432668224863
                        ],
                        [
                            -46.85558100280552,
                            -23.403507388077546
                        ]
                    ]
                ]
            }
        },
        {
            "type": "Feature",
            "properties": {
                "type": "observation",
                "score": 0.0,
                "observation_date": "2018-04-27",
                "source": null,
                "sensor_name": null,
                "current_phase": null,
                "is_occluded": null,
                "is_site_boundary": null
            },
            "geometry": {
                "type": "Polygon",
                "coordinates": [
                    [
                        [
                            -46.85558100280552,
                            -23.403507388077546
                        ],
                        [
                            -46.855576910193726,
                            -23.40321385820931
                        ],
                        [
                            -46.85557643569231,
                            -23.403179825760056
                        ],
                        [
                            -46.85269128850877,
                            -23.403231083956108
                        ],
                        [
                            -46.85215333545151,
                            -23.40432668224863
                        ],
                        [
                            -46.85558100280552,
                            -23.403507388077546
                        ]
                    ]
                ]
            }
        },
        {
            "type": "Feature",
            "properties": {
                "type": "observation",
                "score": 0.0,
                "observation_date": "2021-02-10",
                "source": null,
                "sensor_name": null,
                "current_phase": null,
                "is_occluded": null,
                "is_site_boundary": null
            },
            "geometry": {
                "type": "Polygon",
                "coordinates": [
                    [
                        [
                            -46.85558100280552,
                            -23.403507388077546
                        ],
                        [
                            -46.855576910193726,
                            -23.40321385820931
                        ],
                        [
                            -46.85557643569231,
                            -23.403179825760056
                        ],
                        [
                            -46.85269128850877,
                            -23.403231083956108
                        ],
                        [
                            -46.85215333545151,
                            -23.40432668224863
                        ],
                        [
                            -46.85558100280552,
                            -23.403507388077546
                        ]
                    ]
                ]
            }
        }
    ]
}