{
    "type": "FeatureCollection",
    "features": [
        {
            "type": "Feature",
            "properties": {
                "type": "site",
                "region_id": "BR_C000",
                "version": "2.0.1",
                "mgrs": "23KLQ",
                "model_content": "annotation",
                "start_date": "2013-12-31",
                "end_date": "2018-01-22",
                "originator": "iMERIT",
                "site_id": "BR_C000_0853",
                "status": "positive_pending",
                "validated": "False",
                "score": 0.0,
                "misc_info": {
                    "commit_hash": "b8980b308111f4d719b33abcdfd4475cdb0511ce"
                }
            },
            "geometry": {
                "type": "Polygon",
                "coordinates": [
                    [
                        [
                            -46.43668265594143,
                            -23.441796763409695
                        ],
                        [
                            -46.43635255677526,
                            -23.4429070751136
                        ],
                        [
                            -46.43559582351707,
                            -23.442728657626276
                        ],
                        [
                            -46.43589915944287,
                            -23.44165366551888
                        ],
                        [
                            -46.43668265594143,
                            -23.441796763409695
                        ]
                    ]
                ]
            }
        },
        {
            "type": "Feature",
            "properties": {
                "type": "observation",
                "score": 0.0,
                "observation_date": "2013-12-31",
                "source": null,
                "sensor_name": null,
                "current_phase": null,
                "is_occluded": null,
                "is_site_boundary": null
            },
            "geometry": {
                "type": "Polygon",
                "coordinates": [
                    [
                        [
                            -46.43668265594143,
                            -23.441796763409695
                        ],
                        [
                            -46.43635255677526,
                            -23.4429070751136
                        ],
                        [
                            -46.43559582351707,
                            -23.442728657626276
                        ],
                        [
                            -46.43589915944287,
                            -23.44165366551888
                        ],
                        [
                            -46.43668265594143,
                            -23.441796763409695
                        ]
                    ]
                ]
            }
        },
        {
            "type": "Feature",
            "properties": {
                "type": "observation",
                "score": 0.0,
                "observation_date": "2018-01-22",
                "source": null,
                "sensor_name": null,
                "current_phase": null,
                "is_occluded": null,
                "is_site_boundary": null
            },
            "geometry": {
                "type": "Polygon",
                "coordinates": [
                    [
                        [
                            -46.43668265594143,
                            -23.441796763409695
                        ],
                        [
                            -46.43635255677526,
                            -23.4429070751136
                        ],
                        [
                            -46.43559582351707,
                            -23.442728657626276
                        ],
                        [
                            -46.43589915944287,
                            -23.44165366551888
                        ],
                        [
                            -46.43668265594143,
                            -23.441796763409695
                        ]
                    ]
                ]
            }
        }
    ]
}