{
    "type": "FeatureCollection",
    "features": [
        {
            "type": "Feature",
            "properties": {
                "type": "site",
                "region_id": "BR_C000",
                "version": "2.0.0",
                "mgrs": "23KLP",
                "model_content": "annotation",
                "start_date": "2017-08-30",
                "end_date": "2020-08-29",
                "originator": "iMERIT",
                "site_id": "BR_C000_0245",
                "status": "positive_pending",
                "validated": "False",
                "score": 0.0,
                "misc_info": {
                    "commit_hash": "b8980b308111f4d719b33abcdfd4475cdb0511ce"
                }
            },
            "geometry": {
                "type": "Polygon",
                "coordinates": [
                    [
                        [
                            -46.71484084557902,
                            -23.518210318479266
                        ],
                        [
                            -46.71468439768,
                            -23.515795394910533
                        ],
                        [
                            -46.71436660252927,
                            -23.515686615142005
                        ],
                        [
                            -46.713168457431806,
                            -23.517121143393272
                        ],
                        [
                            -46.712474816875435,
                            -23.51705401688782
                        ],
                        [
                            -46.71227214652951,
                            -23.518044551632453
                        ],
                        [
                            -46.71484084557902,
                            -23.518210318479266
                        ]
                    ]
                ]
            }
        },
        {
            "type": "Feature",
            "properties": {
                "type": "observation",
                "score": 0.0,
                "observation_date": "2017-08-30",
                "source": null,
                "sensor_name": null,
                "current_phase": null,
                "is_occluded": null,
                "is_site_boundary": null
            },
            "geometry": {
                "type": "Polygon",
                "coordinates": [
                    [
                        [
                            -46.71484084557902,
                            -23.518210318479266
                        ],
                        [
                            -46.71468439768,
                            -23.515795394910533
                        ],
                        [
                            -46.71436660252927,
                            -23.515686615142005
                        ],
                        [
                            -46.713168457431806,
                            -23.517121143393272
                        ],
                        [
                            -46.712474816875435,
                            -23.51705401688782
                        ],
                        [
                            -46.71227214652951,
                            -23.518044551632453
                        ],
                        [
                            -46.71484084557902,
                            -23.518210318479266
                        ]
                    ]
                ]
            }
        },
        {
            "type": "Feature",
            "properties": {
                "type": "observation",
                "score": 0.0,
                "observation_date": "2020-08-29",
                "source": null,
                "sensor_name": null,
                "current_phase": null,
                "is_occluded": null,
                "is_site_boundary": null
            },
            "geometry": {
                "type": "Polygon",
                "coordinates": [
                    [
                        [
                            -46.71484084557902,
                            -23.518210318479266
                        ],
                        [
                            -46.71468439768,
                            -23.515795394910533
                        ],
                        [
                            -46.71436660252927,
                            -23.515686615142005
                        ],
                        [
                            -46.713168457431806,
                            -23.517121143393272
                        ],
                        [
                            -46.712474816875435,
                            -23.51705401688782
                        ],
                        [
                            -46.71227214652951,
                            -23.518044551632453
                        ],
                        [
                            -46.71484084557902,
                            -23.518210318479266
                        ]
                    ]
                ]
            }
        }
    ]
}