{
    "type": "FeatureCollection",
    "features": [
        {
            "type": "Feature",
            "properties": {
                "type": "site",
                "region_id": "BR_C000",
                "version": "2.0.1",
                "mgrs": "23KLQ",
                "model_content": "annotation",
                "start_date": "2020-04-06",
                "end_date": "2020-06-20",
                "originator": "iMERIT",
                "site_id": "BR_C000_0800",
                "status": "positive_pending",
                "validated": "False",
                "score": 0.0,
                "misc_info": {
                    "commit_hash": "b8980b308111f4d719b33abcdfd4475cdb0511ce"
                }
            },
            "geometry": {
                "type": "Polygon",
                "coordinates": [
                    [
                        [
                            -46.34619676972753,
                            -23.422208451782808
                        ],
                        [
                            -46.34566129283854,
                            -23.422421188566332
                        ],
                        [
                            -46.34533594407272,
                            -23.421787012908393
                        ],
                        [
                            -46.345412584094035,
                            -23.42170646753358
                        ],
                        [
                            -46.345242750439986,
                            -23.421131916669783
                        ],
                        [
                            -46.34563120355273,
                            -23.42102345810164
                        ],
                        [
                            -46.34619676972753,
                            -23.422208451782808
                        ]
                    ]
                ]
            }
        },
        {
            "type": "Feature",
            "properties": {
                "type": "observation",
                "score": 0.0,
                "observation_date": "2020-04-06",
                "source": null,
                "sensor_name": null,
                "current_phase": null,
                "is_occluded": null,
                "is_site_boundary": null
            },
            "geometry": {
                "type": "Polygon",
                "coordinates": [
                    [
                        [
                            -46.34619676972753,
                            -23.422208451782808
                        ],
                        [
                            -46.34566129283854,
                            -23.422421188566332
                        ],
                        [
                            -46.34533594407272,
                            -23.421787012908393
                        ],
                        [
                            -46.345412584094035,
                            -23.42170646753358
                        ],
                        [
                            -46.345242750439986,
                            -23.421131916669783
                        ],
                        [
                            -46.34563120355273,
                            -23.42102345810164
                        ],
                        [
                            -46.34619676972753,
                            -23.422208451782808
                        ]
                    ]
                ]
            }
        },
        {
            "type": "Feature",
            "properties": {
                "type": "observation",
                "score": 0.0,
                "observation_date": "2020-06-20",
                "source": null,
                "sensor_name": null,
                "current_phase": null,
                "is_occluded": null,
                "is_site_boundary": null
            },
            "geometry": {
                "type": "Polygon",
                "coordinates": [
                    [
                        [
                            -46.34619676972753,
                            -23.422208451782808
                        ],
                        [
                            -46.34566129283854,
                            -23.422421188566332
                        ],
                        [
                            -46.34533594407272,
                            -23.421787012908393
                        ],
                        [
                            -46.345412584094035,
                            -23.42170646753358
                        ],
                        [
                            -46.345242750439986,
                            -23.421131916669783
                        ],
                        [
                            -46.34563120355273,
                            -23.42102345810164
                        ],
                        [
                            -46.34619676972753,
                            -23.422208451782808
                        ]
                    ]
                ]
            }
        }
    ]
}