{
    "type": "FeatureCollection",
    "features": [
        {
            "type": "Feature",
            "properties": {
                "type": "site",
                "region_id": "BR_C000",
                "version": "2.0.0",
                "mgrs": "23KLP",
                "model_content": "annotation",
                "start_date": "2019-12-08",
                "end_date": "2021-11-07",
                "originator": "iMERIT",
                "site_id": "BR_C000_0325",
                "status": "positive_pending",
                "validated": "False",
                "score": 0.0,
                "misc_info": {
                    "commit_hash": "b8980b308111f4d719b33abcdfd4475cdb0511ce"
                }
            },
            "geometry": {
                "type": "Polygon",
                "coordinates": [
                    [
                        [
                            -46.83131810885234,
                            -23.54455004229721
                        ],
                        [
                            -46.83017643097103,
                            -23.5445866369149
                        ],
                        [
                            -46.83064979364764,
                            -23.5459845937457
                        ],
                        [
                            -46.83159077522716,
                            -23.54592249384439
                        ],
                        [
                            -46.83153406005851,
                            -23.54536297778487
                        ],
                        [
                            -46.83138471298157,
                            -23.54516147394634
                        ],
                        [
                            -46.83131810885234,
                            -23.54455004229721
                        ]
                    ]
                ]
            }
        },
        {
            "type": "Feature",
            "properties": {
                "type": "observation",
                "score": 0.0,
                "observation_date": "2019-12-08",
                "source": null,
                "sensor_name": null,
                "current_phase": null,
                "is_occluded": null,
                "is_site_boundary": null
            },
            "geometry": {
                "type": "Polygon",
                "coordinates": [
                    [
                        [
                            -46.83131810885234,
                            -23.54455004229721
                        ],
                        [
                            -46.83017643097103,
                            -23.5445866369149
                        ],
                        [
                            -46.83064979364764,
                            -23.5459845937457
                        ],
                        [
                            -46.83159077522716,
                            -23.54592249384439
                        ],
                        [
                            -46.83153406005851,
                            -23.54536297778487
                        ],
                        [
                            -46.83138471298157,
                            -23.54516147394634
                        ],
                        [
                            -46.83131810885234,
                            -23.54455004229721
                        ]
                    ]
                ]
            }
        },
        {
            "type": "Feature",
            "properties": {
                "type": "observation",
                "score": 0.0,
                "observation_date": "2021-11-07",
                "source": null,
                "sensor_name": null,
                "current_phase": null,
                "is_occluded": null,
                "is_site_boundary": null
            },
            "geometry": {
                "type": "Polygon",
                "coordinates": [
                    [
                        [
                            -46.83131810885234,
                            -23.54455004229721
                        ],
                        [
                            -46.83017643097103,
                            -23.5445866369149
                        ],
                        [
                            -46.83064979364764,
                            -23.5459845937457
                        ],
                        [
                            -46.83159077522716,
                            -23.54592249384439
                        ],
                        [
                            -46.83153406005851,
                            -23.54536297778487
                        ],
                        [
                            -46.83138471298157,
                            -23.54516147394634
                        ],
                        [
                            -46.83131810885234,
                            -23.54455004229721
                        ]
                    ]
                ]
            }
        }
    ]
}