{
    "type": "FeatureCollection",
    "features": [
        {
            "type": "Feature",
            "properties": {
                "type": "site",
                "region_id": "BR_C000",
                "version": "2.0.1",
                "mgrs": "23KLP",
                "model_content": "annotation",
                "start_date": "2014-03-28",
                "end_date": "2021-05-26",
                "originator": "iMERIT",
                "site_id": "BR_C000_0078",
                "status": "positive_pending",
                "validated": "False",
                "score": 0.0,
                "misc_info": {
                    "commit_hash": "b8980b308111f4d719b33abcdfd4475cdb0511ce"
                }
            },
            "geometry": {
                "type": "Polygon",
                "coordinates": [
                    [
                        [
                            -46.88114238270576,
                            -23.61378144210773
                        ],
                        [
                            -46.88021110206502,
                            -23.61455650793132
                        ],
                        [
                            -46.8800599478812,
                            -23.61464804428958
                        ],
                        [
                            -46.87942536939644,
                            -23.614741183239698
                        ],
                        [
                            -46.879315458618656,
                            -23.616323367462087
                        ],
                        [
                            -46.87957410286069,
                            -23.616344649227027
                        ],
                        [
                            -46.87972416725342,
                            -23.616184135674366
                        ],
                        [
                            -46.88012059281527,
                            -23.615099078709203
                        ],
                        [
                            -46.880911865054195,
                            -23.614694133504575
                        ],
                        [
                            -46.88129621770492,
                            -23.615246455275543
                        ],
                        [
                            -46.88206445039331,
                            -23.614794553694143
                        ],
                        [
                            -46.88141589251556,
                            -23.613789814857007
                        ],
                        [
                            -46.88114238270576,
                            -23.61378144210773
                        ]
                    ]
                ]
            }
        },
        {
            "type": "Feature",
            "properties": {
                "type": "observation",
                "score": 0.0,
                "observation_date": "2014-03-28",
                "source": null,
                "sensor_name": null,
                "current_phase": null,
                "is_occluded": null,
                "is_site_boundary": null
            },
            "geometry": {
                "type": "Polygon",
                "coordinates": [
                    [
                        [
                            -46.88114238270576,
                            -23.61378144210773
                        ],
                        [
                            -46.88021110206502,
                            -23.61455650793132
                        ],
                        [
                            -46.8800599478812,
                            -23.61464804428958
                        ],
                        [
                            -46.87942536939644,
                            -23.614741183239698
                        ],
                        [
                            -46.879315458618656,
                            -23.616323367462087
                        ],
                        [
                            -46.87957410286069,
                            -23.616344649227027
                        ],
                        [
                            -46.87972416725342,
                            -23.616184135674366
                        ],
                        [
                            -46.88012059281527,
                            -23.615099078709203
                        ],
                        [
                            -46.880911865054195,
                            -23.614694133504575
                        ],
                        [
                            -46.88129621770492,
                            -23.615246455275543
                        ],
                        [
                            -46.88206445039331,
                            -23.614794553694143
                        ],
                        [
                            -46.88141589251556,
                            -23.613789814857007
                        ],
                        [
                            -46.88114238270576,
                            -23.61378144210773
                        ]
                    ]
                ]
            }
        },
        {
            "type": "Feature",
            "properties": {
                "type": "observation",
                "score": 0.0,
                "observation_date": "2021-05-26",
                "source": null,
                "sensor_name": null,
                "current_phase": null,
                "is_occluded": null,
                "is_site_boundary": null
            },
            "geometry": {
                "type": "Polygon",
                "coordinates": [
                    [
                        [
                            -46.88114238270576,
                            -23.61378144210773
                        ],
                        [
                            -46.88021110206502,
                            -23.61455650793132
                        ],
                        [
                            -46.8800599478812,
                            -23.61464804428958
                        ],
                        [
                            -46.87942536939644,
                            -23.614741183239698
                        ],
                        [
                            -46.879315458618656,
                            -23.616323367462087
                        ],
                        [
                            -46.87957410286069,
                            -23.616344649227027
                        ],
                        [
                            -46.87972416725342,
                            -23.616184135674366
                        ],
                        [
                            -46.88012059281527,
                            -23.615099078709203
                        ],
                        [
                            -46.880911865054195,
                            -23.614694133504575
                        ],
                        [
                            -46.88129621770492,
                            -23.615246455275543
                        ],
                        [
                            -46.88206445039331,
                            -23.614794553694143
                        ],
                        [
                            -46.88141589251556,
                            -23.613789814857007
                        ],
                        [
                            -46.88114238270576,
                            -23.61378144210773
                        ]
                    ]
                ]
            }
        }
    ]
}