{
    "type": "FeatureCollection",
    "features": [
        {
            "type": "Feature",
            "properties": {
                "type": "site",
                "region_id": "BR_C000",
                "version": "2.0.1",
                "mgrs": "23KLP",
                "model_content": "annotation",
                "start_date": "2020-11-07",
                "end_date": "2022-01-11",
                "originator": "iMERIT",
                "site_id": "BR_C000_0409",
                "status": "positive_pending",
                "validated": "False",
                "score": 0.0,
                "misc_info": {
                    "commit_hash": "b8980b308111f4d719b33abcdfd4475cdb0511ce"
                }
            },
            "geometry": {
                "type": "Polygon",
                "coordinates": [
                    [
                        [
                            -46.59518210093977,
                            -23.72193976135634
                        ],
                        [
                            -46.59719542989721,
                            -23.72149033289457
                        ],
                        [
                            -46.59709502569726,
                            -23.72101715375831
                        ],
                        [
                            -46.59512985290728,
                            -23.7213639449849
                        ],
                        [
                            -46.59518210093977,
                            -23.72193976135634
                        ]
                    ]
                ]
            }
        },
        {
            "type": "Feature",
            "properties": {
                "type": "observation",
                "score": 0.0,
                "observation_date": "2020-11-07",
                "source": null,
                "sensor_name": null,
                "current_phase": null,
                "is_occluded": null,
                "is_site_boundary": null
            },
            "geometry": {
                "type": "Polygon",
                "coordinates": [
                    [
                        [
                            -46.59518210093977,
                            -23.72193976135634
                        ],
                        [
                            -46.59719542989721,
                            -23.72149033289457
                        ],
                        [
                            -46.59709502569726,
                            -23.72101715375831
                        ],
                        [
                            -46.59512985290728,
                            -23.7213639449849
                        ],
                        [
                            -46.59518210093977,
                            -23.72193976135634
                        ]
                    ]
                ]
            }
        },
        {
            "type": "Feature",
            "properties": {
                "type": "observation",
                "score": 0.0,
                "observation_date": "2022-01-11",
                "source": null,
                "sensor_name": null,
                "current_phase": null,
                "is_occluded": null,
                "is_site_boundary": null
            },
            "geometry": {
                "type": "Polygon",
                "coordinates": [
                    [
                        [
                            -46.59518210093977,
                            -23.72193976135634
                        ],
                        [
                            -46.59719542989721,
                            -23.72149033289457
                        ],
                        [
                            -46.59709502569726,
                            -23.72101715375831
                        ],
                        [
                            -46.59512985290728,
                            -23.7213639449849
                        ],
                        [
                            -46.59518210093977,
                            -23.72193976135634
                        ]
                    ]
                ]
            }
        }
    ]
}