{
    "type": "FeatureCollection",
    "features": [
        {
            "type": "Feature",
            "properties": {
                "type": "site",
                "region_id": "BR_C000",
                "version": "2.0.1",
                "mgrs": "23KLP",
                "model_content": "annotation",
                "start_date": "2019-07-31",
                "end_date": "2023-05-07",
                "originator": "iMERIT",
                "site_id": "BR_C000_0428",
                "status": "positive_pending",
                "validated": "False",
                "score": 0.0,
                "misc_info": {
                    "commit_hash": "b8980b308111f4d719b33abcdfd4475cdb0511ce"
                }
            },
            "geometry": {
                "type": "Polygon",
                "coordinates": [
                    [
                        [
                            -46.66219135107244,
                            -23.73236245327623
                        ],
                        [
                            -46.66246490674006,
                            -23.73215351300834
                        ],
                        [
                            -46.66299079591411,
                            -23.73185117072997
                        ],
                        [
                            -46.66269695001482,
                            -23.73146810107423
                        ],
                        [
                            -46.66258136411135,
                            -23.73154414434428
                        ],
                        [
                            -46.66232113337777,
                            -23.73142970147183
                        ],
                        [
                            -46.66218646750863,
                            -23.73142674553767
                        ],
                        [
                            -46.66206596489896,
                            -23.73144158094775
                        ],
                        [
                            -46.66195443861415,
                            -23.73146816982733
                        ],
                        [
                            -46.66212278336052,
                            -23.73173231307803
                        ],
                        [
                            -46.66198932810951,
                            -23.73182385275517
                        ],
                        [
                            -46.66180577988636,
                            -23.73174910538981
                        ],
                        [
                            -46.66147177024643,
                            -23.73209668414091
                        ],
                        [
                            -46.66219135107244,
                            -23.73236245327623
                        ]
                    ]
                ]
            }
        },
        {
            "type": "Feature",
            "properties": {
                "type": "observation",
                "score": 0.0,
                "observation_date": "2019-07-31",
                "source": null,
                "sensor_name": null,
                "current_phase": null,
                "is_occluded": null,
                "is_site_boundary": null
            },
            "geometry": {
                "type": "Polygon",
                "coordinates": [
                    [
                        [
                            -46.66219135107244,
                            -23.73236245327623
                        ],
                        [
                            -46.66246490674006,
                            -23.73215351300834
                        ],
                        [
                            -46.66299079591411,
                            -23.73185117072997
                        ],
                        [
                            -46.66269695001482,
                            -23.73146810107423
                        ],
                        [
                            -46.66258136411135,
                            -23.73154414434428
                        ],
                        [
                            -46.66232113337777,
                            -23.73142970147183
                        ],
                        [
                            -46.66218646750863,
                            -23.73142674553767
                        ],
                        [
                            -46.66206596489896,
                            -23.73144158094775
                        ],
                        [
                            -46.66195443861415,
                            -23.73146816982733
                        ],
                        [
                            -46.66212278336052,
                            -23.73173231307803
                        ],
                        [
                            -46.66198932810951,
                            -23.73182385275517
                        ],
                        [
                            -46.66180577988636,
                            -23.73174910538981
                        ],
                        [
                            -46.66147177024643,
                            -23.73209668414091
                        ],
                        [
                            -46.66219135107244,
                            -23.73236245327623
                        ]
                    ]
                ]
            }
        },
        {
            "type": "Feature",
            "properties": {
                "type": "observation",
                "score": 0.0,
                "observation_date": "2023-05-07",
                "source": null,
                "sensor_name": null,
                "current_phase": null,
                "is_occluded": null,
                "is_site_boundary": null
            },
            "geometry": {
                "type": "Polygon",
                "coordinates": [
                    [
                        [
                            -46.66219135107244,
                            -23.73236245327623
                        ],
                        [
                            -46.66246490674006,
                            -23.73215351300834
                        ],
                        [
                            -46.66299079591411,
                            -23.73185117072997
                        ],
                        [
                            -46.66269695001482,
                            -23.73146810107423
                        ],
                        [
                            -46.66258136411135,
                            -23.73154414434428
                        ],
                        [
                            -46.66232113337777,
                            -23.73142970147183
                        ],
                        [
                            -46.66218646750863,
                            -23.73142674553767
                        ],
                        [
                            -46.66206596489896,
                            -23.73144158094775
                        ],
                        [
                            -46.66195443861415,
                            -23.73146816982733
                        ],
                        [
                            -46.66212278336052,
                            -23.73173231307803
                        ],
                        [
                            -46.66198932810951,
                            -23.73182385275517
                        ],
                        [
                            -46.66180577988636,
                            -23.73174910538981
                        ],
                        [
                            -46.66147177024643,
                            -23.73209668414091
                        ],
                        [
                            -46.66219135107244,
                            -23.73236245327623
                        ]
                    ]
                ]
            }
        }
    ]
}