{
    "type": "FeatureCollection",
    "features": [
        {
            "type": "Feature",
            "properties": {
                "type": "site",
                "region_id": "BR_C000",
                "version": "2.0.0",
                "mgrs": "23KLP",
                "model_content": "annotation",
                "start_date": "2019-08-10",
                "end_date": "2021-08-19",
                "originator": "iMERIT",
                "site_id": "BR_C000_0205",
                "status": "positive_pending",
                "validated": "False",
                "score": 0.0,
                "misc_info": {
                    "commit_hash": "b8980b308111f4d719b33abcdfd4475cdb0511ce"
                }
            },
            "geometry": {
                "type": "Polygon",
                "coordinates": [
                    [
                        [
                            -46.68582282373108,
                            -23.61369236787192
                        ],
                        [
                            -46.68525880823677,
                            -23.614133183532605
                        ],
                        [
                            -46.68589886652081,
                            -23.614765962877325
                        ],
                        [
                            -46.68645366775307,
                            -23.614300639973536
                        ],
                        [
                            -46.68582282373108,
                            -23.61369236787192
                        ]
                    ]
                ]
            }
        },
        {
            "type": "Feature",
            "properties": {
                "type": "observation",
                "score": 0.0,
                "observation_date": "2019-08-10",
                "source": null,
                "sensor_name": null,
                "current_phase": null,
                "is_occluded": null,
                "is_site_boundary": null
            },
            "geometry": {
                "type": "Polygon",
                "coordinates": [
                    [
                        [
                            -46.68582282373108,
                            -23.61369236787192
                        ],
                        [
                            -46.68525880823677,
                            -23.614133183532605
                        ],
                        [
                            -46.68589886652081,
                            -23.614765962877325
                        ],
                        [
                            -46.68645366775307,
                            -23.614300639973536
                        ],
                        [
                            -46.68582282373108,
                            -23.61369236787192
                        ]
                    ]
                ]
            }
        },
        {
            "type": "Feature",
            "properties": {
                "type": "observation",
                "score": 0.0,
                "observation_date": "2021-08-19",
                "source": null,
                "sensor_name": null,
                "current_phase": null,
                "is_occluded": null,
                "is_site_boundary": null
            },
            "geometry": {
                "type": "Polygon",
                "coordinates": [
                    [
                        [
                            -46.68582282373108,
                            -23.61369236787192
                        ],
                        [
                            -46.68525880823677,
                            -23.614133183532605
                        ],
                        [
                            -46.68589886652081,
                            -23.614765962877325
                        ],
                        [
                            -46.68645366775307,
                            -23.614300639973536
                        ],
                        [
                            -46.68582282373108,
                            -23.61369236787192
                        ]
                    ]
                ]
            }
        }
    ]
}