{
    "type": "FeatureCollection",
    "features": [
        {
            "type": "Feature",
            "properties": {
                "type": "site",
                "region_id": "BR_C000",
                "version": "2.0.0",
                "mgrs": "23KLP",
                "model_content": "annotation",
                "start_date": "2019-04-02",
                "end_date": "2021-06-05",
                "originator": "iMERIT",
                "site_id": "BR_C000_0458",
                "status": "positive_pending",
                "validated": "False",
                "score": 0.0,
                "misc_info": {
                    "commit_hash": "b8980b308111f4d719b33abcdfd4475cdb0511ce"
                }
            },
            "geometry": {
                "type": "Polygon",
                "coordinates": [
                    [
                        [
                            -46.596133883412485,
                            -23.59993197432542
                        ],
                        [
                            -46.595386628985146,
                            -23.600533234406765
                        ],
                        [
                            -46.59593584585512,
                            -23.60105545151707
                        ],
                        [
                            -46.59665774779217,
                            -23.600450209683665
                        ],
                        [
                            -46.596133883412485,
                            -23.59993197432542
                        ]
                    ]
                ]
            }
        },
        {
            "type": "Feature",
            "properties": {
                "type": "observation",
                "score": 0.0,
                "observation_date": "2019-04-02",
                "source": null,
                "sensor_name": null,
                "current_phase": null,
                "is_occluded": null,
                "is_site_boundary": null
            },
            "geometry": {
                "type": "Polygon",
                "coordinates": [
                    [
                        [
                            -46.596133883412485,
                            -23.59993197432542
                        ],
                        [
                            -46.595386628985146,
                            -23.600533234406765
                        ],
                        [
                            -46.59593584585512,
                            -23.60105545151707
                        ],
                        [
                            -46.59665774779217,
                            -23.600450209683665
                        ],
                        [
                            -46.596133883412485,
                            -23.59993197432542
                        ]
                    ]
                ]
            }
        },
        {
            "type": "Feature",
            "properties": {
                "type": "observation",
                "score": 0.0,
                "observation_date": "2021-06-05",
                "source": null,
                "sensor_name": null,
                "current_phase": null,
                "is_occluded": null,
                "is_site_boundary": null
            },
            "geometry": {
                "type": "Polygon",
                "coordinates": [
                    [
                        [
                            -46.596133883412485,
                            -23.59993197432542
                        ],
                        [
                            -46.595386628985146,
                            -23.600533234406765
                        ],
                        [
                            -46.59593584585512,
                            -23.60105545151707
                        ],
                        [
                            -46.59665774779217,
                            -23.600450209683665
                        ],
                        [
                            -46.596133883412485,
                            -23.59993197432542
                        ]
                    ]
                ]
            }
        }
    ]
}