{
    "type": "FeatureCollection",
    "features": [
        {
            "type": "Feature",
            "properties": {
                "type": "site",
                "region_id": "BR_C000",
                "version": "2.0.0",
                "mgrs": "23KLP",
                "model_content": "annotation",
                "start_date": "2020-03-27",
                "end_date": "2021-11-07",
                "originator": "iMERIT",
                "site_id": "BR_C000_0145",
                "status": "positive_pending",
                "validated": "False",
                "score": 0.0,
                "misc_info": {
                    "commit_hash": "b8980b308111f4d719b33abcdfd4475cdb0511ce"
                }
            },
            "geometry": {
                "type": "Polygon",
                "coordinates": [
                    [
                        [
                            -46.687705789034,
                            -23.688993889554464
                        ],
                        [
                            -46.68673711072933,
                            -23.688112283456956
                        ],
                        [
                            -46.685820395714615,
                            -23.688573637091903
                        ],
                        [
                            -46.68718733798407,
                            -23.689625887615872
                        ],
                        [
                            -46.687705789034,
                            -23.688993889554464
                        ]
                    ]
                ]
            }
        },
        {
            "type": "Feature",
            "properties": {
                "type": "observation",
                "score": 0.0,
                "observation_date": "2020-03-27",
                "source": null,
                "sensor_name": null,
                "current_phase": null,
                "is_occluded": null,
                "is_site_boundary": null
            },
            "geometry": {
                "type": "Polygon",
                "coordinates": [
                    [
                        [
                            -46.687705789034,
                            -23.688993889554464
                        ],
                        [
                            -46.68673711072933,
                            -23.688112283456956
                        ],
                        [
                            -46.685820395714615,
                            -23.688573637091903
                        ],
                        [
                            -46.68718733798407,
                            -23.689625887615872
                        ],
                        [
                            -46.687705789034,
                            -23.688993889554464
                        ]
                    ]
                ]
            }
        },
        {
            "type": "Feature",
            "properties": {
                "type": "observation",
                "score": 0.0,
                "observation_date": "2021-11-07",
                "source": null,
                "sensor_name": null,
                "current_phase": null,
                "is_occluded": null,
                "is_site_boundary": null
            },
            "geometry": {
                "type": "Polygon",
                "coordinates": [
                    [
                        [
                            -46.687705789034,
                            -23.688993889554464
                        ],
                        [
                            -46.68673711072933,
                            -23.688112283456956
                        ],
                        [
                            -46.685820395714615,
                            -23.688573637091903
                        ],
                        [
                            -46.68718733798407,
                            -23.689625887615872
                        ],
                        [
                            -46.687705789034,
                            -23.688993889554464
                        ]
                    ]
                ]
            }
        }
    ]
}