{
    "type": "FeatureCollection",
    "features": [
        {
            "type": "Feature",
            "properties": {
                "type": "site",
                "region_id": "BR_C000",
                "version": "2.0.1",
                "mgrs": "23KLP",
                "model_content": "annotation",
                "start_date": "2020-11-07",
                "end_date": "2022-02-22",
                "originator": "iMERIT",
                "site_id": "BR_C000_0408",
                "status": "positive_pending",
                "validated": "False",
                "score": 0.0,
                "misc_info": {
                    "commit_hash": "b8980b308111f4d719b33abcdfd4475cdb0511ce"
                }
            },
            "geometry": {
                "type": "Polygon",
                "coordinates": [
                    [
                        [
                            -46.58337477998966,
                            -23.72474981808783
                        ],
                        [
                            -46.58265625108031,
                            -23.72461099534688
                        ],
                        [
                            -46.5821856566821,
                            -23.72460572732647
                        ],
                        [
                            -46.58149086503364,
                            -23.72460038367254
                        ],
                        [
                            -46.58121569015574,
                            -23.72467170026118
                        ],
                        [
                            -46.58164590400966,
                            -23.72496107138563
                        ],
                        [
                            -46.58172867826893,
                            -23.7248543284381
                        ],
                        [
                            -46.5817888912818,
                            -23.72480832954738
                        ],
                        [
                            -46.58242636855585,
                            -23.72492839883524
                        ],
                        [
                            -46.5832681149526,
                            -23.72509468351025
                        ],
                        [
                            -46.58337477998966,
                            -23.72474981808783
                        ]
                    ]
                ]
            }
        },
        {
            "type": "Feature",
            "properties": {
                "type": "observation",
                "score": 0.0,
                "observation_date": "2020-11-07",
                "source": null,
                "sensor_name": null,
                "current_phase": null,
                "is_occluded": null,
                "is_site_boundary": null
            },
            "geometry": {
                "type": "Polygon",
                "coordinates": [
                    [
                        [
                            -46.58337477998966,
                            -23.72474981808783
                        ],
                        [
                            -46.58265625108031,
                            -23.72461099534688
                        ],
                        [
                            -46.5821856566821,
                            -23.72460572732647
                        ],
                        [
                            -46.58149086503364,
                            -23.72460038367254
                        ],
                        [
                            -46.58121569015574,
                            -23.72467170026118
                        ],
                        [
                            -46.58164590400966,
                            -23.72496107138563
                        ],
                        [
                            -46.58172867826893,
                            -23.7248543284381
                        ],
                        [
                            -46.5817888912818,
                            -23.72480832954738
                        ],
                        [
                            -46.58242636855585,
                            -23.72492839883524
                        ],
                        [
                            -46.5832681149526,
                            -23.72509468351025
                        ],
                        [
                            -46.58337477998966,
                            -23.72474981808783
                        ]
                    ]
                ]
            }
        },
        {
            "type": "Feature",
            "properties": {
                "type": "observation",
                "score": 0.0,
                "observation_date": "2022-02-22",
                "source": null,
                "sensor_name": null,
                "current_phase": null,
                "is_occluded": null,
                "is_site_boundary": null
            },
            "geometry": {
                "type": "Polygon",
                "coordinates": [
                    [
                        [
                            -46.58337477998966,
                            -23.72474981808783
                        ],
                        [
                            -46.58265625108031,
                            -23.72461099534688
                        ],
                        [
                            -46.5821856566821,
                            -23.72460572732647
                        ],
                        [
                            -46.58149086503364,
                            -23.72460038367254
                        ],
                        [
                            -46.58121569015574,
                            -23.72467170026118
                        ],
                        [
                            -46.58164590400966,
                            -23.72496107138563
                        ],
                        [
                            -46.58172867826893,
                            -23.7248543284381
                        ],
                        [
                            -46.5817888912818,
                            -23.72480832954738
                        ],
                        [
                            -46.58242636855585,
                            -23.72492839883524
                        ],
                        [
                            -46.5832681149526,
                            -23.72509468351025
                        ],
                        [
                            -46.58337477998966,
                            -23.72474981808783
                        ]
                    ]
                ]
            }
        }
    ]
}