{
    "type": "FeatureCollection",
    "features": [
        {
            "type": "Feature",
            "properties": {
                "type": "site",
                "region_id": "BR_C000",
                "version": "2.0.1",
                "mgrs": "23KLP",
                "model_content": "annotation",
                "start_date": "2019-10-14",
                "end_date": "2021-12-12",
                "originator": "iMERIT",
                "site_id": "BR_C000_0647",
                "status": "positive_pending",
                "validated": "False",
                "score": 0.0,
                "misc_info": {
                    "commit_hash": "b8980b308111f4d719b33abcdfd4475cdb0511ce"
                }
            },
            "geometry": {
                "type": "Polygon",
                "coordinates": [
                    [
                        [
                            -46.09582760942599,
                            -23.80675632892055
                        ],
                        [
                            -46.09229157364184,
                            -23.804179968818946
                        ],
                        [
                            -46.09172315035294,
                            -23.80702208526341
                        ],
                        [
                            -46.09336936325454,
                            -23.80823275304754
                        ],
                        [
                            -46.094343803178354,
                            -23.80721402039992
                        ],
                        [
                            -46.09517798281011,
                            -23.807760297326904
                        ],
                        [
                            -46.09582760942599,
                            -23.80675632892055
                        ]
                    ]
                ]
            }
        },
        {
            "type": "Feature",
            "properties": {
                "type": "observation",
                "score": 0.0,
                "observation_date": "2019-10-14",
                "source": null,
                "sensor_name": null,
                "current_phase": null,
                "is_occluded": null,
                "is_site_boundary": null
            },
            "geometry": {
                "type": "Polygon",
                "coordinates": [
                    [
                        [
                            -46.09582760942599,
                            -23.80675632892055
                        ],
                        [
                            -46.09229157364184,
                            -23.804179968818946
                        ],
                        [
                            -46.09172315035294,
                            -23.80702208526341
                        ],
                        [
                            -46.09336936325454,
                            -23.80823275304754
                        ],
                        [
                            -46.094343803178354,
                            -23.80721402039992
                        ],
                        [
                            -46.09517798281011,
                            -23.807760297326904
                        ],
                        [
                            -46.09582760942599,
                            -23.80675632892055
                        ]
                    ]
                ]
            }
        },
        {
            "type": "Feature",
            "properties": {
                "type": "observation",
                "score": 0.0,
                "observation_date": "2021-12-12",
                "source": null,
                "sensor_name": null,
                "current_phase": null,
                "is_occluded": null,
                "is_site_boundary": null
            },
            "geometry": {
                "type": "Polygon",
                "coordinates": [
                    [
                        [
                            -46.09582760942599,
                            -23.80675632892055
                        ],
                        [
                            -46.09229157364184,
                            -23.804179968818946
                        ],
                        [
                            -46.09172315035294,
                            -23.80702208526341
                        ],
                        [
                            -46.09336936325454,
                            -23.80823275304754
                        ],
                        [
                            -46.094343803178354,
                            -23.80721402039992
                        ],
                        [
                            -46.09517798281011,
                            -23.807760297326904
                        ],
                        [
                            -46.09582760942599,
                            -23.80675632892055
                        ]
                    ]
                ]
            }
        }
    ]
}