{
    "type": "FeatureCollection",
    "features": [
        {
            "type": "Feature",
            "properties": {
                "type": "site",
                "region_id": "BR_C000",
                "version": "2.0.1",
                "mgrs": "23KLP",
                "model_content": "annotation",
                "start_date": "2015-06-13",
                "end_date": "2018-01-22",
                "originator": "iMERIT",
                "site_id": "BR_C000_0596",
                "status": "positive_pending",
                "validated": "False",
                "score": 0.0,
                "misc_info": {
                    "commit_hash": "b8980b308111f4d719b33abcdfd4475cdb0511ce"
                }
            },
            "geometry": {
                "type": "Polygon",
                "coordinates": [
                    [
                        [
                            -46.42816009680644,
                            -23.53539178337681
                        ],
                        [
                            -46.42795008527365,
                            -23.53521564467189
                        ],
                        [
                            -46.42660194672446,
                            -23.53608278906534
                        ],
                        [
                            -46.42683228195397,
                            -23.536407968212885
                        ],
                        [
                            -46.42611417800315,
                            -23.536814442147314
                        ],
                        [
                            -46.427042293486764,
                            -23.537905147204697
                        ],
                        [
                            -46.42816009680644,
                            -23.53539178337681
                        ]
                    ]
                ]
            }
        },
        {
            "type": "Feature",
            "properties": {
                "type": "observation",
                "score": 0.0,
                "observation_date": "2015-06-13",
                "source": null,
                "sensor_name": null,
                "current_phase": null,
                "is_occluded": null,
                "is_site_boundary": null
            },
            "geometry": {
                "type": "Polygon",
                "coordinates": [
                    [
                        [
                            -46.42816009680644,
                            -23.53539178337681
                        ],
                        [
                            -46.42795008527365,
                            -23.53521564467189
                        ],
                        [
                            -46.42660194672446,
                            -23.53608278906534
                        ],
                        [
                            -46.42683228195397,
                            -23.536407968212885
                        ],
                        [
                            -46.42611417800315,
                            -23.536814442147314
                        ],
                        [
                            -46.427042293486764,
                            -23.537905147204697
                        ],
                        [
                            -46.42816009680644,
                            -23.53539178337681
                        ]
                    ]
                ]
            }
        },
        {
            "type": "Feature",
            "properties": {
                "type": "observation",
                "score": 0.0,
                "observation_date": "2018-01-22",
                "source": null,
                "sensor_name": null,
                "current_phase": null,
                "is_occluded": null,
                "is_site_boundary": null
            },
            "geometry": {
                "type": "Polygon",
                "coordinates": [
                    [
                        [
                            -46.42816009680644,
                            -23.53539178337681
                        ],
                        [
                            -46.42795008527365,
                            -23.53521564467189
                        ],
                        [
                            -46.42660194672446,
                            -23.53608278906534
                        ],
                        [
                            -46.42683228195397,
                            -23.536407968212885
                        ],
                        [
                            -46.42611417800315,
                            -23.536814442147314
                        ],
                        [
                            -46.427042293486764,
                            -23.537905147204697
                        ],
                        [
                            -46.42816009680644,
                            -23.53539178337681
                        ]
                    ]
                ]
            }
        }
    ]
}