{
    "type": "FeatureCollection",
    "features": [
        {
            "type": "Feature",
            "properties": {
                "type": "site",
                "region_id": "BR_C000",
                "version": "2.0.1",
                "mgrs": "23KLP",
                "model_content": "annotation",
                "start_date": "2016-11-20",
                "end_date": "2023-05-23",
                "originator": "iMERIT",
                "site_id": "BR_C000_0462",
                "status": "positive_pending",
                "validated": "False",
                "score": 0.0,
                "misc_info": {
                    "commit_hash": "b8980b308111f4d719b33abcdfd4475cdb0511ce"
                }
            },
            "geometry": {
                "type": "Polygon",
                "coordinates": [
                    [
                        [
                            -46.64280486819827,
                            -23.534184956071197
                        ],
                        [
                            -46.641602620521155,
                            -23.535737676033982
                        ],
                        [
                            -46.64086841189016,
                            -23.535232844527076
                        ],
                        [
                            -46.64156441017967,
                            -23.534246490287543
                        ],
                        [
                            -46.64084499676054,
                            -23.533781776071564
                        ],
                        [
                            -46.64127957390957,
                            -23.53316763893336
                        ],
                        [
                            -46.64280486819827,
                            -23.534184956071197
                        ]
                    ]
                ]
            }
        },
        {
            "type": "Feature",
            "properties": {
                "type": "observation",
                "score": 0.0,
                "observation_date": "2016-11-20",
                "source": null,
                "sensor_name": null,
                "current_phase": null,
                "is_occluded": null,
                "is_site_boundary": null
            },
            "geometry": {
                "type": "Polygon",
                "coordinates": [
                    [
                        [
                            -46.64280486819827,
                            -23.534184956071197
                        ],
                        [
                            -46.641602620521155,
                            -23.535737676033982
                        ],
                        [
                            -46.64086841189016,
                            -23.535232844527076
                        ],
                        [
                            -46.64156441017967,
                            -23.534246490287543
                        ],
                        [
                            -46.64084499676054,
                            -23.533781776071564
                        ],
                        [
                            -46.64127957390957,
                            -23.53316763893336
                        ],
                        [
                            -46.64280486819827,
                            -23.534184956071197
                        ]
                    ]
                ]
            }
        },
        {
            "type": "Feature",
            "properties": {
                "type": "observation",
                "score": 0.0,
                "observation_date": "2023-05-23",
                "source": null,
                "sensor_name": null,
                "current_phase": null,
                "is_occluded": null,
                "is_site_boundary": null
            },
            "geometry": {
                "type": "Polygon",
                "coordinates": [
                    [
                        [
                            -46.64280486819827,
                            -23.534184956071197
                        ],
                        [
                            -46.641602620521155,
                            -23.535737676033982
                        ],
                        [
                            -46.64086841189016,
                            -23.535232844527076
                        ],
                        [
                            -46.64156441017967,
                            -23.534246490287543
                        ],
                        [
                            -46.64084499676054,
                            -23.533781776071564
                        ],
                        [
                            -46.64127957390957,
                            -23.53316763893336
                        ],
                        [
                            -46.64280486819827,
                            -23.534184956071197
                        ]
                    ]
                ]
            }
        }
    ]
}