{
    "type": "FeatureCollection",
    "features": [
        {
            "type": "Feature",
            "properties": {
                "type": "site",
                "region_id": "BR_C000",
                "version": "2.0.0",
                "mgrs": "23KLP",
                "model_content": "annotation",
                "start_date": "2017-06-11",
                "end_date": "2020-03-12",
                "originator": "iMERIT",
                "site_id": "BR_C000_0172",
                "status": "positive_pending",
                "validated": "False",
                "score": 0.0,
                "misc_info": {
                    "commit_hash": "b8980b308111f4d719b33abcdfd4475cdb0511ce"
                }
            },
            "geometry": {
                "type": "Polygon",
                "coordinates": [
                    [
                        [
                            -46.74847754302462,
                            -23.629884210302038
                        ],
                        [
                            -46.7472302581242,
                            -23.63047647159757
                        ],
                        [
                            -46.74727194266946,
                            -23.630599024340892
                        ],
                        [
                            -46.747818610594884,
                            -23.6307584212304
                        ],
                        [
                            -46.74875040407312,
                            -23.630388661913642
                        ],
                        [
                            -46.74847754302462,
                            -23.629884210302038
                        ]
                    ]
                ]
            }
        },
        {
            "type": "Feature",
            "properties": {
                "type": "observation",
                "score": 0.0,
                "observation_date": "2017-06-11",
                "source": null,
                "sensor_name": null,
                "current_phase": null,
                "is_occluded": null,
                "is_site_boundary": null
            },
            "geometry": {
                "type": "Polygon",
                "coordinates": [
                    [
                        [
                            -46.74847754302462,
                            -23.629884210302038
                        ],
                        [
                            -46.7472302581242,
                            -23.63047647159757
                        ],
                        [
                            -46.74727194266946,
                            -23.630599024340892
                        ],
                        [
                            -46.747818610594884,
                            -23.6307584212304
                        ],
                        [
                            -46.74875040407312,
                            -23.630388661913642
                        ],
                        [
                            -46.74847754302462,
                            -23.629884210302038
                        ]
                    ]
                ]
            }
        },
        {
            "type": "Feature",
            "properties": {
                "type": "observation",
                "score": 0.0,
                "observation_date": "2020-03-12",
                "source": null,
                "sensor_name": null,
                "current_phase": null,
                "is_occluded": null,
                "is_site_boundary": null
            },
            "geometry": {
                "type": "Polygon",
                "coordinates": [
                    [
                        [
                            -46.74847754302462,
                            -23.629884210302038
                        ],
                        [
                            -46.7472302581242,
                            -23.63047647159757
                        ],
                        [
                            -46.74727194266946,
                            -23.630599024340892
                        ],
                        [
                            -46.747818610594884,
                            -23.6307584212304
                        ],
                        [
                            -46.74875040407312,
                            -23.630388661913642
                        ],
                        [
                            -46.74847754302462,
                            -23.629884210302038
                        ]
                    ]
                ]
            }
        }
    ]
}