{
    "type": "FeatureCollection",
    "features": [
        {
            "type": "Feature",
            "properties": {
                "type": "site",
                "region_id": "BR_C000",
                "version": "2.0.0",
                "mgrs": "23KLP",
                "model_content": "annotation",
                "start_date": "2019-11-03",
                "end_date": null,
                "originator": "iMERIT",
                "site_id": "BR_C000_0399",
                "status": "positive_pending",
                "validated": "False",
                "score": 0.0,
                "misc_info": {
                    "commit_hash": "b8980b308111f4d719b33abcdfd4475cdb0511ce"
                }
            },
            "geometry": {
                "type": "Polygon",
                "coordinates": [
                    [
                        [
                            -46.51450734870338,
                            -23.55894668426444
                        ],
                        [
                            -46.51549469572525,
                            -23.560164141870118
                        ],
                        [
                            -46.51522255529462,
                            -23.560373864168557
                        ],
                        [
                            -46.51546819479937,
                            -23.560754931984743
                        ],
                        [
                            -46.51475867960409,
                            -23.561275686428672
                        ],
                        [
                            -46.51357639922137,
                            -23.559745683159875
                        ],
                        [
                            -46.51450734870338,
                            -23.55894668426444
                        ]
                    ]
                ]
            }
        },
        {
            "type": "Feature",
            "properties": {
                "type": "observation",
                "score": 0.0,
                "observation_date": "2019-11-03",
                "source": null,
                "sensor_name": null,
                "current_phase": null,
                "is_occluded": null,
                "is_site_boundary": null
            },
            "geometry": {
                "type": "Polygon",
                "coordinates": [
                    [
                        [
                            -46.51450734870338,
                            -23.55894668426444
                        ],
                        [
                            -46.51549469572525,
                            -23.560164141870118
                        ],
                        [
                            -46.51522255529462,
                            -23.560373864168557
                        ],
                        [
                            -46.51546819479937,
                            -23.560754931984743
                        ],
                        [
                            -46.51475867960409,
                            -23.561275686428672
                        ],
                        [
                            -46.51357639922137,
                            -23.559745683159875
                        ],
                        [
                            -46.51450734870338,
                            -23.55894668426444
                        ]
                    ]
                ]
            }
        },
        {
            "type": "Feature",
            "properties": {
                "type": "observation",
                "score": 0.0,
                "observation_date": null,
                "source": null,
                "sensor_name": null,
                "current_phase": null,
                "is_occluded": null,
                "is_site_boundary": null
            },
            "geometry": {
                "type": "Polygon",
                "coordinates": [
                    [
                        [
                            -46.51450734870338,
                            -23.55894668426444
                        ],
                        [
                            -46.51549469572525,
                            -23.560164141870118
                        ],
                        [
                            -46.51522255529462,
                            -23.560373864168557
                        ],
                        [
                            -46.51546819479937,
                            -23.560754931984743
                        ],
                        [
                            -46.51475867960409,
                            -23.561275686428672
                        ],
                        [
                            -46.51357639922137,
                            -23.559745683159875
                        ],
                        [
                            -46.51450734870338,
                            -23.55894668426444
                        ]
                    ]
                ]
            }
        }
    ]
}