{
    "type": "FeatureCollection",
    "features": [
        {
            "type": "Feature",
            "properties": {
                "type": "site",
                "region_id": "BR_C000",
                "version": "2.0.0",
                "mgrs": "23KLP",
                "model_content": "annotation",
                "start_date": "2018-06-01",
                "end_date": "2019-03-23",
                "originator": "iMERIT",
                "site_id": "BR_C000_0018",
                "status": "positive_pending",
                "validated": "False",
                "score": 0.0,
                "misc_info": {
                    "commit_hash": "b8980b308111f4d719b33abcdfd4475cdb0511ce"
                }
            },
            "geometry": {
                "type": "Polygon",
                "coordinates": [
                    [
                        [
                            -46.45119441828776,
                            -23.999359112529383
                        ],
                        [
                            -46.45128820533992,
                            -23.998945822220588
                        ],
                        [
                            -46.451156808966175,
                            -23.998788280033402
                        ],
                        [
                            -46.45094469338287,
                            -23.998710894686056
                        ],
                        [
                            -46.450755540437115,
                            -23.998754586617732
                        ],
                        [
                            -46.45049358764057,
                            -23.99872839554916
                        ],
                        [
                            -46.45033875806634,
                            -23.99862179763376
                        ],
                        [
                            -46.45019278545808,
                            -23.998662875009714
                        ],
                        [
                            -46.44999855330551,
                            -23.99911019527221
                        ],
                        [
                            -46.45119441828776,
                            -23.999359112529383
                        ]
                    ]
                ]
            }
        },
        {
            "type": "Feature",
            "properties": {
                "type": "observation",
                "score": 0.0,
                "observation_date": "2018-06-01",
                "source": null,
                "sensor_name": null,
                "current_phase": null,
                "is_occluded": null,
                "is_site_boundary": null
            },
            "geometry": {
                "type": "Polygon",
                "coordinates": [
                    [
                        [
                            -46.45119441828776,
                            -23.999359112529383
                        ],
                        [
                            -46.45128820533992,
                            -23.998945822220588
                        ],
                        [
                            -46.451156808966175,
                            -23.998788280033402
                        ],
                        [
                            -46.45094469338287,
                            -23.998710894686056
                        ],
                        [
                            -46.450755540437115,
                            -23.998754586617732
                        ],
                        [
                            -46.45049358764057,
                            -23.99872839554916
                        ],
                        [
                            -46.45033875806634,
                            -23.99862179763376
                        ],
                        [
                            -46.45019278545808,
                            -23.998662875009714
                        ],
                        [
                            -46.44999855330551,
                            -23.99911019527221
                        ],
                        [
                            -46.45119441828776,
                            -23.999359112529383
                        ]
                    ]
                ]
            }
        },
        {
            "type": "Feature",
            "properties": {
                "type": "observation",
                "score": 0.0,
                "observation_date": "2019-03-23",
                "source": null,
                "sensor_name": null,
                "current_phase": null,
                "is_occluded": null,
                "is_site_boundary": null
            },
            "geometry": {
                "type": "Polygon",
                "coordinates": [
                    [
                        [
                            -46.45119441828776,
                            -23.999359112529383
                        ],
                        [
                            -46.45128820533992,
                            -23.998945822220588
                        ],
                        [
                            -46.451156808966175,
                            -23.998788280033402
                        ],
                        [
                            -46.45094469338287,
                            -23.998710894686056
                        ],
                        [
                            -46.450755540437115,
                            -23.998754586617732
                        ],
                        [
                            -46.45049358764057,
                            -23.99872839554916
                        ],
                        [
                            -46.45033875806634,
                            -23.99862179763376
                        ],
                        [
                            -46.45019278545808,
                            -23.998662875009714
                        ],
                        [
                            -46.44999855330551,
                            -23.99911019527221
                        ],
                        [
                            -46.45119441828776,
                            -23.999359112529383
                        ]
                    ]
                ]
            }
        }
    ]
}