{
    "type": "FeatureCollection",
    "features": [
        {
            "type": "Feature",
            "properties": {
                "type": "site",
                "region_id": "BR_C000",
                "version": "2.0.1",
                "mgrs": "23KLQ",
                "model_content": "annotation",
                "start_date": "2018-04-12",
                "end_date": "2020-04-26",
                "originator": "iMERIT",
                "site_id": "BR_C000_0882",
                "status": "positive_pending",
                "validated": "False",
                "score": 0.0,
                "misc_info": {
                    "commit_hash": "b8980b308111f4d719b33abcdfd4475cdb0511ce"
                }
            },
            "geometry": {
                "type": "Polygon",
                "coordinates": [
                    [
                        [
                            -46.39006787757521,
                            -23.494731063415685
                        ],
                        [
                            -46.38966271991067,
                            -23.495466185071027
                        ],
                        [
                            -46.38865777687095,
                            -23.49495407205457
                        ],
                        [
                            -46.38828320810491,
                            -23.49549852540917
                        ],
                        [
                            -46.3897461230289,
                            -23.496166886317702
                        ],
                        [
                            -46.39050506120286,
                            -23.49497767823542
                        ],
                        [
                            -46.39006787757521,
                            -23.494731063415685
                        ]
                    ]
                ]
            }
        },
        {
            "type": "Feature",
            "properties": {
                "type": "observation",
                "score": 0.0,
                "observation_date": "2018-04-12",
                "source": null,
                "sensor_name": null,
                "current_phase": null,
                "is_occluded": null,
                "is_site_boundary": null
            },
            "geometry": {
                "type": "Polygon",
                "coordinates": [
                    [
                        [
                            -46.39006787757521,
                            -23.494731063415685
                        ],
                        [
                            -46.38966271991067,
                            -23.495466185071027
                        ],
                        [
                            -46.38865777687095,
                            -23.49495407205457
                        ],
                        [
                            -46.38828320810491,
                            -23.49549852540917
                        ],
                        [
                            -46.3897461230289,
                            -23.496166886317702
                        ],
                        [
                            -46.39050506120286,
                            -23.49497767823542
                        ],
                        [
                            -46.39006787757521,
                            -23.494731063415685
                        ]
                    ]
                ]
            }
        },
        {
            "type": "Feature",
            "properties": {
                "type": "observation",
                "score": 0.0,
                "observation_date": "2020-04-26",
                "source": null,
                "sensor_name": null,
                "current_phase": null,
                "is_occluded": null,
                "is_site_boundary": null
            },
            "geometry": {
                "type": "Polygon",
                "coordinates": [
                    [
                        [
                            -46.39006787757521,
                            -23.494731063415685
                        ],
                        [
                            -46.38966271991067,
                            -23.495466185071027
                        ],
                        [
                            -46.38865777687095,
                            -23.49495407205457
                        ],
                        [
                            -46.38828320810491,
                            -23.49549852540917
                        ],
                        [
                            -46.3897461230289,
                            -23.496166886317702
                        ],
                        [
                            -46.39050506120286,
                            -23.49497767823542
                        ],
                        [
                            -46.39006787757521,
                            -23.494731063415685
                        ]
                    ]
                ]
            }
        }
    ]
}