{
    "type": "FeatureCollection",
    "features": [
        {
            "type": "Feature",
            "properties": {
                "type": "site",
                "region_id": "BR_C000",
                "version": "2.0.0",
                "mgrs": "23KLP",
                "model_content": "annotation",
                "start_date": "2018-04-07",
                "end_date": "2021-09-28",
                "originator": "iMERIT",
                "site_id": "BR_C000_0328",
                "status": "positive_pending",
                "validated": "False",
                "score": 0.0,
                "misc_info": {
                    "commit_hash": "b8980b308111f4d719b33abcdfd4475cdb0511ce"
                }
            },
            "geometry": {
                "type": "Polygon",
                "coordinates": [
                    [
                        [
                            -46.80701331892545,
                            -23.55311124041756
                        ],
                        [
                            -46.80655204671596,
                            -23.55345980890688
                        ],
                        [
                            -46.80726776317816,
                            -23.55420987656523
                        ],
                        [
                            -46.80772333343268,
                            -23.55381645530229
                        ],
                        [
                            -46.80701331892545,
                            -23.55311124041756
                        ]
                    ]
                ]
            }
        },
        {
            "type": "Feature",
            "properties": {
                "type": "observation",
                "score": 0.0,
                "observation_date": "2018-04-07",
                "source": null,
                "sensor_name": null,
                "current_phase": null,
                "is_occluded": null,
                "is_site_boundary": null
            },
            "geometry": {
                "type": "Polygon",
                "coordinates": [
                    [
                        [
                            -46.80701331892545,
                            -23.55311124041756
                        ],
                        [
                            -46.80655204671596,
                            -23.55345980890688
                        ],
                        [
                            -46.80726776317816,
                            -23.55420987656523
                        ],
                        [
                            -46.80772333343268,
                            -23.55381645530229
                        ],
                        [
                            -46.80701331892545,
                            -23.55311124041756
                        ]
                    ]
                ]
            }
        },
        {
            "type": "Feature",
            "properties": {
                "type": "observation",
                "score": 0.0,
                "observation_date": "2021-09-28",
                "source": null,
                "sensor_name": null,
                "current_phase": null,
                "is_occluded": null,
                "is_site_boundary": null
            },
            "geometry": {
                "type": "Polygon",
                "coordinates": [
                    [
                        [
                            -46.80701331892545,
                            -23.55311124041756
                        ],
                        [
                            -46.80655204671596,
                            -23.55345980890688
                        ],
                        [
                            -46.80726776317816,
                            -23.55420987656523
                        ],
                        [
                            -46.80772333343268,
                            -23.55381645530229
                        ],
                        [
                            -46.80701331892545,
                            -23.55311124041756
                        ]
                    ]
                ]
            }
        }
    ]
}