{
    "type": "FeatureCollection",
    "features": [
        {
            "type": "Feature",
            "properties": {
                "type": "site",
                "region_id": "BR_C000",
                "version": "2.0.1",
                "mgrs": "23KLP",
                "model_content": "annotation",
                "start_date": "2016-11-08",
                "end_date": "2018-11-28",
                "originator": "iMERIT",
                "site_id": "BR_C000_0334",
                "status": "positive_pending",
                "validated": "False",
                "score": 0.0,
                "misc_info": {
                    "commit_hash": "b8980b308111f4d719b33abcdfd4475cdb0511ce"
                }
            },
            "geometry": {
                "type": "Polygon",
                "coordinates": [
                    [
                        [
                            -46.83055180219146,
                            -23.50442879383327
                        ],
                        [
                            -46.82947602183573,
                            -23.50457566571281
                        ],
                        [
                            -46.82960980660908,
                            -23.5052345104622
                        ],
                        [
                            -46.8299454142736,
                            -23.50522456200583
                        ],
                        [
                            -46.83019578572899,
                            -23.50673865649992
                        ],
                        [
                            -46.83079734218362,
                            -23.50622253345323
                        ],
                        [
                            -46.83055180219146,
                            -23.50442879383327
                        ]
                    ]
                ]
            }
        },
        {
            "type": "Feature",
            "properties": {
                "type": "observation",
                "score": 0.0,
                "observation_date": "2016-11-08",
                "source": null,
                "sensor_name": null,
                "current_phase": null,
                "is_occluded": null,
                "is_site_boundary": null
            },
            "geometry": {
                "type": "Polygon",
                "coordinates": [
                    [
                        [
                            -46.83055180219146,
                            -23.50442879383327
                        ],
                        [
                            -46.82947602183573,
                            -23.50457566571281
                        ],
                        [
                            -46.82960980660908,
                            -23.5052345104622
                        ],
                        [
                            -46.8299454142736,
                            -23.50522456200583
                        ],
                        [
                            -46.83019578572899,
                            -23.50673865649992
                        ],
                        [
                            -46.83079734218362,
                            -23.50622253345323
                        ],
                        [
                            -46.83055180219146,
                            -23.50442879383327
                        ]
                    ]
                ]
            }
        },
        {
            "type": "Feature",
            "properties": {
                "type": "observation",
                "score": 0.0,
                "observation_date": "2018-11-28",
                "source": null,
                "sensor_name": null,
                "current_phase": null,
                "is_occluded": null,
                "is_site_boundary": null
            },
            "geometry": {
                "type": "Polygon",
                "coordinates": [
                    [
                        [
                            -46.83055180219146,
                            -23.50442879383327
                        ],
                        [
                            -46.82947602183573,
                            -23.50457566571281
                        ],
                        [
                            -46.82960980660908,
                            -23.5052345104622
                        ],
                        [
                            -46.8299454142736,
                            -23.50522456200583
                        ],
                        [
                            -46.83019578572899,
                            -23.50673865649992
                        ],
                        [
                            -46.83079734218362,
                            -23.50622253345323
                        ],
                        [
                            -46.83055180219146,
                            -23.50442879383327
                        ]
                    ]
                ]
            }
        }
    ]
}