{
    "type": "FeatureCollection",
    "features": [
        {
            "type": "Feature",
            "properties": {
                "type": "site",
                "region_id": "BR_C000",
                "version": "2.0.1",
                "mgrs": "23KLQ",
                "model_content": "annotation",
                "start_date": "2019-01-07",
                "end_date": "2020-03-12",
                "originator": "iMERIT",
                "site_id": "BR_C000_0742",
                "status": "positive_pending",
                "validated": "False",
                "score": 0.0,
                "misc_info": {
                    "commit_hash": "b8980b308111f4d719b33abcdfd4475cdb0511ce"
                }
            },
            "geometry": {
                "type": "Polygon",
                "coordinates": [
                    [
                        [
                            -46.82742094014292,
                            -23.393178741778264
                        ],
                        [
                            -46.82416705858245,
                            -23.39182542689771
                        ],
                        [
                            -46.823237600918205,
                            -23.39241316379011
                        ],
                        [
                            -46.82310952772504,
                            -23.39782725919868
                        ],
                        [
                            -46.82667740641652,
                            -23.397938299742293
                        ],
                        [
                            -46.82730746054271,
                            -23.39830421557545
                        ],
                        [
                            -46.82862338960114,
                            -23.3977458664167
                        ],
                        [
                            -46.827321400528156,
                            -23.3966412502409
                        ],
                        [
                            -46.82742094014292,
                            -23.393178741778264
                        ]
                    ]
                ]
            }
        },
        {
            "type": "Feature",
            "properties": {
                "type": "observation",
                "score": 0.0,
                "observation_date": "2019-01-07",
                "source": null,
                "sensor_name": null,
                "current_phase": null,
                "is_occluded": null,
                "is_site_boundary": null
            },
            "geometry": {
                "type": "Polygon",
                "coordinates": [
                    [
                        [
                            -46.82742094014292,
                            -23.393178741778264
                        ],
                        [
                            -46.82416705858245,
                            -23.39182542689771
                        ],
                        [
                            -46.823237600918205,
                            -23.39241316379011
                        ],
                        [
                            -46.82310952772504,
                            -23.39782725919868
                        ],
                        [
                            -46.82667740641652,
                            -23.397938299742293
                        ],
                        [
                            -46.82730746054271,
                            -23.39830421557545
                        ],
                        [
                            -46.82862338960114,
                            -23.3977458664167
                        ],
                        [
                            -46.827321400528156,
                            -23.3966412502409
                        ],
                        [
                            -46.82742094014292,
                            -23.393178741778264
                        ]
                    ]
                ]
            }
        },
        {
            "type": "Feature",
            "properties": {
                "type": "observation",
                "score": 0.0,
                "observation_date": "2020-03-12",
                "source": null,
                "sensor_name": null,
                "current_phase": null,
                "is_occluded": null,
                "is_site_boundary": null
            },
            "geometry": {
                "type": "Polygon",
                "coordinates": [
                    [
                        [
                            -46.82742094014292,
                            -23.393178741778264
                        ],
                        [
                            -46.82416705858245,
                            -23.39182542689771
                        ],
                        [
                            -46.823237600918205,
                            -23.39241316379011
                        ],
                        [
                            -46.82310952772504,
                            -23.39782725919868
                        ],
                        [
                            -46.82667740641652,
                            -23.397938299742293
                        ],
                        [
                            -46.82730746054271,
                            -23.39830421557545
                        ],
                        [
                            -46.82862338960114,
                            -23.3977458664167
                        ],
                        [
                            -46.827321400528156,
                            -23.3966412502409
                        ],
                        [
                            -46.82742094014292,
                            -23.393178741778264
                        ]
                    ]
                ]
            }
        }
    ]
}