{
    "type": "FeatureCollection",
    "features": [
        {
            "type": "Feature",
            "properties": {
                "type": "site",
                "region_id": "BR_C000",
                "version": "2.0.1",
                "mgrs": "23KLP",
                "model_content": "annotation",
                "start_date": "2021-07-10",
                "end_date": "2022-05-22",
                "originator": "iMERIT",
                "site_id": "BR_C000_0370",
                "status": "positive_pending",
                "validated": "False",
                "score": 0.0,
                "misc_info": {
                    "commit_hash": "b8980b308111f4d719b33abcdfd4475cdb0511ce"
                }
            },
            "geometry": {
                "type": "Polygon",
                "coordinates": [
                    [
                        [
                            -46.49831850969193,
                            -23.663708647552355
                        ],
                        [
                            -46.498325334028536,
                            -23.663804642395842
                        ],
                        [
                            -46.49795670574388,
                            -23.663840240536064
                        ],
                        [
                            -46.49793902549221,
                            -23.66374973341024
                        ],
                        [
                            -46.49779027552921,
                            -23.663765838217355
                        ],
                        [
                            -46.4978739095835,
                            -23.66442854769995
                        ],
                        [
                            -46.49925644126559,
                            -23.664250136845666
                        ],
                        [
                            -46.49917637719059,
                            -23.66361576826473
                        ],
                        [
                            -46.49831850969193,
                            -23.663708647552355
                        ]
                    ]
                ]
            }
        },
        {
            "type": "Feature",
            "properties": {
                "type": "observation",
                "score": 0.0,
                "observation_date": "2021-07-10",
                "source": null,
                "sensor_name": null,
                "current_phase": null,
                "is_occluded": null,
                "is_site_boundary": null
            },
            "geometry": {
                "type": "Polygon",
                "coordinates": [
                    [
                        [
                            -46.49831850969193,
                            -23.663708647552355
                        ],
                        [
                            -46.498325334028536,
                            -23.663804642395842
                        ],
                        [
                            -46.49795670574388,
                            -23.663840240536064
                        ],
                        [
                            -46.49793902549221,
                            -23.66374973341024
                        ],
                        [
                            -46.49779027552921,
                            -23.663765838217355
                        ],
                        [
                            -46.4978739095835,
                            -23.66442854769995
                        ],
                        [
                            -46.49925644126559,
                            -23.664250136845666
                        ],
                        [
                            -46.49917637719059,
                            -23.66361576826473
                        ],
                        [
                            -46.49831850969193,
                            -23.663708647552355
                        ]
                    ]
                ]
            }
        },
        {
            "type": "Feature",
            "properties": {
                "type": "observation",
                "score": 0.0,
                "observation_date": "2022-05-22",
                "source": null,
                "sensor_name": null,
                "current_phase": null,
                "is_occluded": null,
                "is_site_boundary": null
            },
            "geometry": {
                "type": "Polygon",
                "coordinates": [
                    [
                        [
                            -46.49831850969193,
                            -23.663708647552355
                        ],
                        [
                            -46.498325334028536,
                            -23.663804642395842
                        ],
                        [
                            -46.49795670574388,
                            -23.663840240536064
                        ],
                        [
                            -46.49793902549221,
                            -23.66374973341024
                        ],
                        [
                            -46.49779027552921,
                            -23.663765838217355
                        ],
                        [
                            -46.4978739095835,
                            -23.66442854769995
                        ],
                        [
                            -46.49925644126559,
                            -23.664250136845666
                        ],
                        [
                            -46.49917637719059,
                            -23.66361576826473
                        ],
                        [
                            -46.49831850969193,
                            -23.663708647552355
                        ]
                    ]
                ]
            }
        }
    ]
}