{
    "type": "FeatureCollection",
    "features": [
        {
            "type": "Feature",
            "properties": {
                "type": "site",
                "region_id": "BR_C000",
                "version": "2.0.1",
                "mgrs": "23KLP",
                "model_content": "annotation",
                "start_date": "2013-04-20",
                "end_date": null,
                "originator": "iMERIT",
                "site_id": "BR_C000_0439",
                "status": "positive_pending",
                "validated": "False",
                "score": 0.0,
                "misc_info": {
                    "commit_hash": "b8980b308111f4d719b33abcdfd4475cdb0511ce"
                }
            },
            "geometry": {
                "type": "Polygon",
                "coordinates": [
                    [
                        [
                            -46.58127215297068,
                            -23.61306865643221
                        ],
                        [
                            -46.58310978711455,
                            -23.612829448697028
                        ],
                        [
                            -46.58363862996706,
                            -23.61624986340248
                        ],
                        [
                            -46.581711376286215,
                            -23.616693506422465
                        ],
                        [
                            -46.58127215297068,
                            -23.61306865643221
                        ]
                    ]
                ]
            }
        },
        {
            "type": "Feature",
            "properties": {
                "type": "observation",
                "score": 0.0,
                "observation_date": "2013-04-20",
                "source": null,
                "sensor_name": null,
                "current_phase": null,
                "is_occluded": null,
                "is_site_boundary": null
            },
            "geometry": {
                "type": "Polygon",
                "coordinates": [
                    [
                        [
                            -46.58127215297068,
                            -23.61306865643221
                        ],
                        [
                            -46.58310978711455,
                            -23.612829448697028
                        ],
                        [
                            -46.58363862996706,
                            -23.61624986340248
                        ],
                        [
                            -46.581711376286215,
                            -23.616693506422465
                        ],
                        [
                            -46.58127215297068,
                            -23.61306865643221
                        ]
                    ]
                ]
            }
        },
        {
            "type": "Feature",
            "properties": {
                "type": "observation",
                "score": 0.0,
                "observation_date": null,
                "source": null,
                "sensor_name": null,
                "current_phase": null,
                "is_occluded": null,
                "is_site_boundary": null
            },
            "geometry": {
                "type": "Polygon",
                "coordinates": [
                    [
                        [
                            -46.58127215297068,
                            -23.61306865643221
                        ],
                        [
                            -46.58310978711455,
                            -23.612829448697028
                        ],
                        [
                            -46.58363862996706,
                            -23.61624986340248
                        ],
                        [
                            -46.581711376286215,
                            -23.616693506422465
                        ],
                        [
                            -46.58127215297068,
                            -23.61306865643221
                        ]
                    ]
                ]
            }
        }
    ]
}