{
    "type": "FeatureCollection",
    "features": [
        {
            "type": "Feature",
            "properties": {
                "type": "site",
                "region_id": "BR_C000",
                "version": "2.0.1",
                "mgrs": "23KLP",
                "model_content": "annotation",
                "start_date": "2021-06-05",
                "end_date": "2023-03-22",
                "originator": "iMERIT",
                "site_id": "BR_C000_0561",
                "status": "positive_pending",
                "validated": "False",
                "score": 0.0,
                "misc_info": {
                    "commit_hash": "b8980b308111f4d719b33abcdfd4475cdb0511ce"
                }
            },
            "geometry": {
                "type": "Polygon",
                "coordinates": [
                    [
                        [
                            -46.36088866006052,
                            -23.562820020108145
                        ],
                        [
                            -46.36095174469054,
                            -23.5625328925241
                        ],
                        [
                            -46.360462118099626,
                            -23.562498317293464
                        ],
                        [
                            -46.35846095620757,
                            -23.56237891532755
                        ],
                        [
                            -46.35865585384914,
                            -23.56265788578849
                        ],
                        [
                            -46.360474911542774,
                            -23.56278151337725
                        ],
                        [
                            -46.36088866006052,
                            -23.562820020108145
                        ]
                    ]
                ]
            }
        },
        {
            "type": "Feature",
            "properties": {
                "type": "observation",
                "score": 0.0,
                "observation_date": "2021-06-05",
                "source": null,
                "sensor_name": null,
                "current_phase": null,
                "is_occluded": null,
                "is_site_boundary": null
            },
            "geometry": {
                "type": "Polygon",
                "coordinates": [
                    [
                        [
                            -46.36088866006052,
                            -23.562820020108145
                        ],
                        [
                            -46.36095174469054,
                            -23.5625328925241
                        ],
                        [
                            -46.360462118099626,
                            -23.562498317293464
                        ],
                        [
                            -46.35846095620757,
                            -23.56237891532755
                        ],
                        [
                            -46.35865585384914,
                            -23.56265788578849
                        ],
                        [
                            -46.360474911542774,
                            -23.56278151337725
                        ],
                        [
                            -46.36088866006052,
                            -23.562820020108145
                        ]
                    ]
                ]
            }
        },
        {
            "type": "Feature",
            "properties": {
                "type": "observation",
                "score": 0.0,
                "observation_date": "2023-03-22",
                "source": null,
                "sensor_name": null,
                "current_phase": null,
                "is_occluded": null,
                "is_site_boundary": null
            },
            "geometry": {
                "type": "Polygon",
                "coordinates": [
                    [
                        [
                            -46.36088866006052,
                            -23.562820020108145
                        ],
                        [
                            -46.36095174469054,
                            -23.5625328925241
                        ],
                        [
                            -46.360462118099626,
                            -23.562498317293464
                        ],
                        [
                            -46.35846095620757,
                            -23.56237891532755
                        ],
                        [
                            -46.35865585384914,
                            -23.56265788578849
                        ],
                        [
                            -46.360474911542774,
                            -23.56278151337725
                        ],
                        [
                            -46.36088866006052,
                            -23.562820020108145
                        ]
                    ]
                ]
            }
        }
    ]
}