{
    "type": "FeatureCollection",
    "features": [
        {
            "type": "Feature",
            "properties": {
                "type": "site",
                "region_id": "BR_C000",
                "version": "2.0.1",
                "mgrs": "23KLP",
                "model_content": "annotation",
                "start_date": "2015-12-12",
                "end_date": "2020-06-20",
                "originator": "iMERIT",
                "site_id": "BR_C000_0601",
                "status": "positive_pending",
                "validated": "False",
                "score": 0.0,
                "misc_info": {
                    "commit_hash": "b8980b308111f4d719b33abcdfd4475cdb0511ce"
                }
            },
            "geometry": {
                "type": "Polygon",
                "coordinates": [
                    [
                        [
                            -46.43081742015275,
                            -23.547213400303118
                        ],
                        [
                            -46.427403039103545,
                            -23.54596688023754
                        ],
                        [
                            -46.427863709562565,
                            -23.547809562073613
                        ],
                        [
                            -46.43038384795602,
                            -23.548622509942472
                        ],
                        [
                            -46.43081742015275,
                            -23.547213400303118
                        ]
                    ]
                ]
            }
        },
        {
            "type": "Feature",
            "properties": {
                "type": "observation",
                "score": 0.0,
                "observation_date": "2015-12-12",
                "source": null,
                "sensor_name": null,
                "current_phase": null,
                "is_occluded": null,
                "is_site_boundary": null
            },
            "geometry": {
                "type": "Polygon",
                "coordinates": [
                    [
                        [
                            -46.43081742015275,
                            -23.547213400303118
                        ],
                        [
                            -46.427403039103545,
                            -23.54596688023754
                        ],
                        [
                            -46.427863709562565,
                            -23.547809562073613
                        ],
                        [
                            -46.43038384795602,
                            -23.548622509942472
                        ],
                        [
                            -46.43081742015275,
                            -23.547213400303118
                        ]
                    ]
                ]
            }
        },
        {
            "type": "Feature",
            "properties": {
                "type": "observation",
                "score": 0.0,
                "observation_date": "2020-06-20",
                "source": null,
                "sensor_name": null,
                "current_phase": null,
                "is_occluded": null,
                "is_site_boundary": null
            },
            "geometry": {
                "type": "Polygon",
                "coordinates": [
                    [
                        [
                            -46.43081742015275,
                            -23.547213400303118
                        ],
                        [
                            -46.427403039103545,
                            -23.54596688023754
                        ],
                        [
                            -46.427863709562565,
                            -23.547809562073613
                        ],
                        [
                            -46.43038384795602,
                            -23.548622509942472
                        ],
                        [
                            -46.43081742015275,
                            -23.547213400303118
                        ]
                    ]
                ]
            }
        }
    ]
}