{
    "type": "FeatureCollection",
    "features": [
        {
            "type": "Feature",
            "properties": {
                "type": "site",
                "region_id": "BR_C000",
                "version": "2.0.0",
                "mgrs": "23KLP",
                "model_content": "annotation",
                "start_date": "2018-04-27",
                "end_date": "2019-04-22",
                "originator": "iMERIT",
                "site_id": "BR_C000_0455",
                "status": "positive_pending",
                "validated": "False",
                "score": 0.0,
                "misc_info": {
                    "commit_hash": "b8980b308111f4d719b33abcdfd4475cdb0511ce"
                }
            },
            "geometry": {
                "type": "Polygon",
                "coordinates": [
                    [
                        [
                            -46.577025502682154,
                            -23.664753376048086
                        ],
                        [
                            -46.576750673318415,
                            -23.664866409246887
                        ],
                        [
                            -46.5767185822872,
                            -23.665261041724325
                        ],
                        [
                            -46.57757072293657,
                            -23.66684230980223
                        ],
                        [
                            -46.578120438526255,
                            -23.666620479047356
                        ],
                        [
                            -46.577025502682154,
                            -23.664753376048086
                        ]
                    ]
                ]
            }
        },
        {
            "type": "Feature",
            "properties": {
                "type": "observation",
                "score": 0.0,
                "observation_date": "2018-04-27",
                "source": null,
                "sensor_name": null,
                "current_phase": null,
                "is_occluded": null,
                "is_site_boundary": null
            },
            "geometry": {
                "type": "Polygon",
                "coordinates": [
                    [
                        [
                            -46.577025502682154,
                            -23.664753376048086
                        ],
                        [
                            -46.576750673318415,
                            -23.664866409246887
                        ],
                        [
                            -46.5767185822872,
                            -23.665261041724325
                        ],
                        [
                            -46.57757072293657,
                            -23.66684230980223
                        ],
                        [
                            -46.578120438526255,
                            -23.666620479047356
                        ],
                        [
                            -46.577025502682154,
                            -23.664753376048086
                        ]
                    ]
                ]
            }
        },
        {
            "type": "Feature",
            "properties": {
                "type": "observation",
                "score": 0.0,
                "observation_date": "2019-04-22",
                "source": null,
                "sensor_name": null,
                "current_phase": null,
                "is_occluded": null,
                "is_site_boundary": null
            },
            "geometry": {
                "type": "Polygon",
                "coordinates": [
                    [
                        [
                            -46.577025502682154,
                            -23.664753376048086
                        ],
                        [
                            -46.576750673318415,
                            -23.664866409246887
                        ],
                        [
                            -46.5767185822872,
                            -23.665261041724325
                        ],
                        [
                            -46.57757072293657,
                            -23.66684230980223
                        ],
                        [
                            -46.578120438526255,
                            -23.666620479047356
                        ],
                        [
                            -46.577025502682154,
                            -23.664753376048086
                        ]
                    ]
                ]
            }
        }
    ]
}