{
    "type": "FeatureCollection",
    "features": [
        {
            "type": "Feature",
            "properties": {
                "type": "site",
                "region_id": "BR_C000",
                "version": "2.0.0",
                "mgrs": "23KLP",
                "model_content": "annotation",
                "start_date": "2018-11-28",
                "end_date": "2020-04-21",
                "originator": "iMERIT",
                "site_id": "BR_C000_0311",
                "status": "positive_pending",
                "validated": "False",
                "score": 0.0,
                "misc_info": {
                    "commit_hash": "b8980b308111f4d719b33abcdfd4475cdb0511ce"
                }
            },
            "geometry": {
                "type": "Polygon",
                "coordinates": [
                    [
                        [
                            -46.83925655869843,
                            -23.50941217943939
                        ],
                        [
                            -46.8392102152773,
                            -23.50735282488458
                        ],
                        [
                            -46.83630378772921,
                            -23.50764292201411
                        ],
                        [
                            -46.83638704361557,
                            -23.50946069833387
                        ],
                        [
                            -46.83925655869843,
                            -23.50941217943939
                        ]
                    ]
                ]
            }
        },
        {
            "type": "Feature",
            "properties": {
                "type": "observation",
                "score": 0.0,
                "observation_date": "2018-11-28",
                "source": null,
                "sensor_name": null,
                "current_phase": null,
                "is_occluded": null,
                "is_site_boundary": null
            },
            "geometry": {
                "type": "Polygon",
                "coordinates": [
                    [
                        [
                            -46.83925655869843,
                            -23.50941217943939
                        ],
                        [
                            -46.8392102152773,
                            -23.50735282488458
                        ],
                        [
                            -46.83630378772921,
                            -23.50764292201411
                        ],
                        [
                            -46.83638704361557,
                            -23.50946069833387
                        ],
                        [
                            -46.83925655869843,
                            -23.50941217943939
                        ]
                    ]
                ]
            }
        },
        {
            "type": "Feature",
            "properties": {
                "type": "observation",
                "score": 0.0,
                "observation_date": "2020-04-21",
                "source": null,
                "sensor_name": null,
                "current_phase": null,
                "is_occluded": null,
                "is_site_boundary": null
            },
            "geometry": {
                "type": "Polygon",
                "coordinates": [
                    [
                        [
                            -46.83925655869843,
                            -23.50941217943939
                        ],
                        [
                            -46.8392102152773,
                            -23.50735282488458
                        ],
                        [
                            -46.83630378772921,
                            -23.50764292201411
                        ],
                        [
                            -46.83638704361557,
                            -23.50946069833387
                        ],
                        [
                            -46.83925655869843,
                            -23.50941217943939
                        ]
                    ]
                ]
            }
        }
    ]
}