{
    "type": "FeatureCollection",
    "features": [
        {
            "type": "Feature",
            "properties": {
                "type": "site",
                "region_id": "BR_C000",
                "version": "2.0.1",
                "mgrs": "23KLP",
                "model_content": "annotation",
                "start_date": "2016-08-17",
                "end_date": "2019-01-07",
                "originator": "iMERIT",
                "site_id": "BR_C000_0132",
                "status": "positive_pending",
                "validated": "False",
                "score": 0.0,
                "misc_info": {
                    "commit_hash": "b8980b308111f4d719b33abcdfd4475cdb0511ce"
                }
            },
            "geometry": {
                "type": "Polygon",
                "coordinates": [
                    [
                        [
                            -46.81115319991258,
                            -23.788046714424745
                        ],
                        [
                            -46.810716749015384,
                            -23.78698332770497
                        ],
                        [
                            -46.809525755889304,
                            -23.78738279123794
                        ],
                        [
                            -46.809873437112444,
                            -23.788470219744358
                        ],
                        [
                            -46.81115319991258,
                            -23.788046714424745
                        ]
                    ]
                ]
            }
        },
        {
            "type": "Feature",
            "properties": {
                "type": "observation",
                "score": 0.0,
                "observation_date": "2016-08-17",
                "source": null,
                "sensor_name": null,
                "current_phase": null,
                "is_occluded": null,
                "is_site_boundary": null
            },
            "geometry": {
                "type": "Polygon",
                "coordinates": [
                    [
                        [
                            -46.81115319991258,
                            -23.788046714424745
                        ],
                        [
                            -46.810716749015384,
                            -23.78698332770497
                        ],
                        [
                            -46.809525755889304,
                            -23.78738279123794
                        ],
                        [
                            -46.809873437112444,
                            -23.788470219744358
                        ],
                        [
                            -46.81115319991258,
                            -23.788046714424745
                        ]
                    ]
                ]
            }
        },
        {
            "type": "Feature",
            "properties": {
                "type": "observation",
                "score": 0.0,
                "observation_date": "2019-01-07",
                "source": null,
                "sensor_name": null,
                "current_phase": null,
                "is_occluded": null,
                "is_site_boundary": null
            },
            "geometry": {
                "type": "Polygon",
                "coordinates": [
                    [
                        [
                            -46.81115319991258,
                            -23.788046714424745
                        ],
                        [
                            -46.810716749015384,
                            -23.78698332770497
                        ],
                        [
                            -46.809525755889304,
                            -23.78738279123794
                        ],
                        [
                            -46.809873437112444,
                            -23.788470219744358
                        ],
                        [
                            -46.81115319991258,
                            -23.788046714424745
                        ]
                    ]
                ]
            }
        }
    ]
}