{
    "type": "FeatureCollection",
    "features": [
        {
            "type": "Feature",
            "properties": {
                "type": "site",
                "region_id": "BR_C000",
                "version": "2.0.1",
                "mgrs": "23KLQ",
                "model_content": "annotation",
                "start_date": "2021-07-15",
                "end_date": "2022-05-26",
                "originator": "iMERIT",
                "site_id": "BR_C000_0893",
                "status": "positive_pending",
                "validated": "False",
                "score": 0.0,
                "misc_info": {
                    "commit_hash": "b8980b308111f4d719b33abcdfd4475cdb0511ce"
                }
            },
            "geometry": {
                "type": "Polygon",
                "coordinates": [
                    [
                        [
                            -46.38800021887147,
                            -23.431832087910365
                        ],
                        [
                            -46.38563406521387,
                            -23.434037628180263
                        ],
                        [
                            -46.38772908621443,
                            -23.43550709486261
                        ],
                        [
                            -46.38868386816517,
                            -23.43438129320361
                        ],
                        [
                            -46.38923067425831,
                            -23.43422611717581
                        ],
                        [
                            -46.38925672505794,
                            -23.43256244504595
                        ],
                        [
                            -46.38800021887147,
                            -23.431832087910365
                        ]
                    ]
                ]
            }
        },
        {
            "type": "Feature",
            "properties": {
                "type": "observation",
                "score": 0.0,
                "observation_date": "2021-07-15",
                "source": null,
                "sensor_name": null,
                "current_phase": null,
                "is_occluded": null,
                "is_site_boundary": null
            },
            "geometry": {
                "type": "Polygon",
                "coordinates": [
                    [
                        [
                            -46.38800021887147,
                            -23.431832087910365
                        ],
                        [
                            -46.38563406521387,
                            -23.434037628180263
                        ],
                        [
                            -46.38772908621443,
                            -23.43550709486261
                        ],
                        [
                            -46.38868386816517,
                            -23.43438129320361
                        ],
                        [
                            -46.38923067425831,
                            -23.43422611717581
                        ],
                        [
                            -46.38925672505794,
                            -23.43256244504595
                        ],
                        [
                            -46.38800021887147,
                            -23.431832087910365
                        ]
                    ]
                ]
            }
        },
        {
            "type": "Feature",
            "properties": {
                "type": "observation",
                "score": 0.0,
                "observation_date": "2022-05-26",
                "source": null,
                "sensor_name": null,
                "current_phase": null,
                "is_occluded": null,
                "is_site_boundary": null
            },
            "geometry": {
                "type": "Polygon",
                "coordinates": [
                    [
                        [
                            -46.38800021887147,
                            -23.431832087910365
                        ],
                        [
                            -46.38563406521387,
                            -23.434037628180263
                        ],
                        [
                            -46.38772908621443,
                            -23.43550709486261
                        ],
                        [
                            -46.38868386816517,
                            -23.43438129320361
                        ],
                        [
                            -46.38923067425831,
                            -23.43422611717581
                        ],
                        [
                            -46.38925672505794,
                            -23.43256244504595
                        ],
                        [
                            -46.38800021887147,
                            -23.431832087910365
                        ]
                    ]
                ]
            }
        }
    ]
}