{
    "type": "FeatureCollection",
    "features": [
        {
            "type": "Feature",
            "properties": {
                "type": "site",
                "region_id": "BR_C000",
                "version": "2.0.1",
                "mgrs": "23KLP",
                "model_content": "annotation",
                "start_date": "2016-09-29",
                "end_date": "2020-05-13",
                "originator": "iMERIT",
                "site_id": "BR_C000_0392",
                "status": "positive_pending",
                "validated": "False",
                "score": 0.0,
                "misc_info": {
                    "commit_hash": "b8980b308111f4d719b33abcdfd4475cdb0511ce"
                }
            },
            "geometry": {
                "type": "Polygon",
                "coordinates": [
                    [
                        [
                            -46.46603767515812,
                            -23.56631128541248
                        ],
                        [
                            -46.46771141054035,
                            -23.565875592680495
                        ],
                        [
                            -46.46759379709963,
                            -23.56539928596955
                        ],
                        [
                            -46.46643098452933,
                            -23.563517846700094
                        ],
                        [
                            -46.46578353660479,
                            -23.562528853701078
                        ],
                        [
                            -46.46496964358616,
                            -23.563058342144746
                        ],
                        [
                            -46.46498572747069,
                            -23.564868908731356
                        ],
                        [
                            -46.46603767515812,
                            -23.56631128541248
                        ]
                    ]
                ]
            }
        },
        {
            "type": "Feature",
            "properties": {
                "type": "observation",
                "score": 0.0,
                "observation_date": "2016-09-29",
                "source": null,
                "sensor_name": null,
                "current_phase": null,
                "is_occluded": null,
                "is_site_boundary": null
            },
            "geometry": {
                "type": "Polygon",
                "coordinates": [
                    [
                        [
                            -46.46603767515812,
                            -23.56631128541248
                        ],
                        [
                            -46.46771141054035,
                            -23.565875592680495
                        ],
                        [
                            -46.46759379709963,
                            -23.56539928596955
                        ],
                        [
                            -46.46643098452933,
                            -23.563517846700094
                        ],
                        [
                            -46.46578353660479,
                            -23.562528853701078
                        ],
                        [
                            -46.46496964358616,
                            -23.563058342144746
                        ],
                        [
                            -46.46498572747069,
                            -23.564868908731356
                        ],
                        [
                            -46.46603767515812,
                            -23.56631128541248
                        ]
                    ]
                ]
            }
        },
        {
            "type": "Feature",
            "properties": {
                "type": "observation",
                "score": 0.0,
                "observation_date": "2020-05-13",
                "source": null,
                "sensor_name": null,
                "current_phase": null,
                "is_occluded": null,
                "is_site_boundary": null
            },
            "geometry": {
                "type": "Polygon",
                "coordinates": [
                    [
                        [
                            -46.46603767515812,
                            -23.56631128541248
                        ],
                        [
                            -46.46771141054035,
                            -23.565875592680495
                        ],
                        [
                            -46.46759379709963,
                            -23.56539928596955
                        ],
                        [
                            -46.46643098452933,
                            -23.563517846700094
                        ],
                        [
                            -46.46578353660479,
                            -23.562528853701078
                        ],
                        [
                            -46.46496964358616,
                            -23.563058342144746
                        ],
                        [
                            -46.46498572747069,
                            -23.564868908731356
                        ],
                        [
                            -46.46603767515812,
                            -23.56631128541248
                        ]
                    ]
                ]
            }
        }
    ]
}