{
    "type": "FeatureCollection",
    "features": [
        {
            "type": "Feature",
            "properties": {
                "type": "site",
                "region_id": "BR_C000",
                "version": "2.0.1",
                "mgrs": "23KLQ",
                "model_content": "annotation",
                "start_date": "2019-05-22",
                "end_date": "2021-05-01",
                "originator": "iMERIT",
                "site_id": "BR_C000_0845",
                "status": "positive_pending",
                "validated": "False",
                "score": 0.0,
                "misc_info": {
                    "commit_hash": "b8980b308111f4d719b33abcdfd4475cdb0511ce"
                }
            },
            "geometry": {
                "type": "Polygon",
                "coordinates": [
                    [
                        [
                            -46.37769438289222,
                            -23.484943711271676
                        ],
                        [
                            -46.37624377186782,
                            -23.48690995478765
                        ],
                        [
                            -46.3758239977581,
                            -23.486673090764448
                        ],
                        [
                            -46.377191708220394,
                            -23.484760508848943
                        ],
                        [
                            -46.37769438289222,
                            -23.484943711271676
                        ]
                    ]
                ]
            }
        },
        {
            "type": "Feature",
            "properties": {
                "type": "observation",
                "score": 0.0,
                "observation_date": "2019-05-22",
                "source": null,
                "sensor_name": null,
                "current_phase": null,
                "is_occluded": null,
                "is_site_boundary": null
            },
            "geometry": {
                "type": "Polygon",
                "coordinates": [
                    [
                        [
                            -46.37769438289222,
                            -23.484943711271676
                        ],
                        [
                            -46.37624377186782,
                            -23.48690995478765
                        ],
                        [
                            -46.3758239977581,
                            -23.486673090764448
                        ],
                        [
                            -46.377191708220394,
                            -23.484760508848943
                        ],
                        [
                            -46.37769438289222,
                            -23.484943711271676
                        ]
                    ]
                ]
            }
        },
        {
            "type": "Feature",
            "properties": {
                "type": "observation",
                "score": 0.0,
                "observation_date": "2021-05-01",
                "source": null,
                "sensor_name": null,
                "current_phase": null,
                "is_occluded": null,
                "is_site_boundary": null
            },
            "geometry": {
                "type": "Polygon",
                "coordinates": [
                    [
                        [
                            -46.37769438289222,
                            -23.484943711271676
                        ],
                        [
                            -46.37624377186782,
                            -23.48690995478765
                        ],
                        [
                            -46.3758239977581,
                            -23.486673090764448
                        ],
                        [
                            -46.377191708220394,
                            -23.484760508848943
                        ],
                        [
                            -46.37769438289222,
                            -23.484943711271676
                        ]
                    ]
                ]
            }
        }
    ]
}