{
    "type": "FeatureCollection",
    "features": [
        {
            "type": "Feature",
            "properties": {
                "type": "site",
                "region_id": "BR_C000",
                "version": "2.0.1",
                "mgrs": "23KLP",
                "model_content": "annotation",
                "start_date": "2020-04-06",
                "end_date": "2022-08-01",
                "originator": "iMERIT",
                "site_id": "BR_C000_0020",
                "status": "positive_pending",
                "validated": "False",
                "score": 0.0,
                "misc_info": {
                    "commit_hash": "b8980b308111f4d719b33abcdfd4475cdb0511ce"
                }
            },
            "geometry": {
                "type": "Polygon",
                "coordinates": [
                    [
                        [
                            -46.20191427219096,
                            -23.95686458769112
                        ],
                        [
                            -46.202246050670375,
                            -23.95775600275681
                        ],
                        [
                            -46.20105592912298,
                            -23.958154748047555
                        ],
                        [
                            -46.200758300099736,
                            -23.957505933232007
                        ],
                        [
                            -46.20120554375409,
                            -23.95708997400416
                        ],
                        [
                            -46.20191427219096,
                            -23.95686458769112
                        ]
                    ]
                ]
            }
        },
        {
            "type": "Feature",
            "properties": {
                "type": "observation",
                "score": 0.0,
                "observation_date": "2020-04-06",
                "source": null,
                "sensor_name": null,
                "current_phase": null,
                "is_occluded": null,
                "is_site_boundary": null
            },
            "geometry": {
                "type": "Polygon",
                "coordinates": [
                    [
                        [
                            -46.20191427219096,
                            -23.95686458769112
                        ],
                        [
                            -46.202246050670375,
                            -23.95775600275681
                        ],
                        [
                            -46.20105592912298,
                            -23.958154748047555
                        ],
                        [
                            -46.200758300099736,
                            -23.957505933232007
                        ],
                        [
                            -46.20120554375409,
                            -23.95708997400416
                        ],
                        [
                            -46.20191427219096,
                            -23.95686458769112
                        ]
                    ]
                ]
            }
        },
        {
            "type": "Feature",
            "properties": {
                "type": "observation",
                "score": 0.0,
                "observation_date": "2022-08-01",
                "source": null,
                "sensor_name": null,
                "current_phase": null,
                "is_occluded": null,
                "is_site_boundary": null
            },
            "geometry": {
                "type": "Polygon",
                "coordinates": [
                    [
                        [
                            -46.20191427219096,
                            -23.95686458769112
                        ],
                        [
                            -46.202246050670375,
                            -23.95775600275681
                        ],
                        [
                            -46.20105592912298,
                            -23.958154748047555
                        ],
                        [
                            -46.200758300099736,
                            -23.957505933232007
                        ],
                        [
                            -46.20120554375409,
                            -23.95708997400416
                        ],
                        [
                            -46.20191427219096,
                            -23.95686458769112
                        ]
                    ]
                ]
            }
        }
    ]
}