{
    "type": "FeatureCollection",
    "features": [
        {
            "type": "Feature",
            "properties": {
                "type": "site",
                "region_id": "BR_C000",
                "version": "2.0.1",
                "mgrs": "23KLP",
                "model_content": "annotation",
                "start_date": "2012-08-25",
                "end_date": "2019-02-01",
                "originator": "iMERIT",
                "site_id": "BR_C000_0197",
                "status": "positive_pending",
                "validated": "False",
                "score": 0.0,
                "misc_info": {
                    "commit_hash": "b8980b308111f4d719b33abcdfd4475cdb0511ce"
                }
            },
            "geometry": {
                "type": "Polygon",
                "coordinates": [
                    [
                        [
                            -46.72427343704827,
                            -23.586414819762112
                        ],
                        [
                            -46.72333093937942,
                            -23.586134123078686
                        ],
                        [
                            -46.72390057116187,
                            -23.585322763015693
                        ],
                        [
                            -46.724235472237005,
                            -23.585318533071604
                        ],
                        [
                            -46.724292171956776,
                            -23.5858481885693
                        ],
                        [
                            -46.72427343704827,
                            -23.586414819762112
                        ]
                    ]
                ]
            }
        },
        {
            "type": "Feature",
            "properties": {
                "type": "observation",
                "score": 0.0,
                "observation_date": "2012-08-25",
                "source": null,
                "sensor_name": null,
                "current_phase": null,
                "is_occluded": null,
                "is_site_boundary": null
            },
            "geometry": {
                "type": "Polygon",
                "coordinates": [
                    [
                        [
                            -46.72427343704827,
                            -23.586414819762112
                        ],
                        [
                            -46.72333093937942,
                            -23.586134123078686
                        ],
                        [
                            -46.72390057116187,
                            -23.585322763015693
                        ],
                        [
                            -46.724235472237005,
                            -23.585318533071604
                        ],
                        [
                            -46.724292171956776,
                            -23.5858481885693
                        ],
                        [
                            -46.72427343704827,
                            -23.586414819762112
                        ]
                    ]
                ]
            }
        },
        {
            "type": "Feature",
            "properties": {
                "type": "observation",
                "score": 0.0,
                "observation_date": "2019-02-01",
                "source": null,
                "sensor_name": null,
                "current_phase": null,
                "is_occluded": null,
                "is_site_boundary": null
            },
            "geometry": {
                "type": "Polygon",
                "coordinates": [
                    [
                        [
                            -46.72427343704827,
                            -23.586414819762112
                        ],
                        [
                            -46.72333093937942,
                            -23.586134123078686
                        ],
                        [
                            -46.72390057116187,
                            -23.585322763015693
                        ],
                        [
                            -46.724235472237005,
                            -23.585318533071604
                        ],
                        [
                            -46.724292171956776,
                            -23.5858481885693
                        ],
                        [
                            -46.72427343704827,
                            -23.586414819762112
                        ]
                    ]
                ]
            }
        }
    ]
}