{
    "type": "FeatureCollection",
    "features": [
        {
            "type": "Feature",
            "properties": {
                "type": "site",
                "region_id": "BR_C000",
                "version": "2.0.1",
                "mgrs": "23KLP",
                "model_content": "annotation",
                "start_date": "2021-03-27",
                "end_date": "2023-04-21",
                "originator": "iMERIT",
                "site_id": "BR_C000_0234",
                "status": "positive_pending",
                "validated": "False",
                "score": 0.0,
                "misc_info": {
                    "commit_hash": "b8980b308111f4d719b33abcdfd4475cdb0511ce"
                }
            },
            "geometry": {
                "type": "Polygon",
                "coordinates": [
                    [
                        [
                            -46.669255836085,
                            -23.523350219301047
                        ],
                        [
                            -46.66798392844731,
                            -23.52209969254788
                        ],
                        [
                            -46.667564387788225,
                            -23.52222555474561
                        ],
                        [
                            -46.66768122699408,
                            -23.523507067333995
                        ],
                        [
                            -46.669255836085,
                            -23.523350219301047
                        ]
                    ]
                ]
            }
        },
        {
            "type": "Feature",
            "properties": {
                "type": "observation",
                "score": 0.0,
                "observation_date": "2021-03-27",
                "source": null,
                "sensor_name": null,
                "current_phase": null,
                "is_occluded": null,
                "is_site_boundary": null
            },
            "geometry": {
                "type": "Polygon",
                "coordinates": [
                    [
                        [
                            -46.669255836085,
                            -23.523350219301047
                        ],
                        [
                            -46.66798392844731,
                            -23.52209969254788
                        ],
                        [
                            -46.667564387788225,
                            -23.52222555474561
                        ],
                        [
                            -46.66768122699408,
                            -23.523507067333995
                        ],
                        [
                            -46.669255836085,
                            -23.523350219301047
                        ]
                    ]
                ]
            }
        },
        {
            "type": "Feature",
            "properties": {
                "type": "observation",
                "score": 0.0,
                "observation_date": "2023-04-21",
                "source": null,
                "sensor_name": null,
                "current_phase": null,
                "is_occluded": null,
                "is_site_boundary": null
            },
            "geometry": {
                "type": "Polygon",
                "coordinates": [
                    [
                        [
                            -46.669255836085,
                            -23.523350219301047
                        ],
                        [
                            -46.66798392844731,
                            -23.52209969254788
                        ],
                        [
                            -46.667564387788225,
                            -23.52222555474561
                        ],
                        [
                            -46.66768122699408,
                            -23.523507067333995
                        ],
                        [
                            -46.669255836085,
                            -23.523350219301047
                        ]
                    ]
                ]
            }
        }
    ]
}