{
    "type": "FeatureCollection",
    "features": [
        {
            "type": "Feature",
            "properties": {
                "type": "site",
                "region_id": "BR_C000",
                "version": "2.0.1",
                "mgrs": "23KLP",
                "model_content": "annotation",
                "start_date": "2012-07-14",
                "end_date": "2019-04-27",
                "originator": "iMERIT",
                "site_id": "BR_C000_0523",
                "status": "positive_pending",
                "validated": "False",
                "score": 0.0,
                "misc_info": {
                    "commit_hash": "b8980b308111f4d719b33abcdfd4475cdb0511ce"
                }
            },
            "geometry": {
                "type": "Polygon",
                "coordinates": [
                    [
                        [
                            -46.47025016349408,
                            -23.69237945777776
                        ],
                        [
                            -46.4708536305739,
                            -23.69308350270422
                        ],
                        [
                            -46.469797563184216,
                            -23.69399876110861
                        ],
                        [
                            -46.4697472742609,
                            -23.692962809288254
                        ],
                        [
                            -46.47025016349408,
                            -23.69237945777776
                        ]
                    ]
                ]
            }
        },
        {
            "type": "Feature",
            "properties": {
                "type": "observation",
                "score": 0.0,
                "observation_date": "2012-07-14",
                "source": null,
                "sensor_name": null,
                "current_phase": null,
                "is_occluded": null,
                "is_site_boundary": null
            },
            "geometry": {
                "type": "Polygon",
                "coordinates": [
                    [
                        [
                            -46.47025016349408,
                            -23.69237945777776
                        ],
                        [
                            -46.4708536305739,
                            -23.69308350270422
                        ],
                        [
                            -46.469797563184216,
                            -23.69399876110861
                        ],
                        [
                            -46.4697472742609,
                            -23.692962809288254
                        ],
                        [
                            -46.47025016349408,
                            -23.69237945777776
                        ]
                    ]
                ]
            }
        },
        {
            "type": "Feature",
            "properties": {
                "type": "observation",
                "score": 0.0,
                "observation_date": "2019-04-27",
                "source": null,
                "sensor_name": null,
                "current_phase": null,
                "is_occluded": null,
                "is_site_boundary": null
            },
            "geometry": {
                "type": "Polygon",
                "coordinates": [
                    [
                        [
                            -46.47025016349408,
                            -23.69237945777776
                        ],
                        [
                            -46.4708536305739,
                            -23.69308350270422
                        ],
                        [
                            -46.469797563184216,
                            -23.69399876110861
                        ],
                        [
                            -46.4697472742609,
                            -23.692962809288254
                        ],
                        [
                            -46.47025016349408,
                            -23.69237945777776
                        ]
                    ]
                ]
            }
        }
    ]
}