{
    "type": "FeatureCollection",
    "features": [
        {
            "type": "Feature",
            "properties": {
                "type": "site",
                "region_id": "BR_C000",
                "version": "2.0.0",
                "mgrs": "23KLP",
                "model_content": "annotation",
                "start_date": "2018-07-26",
                "end_date": "2021-03-02",
                "originator": "iMERIT",
                "site_id": "BR_C000_0087",
                "status": "positive_pending",
                "validated": "False",
                "score": 0.0,
                "misc_info": {
                    "commit_hash": "b8980b308111f4d719b33abcdfd4475cdb0511ce"
                }
            },
            "geometry": {
                "type": "Polygon",
                "coordinates": [
                    [
                        [
                            -46.92691815804344,
                            -23.599827357323214
                        ],
                        [
                            -46.92661305701506,
                            -23.600099701450677
                        ],
                        [
                            -46.92560889314323,
                            -23.600274922670017
                        ],
                        [
                            -46.9243750445985,
                            -23.600444846850394
                        ],
                        [
                            -46.92250215613109,
                            -23.600394809624895
                        ],
                        [
                            -46.92256761879834,
                            -23.599433701386555
                        ],
                        [
                            -46.924714557304455,
                            -23.59950475538053
                        ],
                        [
                            -46.92525828868578,
                            -23.599245731829566
                        ],
                        [
                            -46.92572659549807,
                            -23.59926433767058
                        ],
                        [
                            -46.926092517441376,
                            -23.59952835551952
                        ],
                        [
                            -46.92675292860134,
                            -23.59939808879539
                        ],
                        [
                            -46.92691815804344,
                            -23.599827357323214
                        ]
                    ]
                ]
            }
        },
        {
            "type": "Feature",
            "properties": {
                "type": "observation",
                "score": 0.0,
                "observation_date": "2018-07-26",
                "source": null,
                "sensor_name": null,
                "current_phase": null,
                "is_occluded": null,
                "is_site_boundary": null
            },
            "geometry": {
                "type": "Polygon",
                "coordinates": [
                    [
                        [
                            -46.92691815804344,
                            -23.599827357323214
                        ],
                        [
                            -46.92661305701506,
                            -23.600099701450677
                        ],
                        [
                            -46.92560889314323,
                            -23.600274922670017
                        ],
                        [
                            -46.9243750445985,
                            -23.600444846850394
                        ],
                        [
                            -46.92250215613109,
                            -23.600394809624895
                        ],
                        [
                            -46.92256761879834,
                            -23.599433701386555
                        ],
                        [
                            -46.924714557304455,
                            -23.59950475538053
                        ],
                        [
                            -46.92525828868578,
                            -23.599245731829566
                        ],
                        [
                            -46.92572659549807,
                            -23.59926433767058
                        ],
                        [
                            -46.926092517441376,
                            -23.59952835551952
                        ],
                        [
                            -46.92675292860134,
                            -23.59939808879539
                        ],
                        [
                            -46.92691815804344,
                            -23.599827357323214
                        ]
                    ]
                ]
            }
        },
        {
            "type": "Feature",
            "properties": {
                "type": "observation",
                "score": 0.0,
                "observation_date": "2021-03-02",
                "source": null,
                "sensor_name": null,
                "current_phase": null,
                "is_occluded": null,
                "is_site_boundary": null
            },
            "geometry": {
                "type": "Polygon",
                "coordinates": [
                    [
                        [
                            -46.92691815804344,
                            -23.599827357323214
                        ],
                        [
                            -46.92661305701506,
                            -23.600099701450677
                        ],
                        [
                            -46.92560889314323,
                            -23.600274922670017
                        ],
                        [
                            -46.9243750445985,
                            -23.600444846850394
                        ],
                        [
                            -46.92250215613109,
                            -23.600394809624895
                        ],
                        [
                            -46.92256761879834,
                            -23.599433701386555
                        ],
                        [
                            -46.924714557304455,
                            -23.59950475538053
                        ],
                        [
                            -46.92525828868578,
                            -23.599245731829566
                        ],
                        [
                            -46.92572659549807,
                            -23.59926433767058
                        ],
                        [
                            -46.926092517441376,
                            -23.59952835551952
                        ],
                        [
                            -46.92675292860134,
                            -23.59939808879539
                        ],
                        [
                            -46.92691815804344,
                            -23.599827357323214
                        ]
                    ]
                ]
            }
        }
    ]
}