{
    "type": "FeatureCollection",
    "features": [
        {
            "type": "Feature",
            "properties": {
                "type": "site",
                "region_id": "BR_C000",
                "version": "2.0.1",
                "mgrs": "23KLP",
                "model_content": "annotation",
                "start_date": "2021-02-15",
                "end_date": "2022-09-23",
                "originator": "iMERIT",
                "site_id": "BR_C000_0142",
                "status": "positive_pending",
                "validated": "False",
                "score": 0.0,
                "misc_info": {
                    "commit_hash": "b8980b308111f4d719b33abcdfd4475cdb0511ce"
                }
            },
            "geometry": {
                "type": "Polygon",
                "coordinates": [
                    [
                        [
                            -46.906996905497635,
                            -23.770486104230976
                        ],
                        [
                            -46.907464641887145,
                            -23.77091293531224
                        ],
                        [
                            -46.907510464029826,
                            -23.77112474088397
                        ],
                        [
                            -46.90745420510808,
                            -23.771369270127572
                        ],
                        [
                            -46.90731943491519,
                            -23.771504650646413
                        ],
                        [
                            -46.90704909087278,
                            -23.77172036196015
                        ],
                        [
                            -46.90697562611589,
                            -23.77195723798369
                        ],
                        [
                            -46.906996615598416,
                            -23.7722244097691
                        ],
                        [
                            -46.9070592983885,
                            -23.772420275953117
                        ],
                        [
                            -46.9071030560454,
                            -23.77366250304499
                        ],
                        [
                            -46.90703154046305,
                            -23.77403307050747
                        ],
                        [
                            -46.906913398879354,
                            -23.774136782907355
                        ],
                        [
                            -46.90665910729548,
                            -23.774281504936006
                        ],
                        [
                            -46.90650884842402,
                            -23.7745271948537
                        ],
                        [
                            -46.904108505733134,
                            -23.77696370140964
                        ],
                        [
                            -46.903987082382116,
                            -23.7774292709606
                        ],
                        [
                            -46.90345765208845,
                            -23.778049319170876
                        ],
                        [
                            -46.90292512594383,
                            -23.77845703204653
                        ],
                        [
                            -46.90256987772878,
                            -23.778713111283608
                        ],
                        [
                            -46.902179187181744,
                            -23.7788831046415
                        ],
                        [
                            -46.901675801867036,
                            -23.778944366730723
                        ],
                        [
                            -46.90123997962018,
                            -23.77894973558976
                        ],
                        [
                            -46.90100013278484,
                            -23.77891336156135
                        ],
                        [
                            -46.90070809808553,
                            -23.77881470474504
                        ],
                        [
                            -46.90049183018443,
                            -23.778636458154047
                        ],
                        [
                            -46.90031783312668,
                            -23.778426228284857
                        ],
                        [
                            -46.89961727967554,
                            -23.77727073720327
                        ],
                        [
                            -46.90005009823609,
                            -23.776470980927076
                        ],
                        [
                            -46.90007239324329,
                            -23.775652680260738
                        ],
                        [
                            -46.90137231152812,
                            -23.775707465253774
                        ],
                        [
                            -46.901441621904794,
                            -23.776359459050404
                        ],
                        [
                            -46.9015669762821,
                            -23.776751196501767
                        ],
                        [
                            -46.9016549468121,
                            -23.776923156677398
                        ],
                        [
                            -46.901828829319754,
                            -23.777125520846628
                        ],
                        [
                            -46.90208736568354,
                            -23.77727178226788
                        ],
                        [
                            -46.90237688004954,
                            -23.777197423842516
                        ],
                        [
                            -46.902517917618574,
                            -23.776904657351437
                        ],
                        [
                            -46.902525815243784,
                            -23.77568538750086
                        ],
                        [
                            -46.90501587717141,
                            -23.77236684788571
                        ],
                        [
                            -46.904530021688075,
                            -23.771869442179742
                        ],
                        [
                            -46.90633596328823,
                            -23.770289760257416
                        ],
                        [
                            -46.90667856363598,
                            -23.770340589093745
                        ],
                        [
                            -46.906996905497635,
                            -23.770486104230976
                        ]
                    ]
                ]
            }
        },
        {
            "type": "Feature",
            "properties": {
                "type": "observation",
                "score": 0.0,
                "observation_date": "2021-02-15",
                "source": null,
                "sensor_name": null,
                "current_phase": null,
                "is_occluded": null,
                "is_site_boundary": null
            },
            "geometry": {
                "type": "Polygon",
                "coordinates": [
                    [
                        [
                            -46.906996905497635,
                            -23.770486104230976
                        ],
                        [
                            -46.907464641887145,
                            -23.77091293531224
                        ],
                        [
                            -46.907510464029826,
                            -23.77112474088397
                        ],
                        [
                            -46.90745420510808,
                            -23.771369270127572
                        ],
                        [
                            -46.90731943491519,
                            -23.771504650646413
                        ],
                        [
                            -46.90704909087278,
                            -23.77172036196015
                        ],
                        [
                            -46.90697562611589,
                            -23.77195723798369
                        ],
                        [
                            -46.906996615598416,
                            -23.7722244097691
                        ],
                        [
                            -46.9070592983885,
                            -23.772420275953117
                        ],
                        [
                            -46.9071030560454,
                            -23.77366250304499
                        ],
                        [
                            -46.90703154046305,
                            -23.77403307050747
                        ],
                        [
                            -46.906913398879354,
                            -23.774136782907355
                        ],
                        [
                            -46.90665910729548,
                            -23.774281504936006
                        ],
                        [
                            -46.90650884842402,
                            -23.7745271948537
                        ],
                        [
                            -46.904108505733134,
                            -23.77696370140964
                        ],
                        [
                            -46.903987082382116,
                            -23.7774292709606
                        ],
                        [
                            -46.90345765208845,
                            -23.778049319170876
                        ],
                        [
                            -46.90292512594383,
                            -23.77845703204653
                        ],
                        [
                            -46.90256987772878,
                            -23.778713111283608
                        ],
                        [
                            -46.902179187181744,
                            -23.7788831046415
                        ],
                        [
                            -46.901675801867036,
                            -23.778944366730723
                        ],
                        [
                            -46.90123997962018,
                            -23.77894973558976
                        ],
                        [
                            -46.90100013278484,
                            -23.77891336156135
                        ],
                        [
                            -46.90070809808553,
                            -23.77881470474504
                        ],
                        [
                            -46.90049183018443,
                            -23.778636458154047
                        ],
                        [
                            -46.90031783312668,
                            -23.778426228284857
                        ],
                        [
                            -46.89961727967554,
                            -23.77727073720327
                        ],
                        [
                            -46.90005009823609,
                            -23.776470980927076
                        ],
                        [
                            -46.90007239324329,
                            -23.775652680260738
                        ],
                        [
                            -46.90137231152812,
                            -23.775707465253774
                        ],
                        [
                            -46.901441621904794,
                            -23.776359459050404
                        ],
                        [
                            -46.9015669762821,
                            -23.776751196501767
                        ],
                        [
                            -46.9016549468121,
                            -23.776923156677398
                        ],
                        [
                            -46.901828829319754,
                            -23.777125520846628
                        ],
                        [
                            -46.90208736568354,
                            -23.77727178226788
                        ],
                        [
                            -46.90237688004954,
                            -23.777197423842516
                        ],
                        [
                            -46.902517917618574,
                            -23.776904657351437
                        ],
                        [
                            -46.902525815243784,
                            -23.77568538750086
                        ],
                        [
                            -46.90501587717141,
                            -23.77236684788571
                        ],
                        [
                            -46.904530021688075,
                            -23.771869442179742
                        ],
                        [
                            -46.90633596328823,
                            -23.770289760257416
                        ],
                        [
                            -46.90667856363598,
                            -23.770340589093745
                        ],
                        [
                            -46.906996905497635,
                            -23.770486104230976
                        ]
                    ]
                ]
            }
        },
        {
            "type": "Feature",
            "properties": {
                "type": "observation",
                "score": 0.0,
                "observation_date": "2022-09-23",
                "source": null,
                "sensor_name": null,
                "current_phase": null,
                "is_occluded": null,
                "is_site_boundary": null
            },
            "geometry": {
                "type": "Polygon",
                "coordinates": [
                    [
                        [
                            -46.906996905497635,
                            -23.770486104230976
                        ],
                        [
                            -46.907464641887145,
                            -23.77091293531224
                        ],
                        [
                            -46.907510464029826,
                            -23.77112474088397
                        ],
                        [
                            -46.90745420510808,
                            -23.771369270127572
                        ],
                        [
                            -46.90731943491519,
                            -23.771504650646413
                        ],
                        [
                            -46.90704909087278,
                            -23.77172036196015
                        ],
                        [
                            -46.90697562611589,
                            -23.77195723798369
                        ],
                        [
                            -46.906996615598416,
                            -23.7722244097691
                        ],
                        [
                            -46.9070592983885,
                            -23.772420275953117
                        ],
                        [
                            -46.9071030560454,
                            -23.77366250304499
                        ],
                        [
                            -46.90703154046305,
                            -23.77403307050747
                        ],
                        [
                            -46.906913398879354,
                            -23.774136782907355
                        ],
                        [
                            -46.90665910729548,
                            -23.774281504936006
                        ],
                        [
                            -46.90650884842402,
                            -23.7745271948537
                        ],
                        [
                            -46.904108505733134,
                            -23.77696370140964
                        ],
                        [
                            -46.903987082382116,
                            -23.7774292709606
                        ],
                        [
                            -46.90345765208845,
                            -23.778049319170876
                        ],
                        [
                            -46.90292512594383,
                            -23.77845703204653
                        ],
                        [
                            -46.90256987772878,
                            -23.778713111283608
                        ],
                        [
                            -46.902179187181744,
                            -23.7788831046415
                        ],
                        [
                            -46.901675801867036,
                            -23.778944366730723
                        ],
                        [
                            -46.90123997962018,
                            -23.77894973558976
                        ],
                        [
                            -46.90100013278484,
                            -23.77891336156135
                        ],
                        [
                            -46.90070809808553,
                            -23.77881470474504
                        ],
                        [
                            -46.90049183018443,
                            -23.778636458154047
                        ],
                        [
                            -46.90031783312668,
                            -23.778426228284857
                        ],
                        [
                            -46.89961727967554,
                            -23.77727073720327
                        ],
                        [
                            -46.90005009823609,
                            -23.776470980927076
                        ],
                        [
                            -46.90007239324329,
                            -23.775652680260738
                        ],
                        [
                            -46.90137231152812,
                            -23.775707465253774
                        ],
                        [
                            -46.901441621904794,
                            -23.776359459050404
                        ],
                        [
                            -46.9015669762821,
                            -23.776751196501767
                        ],
                        [
                            -46.9016549468121,
                            -23.776923156677398
                        ],
                        [
                            -46.901828829319754,
                            -23.777125520846628
                        ],
                        [
                            -46.90208736568354,
                            -23.77727178226788
                        ],
                        [
                            -46.90237688004954,
                            -23.777197423842516
                        ],
                        [
                            -46.902517917618574,
                            -23.776904657351437
                        ],
                        [
                            -46.902525815243784,
                            -23.77568538750086
                        ],
                        [
                            -46.90501587717141,
                            -23.77236684788571
                        ],
                        [
                            -46.904530021688075,
                            -23.771869442179742
                        ],
                        [
                            -46.90633596328823,
                            -23.770289760257416
                        ],
                        [
                            -46.90667856363598,
                            -23.770340589093745
                        ],
                        [
                            -46.906996905497635,
                            -23.770486104230976
                        ]
                    ]
                ]
            }
        }
    ]
}