{
    "type": "FeatureCollection",
    "features": [
        {
            "type": "Feature",
            "properties": {
                "type": "site",
                "region_id": "BR_C000",
                "version": "2.0.1",
                "mgrs": "23KLP",
                "model_content": "annotation",
                "start_date": "2018-11-13",
                "end_date": "2023-05-23",
                "originator": "iMERIT",
                "site_id": "BR_C000_0603",
                "status": "positive_pending",
                "validated": "False",
                "score": 0.0,
                "misc_info": {
                    "commit_hash": "b8980b308111f4d719b33abcdfd4475cdb0511ce"
                }
            },
            "geometry": {
                "type": "Polygon",
                "coordinates": [
                    [
                        [
                            -46.452385943298374,
                            -23.535588245778456
                        ],
                        [
                            -46.45132911106886,
                            -23.53474142508173
                        ],
                        [
                            -46.45076682212623,
                            -23.53551711283993
                        ],
                        [
                            -46.45183381620411,
                            -23.536374095385018
                        ],
                        [
                            -46.452385943298374,
                            -23.535588245778456
                        ]
                    ]
                ]
            }
        },
        {
            "type": "Feature",
            "properties": {
                "type": "observation",
                "score": 0.0,
                "observation_date": "2018-11-13",
                "source": null,
                "sensor_name": null,
                "current_phase": null,
                "is_occluded": null,
                "is_site_boundary": null
            },
            "geometry": {
                "type": "Polygon",
                "coordinates": [
                    [
                        [
                            -46.452385943298374,
                            -23.535588245778456
                        ],
                        [
                            -46.45132911106886,
                            -23.53474142508173
                        ],
                        [
                            -46.45076682212623,
                            -23.53551711283993
                        ],
                        [
                            -46.45183381620411,
                            -23.536374095385018
                        ],
                        [
                            -46.452385943298374,
                            -23.535588245778456
                        ]
                    ]
                ]
            }
        },
        {
            "type": "Feature",
            "properties": {
                "type": "observation",
                "score": 0.0,
                "observation_date": "2023-05-23",
                "source": null,
                "sensor_name": null,
                "current_phase": null,
                "is_occluded": null,
                "is_site_boundary": null
            },
            "geometry": {
                "type": "Polygon",
                "coordinates": [
                    [
                        [
                            -46.452385943298374,
                            -23.535588245778456
                        ],
                        [
                            -46.45132911106886,
                            -23.53474142508173
                        ],
                        [
                            -46.45076682212623,
                            -23.53551711283993
                        ],
                        [
                            -46.45183381620411,
                            -23.536374095385018
                        ],
                        [
                            -46.452385943298374,
                            -23.535588245778456
                        ]
                    ]
                ]
            }
        }
    ]
}