{
    "type": "FeatureCollection",
    "features": [
        {
            "type": "Feature",
            "properties": {
                "type": "site",
                "region_id": "BR_C000",
                "version": "2.0.1",
                "mgrs": "23KLQ",
                "model_content": "annotation",
                "start_date": "2020-03-12",
                "end_date": "2023-06-10",
                "originator": "iMERIT",
                "site_id": "BR_C000_0749",
                "status": "positive_pending",
                "validated": "False",
                "score": 0.0,
                "misc_info": {
                    "commit_hash": "b8980b308111f4d719b33abcdfd4475cdb0511ce"
                }
            },
            "geometry": {
                "type": "Polygon",
                "coordinates": [
                    [
                        [
                            -46.726629964132925,
                            -23.487498488363656
                        ],
                        [
                            -46.725287425535065,
                            -23.48834669685261
                        ],
                        [
                            -46.72506202648671,
                            -23.48767883250228
                        ],
                        [
                            -46.7252876855541,
                            -23.48708592522748
                        ],
                        [
                            -46.725240761574014,
                            -23.486554461807252
                        ],
                        [
                            -46.72536800431172,
                            -23.486340874754767
                        ],
                        [
                            -46.726629964132925,
                            -23.487498488363656
                        ]
                    ]
                ]
            }
        },
        {
            "type": "Feature",
            "properties": {
                "type": "observation",
                "score": 0.0,
                "observation_date": "2020-03-12",
                "source": null,
                "sensor_name": null,
                "current_phase": null,
                "is_occluded": null,
                "is_site_boundary": null
            },
            "geometry": {
                "type": "Polygon",
                "coordinates": [
                    [
                        [
                            -46.726629964132925,
                            -23.487498488363656
                        ],
                        [
                            -46.725287425535065,
                            -23.48834669685261
                        ],
                        [
                            -46.72506202648671,
                            -23.48767883250228
                        ],
                        [
                            -46.7252876855541,
                            -23.48708592522748
                        ],
                        [
                            -46.725240761574014,
                            -23.486554461807252
                        ],
                        [
                            -46.72536800431172,
                            -23.486340874754767
                        ],
                        [
                            -46.726629964132925,
                            -23.487498488363656
                        ]
                    ]
                ]
            }
        },
        {
            "type": "Feature",
            "properties": {
                "type": "observation",
                "score": 0.0,
                "observation_date": "2023-06-10",
                "source": null,
                "sensor_name": null,
                "current_phase": null,
                "is_occluded": null,
                "is_site_boundary": null
            },
            "geometry": {
                "type": "Polygon",
                "coordinates": [
                    [
                        [
                            -46.726629964132925,
                            -23.487498488363656
                        ],
                        [
                            -46.725287425535065,
                            -23.48834669685261
                        ],
                        [
                            -46.72506202648671,
                            -23.48767883250228
                        ],
                        [
                            -46.7252876855541,
                            -23.48708592522748
                        ],
                        [
                            -46.725240761574014,
                            -23.486554461807252
                        ],
                        [
                            -46.72536800431172,
                            -23.486340874754767
                        ],
                        [
                            -46.726629964132925,
                            -23.487498488363656
                        ]
                    ]
                ]
            }
        }
    ]
}