{
    "type": "FeatureCollection",
    "features": [
        {
            "type": "Feature",
            "properties": {
                "type": "site",
                "region_id": "BR_C000",
                "version": "2.0.0",
                "mgrs": "23KLP",
                "model_content": "annotation",
                "start_date": "2017-07-21",
                "end_date": "2021-01-16",
                "originator": "iMERIT",
                "site_id": "BR_C000_0597",
                "status": "positive_pending",
                "validated": "False",
                "score": 0.0,
                "misc_info": {
                    "commit_hash": "b8980b308111f4d719b33abcdfd4475cdb0511ce"
                }
            },
            "geometry": {
                "type": "Polygon",
                "coordinates": [
                    [
                        [
                            -46.453215827581175,
                            -23.532620986057108
                        ],
                        [
                            -46.452131897089366,
                            -23.53346103218826
                        ],
                        [
                            -46.45350713390085,
                            -23.53436882397515
                        ],
                        [
                            -46.45407619740905,
                            -23.533806535032525
                        ],
                        [
                            -46.453215827581175,
                            -23.532620986057108
                        ]
                    ]
                ]
            }
        },
        {
            "type": "Feature",
            "properties": {
                "type": "observation",
                "score": 0.0,
                "observation_date": "2017-07-21",
                "source": null,
                "sensor_name": null,
                "current_phase": null,
                "is_occluded": null,
                "is_site_boundary": null
            },
            "geometry": {
                "type": "Polygon",
                "coordinates": [
                    [
                        [
                            -46.453215827581175,
                            -23.532620986057108
                        ],
                        [
                            -46.452131897089366,
                            -23.53346103218826
                        ],
                        [
                            -46.45350713390085,
                            -23.53436882397515
                        ],
                        [
                            -46.45407619740905,
                            -23.533806535032525
                        ],
                        [
                            -46.453215827581175,
                            -23.532620986057108
                        ]
                    ]
                ]
            }
        },
        {
            "type": "Feature",
            "properties": {
                "type": "observation",
                "score": 0.0,
                "observation_date": "2021-01-16",
                "source": null,
                "sensor_name": null,
                "current_phase": null,
                "is_occluded": null,
                "is_site_boundary": null
            },
            "geometry": {
                "type": "Polygon",
                "coordinates": [
                    [
                        [
                            -46.453215827581175,
                            -23.532620986057108
                        ],
                        [
                            -46.452131897089366,
                            -23.53346103218826
                        ],
                        [
                            -46.45350713390085,
                            -23.53436882397515
                        ],
                        [
                            -46.45407619740905,
                            -23.533806535032525
                        ],
                        [
                            -46.453215827581175,
                            -23.532620986057108
                        ]
                    ]
                ]
            }
        }
    ]
}