{
    "type": "FeatureCollection",
    "features": [
        {
            "type": "Feature",
            "properties": {
                "type": "site",
                "region_id": "BR_C000",
                "version": "2.0.1",
                "mgrs": "23KLQ",
                "model_content": "annotation",
                "start_date": "2019-04-22",
                "end_date": "2023-03-22",
                "originator": "iMERIT",
                "site_id": "BR_C000_0656",
                "status": "positive_pending",
                "validated": "False",
                "score": 0.0,
                "misc_info": {
                    "commit_hash": "b8980b308111f4d719b33abcdfd4475cdb0511ce"
                }
            },
            "geometry": {
                "type": "Polygon",
                "coordinates": [
                    [
                        [
                            -46.71040307285553,
                            -23.384472443399538
                        ],
                        [
                            -46.71053476204464,
                            -23.38610969405461
                        ],
                        [
                            -46.71048174173109,
                            -23.386110274171582
                        ],
                        [
                            -46.71007441981544,
                            -23.385810401816563
                        ],
                        [
                            -46.71022803342572,
                            -23.385563981792814
                        ],
                        [
                            -46.70988451154154,
                            -23.38538471663
                        ],
                        [
                            -46.70998576070341,
                            -23.385189945650605
                        ],
                        [
                            -46.71000103384888,
                            -23.384942910745615
                        ],
                        [
                            -46.7102556764615,
                            -23.38448469672412
                        ],
                        [
                            -46.71040307285553,
                            -23.384472443399538
                        ]
                    ]
                ]
            }
        },
        {
            "type": "Feature",
            "properties": {
                "type": "observation",
                "score": 0.0,
                "observation_date": "2019-04-22",
                "source": null,
                "sensor_name": null,
                "current_phase": null,
                "is_occluded": null,
                "is_site_boundary": null
            },
            "geometry": {
                "type": "Polygon",
                "coordinates": [
                    [
                        [
                            -46.71040307285553,
                            -23.384472443399538
                        ],
                        [
                            -46.71053476204464,
                            -23.38610969405461
                        ],
                        [
                            -46.71048174173109,
                            -23.386110274171582
                        ],
                        [
                            -46.71007441981544,
                            -23.385810401816563
                        ],
                        [
                            -46.71022803342572,
                            -23.385563981792814
                        ],
                        [
                            -46.70988451154154,
                            -23.38538471663
                        ],
                        [
                            -46.70998576070341,
                            -23.385189945650605
                        ],
                        [
                            -46.71000103384888,
                            -23.384942910745615
                        ],
                        [
                            -46.7102556764615,
                            -23.38448469672412
                        ],
                        [
                            -46.71040307285553,
                            -23.384472443399538
                        ]
                    ]
                ]
            }
        },
        {
            "type": "Feature",
            "properties": {
                "type": "observation",
                "score": 0.0,
                "observation_date": "2023-03-22",
                "source": null,
                "sensor_name": null,
                "current_phase": null,
                "is_occluded": null,
                "is_site_boundary": null
            },
            "geometry": {
                "type": "Polygon",
                "coordinates": [
                    [
                        [
                            -46.71040307285553,
                            -23.384472443399538
                        ],
                        [
                            -46.71053476204464,
                            -23.38610969405461
                        ],
                        [
                            -46.71048174173109,
                            -23.386110274171582
                        ],
                        [
                            -46.71007441981544,
                            -23.385810401816563
                        ],
                        [
                            -46.71022803342572,
                            -23.385563981792814
                        ],
                        [
                            -46.70988451154154,
                            -23.38538471663
                        ],
                        [
                            -46.70998576070341,
                            -23.385189945650605
                        ],
                        [
                            -46.71000103384888,
                            -23.384942910745615
                        ],
                        [
                            -46.7102556764615,
                            -23.38448469672412
                        ],
                        [
                            -46.71040307285553,
                            -23.384472443399538
                        ]
                    ]
                ]
            }
        }
    ]
}