{
    "type": "FeatureCollection",
    "features": [
        {
            "type": "Feature",
            "properties": {
                "type": "site",
                "region_id": "BR_C000",
                "version": "2.0.1",
                "mgrs": "23KLP",
                "model_content": "annotation",
                "start_date": "2016-06-11",
                "end_date": "2020-10-18",
                "originator": "iMERIT",
                "site_id": "BR_C000_0104",
                "status": "positive_pending",
                "validated": "False",
                "score": 0.0,
                "misc_info": {
                    "commit_hash": "b8980b308111f4d719b33abcdfd4475cdb0511ce"
                }
            },
            "geometry": {
                "type": "Polygon",
                "coordinates": [
                    [
                        [
                            -46.94172930473218,
                            -23.529813662698682
                        ],
                        [
                            -46.94249702441121,
                            -23.529886868501414
                        ],
                        [
                            -46.94288692426796,
                            -23.530523851844332
                        ],
                        [
                            -46.941707063716954,
                            -23.530516824365478
                        ],
                        [
                            -46.940575861042376,
                            -23.53116031416762
                        ],
                        [
                            -46.939127061283266,
                            -23.531734650337395
                        ],
                        [
                            -46.93917346802653,
                            -23.533000660738896
                        ],
                        [
                            -46.93877530206613,
                            -23.533065529450127
                        ],
                        [
                            -46.93770508921789,
                            -23.53160688038059
                        ],
                        [
                            -46.93661144551764,
                            -23.53044804559663
                        ],
                        [
                            -46.93665772939125,
                            -23.529805616232625
                        ],
                        [
                            -46.938029778804754,
                            -23.528427803772505
                        ],
                        [
                            -46.94060341267491,
                            -23.52860967758295
                        ],
                        [
                            -46.94172930473218,
                            -23.529813662698682
                        ]
                    ]
                ]
            }
        },
        {
            "type": "Feature",
            "properties": {
                "type": "observation",
                "score": 0.0,
                "observation_date": "2016-06-11",
                "source": null,
                "sensor_name": null,
                "current_phase": null,
                "is_occluded": null,
                "is_site_boundary": null
            },
            "geometry": {
                "type": "Polygon",
                "coordinates": [
                    [
                        [
                            -46.94172930473218,
                            -23.529813662698682
                        ],
                        [
                            -46.94249702441121,
                            -23.529886868501414
                        ],
                        [
                            -46.94288692426796,
                            -23.530523851844332
                        ],
                        [
                            -46.941707063716954,
                            -23.530516824365478
                        ],
                        [
                            -46.940575861042376,
                            -23.53116031416762
                        ],
                        [
                            -46.939127061283266,
                            -23.531734650337395
                        ],
                        [
                            -46.93917346802653,
                            -23.533000660738896
                        ],
                        [
                            -46.93877530206613,
                            -23.533065529450127
                        ],
                        [
                            -46.93770508921789,
                            -23.53160688038059
                        ],
                        [
                            -46.93661144551764,
                            -23.53044804559663
                        ],
                        [
                            -46.93665772939125,
                            -23.529805616232625
                        ],
                        [
                            -46.938029778804754,
                            -23.528427803772505
                        ],
                        [
                            -46.94060341267491,
                            -23.52860967758295
                        ],
                        [
                            -46.94172930473218,
                            -23.529813662698682
                        ]
                    ]
                ]
            }
        },
        {
            "type": "Feature",
            "properties": {
                "type": "observation",
                "score": 0.0,
                "observation_date": "2020-10-18",
                "source": null,
                "sensor_name": null,
                "current_phase": null,
                "is_occluded": null,
                "is_site_boundary": null
            },
            "geometry": {
                "type": "Polygon",
                "coordinates": [
                    [
                        [
                            -46.94172930473218,
                            -23.529813662698682
                        ],
                        [
                            -46.94249702441121,
                            -23.529886868501414
                        ],
                        [
                            -46.94288692426796,
                            -23.530523851844332
                        ],
                        [
                            -46.941707063716954,
                            -23.530516824365478
                        ],
                        [
                            -46.940575861042376,
                            -23.53116031416762
                        ],
                        [
                            -46.939127061283266,
                            -23.531734650337395
                        ],
                        [
                            -46.93917346802653,
                            -23.533000660738896
                        ],
                        [
                            -46.93877530206613,
                            -23.533065529450127
                        ],
                        [
                            -46.93770508921789,
                            -23.53160688038059
                        ],
                        [
                            -46.93661144551764,
                            -23.53044804559663
                        ],
                        [
                            -46.93665772939125,
                            -23.529805616232625
                        ],
                        [
                            -46.938029778804754,
                            -23.528427803772505
                        ],
                        [
                            -46.94060341267491,
                            -23.52860967758295
                        ],
                        [
                            -46.94172930473218,
                            -23.529813662698682
                        ]
                    ]
                ]
            }
        }
    ]
}