{
    "type": "FeatureCollection",
    "features": [
        {
            "type": "Feature",
            "properties": {
                "type": "site",
                "region_id": "BR_C000",
                "version": "2.0.1",
                "mgrs": "23KLQ",
                "model_content": "annotation",
                "start_date": "2017-11-03",
                "end_date": "2021-04-11",
                "originator": "iMERIT",
                "site_id": "BR_C000_0764",
                "status": "positive_pending",
                "validated": "False",
                "score": 0.0,
                "misc_info": {
                    "commit_hash": "b8980b308111f4d719b33abcdfd4475cdb0511ce"
                }
            },
            "geometry": {
                "type": "Polygon",
                "coordinates": [
                    [
                        [
                            -46.72415069560717,
                            -23.4474421683599
                        ],
                        [
                            -46.7240189165483,
                            -23.448900523278027
                        ],
                        [
                            -46.72365872045407,
                            -23.449093799231033
                        ],
                        [
                            -46.72332698217113,
                            -23.44907534316899
                        ],
                        [
                            -46.72308767786564,
                            -23.45005139372547
                        ],
                        [
                            -46.72274502940483,
                            -23.44997651360214
                        ],
                        [
                            -46.72159418186514,
                            -23.449620915466504
                        ],
                        [
                            -46.721892881065244,
                            -23.448443689207288
                        ],
                        [
                            -46.7222355066183,
                            -23.44731038930103
                        ],
                        [
                            -46.723342450712785,
                            -23.447187395512756
                        ],
                        [
                            -46.72415069560717,
                            -23.4474421683599
                        ]
                    ]
                ]
            }
        },
        {
            "type": "Feature",
            "properties": {
                "type": "observation",
                "score": 0.0,
                "observation_date": "2017-11-03",
                "source": null,
                "sensor_name": null,
                "current_phase": null,
                "is_occluded": null,
                "is_site_boundary": null
            },
            "geometry": {
                "type": "Polygon",
                "coordinates": [
                    [
                        [
                            -46.72415069560717,
                            -23.4474421683599
                        ],
                        [
                            -46.7240189165483,
                            -23.448900523278027
                        ],
                        [
                            -46.72365872045407,
                            -23.449093799231033
                        ],
                        [
                            -46.72332698217113,
                            -23.44907534316899
                        ],
                        [
                            -46.72308767786564,
                            -23.45005139372547
                        ],
                        [
                            -46.72274502940483,
                            -23.44997651360214
                        ],
                        [
                            -46.72159418186514,
                            -23.449620915466504
                        ],
                        [
                            -46.721892881065244,
                            -23.448443689207288
                        ],
                        [
                            -46.7222355066183,
                            -23.44731038930103
                        ],
                        [
                            -46.723342450712785,
                            -23.447187395512756
                        ],
                        [
                            -46.72415069560717,
                            -23.4474421683599
                        ]
                    ]
                ]
            }
        },
        {
            "type": "Feature",
            "properties": {
                "type": "observation",
                "score": 0.0,
                "observation_date": "2021-04-11",
                "source": null,
                "sensor_name": null,
                "current_phase": null,
                "is_occluded": null,
                "is_site_boundary": null
            },
            "geometry": {
                "type": "Polygon",
                "coordinates": [
                    [
                        [
                            -46.72415069560717,
                            -23.4474421683599
                        ],
                        [
                            -46.7240189165483,
                            -23.448900523278027
                        ],
                        [
                            -46.72365872045407,
                            -23.449093799231033
                        ],
                        [
                            -46.72332698217113,
                            -23.44907534316899
                        ],
                        [
                            -46.72308767786564,
                            -23.45005139372547
                        ],
                        [
                            -46.72274502940483,
                            -23.44997651360214
                        ],
                        [
                            -46.72159418186514,
                            -23.449620915466504
                        ],
                        [
                            -46.721892881065244,
                            -23.448443689207288
                        ],
                        [
                            -46.7222355066183,
                            -23.44731038930103
                        ],
                        [
                            -46.723342450712785,
                            -23.447187395512756
                        ],
                        [
                            -46.72415069560717,
                            -23.4474421683599
                        ]
                    ]
                ]
            }
        }
    ]
}