{
    "type": "FeatureCollection",
    "features": [
        {
            "type": "Feature",
            "properties": {
                "type": "site",
                "region_id": "BR_C000",
                "version": "2.0.1",
                "mgrs": "23KLQ",
                "model_content": "annotation",
                "start_date": "2021-05-26",
                "end_date": null,
                "originator": "iMERIT",
                "site_id": "BR_C000_0802",
                "status": "positive_pending",
                "validated": "False",
                "score": 0.0,
                "misc_info": {
                    "commit_hash": "b8980b308111f4d719b33abcdfd4475cdb0511ce"
                }
            },
            "geometry": {
                "type": "Polygon",
                "coordinates": [
                    [
                        [
                            -46.360455778183145,
                            -23.404202704795512
                        ],
                        [
                            -46.35997456362362,
                            -23.40491301796107
                        ],
                        [
                            -46.3603951274458,
                            -23.40520097112793
                        ],
                        [
                            -46.36081582709728,
                            -23.40465960382079
                        ],
                        [
                            -46.36108950447451,
                            -23.40484907540429
                        ],
                        [
                            -46.36128229911143,
                            -23.404648481422527
                        ],
                        [
                            -46.36132228015778,
                            -23.404606882976584
                        ],
                        [
                            -46.360455778183145,
                            -23.404202704795512
                        ]
                    ]
                ]
            }
        },
        {
            "type": "Feature",
            "properties": {
                "type": "observation",
                "score": 0.0,
                "observation_date": "2021-05-26",
                "source": null,
                "sensor_name": null,
                "current_phase": null,
                "is_occluded": null,
                "is_site_boundary": null
            },
            "geometry": {
                "type": "Polygon",
                "coordinates": [
                    [
                        [
                            -46.360455778183145,
                            -23.404202704795512
                        ],
                        [
                            -46.35997456362362,
                            -23.40491301796107
                        ],
                        [
                            -46.3603951274458,
                            -23.40520097112793
                        ],
                        [
                            -46.36081582709728,
                            -23.40465960382079
                        ],
                        [
                            -46.36108950447451,
                            -23.40484907540429
                        ],
                        [
                            -46.36128229911143,
                            -23.404648481422527
                        ],
                        [
                            -46.36132228015778,
                            -23.404606882976584
                        ],
                        [
                            -46.360455778183145,
                            -23.404202704795512
                        ]
                    ]
                ]
            }
        },
        {
            "type": "Feature",
            "properties": {
                "type": "observation",
                "score": 0.0,
                "observation_date": null,
                "source": null,
                "sensor_name": null,
                "current_phase": null,
                "is_occluded": null,
                "is_site_boundary": null
            },
            "geometry": {
                "type": "Polygon",
                "coordinates": [
                    [
                        [
                            -46.360455778183145,
                            -23.404202704795512
                        ],
                        [
                            -46.35997456362362,
                            -23.40491301796107
                        ],
                        [
                            -46.3603951274458,
                            -23.40520097112793
                        ],
                        [
                            -46.36081582709728,
                            -23.40465960382079
                        ],
                        [
                            -46.36108950447451,
                            -23.40484907540429
                        ],
                        [
                            -46.36128229911143,
                            -23.404648481422527
                        ],
                        [
                            -46.36132228015778,
                            -23.404606882976584
                        ],
                        [
                            -46.360455778183145,
                            -23.404202704795512
                        ]
                    ]
                ]
            }
        }
    ]
}