{
    "type": "FeatureCollection",
    "features": [
        {
            "type": "Feature",
            "properties": {
                "type": "site",
                "region_id": "BR_C000",
                "version": "2.0.1",
                "mgrs": "23KKP",
                "model_content": "annotation",
                "start_date": "2016-08-13",
                "end_date": "2021-02-23",
                "originator": "iMERIT",
                "site_id": "BR_C000_0047",
                "status": "positive_pending",
                "validated": "False",
                "score": 0.0,
                "misc_info": {
                    "commit_hash": "b8980b308111f4d719b33abcdfd4475cdb0511ce"
                }
            },
            "geometry": {
                "type": "Polygon",
                "coordinates": [
                    [
                        [
                            -46.999660752251756,
                            -23.60714884091567
                        ],
                        [
                            -46.999452811957354,
                            -23.606387779438162
                        ],
                        [
                            -46.998733338538734,
                            -23.606554131673683
                        ],
                        [
                            -46.998600256750315,
                            -23.606849406891733
                        ],
                        [
                            -46.99868759167396,
                            -23.60724865225698
                        ],
                        [
                            -46.99852955705022,
                            -23.60729439912175
                        ],
                        [
                            -46.99864184480919,
                            -23.607552245086804
                        ],
                        [
                            -46.999660752251756,
                            -23.60714884091567
                        ]
                    ]
                ]
            }
        },
        {
            "type": "Feature",
            "properties": {
                "type": "observation",
                "score": 0.0,
                "observation_date": "2016-08-13",
                "source": null,
                "sensor_name": null,
                "current_phase": null,
                "is_occluded": null,
                "is_site_boundary": null
            },
            "geometry": {
                "type": "Polygon",
                "coordinates": [
                    [
                        [
                            -46.999660752251756,
                            -23.60714884091567
                        ],
                        [
                            -46.999452811957354,
                            -23.606387779438162
                        ],
                        [
                            -46.998733338538734,
                            -23.606554131673683
                        ],
                        [
                            -46.998600256750315,
                            -23.606849406891733
                        ],
                        [
                            -46.99868759167396,
                            -23.60724865225698
                        ],
                        [
                            -46.99852955705022,
                            -23.60729439912175
                        ],
                        [
                            -46.99864184480919,
                            -23.607552245086804
                        ],
                        [
                            -46.999660752251756,
                            -23.60714884091567
                        ]
                    ]
                ]
            }
        },
        {
            "type": "Feature",
            "properties": {
                "type": "observation",
                "score": 0.0,
                "observation_date": "2021-02-23",
                "source": null,
                "sensor_name": null,
                "current_phase": null,
                "is_occluded": null,
                "is_site_boundary": null
            },
            "geometry": {
                "type": "Polygon",
                "coordinates": [
                    [
                        [
                            -46.999660752251756,
                            -23.60714884091567
                        ],
                        [
                            -46.999452811957354,
                            -23.606387779438162
                        ],
                        [
                            -46.998733338538734,
                            -23.606554131673683
                        ],
                        [
                            -46.998600256750315,
                            -23.606849406891733
                        ],
                        [
                            -46.99868759167396,
                            -23.60724865225698
                        ],
                        [
                            -46.99852955705022,
                            -23.60729439912175
                        ],
                        [
                            -46.99864184480919,
                            -23.607552245086804
                        ],
                        [
                            -46.999660752251756,
                            -23.60714884091567
                        ]
                    ]
                ]
            }
        }
    ]
}