{
    "type": "FeatureCollection",
    "features": [
        {
            "type": "Feature",
            "properties": {
                "type": "site",
                "region_id": "BR_C000",
                "version": "2.0.1",
                "mgrs": "23KLQ",
                "model_content": "annotation",
                "start_date": "2018-12-13",
                "end_date": "2020-03-27",
                "originator": "iMERIT",
                "site_id": "BR_C000_0724",
                "status": "positive_pending",
                "validated": "False",
                "score": 0.0,
                "misc_info": {
                    "commit_hash": "b8980b308111f4d719b33abcdfd4475cdb0511ce"
                }
            },
            "geometry": {
                "type": "Polygon",
                "coordinates": [
                    [
                        [
                            -46.850552419683126,
                            -23.409289963902072
                        ],
                        [
                            -46.849682926015014,
                            -23.409674410348234
                        ],
                        [
                            -46.849451529615635,
                            -23.408947457560608
                        ],
                        [
                            -46.85037069808608,
                            -23.40874085300015
                        ],
                        [
                            -46.850531452377425,
                            -23.409226606676885
                        ],
                        [
                            -46.850552419683126,
                            -23.409289963902072
                        ]
                    ]
                ]
            }
        },
        {
            "type": "Feature",
            "properties": {
                "type": "observation",
                "score": 0.0,
                "observation_date": "2018-12-13",
                "source": null,
                "sensor_name": null,
                "current_phase": null,
                "is_occluded": null,
                "is_site_boundary": null
            },
            "geometry": {
                "type": "Polygon",
                "coordinates": [
                    [
                        [
                            -46.850552419683126,
                            -23.409289963902072
                        ],
                        [
                            -46.849682926015014,
                            -23.409674410348234
                        ],
                        [
                            -46.849451529615635,
                            -23.408947457560608
                        ],
                        [
                            -46.85037069808608,
                            -23.40874085300015
                        ],
                        [
                            -46.850531452377425,
                            -23.409226606676885
                        ],
                        [
                            -46.850552419683126,
                            -23.409289963902072
                        ]
                    ]
                ]
            }
        },
        {
            "type": "Feature",
            "properties": {
                "type": "observation",
                "score": 0.0,
                "observation_date": "2020-03-27",
                "source": null,
                "sensor_name": null,
                "current_phase": null,
                "is_occluded": null,
                "is_site_boundary": null
            },
            "geometry": {
                "type": "Polygon",
                "coordinates": [
                    [
                        [
                            -46.850552419683126,
                            -23.409289963902072
                        ],
                        [
                            -46.849682926015014,
                            -23.409674410348234
                        ],
                        [
                            -46.849451529615635,
                            -23.408947457560608
                        ],
                        [
                            -46.85037069808608,
                            -23.40874085300015
                        ],
                        [
                            -46.850531452377425,
                            -23.409226606676885
                        ],
                        [
                            -46.850552419683126,
                            -23.409289963902072
                        ]
                    ]
                ]
            }
        }
    ]
}