{
    "type": "FeatureCollection",
    "features": [
        {
            "type": "Feature",
            "properties": {
                "type": "site",
                "region_id": "BR_C000",
                "version": "2.0.0",
                "mgrs": "23KLP",
                "model_content": "annotation",
                "start_date": "2017-07-12",
                "end_date": "2019-03-23",
                "originator": "iMERIT",
                "site_id": "BR_C000_0274",
                "status": "positive_pending",
                "validated": "False",
                "score": 0.0,
                "misc_info": {
                    "commit_hash": "b8980b308111f4d719b33abcdfd4475cdb0511ce"
                }
            },
            "geometry": {
                "type": "Polygon",
                "coordinates": [
                    [
                        [
                            -46.79474486718852,
                            -23.588704685504627
                        ],
                        [
                            -46.795621018889285,
                            -23.58839838856859
                        ],
                        [
                            -46.795958521107686,
                            -23.58848714289379
                        ],
                        [
                            -46.79652566332829,
                            -23.58802085978696
                        ],
                        [
                            -46.79603416359371,
                            -23.587372649992083
                        ],
                        [
                            -46.79442432388336,
                            -23.58799949023328
                        ],
                        [
                            -46.79474486718852,
                            -23.588704685504627
                        ]
                    ]
                ]
            }
        },
        {
            "type": "Feature",
            "properties": {
                "type": "observation",
                "score": 0.0,
                "observation_date": "2017-07-12",
                "source": null,
                "sensor_name": null,
                "current_phase": null,
                "is_occluded": null,
                "is_site_boundary": null
            },
            "geometry": {
                "type": "Polygon",
                "coordinates": [
                    [
                        [
                            -46.79474486718852,
                            -23.588704685504627
                        ],
                        [
                            -46.795621018889285,
                            -23.58839838856859
                        ],
                        [
                            -46.795958521107686,
                            -23.58848714289379
                        ],
                        [
                            -46.79652566332829,
                            -23.58802085978696
                        ],
                        [
                            -46.79603416359371,
                            -23.587372649992083
                        ],
                        [
                            -46.79442432388336,
                            -23.58799949023328
                        ],
                        [
                            -46.79474486718852,
                            -23.588704685504627
                        ]
                    ]
                ]
            }
        },
        {
            "type": "Feature",
            "properties": {
                "type": "observation",
                "score": 0.0,
                "observation_date": "2019-03-23",
                "source": null,
                "sensor_name": null,
                "current_phase": null,
                "is_occluded": null,
                "is_site_boundary": null
            },
            "geometry": {
                "type": "Polygon",
                "coordinates": [
                    [
                        [
                            -46.79474486718852,
                            -23.588704685504627
                        ],
                        [
                            -46.795621018889285,
                            -23.58839838856859
                        ],
                        [
                            -46.795958521107686,
                            -23.58848714289379
                        ],
                        [
                            -46.79652566332829,
                            -23.58802085978696
                        ],
                        [
                            -46.79603416359371,
                            -23.587372649992083
                        ],
                        [
                            -46.79442432388336,
                            -23.58799949023328
                        ],
                        [
                            -46.79474486718852,
                            -23.588704685504627
                        ]
                    ]
                ]
            }
        }
    ]
}