{
    "type": "FeatureCollection",
    "features": [
        {
            "type": "Feature",
            "properties": {
                "type": "site",
                "region_id": "BR_C000",
                "version": "2.0.1",
                "mgrs": "23KLQ",
                "model_content": "annotation",
                "start_date": "2018-04-12",
                "end_date": "2020-01-27",
                "originator": "iMERIT",
                "site_id": "BR_C000_0808",
                "status": "positive_pending",
                "validated": "False",
                "score": 0.0,
                "misc_info": {
                    "commit_hash": "b8980b308111f4d719b33abcdfd4475cdb0511ce"
                }
            },
            "geometry": {
                "type": "Polygon",
                "coordinates": [
                    [
                        [
                            -46.34569587391143,
                            -23.39028282898666
                        ],
                        [
                            -46.34555300812681,
                            -23.39025628496059
                        ],
                        [
                            -46.3448989237968,
                            -23.39013475809147
                        ],
                        [
                            -46.344833675027,
                            -23.390484585833192
                        ],
                        [
                            -46.34458558234376,
                            -23.391814721303547
                        ],
                        [
                            -46.34729572081721,
                            -23.39236283932332
                        ],
                        [
                            -46.34708780516012,
                            -23.39314540929586
                        ],
                        [
                            -46.34791040041869,
                            -23.393283601455472
                        ],
                        [
                            -46.347974595653795,
                            -23.392316680827687
                        ],
                        [
                            -46.34810886782218,
                            -23.39232507283821
                        ],
                        [
                            -46.34820117993796,
                            -23.392098488554062
                        ],
                        [
                            -46.348298351989484,
                            -23.39183687149226
                        ],
                        [
                            -46.348364824143175,
                            -23.39165790800156
                        ],
                        [
                            -46.34841098020105,
                            -23.391368383638486
                        ],
                        [
                            -46.348400019805794,
                            -23.391293653670818
                        ],
                        [
                            -46.34838358859692,
                            -23.391181622701172
                        ],
                        [
                            -46.348285100043185,
                            -23.390877451022835
                        ],
                        [
                            -46.348159219885325,
                            -23.390709610812358
                        ],
                        [
                            -46.34802914372221,
                            -23.390596318670283
                        ],
                        [
                            -46.34789067554856,
                            -23.390554358617663
                        ],
                        [
                            -46.34757177914865,
                            -23.390554358617663
                        ],
                        [
                            -46.34733680285399,
                            -23.390550162612403
                        ],
                        [
                            -46.347051474496176,
                            -23.390520790575568
                        ],
                        [
                            -46.34654795386474,
                            -23.390470438512427
                        ],
                        [
                            -46.3459353370965,
                            -23.390340362349306
                        ],
                        [
                            -46.34569587391143,
                            -23.39028282898666
                        ]
                    ]
                ]
            }
        },
        {
            "type": "Feature",
            "properties": {
                "type": "observation",
                "score": 0.0,
                "observation_date": "2018-04-12",
                "source": null,
                "sensor_name": null,
                "current_phase": null,
                "is_occluded": null,
                "is_site_boundary": null
            },
            "geometry": {
                "type": "Polygon",
                "coordinates": [
                    [
                        [
                            -46.34569587391143,
                            -23.39028282898666
                        ],
                        [
                            -46.34555300812681,
                            -23.39025628496059
                        ],
                        [
                            -46.3448989237968,
                            -23.39013475809147
                        ],
                        [
                            -46.344833675027,
                            -23.390484585833192
                        ],
                        [
                            -46.34458558234376,
                            -23.391814721303547
                        ],
                        [
                            -46.34729572081721,
                            -23.39236283932332
                        ],
                        [
                            -46.34708780516012,
                            -23.39314540929586
                        ],
                        [
                            -46.34791040041869,
                            -23.393283601455472
                        ],
                        [
                            -46.347974595653795,
                            -23.392316680827687
                        ],
                        [
                            -46.34810886782218,
                            -23.39232507283821
                        ],
                        [
                            -46.34820117993796,
                            -23.392098488554062
                        ],
                        [
                            -46.348298351989484,
                            -23.39183687149226
                        ],
                        [
                            -46.348364824143175,
                            -23.39165790800156
                        ],
                        [
                            -46.34841098020105,
                            -23.391368383638486
                        ],
                        [
                            -46.348400019805794,
                            -23.391293653670818
                        ],
                        [
                            -46.34838358859692,
                            -23.391181622701172
                        ],
                        [
                            -46.348285100043185,
                            -23.390877451022835
                        ],
                        [
                            -46.348159219885325,
                            -23.390709610812358
                        ],
                        [
                            -46.34802914372221,
                            -23.390596318670283
                        ],
                        [
                            -46.34789067554856,
                            -23.390554358617663
                        ],
                        [
                            -46.34757177914865,
                            -23.390554358617663
                        ],
                        [
                            -46.34733680285399,
                            -23.390550162612403
                        ],
                        [
                            -46.347051474496176,
                            -23.390520790575568
                        ],
                        [
                            -46.34654795386474,
                            -23.390470438512427
                        ],
                        [
                            -46.3459353370965,
                            -23.390340362349306
                        ],
                        [
                            -46.34569587391143,
                            -23.39028282898666
                        ]
                    ]
                ]
            }
        },
        {
            "type": "Feature",
            "properties": {
                "type": "observation",
                "score": 0.0,
                "observation_date": "2020-01-27",
                "source": null,
                "sensor_name": null,
                "current_phase": null,
                "is_occluded": null,
                "is_site_boundary": null
            },
            "geometry": {
                "type": "Polygon",
                "coordinates": [
                    [
                        [
                            -46.34569587391143,
                            -23.39028282898666
                        ],
                        [
                            -46.34555300812681,
                            -23.39025628496059
                        ],
                        [
                            -46.3448989237968,
                            -23.39013475809147
                        ],
                        [
                            -46.344833675027,
                            -23.390484585833192
                        ],
                        [
                            -46.34458558234376,
                            -23.391814721303547
                        ],
                        [
                            -46.34729572081721,
                            -23.39236283932332
                        ],
                        [
                            -46.34708780516012,
                            -23.39314540929586
                        ],
                        [
                            -46.34791040041869,
                            -23.393283601455472
                        ],
                        [
                            -46.347974595653795,
                            -23.392316680827687
                        ],
                        [
                            -46.34810886782218,
                            -23.39232507283821
                        ],
                        [
                            -46.34820117993796,
                            -23.392098488554062
                        ],
                        [
                            -46.348298351989484,
                            -23.39183687149226
                        ],
                        [
                            -46.348364824143175,
                            -23.39165790800156
                        ],
                        [
                            -46.34841098020105,
                            -23.391368383638486
                        ],
                        [
                            -46.348400019805794,
                            -23.391293653670818
                        ],
                        [
                            -46.34838358859692,
                            -23.391181622701172
                        ],
                        [
                            -46.348285100043185,
                            -23.390877451022835
                        ],
                        [
                            -46.348159219885325,
                            -23.390709610812358
                        ],
                        [
                            -46.34802914372221,
                            -23.390596318670283
                        ],
                        [
                            -46.34789067554856,
                            -23.390554358617663
                        ],
                        [
                            -46.34757177914865,
                            -23.390554358617663
                        ],
                        [
                            -46.34733680285399,
                            -23.390550162612403
                        ],
                        [
                            -46.347051474496176,
                            -23.390520790575568
                        ],
                        [
                            -46.34654795386474,
                            -23.390470438512427
                        ],
                        [
                            -46.3459353370965,
                            -23.390340362349306
                        ],
                        [
                            -46.34569587391143,
                            -23.39028282898666
                        ]
                    ]
                ]
            }
        }
    ]
}