{
    "type": "FeatureCollection",
    "features": [
        {
            "type": "Feature",
            "properties": {
                "type": "site",
                "region_id": "BR_C000",
                "version": "2.0.1",
                "mgrs": "23KLQ",
                "model_content": "annotation",
                "start_date": "2021-06-05",
                "end_date": "2023-07-05",
                "originator": "iMERIT",
                "site_id": "BR_C000_0863",
                "status": "positive_pending",
                "validated": "False",
                "score": 0.0,
                "misc_info": {
                    "commit_hash": "b8980b308111f4d719b33abcdfd4475cdb0511ce"
                }
            },
            "geometry": {
                "type": "Polygon",
                "coordinates": [
                    [
                        [
                            -46.454270985155645,
                            -23.478177713100976
                        ],
                        [
                            -46.45651706981942,
                            -23.481112895848838
                        ],
                        [
                            -46.45694936923664,
                            -23.481118579653373
                        ],
                        [
                            -46.45800676905475,
                            -23.480447447296836
                        ],
                        [
                            -46.45564151242225,
                            -23.477221673696235
                        ],
                        [
                            -46.454270985155645,
                            -23.478177713100976
                        ]
                    ]
                ]
            }
        },
        {
            "type": "Feature",
            "properties": {
                "type": "observation",
                "score": 0.0,
                "observation_date": "2021-06-05",
                "source": null,
                "sensor_name": null,
                "current_phase": null,
                "is_occluded": null,
                "is_site_boundary": null
            },
            "geometry": {
                "type": "Polygon",
                "coordinates": [
                    [
                        [
                            -46.454270985155645,
                            -23.478177713100976
                        ],
                        [
                            -46.45651706981942,
                            -23.481112895848838
                        ],
                        [
                            -46.45694936923664,
                            -23.481118579653373
                        ],
                        [
                            -46.45800676905475,
                            -23.480447447296836
                        ],
                        [
                            -46.45564151242225,
                            -23.477221673696235
                        ],
                        [
                            -46.454270985155645,
                            -23.478177713100976
                        ]
                    ]
                ]
            }
        },
        {
            "type": "Feature",
            "properties": {
                "type": "observation",
                "score": 0.0,
                "observation_date": "2023-07-05",
                "source": null,
                "sensor_name": null,
                "current_phase": null,
                "is_occluded": null,
                "is_site_boundary": null
            },
            "geometry": {
                "type": "Polygon",
                "coordinates": [
                    [
                        [
                            -46.454270985155645,
                            -23.478177713100976
                        ],
                        [
                            -46.45651706981942,
                            -23.481112895848838
                        ],
                        [
                            -46.45694936923664,
                            -23.481118579653373
                        ],
                        [
                            -46.45800676905475,
                            -23.480447447296836
                        ],
                        [
                            -46.45564151242225,
                            -23.477221673696235
                        ],
                        [
                            -46.454270985155645,
                            -23.478177713100976
                        ]
                    ]
                ]
            }
        }
    ]
}