{
    "type": "FeatureCollection",
    "features": [
        {
            "type": "Feature",
            "properties": {
                "type": "site",
                "region_id": "BR_C000",
                "version": "2.0.0",
                "mgrs": "23KLP",
                "model_content": "annotation",
                "start_date": "2018-04-07",
                "end_date": "2019-12-08",
                "originator": "iMERIT",
                "site_id": "BR_C000_0297",
                "status": "positive_pending",
                "validated": "False",
                "score": 0.0,
                "misc_info": {
                    "commit_hash": "b8980b308111f4d719b33abcdfd4475cdb0511ce"
                }
            },
            "geometry": {
                "type": "Polygon",
                "coordinates": [
                    [
                        [
                            -46.786135558399366,
                            -23.56214275823966
                        ],
                        [
                            -46.786039340017794,
                            -23.562736182335176
                        ],
                        [
                            -46.78738025299673,
                            -23.562953195737048
                        ],
                        [
                            -46.78737619233528,
                            -23.56289212451835
                        ],
                        [
                            -46.78737150120997,
                            -23.56282157129863
                        ],
                        [
                            -46.78731668731643,
                            -23.56247121393015
                        ],
                        [
                            -46.7867954191804,
                            -23.56239932774016
                        ],
                        [
                            -46.78659818024295,
                            -23.56230921374974
                        ],
                        [
                            -46.786135558399366,
                            -23.56214275823966
                        ]
                    ]
                ]
            }
        },
        {
            "type": "Feature",
            "properties": {
                "type": "observation",
                "score": 0.0,
                "observation_date": "2018-04-07",
                "source": null,
                "sensor_name": null,
                "current_phase": null,
                "is_occluded": null,
                "is_site_boundary": null
            },
            "geometry": {
                "type": "Polygon",
                "coordinates": [
                    [
                        [
                            -46.786135558399366,
                            -23.56214275823966
                        ],
                        [
                            -46.786039340017794,
                            -23.562736182335176
                        ],
                        [
                            -46.78738025299673,
                            -23.562953195737048
                        ],
                        [
                            -46.78737619233528,
                            -23.56289212451835
                        ],
                        [
                            -46.78737150120997,
                            -23.56282157129863
                        ],
                        [
                            -46.78731668731643,
                            -23.56247121393015
                        ],
                        [
                            -46.7867954191804,
                            -23.56239932774016
                        ],
                        [
                            -46.78659818024295,
                            -23.56230921374974
                        ],
                        [
                            -46.786135558399366,
                            -23.56214275823966
                        ]
                    ]
                ]
            }
        },
        {
            "type": "Feature",
            "properties": {
                "type": "observation",
                "score": 0.0,
                "observation_date": "2019-12-08",
                "source": null,
                "sensor_name": null,
                "current_phase": null,
                "is_occluded": null,
                "is_site_boundary": null
            },
            "geometry": {
                "type": "Polygon",
                "coordinates": [
                    [
                        [
                            -46.786135558399366,
                            -23.56214275823966
                        ],
                        [
                            -46.786039340017794,
                            -23.562736182335176
                        ],
                        [
                            -46.78738025299673,
                            -23.562953195737048
                        ],
                        [
                            -46.78737619233528,
                            -23.56289212451835
                        ],
                        [
                            -46.78737150120997,
                            -23.56282157129863
                        ],
                        [
                            -46.78731668731643,
                            -23.56247121393015
                        ],
                        [
                            -46.7867954191804,
                            -23.56239932774016
                        ],
                        [
                            -46.78659818024295,
                            -23.56230921374974
                        ],
                        [
                            -46.786135558399366,
                            -23.56214275823966
                        ]
                    ]
                ]
            }
        }
    ]
}