{
    "type": "FeatureCollection",
    "features": [
        {
            "type": "Feature",
            "properties": {
                "type": "site",
                "region_id": "BR_C000",
                "version": "2.0.1",
                "mgrs": "23KLQ",
                "model_content": "annotation",
                "start_date": "2016-04-15",
                "end_date": "2020-10-13",
                "originator": "iMERIT",
                "site_id": "BR_C000_0830",
                "status": "positive_pending",
                "validated": "False",
                "score": 0.0,
                "misc_info": {
                    "commit_hash": "b8980b308111f4d719b33abcdfd4475cdb0511ce"
                }
            },
            "geometry": {
                "type": "Polygon",
                "coordinates": [
                    [
                        [
                            -46.544352239358396,
                            -23.445457114241357
                        ],
                        [
                            -46.54377390068567,
                            -23.446322033143986
                        ],
                        [
                            -46.54428207285789,
                            -23.446594853984827
                        ],
                        [
                            -46.544878541399285,
                            -23.44569555697351
                        ],
                        [
                            -46.544352239358396,
                            -23.445457114241357
                        ]
                    ]
                ]
            }
        },
        {
            "type": "Feature",
            "properties": {
                "type": "observation",
                "score": 0.0,
                "observation_date": "2016-04-15",
                "source": null,
                "sensor_name": null,
                "current_phase": null,
                "is_occluded": null,
                "is_site_boundary": null
            },
            "geometry": {
                "type": "Polygon",
                "coordinates": [
                    [
                        [
                            -46.544352239358396,
                            -23.445457114241357
                        ],
                        [
                            -46.54377390068567,
                            -23.446322033143986
                        ],
                        [
                            -46.54428207285789,
                            -23.446594853984827
                        ],
                        [
                            -46.544878541399285,
                            -23.44569555697351
                        ],
                        [
                            -46.544352239358396,
                            -23.445457114241357
                        ]
                    ]
                ]
            }
        },
        {
            "type": "Feature",
            "properties": {
                "type": "observation",
                "score": 0.0,
                "observation_date": "2020-10-13",
                "source": null,
                "sensor_name": null,
                "current_phase": null,
                "is_occluded": null,
                "is_site_boundary": null
            },
            "geometry": {
                "type": "Polygon",
                "coordinates": [
                    [
                        [
                            -46.544352239358396,
                            -23.445457114241357
                        ],
                        [
                            -46.54377390068567,
                            -23.446322033143986
                        ],
                        [
                            -46.54428207285789,
                            -23.446594853984827
                        ],
                        [
                            -46.544878541399285,
                            -23.44569555697351
                        ],
                        [
                            -46.544352239358396,
                            -23.445457114241357
                        ]
                    ]
                ]
            }
        }
    ]
}