{
    "type": "FeatureCollection",
    "features": [
        {
            "type": "Feature",
            "properties": {
                "type": "site",
                "region_id": "BR_C000",
                "version": "2.0.1",
                "mgrs": "23KLP",
                "model_content": "annotation",
                "start_date": "2016-08-17",
                "end_date": "2019-09-19",
                "originator": "iMERIT",
                "site_id": "BR_C000_0544",
                "status": "positive_pending",
                "validated": "False",
                "score": 0.0,
                "misc_info": {
                    "commit_hash": "b8980b308111f4d719b33abcdfd4475cdb0511ce"
                }
            },
            "geometry": {
                "type": "Polygon",
                "coordinates": [
                    [
                        [
                            -46.29131795397257,
                            -23.56230462735213
                        ],
                        [
                            -46.29009460275267,
                            -23.56256580847927
                        ],
                        [
                            -46.29006282841027,
                            -23.56303403110937
                        ],
                        [
                            -46.2902198247964,
                            -23.56375038552637
                        ],
                        [
                            -46.29090870275822,
                            -23.56372727635835
                        ],
                        [
                            -46.29165041958069,
                            -23.56360082770158
                        ],
                        [
                            -46.29131795397257,
                            -23.56230462735213
                        ]
                    ]
                ]
            }
        },
        {
            "type": "Feature",
            "properties": {
                "type": "observation",
                "score": 0.0,
                "observation_date": "2016-08-17",
                "source": null,
                "sensor_name": null,
                "current_phase": null,
                "is_occluded": null,
                "is_site_boundary": null
            },
            "geometry": {
                "type": "Polygon",
                "coordinates": [
                    [
                        [
                            -46.29131795397257,
                            -23.56230462735213
                        ],
                        [
                            -46.29009460275267,
                            -23.56256580847927
                        ],
                        [
                            -46.29006282841027,
                            -23.56303403110937
                        ],
                        [
                            -46.2902198247964,
                            -23.56375038552637
                        ],
                        [
                            -46.29090870275822,
                            -23.56372727635835
                        ],
                        [
                            -46.29165041958069,
                            -23.56360082770158
                        ],
                        [
                            -46.29131795397257,
                            -23.56230462735213
                        ]
                    ]
                ]
            }
        },
        {
            "type": "Feature",
            "properties": {
                "type": "observation",
                "score": 0.0,
                "observation_date": "2019-09-19",
                "source": null,
                "sensor_name": null,
                "current_phase": null,
                "is_occluded": null,
                "is_site_boundary": null
            },
            "geometry": {
                "type": "Polygon",
                "coordinates": [
                    [
                        [
                            -46.29131795397257,
                            -23.56230462735213
                        ],
                        [
                            -46.29009460275267,
                            -23.56256580847927
                        ],
                        [
                            -46.29006282841027,
                            -23.56303403110937
                        ],
                        [
                            -46.2902198247964,
                            -23.56375038552637
                        ],
                        [
                            -46.29090870275822,
                            -23.56372727635835
                        ],
                        [
                            -46.29165041958069,
                            -23.56360082770158
                        ],
                        [
                            -46.29131795397257,
                            -23.56230462735213
                        ]
                    ]
                ]
            }
        }
    ]
}