{
    "type": "FeatureCollection",
    "features": [
        {
            "type": "Feature",
            "properties": {
                "type": "site",
                "region_id": "BR_C000",
                "version": "2.0.0",
                "mgrs": "23KLP",
                "model_content": "annotation",
                "start_date": "2017-06-11",
                "end_date": "2018-12-01",
                "originator": "iMERIT",
                "site_id": "BR_C000_0307",
                "status": "positive_pending",
                "validated": "False",
                "score": 0.0,
                "misc_info": {
                    "commit_hash": "b8980b308111f4d719b33abcdfd4475cdb0511ce"
                }
            },
            "geometry": {
                "type": "Polygon",
                "coordinates": [
                    [
                        [
                            -46.82218369053871,
                            -23.56254958313334
                        ],
                        [
                            -46.82333053786251,
                            -23.5623535084344
                        ],
                        [
                            -46.82325011353305,
                            -23.56188682349972
                        ],
                        [
                            -46.82216106630653,
                            -23.56201292092429
                        ],
                        [
                            -46.82218369053871,
                            -23.56254958313334
                        ]
                    ]
                ]
            }
        },
        {
            "type": "Feature",
            "properties": {
                "type": "observation",
                "score": 0.0,
                "observation_date": "2017-06-11",
                "source": null,
                "sensor_name": null,
                "current_phase": null,
                "is_occluded": null,
                "is_site_boundary": null
            },
            "geometry": {
                "type": "Polygon",
                "coordinates": [
                    [
                        [
                            -46.82218369053871,
                            -23.56254958313334
                        ],
                        [
                            -46.82333053786251,
                            -23.5623535084344
                        ],
                        [
                            -46.82325011353305,
                            -23.56188682349972
                        ],
                        [
                            -46.82216106630653,
                            -23.56201292092429
                        ],
                        [
                            -46.82218369053871,
                            -23.56254958313334
                        ]
                    ]
                ]
            }
        },
        {
            "type": "Feature",
            "properties": {
                "type": "observation",
                "score": 0.0,
                "observation_date": "2018-12-01",
                "source": null,
                "sensor_name": null,
                "current_phase": null,
                "is_occluded": null,
                "is_site_boundary": null
            },
            "geometry": {
                "type": "Polygon",
                "coordinates": [
                    [
                        [
                            -46.82218369053871,
                            -23.56254958313334
                        ],
                        [
                            -46.82333053786251,
                            -23.5623535084344
                        ],
                        [
                            -46.82325011353305,
                            -23.56188682349972
                        ],
                        [
                            -46.82216106630653,
                            -23.56201292092429
                        ],
                        [
                            -46.82218369053871,
                            -23.56254958313334
                        ]
                    ]
                ]
            }
        }
    ]
}