{
    "type": "FeatureCollection",
    "features": [
        {
            "type": "Feature",
            "properties": {
                "type": "site",
                "region_id": "BR_C000",
                "version": "2.0.0",
                "mgrs": "23KLP",
                "model_content": "annotation",
                "start_date": "2020-03-17",
                "end_date": null,
                "originator": "iMERIT",
                "site_id": "BR_C000_0581",
                "status": "positive_pending",
                "validated": "False",
                "score": 0.0,
                "misc_info": {
                    "commit_hash": "b8980b308111f4d719b33abcdfd4475cdb0511ce"
                }
            },
            "geometry": {
                "type": "Polygon",
                "coordinates": [
                    [
                        [
                            -46.45322244881573,
                            -23.638229476595004
                        ],
                        [
                            -46.453235312103935,
                            -23.64127100133296
                        ],
                        [
                            -46.45381580637044,
                            -23.641297376096023
                        ],
                        [
                            -46.45419242764168,
                            -23.641001133952894
                        ],
                        [
                            -46.455816638338156,
                            -23.64109406867815
                        ],
                        [
                            -46.45484912944863,
                            -23.639798678858558
                        ],
                        [
                            -46.453862537557484,
                            -23.638649816258045
                        ],
                        [
                            -46.45322244881573,
                            -23.638229476595004
                        ]
                    ]
                ]
            }
        },
        {
            "type": "Feature",
            "properties": {
                "type": "observation",
                "score": 0.0,
                "observation_date": "2020-03-17",
                "source": null,
                "sensor_name": null,
                "current_phase": null,
                "is_occluded": null,
                "is_site_boundary": null
            },
            "geometry": {
                "type": "Polygon",
                "coordinates": [
                    [
                        [
                            -46.45322244881573,
                            -23.638229476595004
                        ],
                        [
                            -46.453235312103935,
                            -23.64127100133296
                        ],
                        [
                            -46.45381580637044,
                            -23.641297376096023
                        ],
                        [
                            -46.45419242764168,
                            -23.641001133952894
                        ],
                        [
                            -46.455816638338156,
                            -23.64109406867815
                        ],
                        [
                            -46.45484912944863,
                            -23.639798678858558
                        ],
                        [
                            -46.453862537557484,
                            -23.638649816258045
                        ],
                        [
                            -46.45322244881573,
                            -23.638229476595004
                        ]
                    ]
                ]
            }
        },
        {
            "type": "Feature",
            "properties": {
                "type": "observation",
                "score": 0.0,
                "observation_date": null,
                "source": null,
                "sensor_name": null,
                "current_phase": null,
                "is_occluded": null,
                "is_site_boundary": null
            },
            "geometry": {
                "type": "Polygon",
                "coordinates": [
                    [
                        [
                            -46.45322244881573,
                            -23.638229476595004
                        ],
                        [
                            -46.453235312103935,
                            -23.64127100133296
                        ],
                        [
                            -46.45381580637044,
                            -23.641297376096023
                        ],
                        [
                            -46.45419242764168,
                            -23.641001133952894
                        ],
                        [
                            -46.455816638338156,
                            -23.64109406867815
                        ],
                        [
                            -46.45484912944863,
                            -23.639798678858558
                        ],
                        [
                            -46.453862537557484,
                            -23.638649816258045
                        ],
                        [
                            -46.45322244881573,
                            -23.638229476595004
                        ]
                    ]
                ]
            }
        }
    ]
}