{
    "type": "FeatureCollection",
    "features": [
        {
            "type": "Feature",
            "properties": {
                "type": "site",
                "region_id": "BR_C000",
                "version": "2.0.1",
                "mgrs": "23KLP",
                "model_content": "annotation",
                "start_date": "2016-09-29",
                "end_date": null,
                "originator": "iMERIT",
                "site_id": "BR_C000_0388",
                "status": "positive_pending",
                "validated": "False",
                "score": 0.0,
                "misc_info": {
                    "commit_hash": "b8980b308111f4d719b33abcdfd4475cdb0511ce"
                }
            },
            "geometry": {
                "type": "Polygon",
                "coordinates": [
                    [
                        [
                            -46.47758151412447,
                            -23.55010787222692
                        ],
                        [
                            -46.4719747228064,
                            -23.553117579776053
                        ],
                        [
                            -46.471597578418496,
                            -23.552868060696618
                        ],
                        [
                            -46.47166148076842,
                            -23.55076221756588
                        ],
                        [
                            -46.47307953637719,
                            -23.550357654355214
                        ],
                        [
                            -46.47310744589418,
                            -23.54960232463081
                        ],
                        [
                            -46.47312563862963,
                            -23.549109965201417
                        ],
                        [
                            -46.47658495412906,
                            -23.54914524794459
                        ],
                        [
                            -46.47711323619836,
                            -23.549519863839258
                        ],
                        [
                            -46.47758151412447,
                            -23.55010787222692
                        ]
                    ]
                ]
            }
        },
        {
            "type": "Feature",
            "properties": {
                "type": "observation",
                "score": 0.0,
                "observation_date": "2016-09-29",
                "source": null,
                "sensor_name": null,
                "current_phase": null,
                "is_occluded": null,
                "is_site_boundary": null
            },
            "geometry": {
                "type": "Polygon",
                "coordinates": [
                    [
                        [
                            -46.47758151412447,
                            -23.55010787222692
                        ],
                        [
                            -46.4719747228064,
                            -23.553117579776053
                        ],
                        [
                            -46.471597578418496,
                            -23.552868060696618
                        ],
                        [
                            -46.47166148076842,
                            -23.55076221756588
                        ],
                        [
                            -46.47307953637719,
                            -23.550357654355214
                        ],
                        [
                            -46.47310744589418,
                            -23.54960232463081
                        ],
                        [
                            -46.47312563862963,
                            -23.549109965201417
                        ],
                        [
                            -46.47658495412906,
                            -23.54914524794459
                        ],
                        [
                            -46.47711323619836,
                            -23.549519863839258
                        ],
                        [
                            -46.47758151412447,
                            -23.55010787222692
                        ]
                    ]
                ]
            }
        },
        {
            "type": "Feature",
            "properties": {
                "type": "observation",
                "score": 0.0,
                "observation_date": null,
                "source": null,
                "sensor_name": null,
                "current_phase": null,
                "is_occluded": null,
                "is_site_boundary": null
            },
            "geometry": {
                "type": "Polygon",
                "coordinates": [
                    [
                        [
                            -46.47758151412447,
                            -23.55010787222692
                        ],
                        [
                            -46.4719747228064,
                            -23.553117579776053
                        ],
                        [
                            -46.471597578418496,
                            -23.552868060696618
                        ],
                        [
                            -46.47166148076842,
                            -23.55076221756588
                        ],
                        [
                            -46.47307953637719,
                            -23.550357654355214
                        ],
                        [
                            -46.47310744589418,
                            -23.54960232463081
                        ],
                        [
                            -46.47312563862963,
                            -23.549109965201417
                        ],
                        [
                            -46.47658495412906,
                            -23.54914524794459
                        ],
                        [
                            -46.47711323619836,
                            -23.549519863839258
                        ],
                        [
                            -46.47758151412447,
                            -23.55010787222692
                        ]
                    ]
                ]
            }
        }
    ]
}