{
    "type": "FeatureCollection",
    "features": [
        {
            "type": "Feature",
            "properties": {
                "type": "site",
                "region_id": "BR_C000",
                "version": "2.0.0",
                "mgrs": "23KLP",
                "model_content": "annotation",
                "start_date": "2017-06-11",
                "end_date": "2020-10-28",
                "originator": "iMERIT",
                "site_id": "BR_C000_0426",
                "status": "positive_pending",
                "validated": "False",
                "score": 0.0,
                "misc_info": {
                    "commit_hash": "b8980b308111f4d719b33abcdfd4475cdb0511ce"
                }
            },
            "geometry": {
                "type": "Polygon",
                "coordinates": [
                    [
                        [
                            -46.63511759526699,
                            -23.73417765943469
                        ],
                        [
                            -46.634836285324745,
                            -23.734110312217883
                        ],
                        [
                            -46.63463766758135,
                            -23.73442894866719
                        ],
                        [
                            -46.63451273033021,
                            -23.73433066171178
                        ],
                        [
                            -46.63434313373008,
                            -23.73452439063257
                        ],
                        [
                            -46.63512523041754,
                            -23.73508096485552
                        ],
                        [
                            -46.63543812684454,
                            -23.734652682659792
                        ],
                        [
                            -46.635266207461726,
                            -23.73456566335586
                        ],
                        [
                            -46.63522598668255,
                            -23.73454530506844
                        ],
                        [
                            -46.63517843059408,
                            -23.73452123391574
                        ],
                        [
                            -46.63511759526699,
                            -23.73417765943469
                        ]
                    ]
                ]
            }
        },
        {
            "type": "Feature",
            "properties": {
                "type": "observation",
                "score": 0.0,
                "observation_date": "2017-06-11",
                "source": null,
                "sensor_name": null,
                "current_phase": null,
                "is_occluded": null,
                "is_site_boundary": null
            },
            "geometry": {
                "type": "Polygon",
                "coordinates": [
                    [
                        [
                            -46.63511759526699,
                            -23.73417765943469
                        ],
                        [
                            -46.634836285324745,
                            -23.734110312217883
                        ],
                        [
                            -46.63463766758135,
                            -23.73442894866719
                        ],
                        [
                            -46.63451273033021,
                            -23.73433066171178
                        ],
                        [
                            -46.63434313373008,
                            -23.73452439063257
                        ],
                        [
                            -46.63512523041754,
                            -23.73508096485552
                        ],
                        [
                            -46.63543812684454,
                            -23.734652682659792
                        ],
                        [
                            -46.635266207461726,
                            -23.73456566335586
                        ],
                        [
                            -46.63522598668255,
                            -23.73454530506844
                        ],
                        [
                            -46.63517843059408,
                            -23.73452123391574
                        ],
                        [
                            -46.63511759526699,
                            -23.73417765943469
                        ]
                    ]
                ]
            }
        },
        {
            "type": "Feature",
            "properties": {
                "type": "observation",
                "score": 0.0,
                "observation_date": "2020-10-28",
                "source": null,
                "sensor_name": null,
                "current_phase": null,
                "is_occluded": null,
                "is_site_boundary": null
            },
            "geometry": {
                "type": "Polygon",
                "coordinates": [
                    [
                        [
                            -46.63511759526699,
                            -23.73417765943469
                        ],
                        [
                            -46.634836285324745,
                            -23.734110312217883
                        ],
                        [
                            -46.63463766758135,
                            -23.73442894866719
                        ],
                        [
                            -46.63451273033021,
                            -23.73433066171178
                        ],
                        [
                            -46.63434313373008,
                            -23.73452439063257
                        ],
                        [
                            -46.63512523041754,
                            -23.73508096485552
                        ],
                        [
                            -46.63543812684454,
                            -23.734652682659792
                        ],
                        [
                            -46.635266207461726,
                            -23.73456566335586
                        ],
                        [
                            -46.63522598668255,
                            -23.73454530506844
                        ],
                        [
                            -46.63517843059408,
                            -23.73452123391574
                        ],
                        [
                            -46.63511759526699,
                            -23.73417765943469
                        ]
                    ]
                ]
            }
        }
    ]
}