{
    "type": "FeatureCollection",
    "features": [
        {
            "type": "Feature",
            "properties": {
                "type": "site",
                "region_id": "BR_C000",
                "version": "2.0.1",
                "mgrs": "23KLQ",
                "model_content": "annotation",
                "start_date": "2021-03-13",
                "end_date": "2022-05-11",
                "originator": "iMERIT",
                "site_id": "BR_C000_0826",
                "status": "positive_pending",
                "validated": "False",
                "score": 0.0,
                "misc_info": {
                    "commit_hash": "b8980b308111f4d719b33abcdfd4475cdb0511ce"
                }
            },
            "geometry": {
                "type": "Polygon",
                "coordinates": [
                    [
                        [
                            -46.49919497838579,
                            -23.448681897607432
                        ],
                        [
                            -46.49932603707544,
                            -23.449622904172188
                        ],
                        [
                            -46.49895147012064,
                            -23.449728730206168
                        ],
                        [
                            -46.49853987428257,
                            -23.449541564033307
                        ],
                        [
                            -46.4982180504592,
                            -23.448771285268144
                        ],
                        [
                            -46.49919497838579,
                            -23.448681897607432
                        ]
                    ]
                ]
            }
        },
        {
            "type": "Feature",
            "properties": {
                "type": "observation",
                "score": 0.0,
                "observation_date": "2021-03-13",
                "source": null,
                "sensor_name": null,
                "current_phase": null,
                "is_occluded": null,
                "is_site_boundary": null
            },
            "geometry": {
                "type": "Polygon",
                "coordinates": [
                    [
                        [
                            -46.49919497838579,
                            -23.448681897607432
                        ],
                        [
                            -46.49932603707544,
                            -23.449622904172188
                        ],
                        [
                            -46.49895147012064,
                            -23.449728730206168
                        ],
                        [
                            -46.49853987428257,
                            -23.449541564033307
                        ],
                        [
                            -46.4982180504592,
                            -23.448771285268144
                        ],
                        [
                            -46.49919497838579,
                            -23.448681897607432
                        ]
                    ]
                ]
            }
        },
        {
            "type": "Feature",
            "properties": {
                "type": "observation",
                "score": 0.0,
                "observation_date": "2022-05-11",
                "source": null,
                "sensor_name": null,
                "current_phase": null,
                "is_occluded": null,
                "is_site_boundary": null
            },
            "geometry": {
                "type": "Polygon",
                "coordinates": [
                    [
                        [
                            -46.49919497838579,
                            -23.448681897607432
                        ],
                        [
                            -46.49932603707544,
                            -23.449622904172188
                        ],
                        [
                            -46.49895147012064,
                            -23.449728730206168
                        ],
                        [
                            -46.49853987428257,
                            -23.449541564033307
                        ],
                        [
                            -46.4982180504592,
                            -23.448771285268144
                        ],
                        [
                            -46.49919497838579,
                            -23.448681897607432
                        ]
                    ]
                ]
            }
        }
    ]
}