{
    "type": "FeatureCollection",
    "features": [
        {
            "type": "Feature",
            "properties": {
                "type": "site",
                "region_id": "BR_C000",
                "version": "2.0.1",
                "mgrs": "23KLP",
                "model_content": "annotation",
                "start_date": "2020-05-06",
                "end_date": "2022-03-22",
                "originator": "iMERIT",
                "site_id": "BR_C000_0541",
                "status": "positive_pending",
                "validated": "False",
                "score": 0.0,
                "misc_info": {
                    "commit_hash": "b8980b308111f4d719b33abcdfd4475cdb0511ce"
                }
            },
            "geometry": {
                "type": "Polygon",
                "coordinates": [
                    [
                        [
                            -46.35765843348133,
                            -23.52933259652373
                        ],
                        [
                            -46.35769852329437,
                            -23.52972989582868
                        ],
                        [
                            -46.35752457068877,
                            -23.52973688090498
                        ],
                        [
                            -46.35750326968024,
                            -23.53131553353345
                        ],
                        [
                            -46.35733438821133,
                            -23.53134529891809
                        ],
                        [
                            -46.35712221197485,
                            -23.53185088990011
                        ],
                        [
                            -46.35738668225,
                            -23.53197064402952
                        ],
                        [
                            -46.35775378699344,
                            -23.53162798510314
                        ],
                        [
                            -46.35815149353499,
                            -23.53120570702087
                        ],
                        [
                            -46.35857038739645,
                            -23.5305253149856
                        ],
                        [
                            -46.35862497800459,
                            -23.53016876906269
                        ],
                        [
                            -46.35866573895551,
                            -23.52981952998021
                        ],
                        [
                            -46.35867992866014,
                            -23.52967724375037
                        ],
                        [
                            -46.35869971434447,
                            -23.52937724320698
                        ],
                        [
                            -46.35861350325938,
                            -23.52919246122941
                        ],
                        [
                            -46.35830505978188,
                            -23.52928584538354
                        ],
                        [
                            -46.35765843348133,
                            -23.52933259652373
                        ]
                    ]
                ]
            }
        },
        {
            "type": "Feature",
            "properties": {
                "type": "observation",
                "score": 0.0,
                "observation_date": "2020-05-06",
                "source": null,
                "sensor_name": null,
                "current_phase": null,
                "is_occluded": null,
                "is_site_boundary": null
            },
            "geometry": {
                "type": "Polygon",
                "coordinates": [
                    [
                        [
                            -46.35765843348133,
                            -23.52933259652373
                        ],
                        [
                            -46.35769852329437,
                            -23.52972989582868
                        ],
                        [
                            -46.35752457068877,
                            -23.52973688090498
                        ],
                        [
                            -46.35750326968024,
                            -23.53131553353345
                        ],
                        [
                            -46.35733438821133,
                            -23.53134529891809
                        ],
                        [
                            -46.35712221197485,
                            -23.53185088990011
                        ],
                        [
                            -46.35738668225,
                            -23.53197064402952
                        ],
                        [
                            -46.35775378699344,
                            -23.53162798510314
                        ],
                        [
                            -46.35815149353499,
                            -23.53120570702087
                        ],
                        [
                            -46.35857038739645,
                            -23.5305253149856
                        ],
                        [
                            -46.35862497800459,
                            -23.53016876906269
                        ],
                        [
                            -46.35866573895551,
                            -23.52981952998021
                        ],
                        [
                            -46.35867992866014,
                            -23.52967724375037
                        ],
                        [
                            -46.35869971434447,
                            -23.52937724320698
                        ],
                        [
                            -46.35861350325938,
                            -23.52919246122941
                        ],
                        [
                            -46.35830505978188,
                            -23.52928584538354
                        ],
                        [
                            -46.35765843348133,
                            -23.52933259652373
                        ]
                    ]
                ]
            }
        },
        {
            "type": "Feature",
            "properties": {
                "type": "observation",
                "score": 0.0,
                "observation_date": "2022-03-22",
                "source": null,
                "sensor_name": null,
                "current_phase": null,
                "is_occluded": null,
                "is_site_boundary": null
            },
            "geometry": {
                "type": "Polygon",
                "coordinates": [
                    [
                        [
                            -46.35765843348133,
                            -23.52933259652373
                        ],
                        [
                            -46.35769852329437,
                            -23.52972989582868
                        ],
                        [
                            -46.35752457068877,
                            -23.52973688090498
                        ],
                        [
                            -46.35750326968024,
                            -23.53131553353345
                        ],
                        [
                            -46.35733438821133,
                            -23.53134529891809
                        ],
                        [
                            -46.35712221197485,
                            -23.53185088990011
                        ],
                        [
                            -46.35738668225,
                            -23.53197064402952
                        ],
                        [
                            -46.35775378699344,
                            -23.53162798510314
                        ],
                        [
                            -46.35815149353499,
                            -23.53120570702087
                        ],
                        [
                            -46.35857038739645,
                            -23.5305253149856
                        ],
                        [
                            -46.35862497800459,
                            -23.53016876906269
                        ],
                        [
                            -46.35866573895551,
                            -23.52981952998021
                        ],
                        [
                            -46.35867992866014,
                            -23.52967724375037
                        ],
                        [
                            -46.35869971434447,
                            -23.52937724320698
                        ],
                        [
                            -46.35861350325938,
                            -23.52919246122941
                        ],
                        [
                            -46.35830505978188,
                            -23.52928584538354
                        ],
                        [
                            -46.35765843348133,
                            -23.52933259652373
                        ]
                    ]
                ]
            }
        }
    ]
}