{
    "type": "FeatureCollection",
    "features": [
        {
            "type": "Feature",
            "properties": {
                "type": "site",
                "region_id": "BR_C000",
                "version": "2.0.1",
                "mgrs": "23KLP",
                "model_content": "annotation",
                "start_date": "2016-11-20",
                "end_date": "2019-10-07",
                "originator": "iMERIT",
                "site_id": "BR_C000_0192",
                "status": "positive_pending",
                "validated": "False",
                "score": 0.0,
                "misc_info": {
                    "commit_hash": "b8980b308111f4d719b33abcdfd4475cdb0511ce"
                }
            },
            "geometry": {
                "type": "Polygon",
                "coordinates": [
                    [
                        [
                            -46.7386643821869,
                            -23.591767621917896
                        ],
                        [
                            -46.73817721302069,
                            -23.5925849862819
                        ],
                        [
                            -46.737599440159656,
                            -23.592340426863753
                        ],
                        [
                            -46.73809834478704,
                            -23.591444487408108
                        ],
                        [
                            -46.7386643821869,
                            -23.591767621917896
                        ]
                    ]
                ]
            }
        },
        {
            "type": "Feature",
            "properties": {
                "type": "observation",
                "score": 0.0,
                "observation_date": "2016-11-20",
                "source": null,
                "sensor_name": null,
                "current_phase": null,
                "is_occluded": null,
                "is_site_boundary": null
            },
            "geometry": {
                "type": "Polygon",
                "coordinates": [
                    [
                        [
                            -46.7386643821869,
                            -23.591767621917896
                        ],
                        [
                            -46.73817721302069,
                            -23.5925849862819
                        ],
                        [
                            -46.737599440159656,
                            -23.592340426863753
                        ],
                        [
                            -46.73809834478704,
                            -23.591444487408108
                        ],
                        [
                            -46.7386643821869,
                            -23.591767621917896
                        ]
                    ]
                ]
            }
        },
        {
            "type": "Feature",
            "properties": {
                "type": "observation",
                "score": 0.0,
                "observation_date": "2019-10-07",
                "source": null,
                "sensor_name": null,
                "current_phase": null,
                "is_occluded": null,
                "is_site_boundary": null
            },
            "geometry": {
                "type": "Polygon",
                "coordinates": [
                    [
                        [
                            -46.7386643821869,
                            -23.591767621917896
                        ],
                        [
                            -46.73817721302069,
                            -23.5925849862819
                        ],
                        [
                            -46.737599440159656,
                            -23.592340426863753
                        ],
                        [
                            -46.73809834478704,
                            -23.591444487408108
                        ],
                        [
                            -46.7386643821869,
                            -23.591767621917896
                        ]
                    ]
                ]
            }
        }
    ]
}