{
    "type": "FeatureCollection",
    "features": [
        {
            "type": "Feature",
            "properties": {
                "type": "site",
                "region_id": "BR_C000",
                "version": "2.0.0",
                "mgrs": "23KLP",
                "model_content": "annotation",
                "start_date": "2017-08-30",
                "end_date": "2021-03-27",
                "originator": "iMERIT",
                "site_id": "BR_C000_0243",
                "status": "positive_pending",
                "validated": "False",
                "score": 0.0,
                "misc_info": {
                    "commit_hash": "b8980b308111f4d719b33abcdfd4475cdb0511ce"
                }
            },
            "geometry": {
                "type": "Polygon",
                "coordinates": [
                    [
                        [
                            -46.695971259867065,
                            -23.528182901191986
                        ],
                        [
                            -46.69599795039968,
                            -23.528650225665224
                        ],
                        [
                            -46.69664279952852,
                            -23.52862729083245
                        ],
                        [
                            -46.69664859171353,
                            -23.529078937634303
                        ],
                        [
                            -46.6956382978044,
                            -23.529121760506936
                        ],
                        [
                            -46.69558524526274,
                            -23.5282125562194
                        ],
                        [
                            -46.695971259867065,
                            -23.528182901191986
                        ]
                    ]
                ]
            }
        },
        {
            "type": "Feature",
            "properties": {
                "type": "observation",
                "score": 0.0,
                "observation_date": "2017-08-30",
                "source": null,
                "sensor_name": null,
                "current_phase": null,
                "is_occluded": null,
                "is_site_boundary": null
            },
            "geometry": {
                "type": "Polygon",
                "coordinates": [
                    [
                        [
                            -46.695971259867065,
                            -23.528182901191986
                        ],
                        [
                            -46.69599795039968,
                            -23.528650225665224
                        ],
                        [
                            -46.69664279952852,
                            -23.52862729083245
                        ],
                        [
                            -46.69664859171353,
                            -23.529078937634303
                        ],
                        [
                            -46.6956382978044,
                            -23.529121760506936
                        ],
                        [
                            -46.69558524526274,
                            -23.5282125562194
                        ],
                        [
                            -46.695971259867065,
                            -23.528182901191986
                        ]
                    ]
                ]
            }
        },
        {
            "type": "Feature",
            "properties": {
                "type": "observation",
                "score": 0.0,
                "observation_date": "2021-03-27",
                "source": null,
                "sensor_name": null,
                "current_phase": null,
                "is_occluded": null,
                "is_site_boundary": null
            },
            "geometry": {
                "type": "Polygon",
                "coordinates": [
                    [
                        [
                            -46.695971259867065,
                            -23.528182901191986
                        ],
                        [
                            -46.69599795039968,
                            -23.528650225665224
                        ],
                        [
                            -46.69664279952852,
                            -23.52862729083245
                        ],
                        [
                            -46.69664859171353,
                            -23.529078937634303
                        ],
                        [
                            -46.6956382978044,
                            -23.529121760506936
                        ],
                        [
                            -46.69558524526274,
                            -23.5282125562194
                        ],
                        [
                            -46.695971259867065,
                            -23.528182901191986
                        ]
                    ]
                ]
            }
        }
    ]
}