{
    "type": "FeatureCollection",
    "features": [
        {
            "type": "Feature",
            "properties": {
                "type": "site",
                "region_id": "BR_C000",
                "version": "2.0.0",
                "mgrs": "23KLP",
                "model_content": "annotation",
                "start_date": "2017-10-14",
                "end_date": "2019-10-14",
                "originator": "iMERIT",
                "site_id": "BR_C000_0263",
                "status": "positive_pending",
                "validated": "False",
                "score": 0.0,
                "misc_info": {
                    "commit_hash": "b8980b308111f4d719b33abcdfd4475cdb0511ce"
                }
            },
            "geometry": {
                "type": "Polygon",
                "coordinates": [
                    [
                        [
                            -46.83646535915094,
                            -23.64435812646456
                        ],
                        [
                            -46.836063428220804,
                            -23.645431556522322
                        ],
                        [
                            -46.83722397830648,
                            -23.64566523083115
                        ],
                        [
                            -46.837448358620094,
                            -23.645056198551348
                        ],
                        [
                            -46.837444797027814,
                            -23.644618122700965
                        ],
                        [
                            -46.83646535915094,
                            -23.64435812646456
                        ]
                    ]
                ]
            }
        },
        {
            "type": "Feature",
            "properties": {
                "type": "observation",
                "score": 0.0,
                "observation_date": "2017-10-14",
                "source": null,
                "sensor_name": null,
                "current_phase": null,
                "is_occluded": null,
                "is_site_boundary": null
            },
            "geometry": {
                "type": "Polygon",
                "coordinates": [
                    [
                        [
                            -46.83646535915094,
                            -23.64435812646456
                        ],
                        [
                            -46.836063428220804,
                            -23.645431556522322
                        ],
                        [
                            -46.83722397830648,
                            -23.64566523083115
                        ],
                        [
                            -46.837448358620094,
                            -23.645056198551348
                        ],
                        [
                            -46.837444797027814,
                            -23.644618122700965
                        ],
                        [
                            -46.83646535915094,
                            -23.64435812646456
                        ]
                    ]
                ]
            }
        },
        {
            "type": "Feature",
            "properties": {
                "type": "observation",
                "score": 0.0,
                "observation_date": "2019-10-14",
                "source": null,
                "sensor_name": null,
                "current_phase": null,
                "is_occluded": null,
                "is_site_boundary": null
            },
            "geometry": {
                "type": "Polygon",
                "coordinates": [
                    [
                        [
                            -46.83646535915094,
                            -23.64435812646456
                        ],
                        [
                            -46.836063428220804,
                            -23.645431556522322
                        ],
                        [
                            -46.83722397830648,
                            -23.64566523083115
                        ],
                        [
                            -46.837448358620094,
                            -23.645056198551348
                        ],
                        [
                            -46.837444797027814,
                            -23.644618122700965
                        ],
                        [
                            -46.83646535915094,
                            -23.64435812646456
                        ]
                    ]
                ]
            }
        }
    ]
}