{
    "type": "FeatureCollection",
    "features": [
        {
            "type": "Feature",
            "properties": {
                "type": "site",
                "region_id": "BR_C000",
                "version": "2.0.0",
                "mgrs": "23KLP",
                "model_content": "annotation",
                "start_date": "2017-10-09",
                "end_date": "2020-01-27",
                "originator": "iMERIT",
                "site_id": "BR_C000_0613",
                "status": "positive_pending",
                "validated": "False",
                "score": 0.0,
                "misc_info": {
                    "commit_hash": "b8980b308111f4d719b33abcdfd4475cdb0511ce"
                }
            },
            "geometry": {
                "type": "Polygon",
                "coordinates": [
                    [
                        [
                            -46.433351107677346,
                            -23.56754725887291
                        ],
                        [
                            -46.430573535792085,
                            -23.56699174449586
                        ],
                        [
                            -46.43039739708716,
                            -23.56772339757783
                        ],
                        [
                            -46.43321561636587,
                            -23.568251813692587
                        ],
                        [
                            -46.433351107677346,
                            -23.56754725887291
                        ]
                    ]
                ]
            }
        },
        {
            "type": "Feature",
            "properties": {
                "type": "observation",
                "score": 0.0,
                "observation_date": "2017-10-09",
                "source": null,
                "sensor_name": null,
                "current_phase": null,
                "is_occluded": null,
                "is_site_boundary": null
            },
            "geometry": {
                "type": "Polygon",
                "coordinates": [
                    [
                        [
                            -46.433351107677346,
                            -23.56754725887291
                        ],
                        [
                            -46.430573535792085,
                            -23.56699174449586
                        ],
                        [
                            -46.43039739708716,
                            -23.56772339757783
                        ],
                        [
                            -46.43321561636587,
                            -23.568251813692587
                        ],
                        [
                            -46.433351107677346,
                            -23.56754725887291
                        ]
                    ]
                ]
            }
        },
        {
            "type": "Feature",
            "properties": {
                "type": "observation",
                "score": 0.0,
                "observation_date": "2020-01-27",
                "source": null,
                "sensor_name": null,
                "current_phase": null,
                "is_occluded": null,
                "is_site_boundary": null
            },
            "geometry": {
                "type": "Polygon",
                "coordinates": [
                    [
                        [
                            -46.433351107677346,
                            -23.56754725887291
                        ],
                        [
                            -46.430573535792085,
                            -23.56699174449586
                        ],
                        [
                            -46.43039739708716,
                            -23.56772339757783
                        ],
                        [
                            -46.43321561636587,
                            -23.568251813692587
                        ],
                        [
                            -46.433351107677346,
                            -23.56754725887291
                        ]
                    ]
                ]
            }
        }
    ]
}