{
    "type": "FeatureCollection",
    "features": [
        {
            "type": "Feature",
            "properties": {
                "type": "site",
                "region_id": "BR_C000",
                "version": "2.0.1",
                "mgrs": "23KLQ",
                "model_content": "annotation",
                "start_date": "2019-12-08",
                "end_date": null,
                "originator": "iMERIT",
                "site_id": "BR_C000_0807",
                "status": "positive_pending",
                "validated": "False",
                "score": 0.0,
                "misc_info": {
                    "commit_hash": "b8980b308111f4d719b33abcdfd4475cdb0511ce"
                }
            },
            "geometry": {
                "type": "Polygon",
                "coordinates": [
                    [
                        [
                            -46.33797368848178,
                            -23.408697000847813
                        ],
                        [
                            -46.33814085671661,
                            -23.40849819419924
                        ],
                        [
                            -46.33815448886784,
                            -23.40842614798429
                        ],
                        [
                            -46.33814248505396,
                            -23.40834904699149
                        ],
                        [
                            -46.33681020827571,
                            -23.40746067495917
                        ],
                        [
                            -46.33689917007614,
                            -23.40731310557375
                        ],
                        [
                            -46.33515438842548,
                            -23.40611762157345
                        ],
                        [
                            -46.33497272929681,
                            -23.40621543812402
                        ],
                        [
                            -46.33486223692896,
                            -23.4062610653279
                        ],
                        [
                            -46.33482901682348,
                            -23.40631772816827
                        ],
                        [
                            -46.3347877034393,
                            -23.4064131439991
                        ],
                        [
                            -46.33477541934408,
                            -23.40647427999301
                        ],
                        [
                            -46.3347977475317,
                            -23.40663322826691
                        ],
                        [
                            -46.33482076151384,
                            -23.40670345210559
                        ],
                        [
                            -46.33489961359762,
                            -23.4069417678087
                        ],
                        [
                            -46.33497641522274,
                            -23.40704536958304
                        ],
                        [
                            -46.33516590066064,
                            -23.40727845050687
                        ],
                        [
                            -46.33551884690026,
                            -23.40763887456245
                        ],
                        [
                            -46.33585311781437,
                            -23.40788200292075
                        ],
                        [
                            -46.33597841392118,
                            -23.40797338959509
                        ],
                        [
                            -46.33606561624482,
                            -23.40807259748695
                        ],
                        [
                            -46.33604104510204,
                            -23.40812614457506
                        ],
                        [
                            -46.33589978932764,
                            -23.4081881237476
                        ],
                        [
                            -46.33575507181715,
                            -23.4082626599109
                        ],
                        [
                            -46.33565175025046,
                            -23.40834072598739
                        ],
                        [
                            -46.33558932586641,
                            -23.40840512161671
                        ],
                        [
                            -46.33548807684299,
                            -23.40854472828044
                        ],
                        [
                            -46.33545799420234,
                            -23.40866512270613
                        ],
                        [
                            -46.33546778631314,
                            -23.408723161306767
                        ],
                        [
                            -46.33797368848178,
                            -23.408697000847813
                        ]
                    ]
                ]
            }
        },
        {
            "type": "Feature",
            "properties": {
                "type": "observation",
                "score": 0.0,
                "observation_date": "2019-12-08",
                "source": null,
                "sensor_name": null,
                "current_phase": null,
                "is_occluded": null,
                "is_site_boundary": null
            },
            "geometry": {
                "type": "Polygon",
                "coordinates": [
                    [
                        [
                            -46.33797368848178,
                            -23.408697000847813
                        ],
                        [
                            -46.33814085671661,
                            -23.40849819419924
                        ],
                        [
                            -46.33815448886784,
                            -23.40842614798429
                        ],
                        [
                            -46.33814248505396,
                            -23.40834904699149
                        ],
                        [
                            -46.33681020827571,
                            -23.40746067495917
                        ],
                        [
                            -46.33689917007614,
                            -23.40731310557375
                        ],
                        [
                            -46.33515438842548,
                            -23.40611762157345
                        ],
                        [
                            -46.33497272929681,
                            -23.40621543812402
                        ],
                        [
                            -46.33486223692896,
                            -23.4062610653279
                        ],
                        [
                            -46.33482901682348,
                            -23.40631772816827
                        ],
                        [
                            -46.3347877034393,
                            -23.4064131439991
                        ],
                        [
                            -46.33477541934408,
                            -23.40647427999301
                        ],
                        [
                            -46.3347977475317,
                            -23.40663322826691
                        ],
                        [
                            -46.33482076151384,
                            -23.40670345210559
                        ],
                        [
                            -46.33489961359762,
                            -23.4069417678087
                        ],
                        [
                            -46.33497641522274,
                            -23.40704536958304
                        ],
                        [
                            -46.33516590066064,
                            -23.40727845050687
                        ],
                        [
                            -46.33551884690026,
                            -23.40763887456245
                        ],
                        [
                            -46.33585311781437,
                            -23.40788200292075
                        ],
                        [
                            -46.33597841392118,
                            -23.40797338959509
                        ],
                        [
                            -46.33606561624482,
                            -23.40807259748695
                        ],
                        [
                            -46.33604104510204,
                            -23.40812614457506
                        ],
                        [
                            -46.33589978932764,
                            -23.4081881237476
                        ],
                        [
                            -46.33575507181715,
                            -23.4082626599109
                        ],
                        [
                            -46.33565175025046,
                            -23.40834072598739
                        ],
                        [
                            -46.33558932586641,
                            -23.40840512161671
                        ],
                        [
                            -46.33548807684299,
                            -23.40854472828044
                        ],
                        [
                            -46.33545799420234,
                            -23.40866512270613
                        ],
                        [
                            -46.33546778631314,
                            -23.408723161306767
                        ],
                        [
                            -46.33797368848178,
                            -23.408697000847813
                        ]
                    ]
                ]
            }
        },
        {
            "type": "Feature",
            "properties": {
                "type": "observation",
                "score": 0.0,
                "observation_date": null,
                "source": null,
                "sensor_name": null,
                "current_phase": null,
                "is_occluded": null,
                "is_site_boundary": null
            },
            "geometry": {
                "type": "Polygon",
                "coordinates": [
                    [
                        [
                            -46.33797368848178,
                            -23.408697000847813
                        ],
                        [
                            -46.33814085671661,
                            -23.40849819419924
                        ],
                        [
                            -46.33815448886784,
                            -23.40842614798429
                        ],
                        [
                            -46.33814248505396,
                            -23.40834904699149
                        ],
                        [
                            -46.33681020827571,
                            -23.40746067495917
                        ],
                        [
                            -46.33689917007614,
                            -23.40731310557375
                        ],
                        [
                            -46.33515438842548,
                            -23.40611762157345
                        ],
                        [
                            -46.33497272929681,
                            -23.40621543812402
                        ],
                        [
                            -46.33486223692896,
                            -23.4062610653279
                        ],
                        [
                            -46.33482901682348,
                            -23.40631772816827
                        ],
                        [
                            -46.3347877034393,
                            -23.4064131439991
                        ],
                        [
                            -46.33477541934408,
                            -23.40647427999301
                        ],
                        [
                            -46.3347977475317,
                            -23.40663322826691
                        ],
                        [
                            -46.33482076151384,
                            -23.40670345210559
                        ],
                        [
                            -46.33489961359762,
                            -23.4069417678087
                        ],
                        [
                            -46.33497641522274,
                            -23.40704536958304
                        ],
                        [
                            -46.33516590066064,
                            -23.40727845050687
                        ],
                        [
                            -46.33551884690026,
                            -23.40763887456245
                        ],
                        [
                            -46.33585311781437,
                            -23.40788200292075
                        ],
                        [
                            -46.33597841392118,
                            -23.40797338959509
                        ],
                        [
                            -46.33606561624482,
                            -23.40807259748695
                        ],
                        [
                            -46.33604104510204,
                            -23.40812614457506
                        ],
                        [
                            -46.33589978932764,
                            -23.4081881237476
                        ],
                        [
                            -46.33575507181715,
                            -23.4082626599109
                        ],
                        [
                            -46.33565175025046,
                            -23.40834072598739
                        ],
                        [
                            -46.33558932586641,
                            -23.40840512161671
                        ],
                        [
                            -46.33548807684299,
                            -23.40854472828044
                        ],
                        [
                            -46.33545799420234,
                            -23.40866512270613
                        ],
                        [
                            -46.33546778631314,
                            -23.408723161306767
                        ],
                        [
                            -46.33797368848178,
                            -23.408697000847813
                        ]
                    ]
                ]
            }
        }
    ]
}