{
    "type": "FeatureCollection",
    "features": [
        {
            "type": "Feature",
            "properties": {
                "type": "site",
                "region_id": "BR_C000",
                "version": "2.0.0",
                "mgrs": "23KLP",
                "model_content": "annotation",
                "start_date": "2019-01-27",
                "end_date": null,
                "originator": "iMERIT",
                "site_id": "BR_C000_0526",
                "status": "positive_pending",
                "validated": "False",
                "score": 0.0,
                "misc_info": {
                    "commit_hash": "b8980b308111f4d719b33abcdfd4475cdb0511ce"
                }
            },
            "geometry": {
                "type": "Polygon",
                "coordinates": [
                    [
                        [
                            -46.504416239640044,
                            -23.683968421772864
                        ],
                        [
                            -46.50399169052849,
                            -23.683692551192692
                        ],
                        [
                            -46.50368271688575,
                            -23.68363729678213
                        ],
                        [
                            -46.50318384558624,
                            -23.683548082571633
                        ],
                        [
                            -46.50211036775969,
                            -23.685134385201458
                        ],
                        [
                            -46.5032994315212,
                            -23.68539054748391
                        ],
                        [
                            -46.50392969967962,
                            -23.685127528234815
                        ],
                        [
                            -46.504416239640044,
                            -23.683968421772864
                        ]
                    ]
                ]
            }
        },
        {
            "type": "Feature",
            "properties": {
                "type": "observation",
                "score": 0.0,
                "observation_date": "2019-01-27",
                "source": null,
                "sensor_name": null,
                "current_phase": null,
                "is_occluded": null,
                "is_site_boundary": null
            },
            "geometry": {
                "type": "Polygon",
                "coordinates": [
                    [
                        [
                            -46.504416239640044,
                            -23.683968421772864
                        ],
                        [
                            -46.50399169052849,
                            -23.683692551192692
                        ],
                        [
                            -46.50368271688575,
                            -23.68363729678213
                        ],
                        [
                            -46.50318384558624,
                            -23.683548082571633
                        ],
                        [
                            -46.50211036775969,
                            -23.685134385201458
                        ],
                        [
                            -46.5032994315212,
                            -23.68539054748391
                        ],
                        [
                            -46.50392969967962,
                            -23.685127528234815
                        ],
                        [
                            -46.504416239640044,
                            -23.683968421772864
                        ]
                    ]
                ]
            }
        },
        {
            "type": "Feature",
            "properties": {
                "type": "observation",
                "score": 0.0,
                "observation_date": null,
                "source": null,
                "sensor_name": null,
                "current_phase": null,
                "is_occluded": null,
                "is_site_boundary": null
            },
            "geometry": {
                "type": "Polygon",
                "coordinates": [
                    [
                        [
                            -46.504416239640044,
                            -23.683968421772864
                        ],
                        [
                            -46.50399169052849,
                            -23.683692551192692
                        ],
                        [
                            -46.50368271688575,
                            -23.68363729678213
                        ],
                        [
                            -46.50318384558624,
                            -23.683548082571633
                        ],
                        [
                            -46.50211036775969,
                            -23.685134385201458
                        ],
                        [
                            -46.5032994315212,
                            -23.68539054748391
                        ],
                        [
                            -46.50392969967962,
                            -23.685127528234815
                        ],
                        [
                            -46.504416239640044,
                            -23.683968421772864
                        ]
                    ]
                ]
            }
        }
    ]
}