{
    "type": "FeatureCollection",
    "features": [
        {
            "type": "Feature",
            "properties": {
                "type": "site",
                "region_id": "BR_C000",
                "version": "2.0.0",
                "mgrs": "23KLP",
                "model_content": "annotation",
                "start_date": "2018-08-15",
                "end_date": "2021-07-20",
                "originator": "iMERIT",
                "site_id": "BR_C000_0188",
                "status": "positive_pending",
                "validated": "False",
                "score": 0.0,
                "misc_info": {
                    "commit_hash": "b8980b308111f4d719b33abcdfd4475cdb0511ce"
                }
            },
            "geometry": {
                "type": "Polygon",
                "coordinates": [
                    [
                        [
                            -46.71283256794639,
                            -23.6474882053819
                        ],
                        [
                            -46.71355017333257,
                            -23.64748269569911
                        ],
                        [
                            -46.71352293031276,
                            -23.646501883290426
                        ],
                        [
                            -46.7128143276641,
                            -23.646514644134182
                        ],
                        [
                            -46.71283256794639,
                            -23.6474882053819
                        ]
                    ]
                ]
            }
        },
        {
            "type": "Feature",
            "properties": {
                "type": "observation",
                "score": 0.0,
                "observation_date": "2018-08-15",
                "source": null,
                "sensor_name": null,
                "current_phase": null,
                "is_occluded": null,
                "is_site_boundary": null
            },
            "geometry": {
                "type": "Polygon",
                "coordinates": [
                    [
                        [
                            -46.71283256794639,
                            -23.6474882053819
                        ],
                        [
                            -46.71355017333257,
                            -23.64748269569911
                        ],
                        [
                            -46.71352293031276,
                            -23.646501883290426
                        ],
                        [
                            -46.7128143276641,
                            -23.646514644134182
                        ],
                        [
                            -46.71283256794639,
                            -23.6474882053819
                        ]
                    ]
                ]
            }
        },
        {
            "type": "Feature",
            "properties": {
                "type": "observation",
                "score": 0.0,
                "observation_date": "2021-07-20",
                "source": null,
                "sensor_name": null,
                "current_phase": null,
                "is_occluded": null,
                "is_site_boundary": null
            },
            "geometry": {
                "type": "Polygon",
                "coordinates": [
                    [
                        [
                            -46.71283256794639,
                            -23.6474882053819
                        ],
                        [
                            -46.71355017333257,
                            -23.64748269569911
                        ],
                        [
                            -46.71352293031276,
                            -23.646501883290426
                        ],
                        [
                            -46.7128143276641,
                            -23.646514644134182
                        ],
                        [
                            -46.71283256794639,
                            -23.6474882053819
                        ]
                    ]
                ]
            }
        }
    ]
}