{
    "type": "FeatureCollection",
    "features": [
        {
            "type": "Feature",
            "properties": {
                "type": "site",
                "region_id": "BR_C000",
                "version": "2.0.1",
                "mgrs": "23KLP",
                "model_content": "annotation",
                "start_date": "2019-08-30",
                "end_date": "2021-01-26",
                "originator": "iMERIT",
                "site_id": "BR_C000_0064",
                "status": "positive_pending",
                "validated": "False",
                "score": 0.0,
                "misc_info": {
                    "commit_hash": "b8980b308111f4d719b33abcdfd4475cdb0511ce"
                }
            },
            "geometry": {
                "type": "Polygon",
                "coordinates": [
                    [
                        [
                            -46.91533795518434,
                            -23.594044195870342
                        ],
                        [
                            -46.91463784847225,
                            -23.594632673402298
                        ],
                        [
                            -46.91579863203719,
                            -23.595210404830794
                        ],
                        [
                            -46.916804724399995,
                            -23.594258032403058
                        ],
                        [
                            -46.916562617446935,
                            -23.59400466966756
                        ],
                        [
                            -46.916104655399174,
                            -23.59393707857061
                        ],
                        [
                            -46.91533795518434,
                            -23.594044195870342
                        ]
                    ]
                ]
            }
        },
        {
            "type": "Feature",
            "properties": {
                "type": "observation",
                "score": 0.0,
                "observation_date": "2019-08-30",
                "source": null,
                "sensor_name": null,
                "current_phase": null,
                "is_occluded": null,
                "is_site_boundary": null
            },
            "geometry": {
                "type": "Polygon",
                "coordinates": [
                    [
                        [
                            -46.91533795518434,
                            -23.594044195870342
                        ],
                        [
                            -46.91463784847225,
                            -23.594632673402298
                        ],
                        [
                            -46.91579863203719,
                            -23.595210404830794
                        ],
                        [
                            -46.916804724399995,
                            -23.594258032403058
                        ],
                        [
                            -46.916562617446935,
                            -23.59400466966756
                        ],
                        [
                            -46.916104655399174,
                            -23.59393707857061
                        ],
                        [
                            -46.91533795518434,
                            -23.594044195870342
                        ]
                    ]
                ]
            }
        },
        {
            "type": "Feature",
            "properties": {
                "type": "observation",
                "score": 0.0,
                "observation_date": "2021-01-26",
                "source": null,
                "sensor_name": null,
                "current_phase": null,
                "is_occluded": null,
                "is_site_boundary": null
            },
            "geometry": {
                "type": "Polygon",
                "coordinates": [
                    [
                        [
                            -46.91533795518434,
                            -23.594044195870342
                        ],
                        [
                            -46.91463784847225,
                            -23.594632673402298
                        ],
                        [
                            -46.91579863203719,
                            -23.595210404830794
                        ],
                        [
                            -46.916804724399995,
                            -23.594258032403058
                        ],
                        [
                            -46.916562617446935,
                            -23.59400466966756
                        ],
                        [
                            -46.916104655399174,
                            -23.59393707857061
                        ],
                        [
                            -46.91533795518434,
                            -23.594044195870342
                        ]
                    ]
                ]
            }
        }
    ]
}