{
    "type": "FeatureCollection",
    "features": [
        {
            "type": "Feature",
            "properties": {
                "type": "site",
                "region_id": "BR_C000",
                "version": "2.0.1",
                "mgrs": "23KLP",
                "model_content": "annotation",
                "start_date": "2015-08-03",
                "end_date": "2018-04-12",
                "originator": "iMERIT",
                "site_id": "BR_C000_0268",
                "status": "positive_pending",
                "validated": "False",
                "score": 0.0,
                "misc_info": {
                    "commit_hash": "b8980b308111f4d719b33abcdfd4475cdb0511ce"
                }
            },
            "geometry": {
                "type": "Polygon",
                "coordinates": [
                    [
                        [
                            -46.83440996275735,
                            -23.633604349680777
                        ],
                        [
                            -46.83394126388582,
                            -23.63401353123529
                        ],
                        [
                            -46.83302618513664,
                            -23.633024055839833
                        ],
                        [
                            -46.83383710858103,
                            -23.63230240837097
                        ],
                        [
                            -46.834313247117194,
                            -23.63289014187654
                        ],
                        [
                            -46.83400822086747,
                            -23.63318772846164
                        ],
                        [
                            -46.83440996275735,
                            -23.633604349680777
                        ]
                    ]
                ]
            }
        },
        {
            "type": "Feature",
            "properties": {
                "type": "observation",
                "score": 0.0,
                "observation_date": "2015-08-03",
                "source": null,
                "sensor_name": null,
                "current_phase": null,
                "is_occluded": null,
                "is_site_boundary": null
            },
            "geometry": {
                "type": "Polygon",
                "coordinates": [
                    [
                        [
                            -46.83440996275735,
                            -23.633604349680777
                        ],
                        [
                            -46.83394126388582,
                            -23.63401353123529
                        ],
                        [
                            -46.83302618513664,
                            -23.633024055839833
                        ],
                        [
                            -46.83383710858103,
                            -23.63230240837097
                        ],
                        [
                            -46.834313247117194,
                            -23.63289014187654
                        ],
                        [
                            -46.83400822086747,
                            -23.63318772846164
                        ],
                        [
                            -46.83440996275735,
                            -23.633604349680777
                        ]
                    ]
                ]
            }
        },
        {
            "type": "Feature",
            "properties": {
                "type": "observation",
                "score": 0.0,
                "observation_date": "2018-04-12",
                "source": null,
                "sensor_name": null,
                "current_phase": null,
                "is_occluded": null,
                "is_site_boundary": null
            },
            "geometry": {
                "type": "Polygon",
                "coordinates": [
                    [
                        [
                            -46.83440996275735,
                            -23.633604349680777
                        ],
                        [
                            -46.83394126388582,
                            -23.63401353123529
                        ],
                        [
                            -46.83302618513664,
                            -23.633024055839833
                        ],
                        [
                            -46.83383710858103,
                            -23.63230240837097
                        ],
                        [
                            -46.834313247117194,
                            -23.63289014187654
                        ],
                        [
                            -46.83400822086747,
                            -23.63318772846164
                        ],
                        [
                            -46.83440996275735,
                            -23.633604349680777
                        ]
                    ]
                ]
            }
        }
    ]
}