{
    "type": "FeatureCollection",
    "features": [
        {
            "type": "Feature",
            "properties": {
                "type": "site",
                "region_id": "BR_C000",
                "version": "2.0.0",
                "mgrs": "23KLP",
                "model_content": "annotation",
                "start_date": "2019-05-22",
                "end_date": "2021-04-11",
                "originator": "iMERIT",
                "site_id": "BR_C000_0208",
                "status": "positive_pending",
                "validated": "False",
                "score": 0.0,
                "misc_info": {
                    "commit_hash": "b8980b308111f4d719b33abcdfd4475cdb0511ce"
                }
            },
            "geometry": {
                "type": "Polygon",
                "coordinates": [
                    [
                        [
                            -46.70270927852663,
                            -23.613300913670017
                        ],
                        [
                            -46.70221260104371,
                            -23.61515993326218
                        ],
                        [
                            -46.70140093483826,
                            -23.61502940686058
                        ],
                        [
                            -46.7015557267629,
                            -23.614609425858188
                        ],
                        [
                            -46.70194074114534,
                            -23.614096701879888
                        ],
                        [
                            -46.70270927852663,
                            -23.613300913670017
                        ]
                    ]
                ]
            }
        },
        {
            "type": "Feature",
            "properties": {
                "type": "observation",
                "score": 0.0,
                "observation_date": "2019-05-22",
                "source": null,
                "sensor_name": null,
                "current_phase": null,
                "is_occluded": null,
                "is_site_boundary": null
            },
            "geometry": {
                "type": "Polygon",
                "coordinates": [
                    [
                        [
                            -46.70270927852663,
                            -23.613300913670017
                        ],
                        [
                            -46.70221260104371,
                            -23.61515993326218
                        ],
                        [
                            -46.70140093483826,
                            -23.61502940686058
                        ],
                        [
                            -46.7015557267629,
                            -23.614609425858188
                        ],
                        [
                            -46.70194074114534,
                            -23.614096701879888
                        ],
                        [
                            -46.70270927852663,
                            -23.613300913670017
                        ]
                    ]
                ]
            }
        },
        {
            "type": "Feature",
            "properties": {
                "type": "observation",
                "score": 0.0,
                "observation_date": "2021-04-11",
                "source": null,
                "sensor_name": null,
                "current_phase": null,
                "is_occluded": null,
                "is_site_boundary": null
            },
            "geometry": {
                "type": "Polygon",
                "coordinates": [
                    [
                        [
                            -46.70270927852663,
                            -23.613300913670017
                        ],
                        [
                            -46.70221260104371,
                            -23.61515993326218
                        ],
                        [
                            -46.70140093483826,
                            -23.61502940686058
                        ],
                        [
                            -46.7015557267629,
                            -23.614609425858188
                        ],
                        [
                            -46.70194074114534,
                            -23.614096701879888
                        ],
                        [
                            -46.70270927852663,
                            -23.613300913670017
                        ]
                    ]
                ]
            }
        }
    ]
}