{
    "type": "FeatureCollection",
    "features": [
        {
            "type": "Feature",
            "properties": {
                "type": "site",
                "region_id": "BR_C000",
                "version": "2.0.1",
                "mgrs": "23KLP",
                "model_content": "annotation",
                "start_date": "2015-08-30",
                "end_date": "2017-06-11",
                "originator": "iMERIT",
                "site_id": "BR_C000_0418",
                "status": "positive_pending",
                "validated": "False",
                "score": 0.0,
                "misc_info": {
                    "commit_hash": "b8980b308111f4d719b33abcdfd4475cdb0511ce"
                }
            },
            "geometry": {
                "type": "Polygon",
                "coordinates": [
                    [
                        [
                            -46.58209929873267,
                            -23.769116294596042
                        ],
                        [
                            -46.58337622562023,
                            -23.76962181743756
                        ],
                        [
                            -46.58498283222196,
                            -23.77025785724722
                        ],
                        [
                            -46.58803842620224,
                            -23.76605077164555
                        ],
                        [
                            -46.58772780562806,
                            -23.7656817674631
                        ],
                        [
                            -46.58729371225678,
                            -23.76538418593841
                        ],
                        [
                            -46.58668767359053,
                            -23.76494483302671
                        ],
                        [
                            -46.5863602191619,
                            -23.76486393097495
                        ],
                        [
                            -46.58573347112427,
                            -23.76481878428673
                        ],
                        [
                            -46.58546969976648,
                            -23.7648277985385
                        ],
                        [
                            -46.58520203143242,
                            -23.76483694596745
                        ],
                        [
                            -46.58478199451834,
                            -23.76485506402772
                        ],
                        [
                            -46.58453735071484,
                            -23.76499869674857
                        ],
                        [
                            -46.58424317405052,
                            -23.76528059449024
                        ],
                        [
                            -46.58407638742857,
                            -23.765425008657793
                        ],
                        [
                            -46.58376970265599,
                            -23.76569055529226
                        ],
                        [
                            -46.58358261306206,
                            -23.76605338290389
                        ],
                        [
                            -46.58325527487356,
                            -23.76672908545703
                        ],
                        [
                            -46.58217651295086,
                            -23.768956839326343
                        ],
                        [
                            -46.58209929873267,
                            -23.769116294596042
                        ]
                    ]
                ]
            }
        },
        {
            "type": "Feature",
            "properties": {
                "type": "observation",
                "score": 0.0,
                "observation_date": "2015-08-30",
                "source": null,
                "sensor_name": null,
                "current_phase": null,
                "is_occluded": null,
                "is_site_boundary": null
            },
            "geometry": {
                "type": "Polygon",
                "coordinates": [
                    [
                        [
                            -46.58209929873267,
                            -23.769116294596042
                        ],
                        [
                            -46.58337622562023,
                            -23.76962181743756
                        ],
                        [
                            -46.58498283222196,
                            -23.77025785724722
                        ],
                        [
                            -46.58803842620224,
                            -23.76605077164555
                        ],
                        [
                            -46.58772780562806,
                            -23.7656817674631
                        ],
                        [
                            -46.58729371225678,
                            -23.76538418593841
                        ],
                        [
                            -46.58668767359053,
                            -23.76494483302671
                        ],
                        [
                            -46.5863602191619,
                            -23.76486393097495
                        ],
                        [
                            -46.58573347112427,
                            -23.76481878428673
                        ],
                        [
                            -46.58546969976648,
                            -23.7648277985385
                        ],
                        [
                            -46.58520203143242,
                            -23.76483694596745
                        ],
                        [
                            -46.58478199451834,
                            -23.76485506402772
                        ],
                        [
                            -46.58453735071484,
                            -23.76499869674857
                        ],
                        [
                            -46.58424317405052,
                            -23.76528059449024
                        ],
                        [
                            -46.58407638742857,
                            -23.765425008657793
                        ],
                        [
                            -46.58376970265599,
                            -23.76569055529226
                        ],
                        [
                            -46.58358261306206,
                            -23.76605338290389
                        ],
                        [
                            -46.58325527487356,
                            -23.76672908545703
                        ],
                        [
                            -46.58217651295086,
                            -23.768956839326343
                        ],
                        [
                            -46.58209929873267,
                            -23.769116294596042
                        ]
                    ]
                ]
            }
        },
        {
            "type": "Feature",
            "properties": {
                "type": "observation",
                "score": 0.0,
                "observation_date": "2017-06-11",
                "source": null,
                "sensor_name": null,
                "current_phase": null,
                "is_occluded": null,
                "is_site_boundary": null
            },
            "geometry": {
                "type": "Polygon",
                "coordinates": [
                    [
                        [
                            -46.58209929873267,
                            -23.769116294596042
                        ],
                        [
                            -46.58337622562023,
                            -23.76962181743756
                        ],
                        [
                            -46.58498283222196,
                            -23.77025785724722
                        ],
                        [
                            -46.58803842620224,
                            -23.76605077164555
                        ],
                        [
                            -46.58772780562806,
                            -23.7656817674631
                        ],
                        [
                            -46.58729371225678,
                            -23.76538418593841
                        ],
                        [
                            -46.58668767359053,
                            -23.76494483302671
                        ],
                        [
                            -46.5863602191619,
                            -23.76486393097495
                        ],
                        [
                            -46.58573347112427,
                            -23.76481878428673
                        ],
                        [
                            -46.58546969976648,
                            -23.7648277985385
                        ],
                        [
                            -46.58520203143242,
                            -23.76483694596745
                        ],
                        [
                            -46.58478199451834,
                            -23.76485506402772
                        ],
                        [
                            -46.58453735071484,
                            -23.76499869674857
                        ],
                        [
                            -46.58424317405052,
                            -23.76528059449024
                        ],
                        [
                            -46.58407638742857,
                            -23.765425008657793
                        ],
                        [
                            -46.58376970265599,
                            -23.76569055529226
                        ],
                        [
                            -46.58358261306206,
                            -23.76605338290389
                        ],
                        [
                            -46.58325527487356,
                            -23.76672908545703
                        ],
                        [
                            -46.58217651295086,
                            -23.768956839326343
                        ],
                        [
                            -46.58209929873267,
                            -23.769116294596042
                        ]
                    ]
                ]
            }
        }
    ]
}