{
    "type": "FeatureCollection",
    "features": [
        {
            "type": "Feature",
            "properties": {
                "type": "site",
                "region_id": "BR_C000",
                "version": "2.0.0",
                "mgrs": "23KLP",
                "model_content": "annotation",
                "start_date": "2018-04-07",
                "end_date": "2020-04-16",
                "originator": "iMERIT",
                "site_id": "BR_C000_0460",
                "status": "positive_pending",
                "validated": "False",
                "score": 0.0,
                "misc_info": {
                    "commit_hash": "b8980b308111f4d719b33abcdfd4475cdb0511ce"
                }
            },
            "geometry": {
                "type": "Polygon",
                "coordinates": [
                    [
                        [
                            -46.63227383301775,
                            -23.527017074360028
                        ],
                        [
                            -46.632337727898935,
                            -23.52707386980997
                        ],
                        [
                            -46.63251876339563,
                            -23.52717326184737
                        ],
                        [
                            -46.6331727864135,
                            -23.527134438563206
                        ],
                        [
                            -46.6331379835066,
                            -23.526500528473374
                        ],
                        [
                            -46.63310091675756,
                            -23.52637457583254
                        ],
                        [
                            -46.6322489850084,
                            -23.526363926685676
                        ],
                        [
                            -46.632252534724024,
                            -23.526697599954094
                        ],
                        [
                            -46.63227383301775,
                            -23.527017074360028
                        ]
                    ]
                ]
            }
        },
        {
            "type": "Feature",
            "properties": {
                "type": "observation",
                "score": 0.0,
                "observation_date": "2018-04-07",
                "source": null,
                "sensor_name": null,
                "current_phase": null,
                "is_occluded": null,
                "is_site_boundary": null
            },
            "geometry": {
                "type": "Polygon",
                "coordinates": [
                    [
                        [
                            -46.63227383301775,
                            -23.527017074360028
                        ],
                        [
                            -46.632337727898935,
                            -23.52707386980997
                        ],
                        [
                            -46.63251876339563,
                            -23.52717326184737
                        ],
                        [
                            -46.6331727864135,
                            -23.527134438563206
                        ],
                        [
                            -46.6331379835066,
                            -23.526500528473374
                        ],
                        [
                            -46.63310091675756,
                            -23.52637457583254
                        ],
                        [
                            -46.6322489850084,
                            -23.526363926685676
                        ],
                        [
                            -46.632252534724024,
                            -23.526697599954094
                        ],
                        [
                            -46.63227383301775,
                            -23.527017074360028
                        ]
                    ]
                ]
            }
        },
        {
            "type": "Feature",
            "properties": {
                "type": "observation",
                "score": 0.0,
                "observation_date": "2020-04-16",
                "source": null,
                "sensor_name": null,
                "current_phase": null,
                "is_occluded": null,
                "is_site_boundary": null
            },
            "geometry": {
                "type": "Polygon",
                "coordinates": [
                    [
                        [
                            -46.63227383301775,
                            -23.527017074360028
                        ],
                        [
                            -46.632337727898935,
                            -23.52707386980997
                        ],
                        [
                            -46.63251876339563,
                            -23.52717326184737
                        ],
                        [
                            -46.6331727864135,
                            -23.527134438563206
                        ],
                        [
                            -46.6331379835066,
                            -23.526500528473374
                        ],
                        [
                            -46.63310091675756,
                            -23.52637457583254
                        ],
                        [
                            -46.6322489850084,
                            -23.526363926685676
                        ],
                        [
                            -46.632252534724024,
                            -23.526697599954094
                        ],
                        [
                            -46.63227383301775,
                            -23.527017074360028
                        ]
                    ]
                ]
            }
        }
    ]
}