{
    "type": "FeatureCollection",
    "features": [
        {
            "type": "Feature",
            "properties": {
                "type": "site",
                "region_id": "BR_C000",
                "version": "2.0.0",
                "mgrs": "23KLP",
                "model_content": "annotation",
                "start_date": "2018-03-23",
                "end_date": "2020-03-17",
                "originator": "iMERIT",
                "site_id": "BR_C000_0479",
                "status": "positive_pending",
                "validated": "False",
                "score": 0.0,
                "misc_info": {
                    "commit_hash": "b8980b308111f4d719b33abcdfd4475cdb0511ce"
                }
            },
            "geometry": {
                "type": "Polygon",
                "coordinates": [
                    [
                        [
                            -46.61821054584543,
                            -23.56652995767072
                        ],
                        [
                            -46.61877248965118,
                            -23.565877586126117
                        ],
                        [
                            -46.61848496268584,
                            -23.565281233901707
                        ],
                        [
                            -46.6176685280929,
                            -23.565629106032613
                        ],
                        [
                            -46.61807114101482,
                            -23.566479066645563
                        ],
                        [
                            -46.61821054584543,
                            -23.56652995767072
                        ]
                    ]
                ]
            }
        },
        {
            "type": "Feature",
            "properties": {
                "type": "observation",
                "score": 0.0,
                "observation_date": "2018-03-23",
                "source": null,
                "sensor_name": null,
                "current_phase": null,
                "is_occluded": null,
                "is_site_boundary": null
            },
            "geometry": {
                "type": "Polygon",
                "coordinates": [
                    [
                        [
                            -46.61821054584543,
                            -23.56652995767072
                        ],
                        [
                            -46.61877248965118,
                            -23.565877586126117
                        ],
                        [
                            -46.61848496268584,
                            -23.565281233901707
                        ],
                        [
                            -46.6176685280929,
                            -23.565629106032613
                        ],
                        [
                            -46.61807114101482,
                            -23.566479066645563
                        ],
                        [
                            -46.61821054584543,
                            -23.56652995767072
                        ]
                    ]
                ]
            }
        },
        {
            "type": "Feature",
            "properties": {
                "type": "observation",
                "score": 0.0,
                "observation_date": "2020-03-17",
                "source": null,
                "sensor_name": null,
                "current_phase": null,
                "is_occluded": null,
                "is_site_boundary": null
            },
            "geometry": {
                "type": "Polygon",
                "coordinates": [
                    [
                        [
                            -46.61821054584543,
                            -23.56652995767072
                        ],
                        [
                            -46.61877248965118,
                            -23.565877586126117
                        ],
                        [
                            -46.61848496268584,
                            -23.565281233901707
                        ],
                        [
                            -46.6176685280929,
                            -23.565629106032613
                        ],
                        [
                            -46.61807114101482,
                            -23.566479066645563
                        ],
                        [
                            -46.61821054584543,
                            -23.56652995767072
                        ]
                    ]
                ]
            }
        }
    ]
}