{
    "type": "FeatureCollection",
    "features": [
        {
            "type": "Feature",
            "properties": {
                "type": "site",
                "region_id": "BR_C000",
                "version": "2.0.1",
                "mgrs": "23KLQ",
                "model_content": "annotation",
                "start_date": "2014-12-08",
                "end_date": "2020-05-16",
                "originator": "iMERIT",
                "site_id": "BR_C000_0769",
                "status": "positive_pending",
                "validated": "False",
                "score": 0.0,
                "misc_info": {
                    "commit_hash": "b8980b308111f4d719b33abcdfd4475cdb0511ce"
                }
            },
            "geometry": {
                "type": "Polygon",
                "coordinates": [
                    [
                        [
                            -46.33973763717196,
                            -23.445415973342463
                        ],
                        [
                            -46.339088353377136,
                            -23.44610267142549
                        ],
                        [
                            -46.33793047373279,
                            -23.44515818698364
                        ],
                        [
                            -46.338634099255415,
                            -23.444437391640328
                        ],
                        [
                            -46.33886514742622,
                            -23.44475494977138
                        ],
                        [
                            -46.33973763717196,
                            -23.445415973342463
                        ]
                    ]
                ]
            }
        },
        {
            "type": "Feature",
            "properties": {
                "type": "observation",
                "score": 0.0,
                "observation_date": "2014-12-08",
                "source": null,
                "sensor_name": null,
                "current_phase": null,
                "is_occluded": null,
                "is_site_boundary": null
            },
            "geometry": {
                "type": "Polygon",
                "coordinates": [
                    [
                        [
                            -46.33973763717196,
                            -23.445415973342463
                        ],
                        [
                            -46.339088353377136,
                            -23.44610267142549
                        ],
                        [
                            -46.33793047373279,
                            -23.44515818698364
                        ],
                        [
                            -46.338634099255415,
                            -23.444437391640328
                        ],
                        [
                            -46.33886514742622,
                            -23.44475494977138
                        ],
                        [
                            -46.33973763717196,
                            -23.445415973342463
                        ]
                    ]
                ]
            }
        },
        {
            "type": "Feature",
            "properties": {
                "type": "observation",
                "score": 0.0,
                "observation_date": "2020-05-16",
                "source": null,
                "sensor_name": null,
                "current_phase": null,
                "is_occluded": null,
                "is_site_boundary": null
            },
            "geometry": {
                "type": "Polygon",
                "coordinates": [
                    [
                        [
                            -46.33973763717196,
                            -23.445415973342463
                        ],
                        [
                            -46.339088353377136,
                            -23.44610267142549
                        ],
                        [
                            -46.33793047373279,
                            -23.44515818698364
                        ],
                        [
                            -46.338634099255415,
                            -23.444437391640328
                        ],
                        [
                            -46.33886514742622,
                            -23.44475494977138
                        ],
                        [
                            -46.33973763717196,
                            -23.445415973342463
                        ]
                    ]
                ]
            }
        }
    ]
}