{
    "type": "FeatureCollection",
    "features": [
        {
            "type": "Feature",
            "properties": {
                "type": "site",
                "region_id": "BR_C000",
                "version": "2.0.1",
                "mgrs": "23KLP",
                "model_content": "annotation",
                "start_date": "2018-08-30",
                "end_date": "2022-03-17",
                "originator": "iMERIT",
                "site_id": "BR_C000_0061",
                "status": "positive_pending",
                "validated": "False",
                "score": 0.0,
                "misc_info": {
                    "commit_hash": "b8980b308111f4d719b33abcdfd4475cdb0511ce"
                }
            },
            "geometry": {
                "type": "Polygon",
                "coordinates": [
                    [
                        [
                            -46.91271801782868,
                            -23.6193648403714
                        ],
                        [
                            -46.91324175171994,
                            -23.61936337421624
                        ],
                        [
                            -46.913186236245906,
                            -23.618277618818443
                        ],
                        [
                            -46.91234310588327,
                            -23.61814590336052
                        ],
                        [
                            -46.912138655035925,
                            -23.618019809022524
                        ],
                        [
                            -46.911504481425226,
                            -23.61753119743782
                        ],
                        [
                            -46.910747672188236,
                            -23.618329918857846
                        ],
                        [
                            -46.91073286751419,
                            -23.61880240677791
                        ],
                        [
                            -46.91087383770133,
                            -23.618917110315675
                        ],
                        [
                            -46.91110527592248,
                            -23.618931805315004
                        ],
                        [
                            -46.9116298566065,
                            -23.618678637793717
                        ],
                        [
                            -46.911785286155535,
                            -23.618671604435015
                        ],
                        [
                            -46.91186694162577,
                            -23.618771865672258
                        ],
                        [
                            -46.91172805088375,
                            -23.61920847536252
                        ],
                        [
                            -46.911808234566884,
                            -23.619341789885475
                        ],
                        [
                            -46.91252312628485,
                            -23.619593841039713
                        ],
                        [
                            -46.91260992506757,
                            -23.61957522152754
                        ],
                        [
                            -46.91259991413148,
                            -23.619373191165515
                        ],
                        [
                            -46.91271801782868,
                            -23.6193648403714
                        ]
                    ]
                ]
            }
        },
        {
            "type": "Feature",
            "properties": {
                "type": "observation",
                "score": 0.0,
                "observation_date": "2018-08-30",
                "source": null,
                "sensor_name": null,
                "current_phase": null,
                "is_occluded": null,
                "is_site_boundary": null
            },
            "geometry": {
                "type": "Polygon",
                "coordinates": [
                    [
                        [
                            -46.91271801782868,
                            -23.6193648403714
                        ],
                        [
                            -46.91324175171994,
                            -23.61936337421624
                        ],
                        [
                            -46.913186236245906,
                            -23.618277618818443
                        ],
                        [
                            -46.91234310588327,
                            -23.61814590336052
                        ],
                        [
                            -46.912138655035925,
                            -23.618019809022524
                        ],
                        [
                            -46.911504481425226,
                            -23.61753119743782
                        ],
                        [
                            -46.910747672188236,
                            -23.618329918857846
                        ],
                        [
                            -46.91073286751419,
                            -23.61880240677791
                        ],
                        [
                            -46.91087383770133,
                            -23.618917110315675
                        ],
                        [
                            -46.91110527592248,
                            -23.618931805315004
                        ],
                        [
                            -46.9116298566065,
                            -23.618678637793717
                        ],
                        [
                            -46.911785286155535,
                            -23.618671604435015
                        ],
                        [
                            -46.91186694162577,
                            -23.618771865672258
                        ],
                        [
                            -46.91172805088375,
                            -23.61920847536252
                        ],
                        [
                            -46.911808234566884,
                            -23.619341789885475
                        ],
                        [
                            -46.91252312628485,
                            -23.619593841039713
                        ],
                        [
                            -46.91260992506757,
                            -23.61957522152754
                        ],
                        [
                            -46.91259991413148,
                            -23.619373191165515
                        ],
                        [
                            -46.91271801782868,
                            -23.6193648403714
                        ]
                    ]
                ]
            }
        },
        {
            "type": "Feature",
            "properties": {
                "type": "observation",
                "score": 0.0,
                "observation_date": "2022-03-17",
                "source": null,
                "sensor_name": null,
                "current_phase": null,
                "is_occluded": null,
                "is_site_boundary": null
            },
            "geometry": {
                "type": "Polygon",
                "coordinates": [
                    [
                        [
                            -46.91271801782868,
                            -23.6193648403714
                        ],
                        [
                            -46.91324175171994,
                            -23.61936337421624
                        ],
                        [
                            -46.913186236245906,
                            -23.618277618818443
                        ],
                        [
                            -46.91234310588327,
                            -23.61814590336052
                        ],
                        [
                            -46.912138655035925,
                            -23.618019809022524
                        ],
                        [
                            -46.911504481425226,
                            -23.61753119743782
                        ],
                        [
                            -46.910747672188236,
                            -23.618329918857846
                        ],
                        [
                            -46.91073286751419,
                            -23.61880240677791
                        ],
                        [
                            -46.91087383770133,
                            -23.618917110315675
                        ],
                        [
                            -46.91110527592248,
                            -23.618931805315004
                        ],
                        [
                            -46.9116298566065,
                            -23.618678637793717
                        ],
                        [
                            -46.911785286155535,
                            -23.618671604435015
                        ],
                        [
                            -46.91186694162577,
                            -23.618771865672258
                        ],
                        [
                            -46.91172805088375,
                            -23.61920847536252
                        ],
                        [
                            -46.911808234566884,
                            -23.619341789885475
                        ],
                        [
                            -46.91252312628485,
                            -23.619593841039713
                        ],
                        [
                            -46.91260992506757,
                            -23.61957522152754
                        ],
                        [
                            -46.91259991413148,
                            -23.619373191165515
                        ],
                        [
                            -46.91271801782868,
                            -23.6193648403714
                        ]
                    ]
                ]
            }
        }
    ]
}