{
    "type": "FeatureCollection",
    "features": [
        {
            "type": "Feature",
            "properties": {
                "type": "site",
                "region_id": "BR_C000",
                "version": "2.0.0",
                "mgrs": "23KLP",
                "model_content": "annotation",
                "start_date": "2017-07-21",
                "end_date": "2018-05-02",
                "originator": "iMERIT",
                "site_id": "BR_C000_0286",
                "status": "positive_pending",
                "validated": "False",
                "score": 0.0,
                "misc_info": {
                    "commit_hash": "b8980b308111f4d719b33abcdfd4475cdb0511ce"
                }
            },
            "geometry": {
                "type": "Polygon",
                "coordinates": [
                    [
                        [
                            -46.8159144915139,
                            -23.662147262374717
                        ],
                        [
                            -46.81533419767292,
                            -23.662779633868087
                        ],
                        [
                            -46.81603352614795,
                            -23.663404565696833
                        ],
                        [
                            -46.81650966468413,
                            -23.662578762923136
                        ],
                        [
                            -46.8159144915139,
                            -23.662147262374717
                        ]
                    ]
                ]
            }
        },
        {
            "type": "Feature",
            "properties": {
                "type": "observation",
                "score": 0.0,
                "observation_date": "2017-07-21",
                "source": null,
                "sensor_name": null,
                "current_phase": null,
                "is_occluded": null,
                "is_site_boundary": null
            },
            "geometry": {
                "type": "Polygon",
                "coordinates": [
                    [
                        [
                            -46.8159144915139,
                            -23.662147262374717
                        ],
                        [
                            -46.81533419767292,
                            -23.662779633868087
                        ],
                        [
                            -46.81603352614795,
                            -23.663404565696833
                        ],
                        [
                            -46.81650966468413,
                            -23.662578762923136
                        ],
                        [
                            -46.8159144915139,
                            -23.662147262374717
                        ]
                    ]
                ]
            }
        },
        {
            "type": "Feature",
            "properties": {
                "type": "observation",
                "score": 0.0,
                "observation_date": "2018-05-02",
                "source": null,
                "sensor_name": null,
                "current_phase": null,
                "is_occluded": null,
                "is_site_boundary": null
            },
            "geometry": {
                "type": "Polygon",
                "coordinates": [
                    [
                        [
                            -46.8159144915139,
                            -23.662147262374717
                        ],
                        [
                            -46.81533419767292,
                            -23.662779633868087
                        ],
                        [
                            -46.81603352614795,
                            -23.663404565696833
                        ],
                        [
                            -46.81650966468413,
                            -23.662578762923136
                        ],
                        [
                            -46.8159144915139,
                            -23.662147262374717
                        ]
                    ]
                ]
            }
        }
    ]
}