{
    "type": "FeatureCollection",
    "features": [
        {
            "type": "Feature",
            "properties": {
                "type": "site",
                "region_id": "BR_C000",
                "version": "2.0.1",
                "mgrs": "23KLP",
                "model_content": "annotation",
                "start_date": "2018-09-24",
                "end_date": "2021-01-27",
                "originator": "iMERIT",
                "site_id": "BR_C000_0566",
                "status": "positive_pending",
                "validated": "False",
                "score": 0.0,
                "misc_info": {
                    "commit_hash": "b8980b308111f4d719b33abcdfd4475cdb0511ce"
                }
            },
            "geometry": {
                "type": "Polygon",
                "coordinates": [
                    [
                        [
                            -46.42086078168685,
                            -23.69101512735378
                        ],
                        [
                            -46.42057702986664,
                            -23.69205561657004
                        ],
                        [
                            -46.42068711285651,
                            -23.69220251043068
                        ],
                        [
                            -46.42042956083688,
                            -23.69244768031037
                        ],
                        [
                            -46.42051510848592,
                            -23.69274061379075
                        ],
                        [
                            -46.42074174824202,
                            -23.69274328935825
                        ],
                        [
                            -46.42080750444899,
                            -23.69255334861737
                        ],
                        [
                            -46.42130745899452,
                            -23.69227343254976
                        ],
                        [
                            -46.42132346091487,
                            -23.69206752596787
                        ],
                        [
                            -46.42153024782272,
                            -23.6919855985666
                        ],
                        [
                            -46.42086078168685,
                            -23.69101512735378
                        ]
                    ]
                ]
            }
        },
        {
            "type": "Feature",
            "properties": {
                "type": "observation",
                "score": 0.0,
                "observation_date": "2018-09-24",
                "source": null,
                "sensor_name": null,
                "current_phase": null,
                "is_occluded": null,
                "is_site_boundary": null
            },
            "geometry": {
                "type": "Polygon",
                "coordinates": [
                    [
                        [
                            -46.42086078168685,
                            -23.69101512735378
                        ],
                        [
                            -46.42057702986664,
                            -23.69205561657004
                        ],
                        [
                            -46.42068711285651,
                            -23.69220251043068
                        ],
                        [
                            -46.42042956083688,
                            -23.69244768031037
                        ],
                        [
                            -46.42051510848592,
                            -23.69274061379075
                        ],
                        [
                            -46.42074174824202,
                            -23.69274328935825
                        ],
                        [
                            -46.42080750444899,
                            -23.69255334861737
                        ],
                        [
                            -46.42130745899452,
                            -23.69227343254976
                        ],
                        [
                            -46.42132346091487,
                            -23.69206752596787
                        ],
                        [
                            -46.42153024782272,
                            -23.6919855985666
                        ],
                        [
                            -46.42086078168685,
                            -23.69101512735378
                        ]
                    ]
                ]
            }
        },
        {
            "type": "Feature",
            "properties": {
                "type": "observation",
                "score": 0.0,
                "observation_date": "2021-01-27",
                "source": null,
                "sensor_name": null,
                "current_phase": null,
                "is_occluded": null,
                "is_site_boundary": null
            },
            "geometry": {
                "type": "Polygon",
                "coordinates": [
                    [
                        [
                            -46.42086078168685,
                            -23.69101512735378
                        ],
                        [
                            -46.42057702986664,
                            -23.69205561657004
                        ],
                        [
                            -46.42068711285651,
                            -23.69220251043068
                        ],
                        [
                            -46.42042956083688,
                            -23.69244768031037
                        ],
                        [
                            -46.42051510848592,
                            -23.69274061379075
                        ],
                        [
                            -46.42074174824202,
                            -23.69274328935825
                        ],
                        [
                            -46.42080750444899,
                            -23.69255334861737
                        ],
                        [
                            -46.42130745899452,
                            -23.69227343254976
                        ],
                        [
                            -46.42132346091487,
                            -23.69206752596787
                        ],
                        [
                            -46.42153024782272,
                            -23.6919855985666
                        ],
                        [
                            -46.42086078168685,
                            -23.69101512735378
                        ]
                    ]
                ]
            }
        }
    ]
}