{
    "type": "FeatureCollection",
    "features": [
        {
            "type": "Feature",
            "properties": {
                "type": "site",
                "region_id": "BR_C000",
                "version": "2.0.1",
                "mgrs": "23KLP",
                "model_content": "annotation",
                "start_date": "2018-03-03",
                "end_date": "2021-03-27",
                "originator": "iMERIT",
                "site_id": "BR_C000_0508",
                "status": "positive_pending",
                "validated": "False",
                "score": 0.0,
                "misc_info": {
                    "commit_hash": "b8980b308111f4d719b33abcdfd4475cdb0511ce"
                }
            },
            "geometry": {
                "type": "Polygon",
                "coordinates": [
                    [
                        [
                            -46.50376850215185,
                            -23.853051693814855
                        ],
                        [
                            -46.50215256504926,
                            -23.85039788639729
                        ],
                        [
                            -46.50122793345363,
                            -23.85021819880749
                        ],
                        [
                            -46.499585848064044,
                            -23.850480927240927
                        ],
                        [
                            -46.49941976637676,
                            -23.85165104821948
                        ],
                        [
                            -46.5016165741494,
                            -23.85202850659966
                        ],
                        [
                            -46.50176755750147,
                            -23.851130155654833
                        ],
                        [
                            -46.502514925094225,
                            -23.852292727465784
                        ],
                        [
                            -46.502272965836724,
                            -23.852451998559776
                        ],
                        [
                            -46.50280973010824,
                            -23.853536632570506
                        ],
                        [
                            -46.50376850215185,
                            -23.853051693814855
                        ]
                    ]
                ]
            }
        },
        {
            "type": "Feature",
            "properties": {
                "type": "observation",
                "score": 0.0,
                "observation_date": "2018-03-03",
                "source": null,
                "sensor_name": null,
                "current_phase": null,
                "is_occluded": null,
                "is_site_boundary": null
            },
            "geometry": {
                "type": "Polygon",
                "coordinates": [
                    [
                        [
                            -46.50376850215185,
                            -23.853051693814855
                        ],
                        [
                            -46.50215256504926,
                            -23.85039788639729
                        ],
                        [
                            -46.50122793345363,
                            -23.85021819880749
                        ],
                        [
                            -46.499585848064044,
                            -23.850480927240927
                        ],
                        [
                            -46.49941976637676,
                            -23.85165104821948
                        ],
                        [
                            -46.5016165741494,
                            -23.85202850659966
                        ],
                        [
                            -46.50176755750147,
                            -23.851130155654833
                        ],
                        [
                            -46.502514925094225,
                            -23.852292727465784
                        ],
                        [
                            -46.502272965836724,
                            -23.852451998559776
                        ],
                        [
                            -46.50280973010824,
                            -23.853536632570506
                        ],
                        [
                            -46.50376850215185,
                            -23.853051693814855
                        ]
                    ]
                ]
            }
        },
        {
            "type": "Feature",
            "properties": {
                "type": "observation",
                "score": 0.0,
                "observation_date": "2021-03-27",
                "source": null,
                "sensor_name": null,
                "current_phase": null,
                "is_occluded": null,
                "is_site_boundary": null
            },
            "geometry": {
                "type": "Polygon",
                "coordinates": [
                    [
                        [
                            -46.50376850215185,
                            -23.853051693814855
                        ],
                        [
                            -46.50215256504926,
                            -23.85039788639729
                        ],
                        [
                            -46.50122793345363,
                            -23.85021819880749
                        ],
                        [
                            -46.499585848064044,
                            -23.850480927240927
                        ],
                        [
                            -46.49941976637676,
                            -23.85165104821948
                        ],
                        [
                            -46.5016165741494,
                            -23.85202850659966
                        ],
                        [
                            -46.50176755750147,
                            -23.851130155654833
                        ],
                        [
                            -46.502514925094225,
                            -23.852292727465784
                        ],
                        [
                            -46.502272965836724,
                            -23.852451998559776
                        ],
                        [
                            -46.50280973010824,
                            -23.853536632570506
                        ],
                        [
                            -46.50376850215185,
                            -23.853051693814855
                        ]
                    ]
                ]
            }
        }
    ]
}