{
    "type": "FeatureCollection",
    "features": [
        {
            "type": "Feature",
            "properties": {
                "type": "site",
                "region_id": "BR_C000",
                "version": "2.0.0",
                "mgrs": "23KLP",
                "model_content": "annotation",
                "start_date": "2019-04-27",
                "end_date": "2020-10-28",
                "originator": "iMERIT",
                "site_id": "BR_C000_0148",
                "status": "positive_pending",
                "validated": "False",
                "score": 0.0,
                "misc_info": {
                    "commit_hash": "b8980b308111f4d719b33abcdfd4475cdb0511ce"
                }
            },
            "geometry": {
                "type": "Polygon",
                "coordinates": [
                    [
                        [
                            -46.670900810890615,
                            -23.748500287843637
                        ],
                        [
                            -46.670443524447954,
                            -23.748077420810638
                        ],
                        [
                            -46.66982889213256,
                            -23.74803316728393
                        ],
                        [
                            -46.66944044450922,
                            -23.748283937268614
                        ],
                        [
                            -46.669553536855254,
                            -23.74861338018967
                        ],
                        [
                            -46.66972563390357,
                            -23.748869067232874
                        ],
                        [
                            -46.66978463860585,
                            -23.748726472535704
                        ],
                        [
                            -46.670055076824625,
                            -23.74873630665275
                        ],
                        [
                            -46.67017308622918,
                            -23.748687136067517
                        ],
                        [
                            -46.67025667622407,
                            -23.74857896078001
                        ],
                        [
                            -46.670394353862726,
                            -23.74852487313625
                        ],
                        [
                            -46.670482860916145,
                            -23.748608463131145
                        ],
                        [
                            -46.67059595326218,
                            -23.748701887243087
                        ],
                        [
                            -46.67070904560821,
                            -23.748741223711274
                        ],
                        [
                            -46.670871308539475,
                            -23.748701887243087
                        ],
                        [
                            -46.670900810890615,
                            -23.748500287843637
                        ]
                    ]
                ]
            }
        },
        {
            "type": "Feature",
            "properties": {
                "type": "observation",
                "score": 0.0,
                "observation_date": "2019-04-27",
                "source": null,
                "sensor_name": null,
                "current_phase": null,
                "is_occluded": null,
                "is_site_boundary": null
            },
            "geometry": {
                "type": "Polygon",
                "coordinates": [
                    [
                        [
                            -46.670900810890615,
                            -23.748500287843637
                        ],
                        [
                            -46.670443524447954,
                            -23.748077420810638
                        ],
                        [
                            -46.66982889213256,
                            -23.74803316728393
                        ],
                        [
                            -46.66944044450922,
                            -23.748283937268614
                        ],
                        [
                            -46.669553536855254,
                            -23.74861338018967
                        ],
                        [
                            -46.66972563390357,
                            -23.748869067232874
                        ],
                        [
                            -46.66978463860585,
                            -23.748726472535704
                        ],
                        [
                            -46.670055076824625,
                            -23.74873630665275
                        ],
                        [
                            -46.67017308622918,
                            -23.748687136067517
                        ],
                        [
                            -46.67025667622407,
                            -23.74857896078001
                        ],
                        [
                            -46.670394353862726,
                            -23.74852487313625
                        ],
                        [
                            -46.670482860916145,
                            -23.748608463131145
                        ],
                        [
                            -46.67059595326218,
                            -23.748701887243087
                        ],
                        [
                            -46.67070904560821,
                            -23.748741223711274
                        ],
                        [
                            -46.670871308539475,
                            -23.748701887243087
                        ],
                        [
                            -46.670900810890615,
                            -23.748500287843637
                        ]
                    ]
                ]
            }
        },
        {
            "type": "Feature",
            "properties": {
                "type": "observation",
                "score": 0.0,
                "observation_date": "2020-10-28",
                "source": null,
                "sensor_name": null,
                "current_phase": null,
                "is_occluded": null,
                "is_site_boundary": null
            },
            "geometry": {
                "type": "Polygon",
                "coordinates": [
                    [
                        [
                            -46.670900810890615,
                            -23.748500287843637
                        ],
                        [
                            -46.670443524447954,
                            -23.748077420810638
                        ],
                        [
                            -46.66982889213256,
                            -23.74803316728393
                        ],
                        [
                            -46.66944044450922,
                            -23.748283937268614
                        ],
                        [
                            -46.669553536855254,
                            -23.74861338018967
                        ],
                        [
                            -46.66972563390357,
                            -23.748869067232874
                        ],
                        [
                            -46.66978463860585,
                            -23.748726472535704
                        ],
                        [
                            -46.670055076824625,
                            -23.74873630665275
                        ],
                        [
                            -46.67017308622918,
                            -23.748687136067517
                        ],
                        [
                            -46.67025667622407,
                            -23.74857896078001
                        ],
                        [
                            -46.670394353862726,
                            -23.74852487313625
                        ],
                        [
                            -46.670482860916145,
                            -23.748608463131145
                        ],
                        [
                            -46.67059595326218,
                            -23.748701887243087
                        ],
                        [
                            -46.67070904560821,
                            -23.748741223711274
                        ],
                        [
                            -46.670871308539475,
                            -23.748701887243087
                        ],
                        [
                            -46.670900810890615,
                            -23.748500287843637
                        ]
                    ]
                ]
            }
        }
    ]
}