{
    "type": "FeatureCollection",
    "features": [
        {
            "type": "Feature",
            "properties": {
                "type": "site",
                "region_id": "BR_C000",
                "version": "2.0.0",
                "mgrs": "23KLP",
                "model_content": "annotation",
                "start_date": "2018-04-12",
                "end_date": "2019-05-22",
                "originator": "iMERIT",
                "site_id": "BR_C000_0449",
                "status": "positive_pending",
                "validated": "False",
                "score": 0.0,
                "misc_info": {
                    "commit_hash": "b8980b308111f4d719b33abcdfd4475cdb0511ce"
                }
            },
            "geometry": {
                "type": "Polygon",
                "coordinates": [
                    [
                        [
                            -46.58035475380255,
                            -23.661791840687897
                        ],
                        [
                            -46.58081503932575,
                            -23.66332196897113
                        ],
                        [
                            -46.57988061951603,
                            -23.663704606021536
                        ],
                        [
                            -46.579403952079666,
                            -23.6627258215696
                        ],
                        [
                            -46.58035475380255,
                            -23.661791840687897
                        ]
                    ]
                ]
            }
        },
        {
            "type": "Feature",
            "properties": {
                "type": "observation",
                "score": 0.0,
                "observation_date": "2018-04-12",
                "source": null,
                "sensor_name": null,
                "current_phase": null,
                "is_occluded": null,
                "is_site_boundary": null
            },
            "geometry": {
                "type": "Polygon",
                "coordinates": [
                    [
                        [
                            -46.58035475380255,
                            -23.661791840687897
                        ],
                        [
                            -46.58081503932575,
                            -23.66332196897113
                        ],
                        [
                            -46.57988061951603,
                            -23.663704606021536
                        ],
                        [
                            -46.579403952079666,
                            -23.6627258215696
                        ],
                        [
                            -46.58035475380255,
                            -23.661791840687897
                        ]
                    ]
                ]
            }
        },
        {
            "type": "Feature",
            "properties": {
                "type": "observation",
                "score": 0.0,
                "observation_date": "2019-05-22",
                "source": null,
                "sensor_name": null,
                "current_phase": null,
                "is_occluded": null,
                "is_site_boundary": null
            },
            "geometry": {
                "type": "Polygon",
                "coordinates": [
                    [
                        [
                            -46.58035475380255,
                            -23.661791840687897
                        ],
                        [
                            -46.58081503932575,
                            -23.66332196897113
                        ],
                        [
                            -46.57988061951603,
                            -23.663704606021536
                        ],
                        [
                            -46.579403952079666,
                            -23.6627258215696
                        ],
                        [
                            -46.58035475380255,
                            -23.661791840687897
                        ]
                    ]
                ]
            }
        }
    ]
}