{
    "type": "FeatureCollection",
    "features": [
        {
            "type": "Feature",
            "properties": {
                "type": "site",
                "region_id": "BR_C000",
                "version": "2.0.0",
                "mgrs": "23KLP",
                "model_content": "annotation",
                "start_date": "2020-01-27",
                "end_date": "2021-05-01",
                "originator": "iMERIT",
                "site_id": "BR_C000_0634",
                "status": "positive_pending",
                "validated": "False",
                "score": 0.0,
                "misc_info": {
                    "commit_hash": "b8980b308111f4d719b33abcdfd4475cdb0511ce"
                }
            },
            "geometry": {
                "type": "Polygon",
                "coordinates": [
                    [
                        [
                            -46.27929905932071,
                            -23.943816523392634
                        ],
                        [
                            -46.27869994552257,
                            -23.945268869174278
                        ],
                        [
                            -46.27625775812495,
                            -23.944582335226663
                        ],
                        [
                            -46.27637263350084,
                            -23.944160637127595
                        ],
                        [
                            -46.27380106991329,
                            -23.94334891488743
                        ],
                        [
                            -46.27425697802563,
                            -23.942225954628903
                        ],
                        [
                            -46.279334932172,
                            -23.94374049081231
                        ],
                        [
                            -46.27929905932071,
                            -23.943816523392634
                        ]
                    ]
                ]
            }
        },
        {
            "type": "Feature",
            "properties": {
                "type": "observation",
                "score": 0.0,
                "observation_date": "2020-01-27",
                "source": null,
                "sensor_name": null,
                "current_phase": null,
                "is_occluded": null,
                "is_site_boundary": null
            },
            "geometry": {
                "type": "Polygon",
                "coordinates": [
                    [
                        [
                            -46.27929905932071,
                            -23.943816523392634
                        ],
                        [
                            -46.27869994552257,
                            -23.945268869174278
                        ],
                        [
                            -46.27625775812495,
                            -23.944582335226663
                        ],
                        [
                            -46.27637263350084,
                            -23.944160637127595
                        ],
                        [
                            -46.27380106991329,
                            -23.94334891488743
                        ],
                        [
                            -46.27425697802563,
                            -23.942225954628903
                        ],
                        [
                            -46.279334932172,
                            -23.94374049081231
                        ],
                        [
                            -46.27929905932071,
                            -23.943816523392634
                        ]
                    ]
                ]
            }
        },
        {
            "type": "Feature",
            "properties": {
                "type": "observation",
                "score": 0.0,
                "observation_date": "2021-05-01",
                "source": null,
                "sensor_name": null,
                "current_phase": null,
                "is_occluded": null,
                "is_site_boundary": null
            },
            "geometry": {
                "type": "Polygon",
                "coordinates": [
                    [
                        [
                            -46.27929905932071,
                            -23.943816523392634
                        ],
                        [
                            -46.27869994552257,
                            -23.945268869174278
                        ],
                        [
                            -46.27625775812495,
                            -23.944582335226663
                        ],
                        [
                            -46.27637263350084,
                            -23.944160637127595
                        ],
                        [
                            -46.27380106991329,
                            -23.94334891488743
                        ],
                        [
                            -46.27425697802563,
                            -23.942225954628903
                        ],
                        [
                            -46.279334932172,
                            -23.94374049081231
                        ],
                        [
                            -46.27929905932071,
                            -23.943816523392634
                        ]
                    ]
                ]
            }
        }
    ]
}