{
    "type": "FeatureCollection",
    "features": [
        {
            "type": "Feature",
            "properties": {
                "type": "site",
                "region_id": "BR_C000",
                "version": "2.0.1",
                "mgrs": "23KLP",
                "model_content": "annotation",
                "start_date": "2021-03-22",
                "end_date": "2022-07-05",
                "originator": "iMERIT",
                "site_id": "BR_C000_0780",
                "status": "positive_pending",
                "validated": "False",
                "score": 0.0,
                "misc_info": {
                    "commit_hash": "b8980b308111f4d719b33abcdfd4475cdb0511ce"
                }
            },
            "geometry": {
                "type": "Polygon",
                "coordinates": [
                    [
                        [
                            -46.27655361272287,
                            -23.50760930741621
                        ],
                        [
                            -46.277133851768035,
                            -23.507499437292203
                        ],
                        [
                            -46.27715281683546,
                            -23.507574963048867
                        ],
                        [
                            -46.2774057108891,
                            -23.50756027538378
                        ],
                        [
                            -46.27736424945883,
                            -23.508224928871122
                        ],
                        [
                            -46.276614680978604,
                            -23.508268915860217
                        ],
                        [
                            -46.27655361272287,
                            -23.50760930741621
                        ]
                    ]
                ]
            }
        },
        {
            "type": "Feature",
            "properties": {
                "type": "observation",
                "score": 0.0,
                "observation_date": "2021-03-22",
                "source": null,
                "sensor_name": null,
                "current_phase": null,
                "is_occluded": null,
                "is_site_boundary": null
            },
            "geometry": {
                "type": "Polygon",
                "coordinates": [
                    [
                        [
                            -46.27655361272287,
                            -23.50760930741621
                        ],
                        [
                            -46.277133851768035,
                            -23.507499437292203
                        ],
                        [
                            -46.27715281683546,
                            -23.507574963048867
                        ],
                        [
                            -46.2774057108891,
                            -23.50756027538378
                        ],
                        [
                            -46.27736424945883,
                            -23.508224928871122
                        ],
                        [
                            -46.276614680978604,
                            -23.508268915860217
                        ],
                        [
                            -46.27655361272287,
                            -23.50760930741621
                        ]
                    ]
                ]
            }
        },
        {
            "type": "Feature",
            "properties": {
                "type": "observation",
                "score": 0.0,
                "observation_date": "2022-07-05",
                "source": null,
                "sensor_name": null,
                "current_phase": null,
                "is_occluded": null,
                "is_site_boundary": null
            },
            "geometry": {
                "type": "Polygon",
                "coordinates": [
                    [
                        [
                            -46.27655361272287,
                            -23.50760930741621
                        ],
                        [
                            -46.277133851768035,
                            -23.507499437292203
                        ],
                        [
                            -46.27715281683546,
                            -23.507574963048867
                        ],
                        [
                            -46.2774057108891,
                            -23.50756027538378
                        ],
                        [
                            -46.27736424945883,
                            -23.508224928871122
                        ],
                        [
                            -46.276614680978604,
                            -23.508268915860217
                        ],
                        [
                            -46.27655361272287,
                            -23.50760930741621
                        ]
                    ]
                ]
            }
        }
    ]
}