{
    "type": "FeatureCollection",
    "features": [
        {
            "type": "Feature",
            "properties": {
                "type": "site",
                "region_id": "BR_C000",
                "version": "2.0.1",
                "mgrs": "23KLQ",
                "model_content": "annotation",
                "start_date": "2018-03-18",
                "end_date": "2020-03-23",
                "originator": "iMERIT",
                "site_id": "BR_C000_0740",
                "status": "positive_pending",
                "validated": "False",
                "score": 0.0,
                "misc_info": {
                    "commit_hash": "b8980b308111f4d719b33abcdfd4475cdb0511ce"
                }
            },
            "geometry": {
                "type": "Polygon",
                "coordinates": [
                    [
                        [
                            -46.82527923339191,
                            -23.341967378800376
                        ],
                        [
                            -46.82436616806408,
                            -23.342418108806356
                        ],
                        [
                            -46.825207644018164,
                            -23.343841557904764
                        ],
                        [
                            -46.82576982863696,
                            -23.343432544256125
                        ],
                        [
                            -46.82583955860782,
                            -23.342820901489016
                        ],
                        [
                            -46.82527923339191,
                            -23.341967378800376
                        ]
                    ]
                ]
            }
        },
        {
            "type": "Feature",
            "properties": {
                "type": "observation",
                "score": 0.0,
                "observation_date": "2018-03-18",
                "source": null,
                "sensor_name": null,
                "current_phase": null,
                "is_occluded": null,
                "is_site_boundary": null
            },
            "geometry": {
                "type": "Polygon",
                "coordinates": [
                    [
                        [
                            -46.82527923339191,
                            -23.341967378800376
                        ],
                        [
                            -46.82436616806408,
                            -23.342418108806356
                        ],
                        [
                            -46.825207644018164,
                            -23.343841557904764
                        ],
                        [
                            -46.82576982863696,
                            -23.343432544256125
                        ],
                        [
                            -46.82583955860782,
                            -23.342820901489016
                        ],
                        [
                            -46.82527923339191,
                            -23.341967378800376
                        ]
                    ]
                ]
            }
        },
        {
            "type": "Feature",
            "properties": {
                "type": "observation",
                "score": 0.0,
                "observation_date": "2020-03-23",
                "source": null,
                "sensor_name": null,
                "current_phase": null,
                "is_occluded": null,
                "is_site_boundary": null
            },
            "geometry": {
                "type": "Polygon",
                "coordinates": [
                    [
                        [
                            -46.82527923339191,
                            -23.341967378800376
                        ],
                        [
                            -46.82436616806408,
                            -23.342418108806356
                        ],
                        [
                            -46.825207644018164,
                            -23.343841557904764
                        ],
                        [
                            -46.82576982863696,
                            -23.343432544256125
                        ],
                        [
                            -46.82583955860782,
                            -23.342820901489016
                        ],
                        [
                            -46.82527923339191,
                            -23.341967378800376
                        ]
                    ]
                ]
            }
        }
    ]
}