{
    "type": "FeatureCollection",
    "features": [
        {
            "type": "Feature",
            "properties": {
                "type": "site",
                "region_id": "BR_C000",
                "version": "2.0.1",
                "mgrs": "23KLP",
                "model_content": "annotation",
                "start_date": "2016-07-26",
                "end_date": "2017-03-23",
                "originator": "iMERIT",
                "site_id": "BR_C000_0631",
                "status": "positive_pending",
                "validated": "False",
                "score": 0.0,
                "misc_info": {
                    "commit_hash": "b8980b308111f4d719b33abcdfd4475cdb0511ce"
                }
            },
            "geometry": {
                "type": "Polygon",
                "coordinates": [
                    [
                        [
                            -46.39564844221429,
                            -23.55567985422392
                        ],
                        [
                            -46.39542865185692,
                            -23.555507620145452
                        ],
                        [
                            -46.39409227553915,
                            -23.55695687682302
                        ],
                        [
                            -46.39431206677641,
                            -23.557129112728273
                        ],
                        [
                            -46.39564844221429,
                            -23.55567985422392
                        ]
                    ]
                ]
            }
        },
        {
            "type": "Feature",
            "properties": {
                "type": "observation",
                "score": 0.0,
                "observation_date": "2016-07-26",
                "source": null,
                "sensor_name": null,
                "current_phase": null,
                "is_occluded": null,
                "is_site_boundary": null
            },
            "geometry": {
                "type": "Polygon",
                "coordinates": [
                    [
                        [
                            -46.39564844221429,
                            -23.55567985422392
                        ],
                        [
                            -46.39542865185692,
                            -23.555507620145452
                        ],
                        [
                            -46.39409227553915,
                            -23.55695687682302
                        ],
                        [
                            -46.39431206677641,
                            -23.557129112728273
                        ],
                        [
                            -46.39564844221429,
                            -23.55567985422392
                        ]
                    ]
                ]
            }
        },
        {
            "type": "Feature",
            "properties": {
                "type": "observation",
                "score": 0.0,
                "observation_date": "2017-03-23",
                "source": null,
                "sensor_name": null,
                "current_phase": null,
                "is_occluded": null,
                "is_site_boundary": null
            },
            "geometry": {
                "type": "Polygon",
                "coordinates": [
                    [
                        [
                            -46.39564844221429,
                            -23.55567985422392
                        ],
                        [
                            -46.39542865185692,
                            -23.555507620145452
                        ],
                        [
                            -46.39409227553915,
                            -23.55695687682302
                        ],
                        [
                            -46.39431206677641,
                            -23.557129112728273
                        ],
                        [
                            -46.39564844221429,
                            -23.55567985422392
                        ]
                    ]
                ]
            }
        }
    ]
}