{
    "type": "FeatureCollection",
    "features": [
        {
            "type": "Feature",
            "properties": {
                "type": "site",
                "region_id": "BR_C000",
                "version": "2.0.1",
                "mgrs": "23KLQ",
                "model_content": "annotation",
                "start_date": "2021-05-26",
                "end_date": null,
                "originator": "iMERIT",
                "site_id": "BR_C000_0804",
                "status": "positive_pending",
                "validated": "False",
                "score": 0.0,
                "misc_info": {
                    "commit_hash": "b8980b308111f4d719b33abcdfd4475cdb0511ce"
                }
            },
            "geometry": {
                "type": "Polygon",
                "coordinates": [
                    [
                        [
                            -46.35346039705354,
                            -23.382901359559977
                        ],
                        [
                            -46.3522515373519,
                            -23.382732617130227
                        ],
                        [
                            -46.35207423973604,
                            -23.383377579790253
                        ],
                        [
                            -46.35190285841781,
                            -23.38395726545398
                        ],
                        [
                            -46.35311715084582,
                            -23.38414794025517
                        ],
                        [
                            -46.35344456272494,
                            -23.382958865711267
                        ],
                        [
                            -46.35346039705354,
                            -23.382901359559977
                        ]
                    ]
                ]
            }
        },
        {
            "type": "Feature",
            "properties": {
                "type": "observation",
                "score": 0.0,
                "observation_date": "2021-05-26",
                "source": null,
                "sensor_name": null,
                "current_phase": null,
                "is_occluded": null,
                "is_site_boundary": null
            },
            "geometry": {
                "type": "Polygon",
                "coordinates": [
                    [
                        [
                            -46.35346039705354,
                            -23.382901359559977
                        ],
                        [
                            -46.3522515373519,
                            -23.382732617130227
                        ],
                        [
                            -46.35207423973604,
                            -23.383377579790253
                        ],
                        [
                            -46.35190285841781,
                            -23.38395726545398
                        ],
                        [
                            -46.35311715084582,
                            -23.38414794025517
                        ],
                        [
                            -46.35344456272494,
                            -23.382958865711267
                        ],
                        [
                            -46.35346039705354,
                            -23.382901359559977
                        ]
                    ]
                ]
            }
        },
        {
            "type": "Feature",
            "properties": {
                "type": "observation",
                "score": 0.0,
                "observation_date": null,
                "source": null,
                "sensor_name": null,
                "current_phase": null,
                "is_occluded": null,
                "is_site_boundary": null
            },
            "geometry": {
                "type": "Polygon",
                "coordinates": [
                    [
                        [
                            -46.35346039705354,
                            -23.382901359559977
                        ],
                        [
                            -46.3522515373519,
                            -23.382732617130227
                        ],
                        [
                            -46.35207423973604,
                            -23.383377579790253
                        ],
                        [
                            -46.35190285841781,
                            -23.38395726545398
                        ],
                        [
                            -46.35311715084582,
                            -23.38414794025517
                        ],
                        [
                            -46.35344456272494,
                            -23.382958865711267
                        ],
                        [
                            -46.35346039705354,
                            -23.382901359559977
                        ]
                    ]
                ]
            }
        }
    ]
}