{
    "type": "FeatureCollection",
    "features": [
        {
            "type": "Feature",
            "properties": {
                "type": "site",
                "region_id": "BR_C000",
                "version": "2.0.1",
                "mgrs": "23KLQ",
                "model_content": "annotation",
                "start_date": "2020-03-27",
                "end_date": "2020-08-29",
                "originator": "iMERIT",
                "site_id": "BR_C000_0712",
                "status": "positive_pending",
                "validated": "False",
                "score": 0.0,
                "misc_info": {
                    "commit_hash": "b8980b308111f4d719b33abcdfd4475cdb0511ce"
                }
            },
            "geometry": {
                "type": "Polygon",
                "coordinates": [
                    [
                        [
                            -46.86714927286497,
                            -23.404866846424724
                        ],
                        [
                            -46.86721282159424,
                            -23.40609658645909
                        ],
                        [
                            -46.86606456416994,
                            -23.406084671120357
                        ],
                        [
                            -46.86582088092117,
                            -23.405873953210737
                        ],
                        [
                            -46.8658051548668,
                            -23.405412703455898
                        ],
                        [
                            -46.866242714972564,
                            -23.405253664559105
                        ],
                        [
                            -46.86708658409426,
                            -23.404688147757092
                        ],
                        [
                            -46.86714927286497,
                            -23.404866846424724
                        ]
                    ]
                ]
            }
        },
        {
            "type": "Feature",
            "properties": {
                "type": "observation",
                "score": 0.0,
                "observation_date": "2020-03-27",
                "source": null,
                "sensor_name": null,
                "current_phase": null,
                "is_occluded": null,
                "is_site_boundary": null
            },
            "geometry": {
                "type": "Polygon",
                "coordinates": [
                    [
                        [
                            -46.86714927286497,
                            -23.404866846424724
                        ],
                        [
                            -46.86721282159424,
                            -23.40609658645909
                        ],
                        [
                            -46.86606456416994,
                            -23.406084671120357
                        ],
                        [
                            -46.86582088092117,
                            -23.405873953210737
                        ],
                        [
                            -46.8658051548668,
                            -23.405412703455898
                        ],
                        [
                            -46.866242714972564,
                            -23.405253664559105
                        ],
                        [
                            -46.86708658409426,
                            -23.404688147757092
                        ],
                        [
                            -46.86714927286497,
                            -23.404866846424724
                        ]
                    ]
                ]
            }
        },
        {
            "type": "Feature",
            "properties": {
                "type": "observation",
                "score": 0.0,
                "observation_date": "2020-08-29",
                "source": null,
                "sensor_name": null,
                "current_phase": null,
                "is_occluded": null,
                "is_site_boundary": null
            },
            "geometry": {
                "type": "Polygon",
                "coordinates": [
                    [
                        [
                            -46.86714927286497,
                            -23.404866846424724
                        ],
                        [
                            -46.86721282159424,
                            -23.40609658645909
                        ],
                        [
                            -46.86606456416994,
                            -23.406084671120357
                        ],
                        [
                            -46.86582088092117,
                            -23.405873953210737
                        ],
                        [
                            -46.8658051548668,
                            -23.405412703455898
                        ],
                        [
                            -46.866242714972564,
                            -23.405253664559105
                        ],
                        [
                            -46.86708658409426,
                            -23.404688147757092
                        ],
                        [
                            -46.86714927286497,
                            -23.404866846424724
                        ]
                    ]
                ]
            }
        }
    ]
}