{
    "type": "FeatureCollection",
    "features": [
        {
            "type": "Feature",
            "properties": {
                "type": "site",
                "region_id": "BR_C000",
                "version": "2.0.1",
                "mgrs": "23KLQ",
                "model_content": "annotation",
                "start_date": "2014-01-30",
                "end_date": "2021-04-08",
                "originator": "iMERIT",
                "site_id": "BR_C000_0661",
                "status": "positive_pending",
                "validated": "False",
                "score": 0.0,
                "misc_info": {
                    "commit_hash": "b8980b308111f4d719b33abcdfd4475cdb0511ce"
                }
            },
            "geometry": {
                "type": "Polygon",
                "coordinates": [
                    [
                        [
                            -46.68856902040119,
                            -23.36959432156363
                        ],
                        [
                            -46.688374106273244,
                            -23.37022211381779
                        ],
                        [
                            -46.68808935614828,
                            -23.371145936831706
                        ],
                        [
                            -46.68754382020893,
                            -23.37092060796383
                        ],
                        [
                            -46.687115187533045,
                            -23.370750720173557
                        ],
                        [
                            -46.687961384729306,
                            -23.369488085740826
                        ],
                        [
                            -46.68856902040119,
                            -23.36959432156363
                        ]
                    ]
                ]
            }
        },
        {
            "type": "Feature",
            "properties": {
                "type": "observation",
                "score": 0.0,
                "observation_date": "2014-01-30",
                "source": null,
                "sensor_name": null,
                "current_phase": null,
                "is_occluded": null,
                "is_site_boundary": null
            },
            "geometry": {
                "type": "Polygon",
                "coordinates": [
                    [
                        [
                            -46.68856902040119,
                            -23.36959432156363
                        ],
                        [
                            -46.688374106273244,
                            -23.37022211381779
                        ],
                        [
                            -46.68808935614828,
                            -23.371145936831706
                        ],
                        [
                            -46.68754382020893,
                            -23.37092060796383
                        ],
                        [
                            -46.687115187533045,
                            -23.370750720173557
                        ],
                        [
                            -46.687961384729306,
                            -23.369488085740826
                        ],
                        [
                            -46.68856902040119,
                            -23.36959432156363
                        ]
                    ]
                ]
            }
        },
        {
            "type": "Feature",
            "properties": {
                "type": "observation",
                "score": 0.0,
                "observation_date": "2021-04-08",
                "source": null,
                "sensor_name": null,
                "current_phase": null,
                "is_occluded": null,
                "is_site_boundary": null
            },
            "geometry": {
                "type": "Polygon",
                "coordinates": [
                    [
                        [
                            -46.68856902040119,
                            -23.36959432156363
                        ],
                        [
                            -46.688374106273244,
                            -23.37022211381779
                        ],
                        [
                            -46.68808935614828,
                            -23.371145936831706
                        ],
                        [
                            -46.68754382020893,
                            -23.37092060796383
                        ],
                        [
                            -46.687115187533045,
                            -23.370750720173557
                        ],
                        [
                            -46.687961384729306,
                            -23.369488085740826
                        ],
                        [
                            -46.68856902040119,
                            -23.36959432156363
                        ]
                    ]
                ]
            }
        }
    ]
}