{
    "type": "FeatureCollection",
    "features": [
        {
            "type": "Feature",
            "properties": {
                "type": "site",
                "region_id": "BR_C000",
                "version": "2.0.1",
                "mgrs": "23KLP",
                "model_content": "annotation",
                "start_date": "2015-12-12",
                "end_date": "2021-04-11",
                "originator": "iMERIT",
                "site_id": "BR_C000_0390",
                "status": "positive_pending",
                "validated": "False",
                "score": 0.0,
                "misc_info": {
                    "commit_hash": "b8980b308111f4d719b33abcdfd4475cdb0511ce"
                }
            },
            "geometry": {
                "type": "Polygon",
                "coordinates": [
                    [
                        [
                            -46.48800784996062,
                            -23.5512623924289
                        ],
                        [
                            -46.48670778176618,
                            -23.55050406018629
                        ],
                        [
                            -46.48636255922027,
                            -23.550875487674524
                        ],
                        [
                            -46.48773742854472,
                            -23.55162735510078
                        ],
                        [
                            -46.48800784996062,
                            -23.5512623924289
                        ]
                    ]
                ]
            }
        },
        {
            "type": "Feature",
            "properties": {
                "type": "observation",
                "score": 0.0,
                "observation_date": "2015-12-12",
                "source": null,
                "sensor_name": null,
                "current_phase": null,
                "is_occluded": null,
                "is_site_boundary": null
            },
            "geometry": {
                "type": "Polygon",
                "coordinates": [
                    [
                        [
                            -46.48800784996062,
                            -23.5512623924289
                        ],
                        [
                            -46.48670778176618,
                            -23.55050406018629
                        ],
                        [
                            -46.48636255922027,
                            -23.550875487674524
                        ],
                        [
                            -46.48773742854472,
                            -23.55162735510078
                        ],
                        [
                            -46.48800784996062,
                            -23.5512623924289
                        ]
                    ]
                ]
            }
        },
        {
            "type": "Feature",
            "properties": {
                "type": "observation",
                "score": 0.0,
                "observation_date": "2021-04-11",
                "source": null,
                "sensor_name": null,
                "current_phase": null,
                "is_occluded": null,
                "is_site_boundary": null
            },
            "geometry": {
                "type": "Polygon",
                "coordinates": [
                    [
                        [
                            -46.48800784996062,
                            -23.5512623924289
                        ],
                        [
                            -46.48670778176618,
                            -23.55050406018629
                        ],
                        [
                            -46.48636255922027,
                            -23.550875487674524
                        ],
                        [
                            -46.48773742854472,
                            -23.55162735510078
                        ],
                        [
                            -46.48800784996062,
                            -23.5512623924289
                        ]
                    ]
                ]
            }
        }
    ]
}