{
    "type": "FeatureCollection",
    "features": [
        {
            "type": "Feature",
            "properties": {
                "type": "site",
                "region_id": "BR_C000",
                "version": "2.0.1",
                "mgrs": "23KLP",
                "model_content": "annotation",
                "start_date": "2014-04-29",
                "end_date": "2019-12-08",
                "originator": "iMERIT",
                "site_id": "BR_C000_0007",
                "status": "positive_pending",
                "validated": "False",
                "score": 0.0,
                "misc_info": {
                    "commit_hash": "b8980b308111f4d719b33abcdfd4475cdb0511ce"
                }
            },
            "geometry": {
                "type": "Polygon",
                "coordinates": [
                    [
                        [
                            -46.47806291299695,
                            -23.97288960935669
                        ],
                        [
                            -46.479100381209584,
                            -23.973777783175965
                        ],
                        [
                            -46.48224096780991,
                            -23.971251321183132
                        ],
                        [
                            -46.48061841546771,
                            -23.969642234005605
                        ],
                        [
                            -46.47833251413038,
                            -23.971684954349605
                        ],
                        [
                            -46.47814230788571,
                            -23.971474934954447
                        ],
                        [
                            -46.47758950143281,
                            -23.971926541141368
                        ],
                        [
                            -46.47832194405657,
                            -23.97262569091859
                        ],
                        [
                            -46.47806291299695,
                            -23.97288960935669
                        ]
                    ]
                ]
            }
        },
        {
            "type": "Feature",
            "properties": {
                "type": "observation",
                "score": 0.0,
                "observation_date": "2014-04-29",
                "source": null,
                "sensor_name": null,
                "current_phase": null,
                "is_occluded": null,
                "is_site_boundary": null
            },
            "geometry": {
                "type": "Polygon",
                "coordinates": [
                    [
                        [
                            -46.47806291299695,
                            -23.97288960935669
                        ],
                        [
                            -46.479100381209584,
                            -23.973777783175965
                        ],
                        [
                            -46.48224096780991,
                            -23.971251321183132
                        ],
                        [
                            -46.48061841546771,
                            -23.969642234005605
                        ],
                        [
                            -46.47833251413038,
                            -23.971684954349605
                        ],
                        [
                            -46.47814230788571,
                            -23.971474934954447
                        ],
                        [
                            -46.47758950143281,
                            -23.971926541141368
                        ],
                        [
                            -46.47832194405657,
                            -23.97262569091859
                        ],
                        [
                            -46.47806291299695,
                            -23.97288960935669
                        ]
                    ]
                ]
            }
        },
        {
            "type": "Feature",
            "properties": {
                "type": "observation",
                "score": 0.0,
                "observation_date": "2019-12-08",
                "source": null,
                "sensor_name": null,
                "current_phase": null,
                "is_occluded": null,
                "is_site_boundary": null
            },
            "geometry": {
                "type": "Polygon",
                "coordinates": [
                    [
                        [
                            -46.47806291299695,
                            -23.97288960935669
                        ],
                        [
                            -46.479100381209584,
                            -23.973777783175965
                        ],
                        [
                            -46.48224096780991,
                            -23.971251321183132
                        ],
                        [
                            -46.48061841546771,
                            -23.969642234005605
                        ],
                        [
                            -46.47833251413038,
                            -23.971684954349605
                        ],
                        [
                            -46.47814230788571,
                            -23.971474934954447
                        ],
                        [
                            -46.47758950143281,
                            -23.971926541141368
                        ],
                        [
                            -46.47832194405657,
                            -23.97262569091859
                        ],
                        [
                            -46.47806291299695,
                            -23.97288960935669
                        ]
                    ]
                ]
            }
        }
    ]
}