{
    "type": "FeatureCollection",
    "features": [
        {
            "type": "Feature",
            "properties": {
                "type": "site",
                "region_id": "BR_C000",
                "version": "2.0.0",
                "mgrs": "23KLP",
                "model_content": "annotation",
                "start_date": "2019-12-08",
                "end_date": "2021-08-19",
                "originator": "iMERIT",
                "site_id": "BR_C000_0227",
                "status": "positive_pending",
                "validated": "False",
                "score": 0.0,
                "misc_info": {
                    "commit_hash": "b8980b308111f4d719b33abcdfd4475cdb0511ce"
                }
            },
            "geometry": {
                "type": "Polygon",
                "coordinates": [
                    [
                        [
                            -46.73200435601845,
                            -23.52007947127995
                        ],
                        [
                            -46.73204318612462,
                            -23.519531903919482
                        ],
                        [
                            -46.728330701827616,
                            -23.519484101656662
                        ],
                        [
                            -46.728293464845954,
                            -23.519802617459238
                        ],
                        [
                            -46.72847093773216,
                            -23.520008473633066
                        ],
                        [
                            -46.73200435601845,
                            -23.52007947127995
                        ]
                    ]
                ]
            }
        },
        {
            "type": "Feature",
            "properties": {
                "type": "observation",
                "score": 0.0,
                "observation_date": "2019-12-08",
                "source": null,
                "sensor_name": null,
                "current_phase": null,
                "is_occluded": null,
                "is_site_boundary": null
            },
            "geometry": {
                "type": "Polygon",
                "coordinates": [
                    [
                        [
                            -46.73200435601845,
                            -23.52007947127995
                        ],
                        [
                            -46.73204318612462,
                            -23.519531903919482
                        ],
                        [
                            -46.728330701827616,
                            -23.519484101656662
                        ],
                        [
                            -46.728293464845954,
                            -23.519802617459238
                        ],
                        [
                            -46.72847093773216,
                            -23.520008473633066
                        ],
                        [
                            -46.73200435601845,
                            -23.52007947127995
                        ]
                    ]
                ]
            }
        },
        {
            "type": "Feature",
            "properties": {
                "type": "observation",
                "score": 0.0,
                "observation_date": "2021-08-19",
                "source": null,
                "sensor_name": null,
                "current_phase": null,
                "is_occluded": null,
                "is_site_boundary": null
            },
            "geometry": {
                "type": "Polygon",
                "coordinates": [
                    [
                        [
                            -46.73200435601845,
                            -23.52007947127995
                        ],
                        [
                            -46.73204318612462,
                            -23.519531903919482
                        ],
                        [
                            -46.728330701827616,
                            -23.519484101656662
                        ],
                        [
                            -46.728293464845954,
                            -23.519802617459238
                        ],
                        [
                            -46.72847093773216,
                            -23.520008473633066
                        ],
                        [
                            -46.73200435601845,
                            -23.52007947127995
                        ]
                    ]
                ]
            }
        }
    ]
}