{
    "type": "FeatureCollection",
    "features": [
        {
            "type": "Feature",
            "properties": {
                "type": "site",
                "region_id": "BR_C000",
                "version": "2.0.1",
                "mgrs": "23KLQ",
                "model_content": "annotation",
                "start_date": "2017-07-06",
                "end_date": "2018-04-27",
                "originator": "iMERIT",
                "site_id": "BR_C000_0726",
                "status": "positive_pending",
                "validated": "False",
                "score": 0.0,
                "misc_info": {
                    "commit_hash": "b8980b308111f4d719b33abcdfd4475cdb0511ce"
                }
            },
            "geometry": {
                "type": "Polygon",
                "coordinates": [
                    [
                        [
                            -46.83027413630042,
                            -23.491839436531574
                        ],
                        [
                            -46.83016602540809,
                            -23.49135991884365
                        ],
                        [
                            -46.82894224821925,
                            -23.49159979278554
                        ],
                        [
                            -46.8290411595803,
                            -23.492081546914196
                        ],
                        [
                            -46.83027413630042,
                            -23.491839436531574
                        ]
                    ]
                ]
            }
        },
        {
            "type": "Feature",
            "properties": {
                "type": "observation",
                "score": 0.0,
                "observation_date": "2017-07-06",
                "source": null,
                "sensor_name": null,
                "current_phase": null,
                "is_occluded": null,
                "is_site_boundary": null
            },
            "geometry": {
                "type": "Polygon",
                "coordinates": [
                    [
                        [
                            -46.83027413630042,
                            -23.491839436531574
                        ],
                        [
                            -46.83016602540809,
                            -23.49135991884365
                        ],
                        [
                            -46.82894224821925,
                            -23.49159979278554
                        ],
                        [
                            -46.8290411595803,
                            -23.492081546914196
                        ],
                        [
                            -46.83027413630042,
                            -23.491839436531574
                        ]
                    ]
                ]
            }
        },
        {
            "type": "Feature",
            "properties": {
                "type": "observation",
                "score": 0.0,
                "observation_date": "2018-04-27",
                "source": null,
                "sensor_name": null,
                "current_phase": null,
                "is_occluded": null,
                "is_site_boundary": null
            },
            "geometry": {
                "type": "Polygon",
                "coordinates": [
                    [
                        [
                            -46.83027413630042,
                            -23.491839436531574
                        ],
                        [
                            -46.83016602540809,
                            -23.49135991884365
                        ],
                        [
                            -46.82894224821925,
                            -23.49159979278554
                        ],
                        [
                            -46.8290411595803,
                            -23.492081546914196
                        ],
                        [
                            -46.83027413630042,
                            -23.491839436531574
                        ]
                    ]
                ]
            }
        }
    ]
}