{
    "type": "FeatureCollection",
    "features": [
        {
            "type": "Feature",
            "properties": {
                "type": "site",
                "region_id": "BR_C000",
                "version": "2.0.0",
                "mgrs": "23KLP",
                "model_content": "annotation",
                "start_date": "2017-08-30",
                "end_date": "2021-05-31",
                "originator": "iMERIT",
                "site_id": "BR_C000_0620",
                "status": "positive_pending",
                "validated": "False",
                "score": 0.0,
                "misc_info": {
                    "commit_hash": "b8980b308111f4d719b33abcdfd4475cdb0511ce"
                }
            },
            "geometry": {
                "type": "Polygon",
                "coordinates": [
                    [
                        [
                            -46.38055264378103,
                            -23.534339518106393
                        ],
                        [
                            -46.379577884668514,
                            -23.53331012873968
                        ],
                        [
                            -46.37926464265779,
                            -23.533563585821128
                        ],
                        [
                            -46.3802496957976,
                            -23.534573347077234
                        ],
                        [
                            -46.38055264378103,
                            -23.534339518106393
                        ]
                    ]
                ]
            }
        },
        {
            "type": "Feature",
            "properties": {
                "type": "observation",
                "score": 0.0,
                "observation_date": "2017-08-30",
                "source": null,
                "sensor_name": null,
                "current_phase": null,
                "is_occluded": null,
                "is_site_boundary": null
            },
            "geometry": {
                "type": "Polygon",
                "coordinates": [
                    [
                        [
                            -46.38055264378103,
                            -23.534339518106393
                        ],
                        [
                            -46.379577884668514,
                            -23.53331012873968
                        ],
                        [
                            -46.37926464265779,
                            -23.533563585821128
                        ],
                        [
                            -46.3802496957976,
                            -23.534573347077234
                        ],
                        [
                            -46.38055264378103,
                            -23.534339518106393
                        ]
                    ]
                ]
            }
        },
        {
            "type": "Feature",
            "properties": {
                "type": "observation",
                "score": 0.0,
                "observation_date": "2021-05-31",
                "source": null,
                "sensor_name": null,
                "current_phase": null,
                "is_occluded": null,
                "is_site_boundary": null
            },
            "geometry": {
                "type": "Polygon",
                "coordinates": [
                    [
                        [
                            -46.38055264378103,
                            -23.534339518106393
                        ],
                        [
                            -46.379577884668514,
                            -23.53331012873968
                        ],
                        [
                            -46.37926464265779,
                            -23.533563585821128
                        ],
                        [
                            -46.3802496957976,
                            -23.534573347077234
                        ],
                        [
                            -46.38055264378103,
                            -23.534339518106393
                        ]
                    ]
                ]
            }
        }
    ]
}