{
    "type": "FeatureCollection",
    "features": [
        {
            "type": "Feature",
            "properties": {
                "type": "site",
                "region_id": "BR_C000",
                "version": "2.0.1",
                "mgrs": "23KLP",
                "model_content": "annotation",
                "start_date": "2016-08-17",
                "end_date": "2018-07-26",
                "originator": "iMERIT",
                "site_id": "BR_C000_0346",
                "status": "positive_pending",
                "validated": "False",
                "score": 0.0,
                "misc_info": {
                    "commit_hash": "b8980b308111f4d719b33abcdfd4475cdb0511ce"
                }
            },
            "geometry": {
                "type": "Polygon",
                "coordinates": [
                    [
                        [
                            -46.52783928668801,
                            -23.63909494593728
                        ],
                        [
                            -46.52702303607335,
                            -23.639299496417966
                        ],
                        [
                            -46.52681799477983,
                            -23.638605039535463
                        ],
                        [
                            -46.52763424153617,
                            -23.63840049032296
                        ],
                        [
                            -46.52783928668801,
                            -23.63909494593728
                        ]
                    ]
                ]
            }
        },
        {
            "type": "Feature",
            "properties": {
                "type": "observation",
                "score": 0.0,
                "observation_date": "2016-08-17",
                "source": null,
                "sensor_name": null,
                "current_phase": null,
                "is_occluded": null,
                "is_site_boundary": null
            },
            "geometry": {
                "type": "Polygon",
                "coordinates": [
                    [
                        [
                            -46.52783928668801,
                            -23.63909494593728
                        ],
                        [
                            -46.52702303607335,
                            -23.639299496417966
                        ],
                        [
                            -46.52681799477983,
                            -23.638605039535463
                        ],
                        [
                            -46.52763424153617,
                            -23.63840049032296
                        ],
                        [
                            -46.52783928668801,
                            -23.63909494593728
                        ]
                    ]
                ]
            }
        },
        {
            "type": "Feature",
            "properties": {
                "type": "observation",
                "score": 0.0,
                "observation_date": "2018-07-26",
                "source": null,
                "sensor_name": null,
                "current_phase": null,
                "is_occluded": null,
                "is_site_boundary": null
            },
            "geometry": {
                "type": "Polygon",
                "coordinates": [
                    [
                        [
                            -46.52783928668801,
                            -23.63909494593728
                        ],
                        [
                            -46.52702303607335,
                            -23.639299496417966
                        ],
                        [
                            -46.52681799477983,
                            -23.638605039535463
                        ],
                        [
                            -46.52763424153617,
                            -23.63840049032296
                        ],
                        [
                            -46.52783928668801,
                            -23.63909494593728
                        ]
                    ]
                ]
            }
        }
    ]
}