{
    "type": "FeatureCollection",
    "features": [
        {
            "type": "Feature",
            "properties": {
                "type": "site",
                "region_id": "BR_C000",
                "version": "2.0.1",
                "mgrs": "23KLQ",
                "model_content": "annotation",
                "start_date": "2014-02-04",
                "end_date": "2019-02-01",
                "originator": "iMERIT",
                "site_id": "BR_C000_0889",
                "status": "positive_pending",
                "validated": "False",
                "score": 0.0,
                "misc_info": {
                    "commit_hash": "b8980b308111f4d719b33abcdfd4475cdb0511ce"
                }
            },
            "geometry": {
                "type": "Polygon",
                "coordinates": [
                    [
                        [
                            -46.39927151469417,
                            -23.44358719717535
                        ],
                        [
                            -46.39714682054345,
                            -23.44293484765667
                        ],
                        [
                            -46.39736823300864,
                            -23.44230156192418
                        ],
                        [
                            -46.394042607715974,
                            -23.44104865444007
                        ],
                        [
                            -46.39527976522113,
                            -23.439407983053133
                        ],
                        [
                            -46.39901244208214,
                            -23.440643438906754
                        ],
                        [
                            -46.39927151469417,
                            -23.44358719717535
                        ]
                    ]
                ]
            }
        },
        {
            "type": "Feature",
            "properties": {
                "type": "observation",
                "score": 0.0,
                "observation_date": "2014-02-04",
                "source": null,
                "sensor_name": null,
                "current_phase": null,
                "is_occluded": null,
                "is_site_boundary": null
            },
            "geometry": {
                "type": "Polygon",
                "coordinates": [
                    [
                        [
                            -46.39927151469417,
                            -23.44358719717535
                        ],
                        [
                            -46.39714682054345,
                            -23.44293484765667
                        ],
                        [
                            -46.39736823300864,
                            -23.44230156192418
                        ],
                        [
                            -46.394042607715974,
                            -23.44104865444007
                        ],
                        [
                            -46.39527976522113,
                            -23.439407983053133
                        ],
                        [
                            -46.39901244208214,
                            -23.440643438906754
                        ],
                        [
                            -46.39927151469417,
                            -23.44358719717535
                        ]
                    ]
                ]
            }
        },
        {
            "type": "Feature",
            "properties": {
                "type": "observation",
                "score": 0.0,
                "observation_date": "2019-02-01",
                "source": null,
                "sensor_name": null,
                "current_phase": null,
                "is_occluded": null,
                "is_site_boundary": null
            },
            "geometry": {
                "type": "Polygon",
                "coordinates": [
                    [
                        [
                            -46.39927151469417,
                            -23.44358719717535
                        ],
                        [
                            -46.39714682054345,
                            -23.44293484765667
                        ],
                        [
                            -46.39736823300864,
                            -23.44230156192418
                        ],
                        [
                            -46.394042607715974,
                            -23.44104865444007
                        ],
                        [
                            -46.39527976522113,
                            -23.439407983053133
                        ],
                        [
                            -46.39901244208214,
                            -23.440643438906754
                        ],
                        [
                            -46.39927151469417,
                            -23.44358719717535
                        ]
                    ]
                ]
            }
        }
    ]
}