{
    "type": "FeatureCollection",
    "features": [
        {
            "type": "Feature",
            "properties": {
                "type": "site",
                "region_id": "BR_C000",
                "version": "2.0.0",
                "mgrs": "23KLP",
                "model_content": "annotation",
                "start_date": "2020-03-17",
                "end_date": "2021-03-27",
                "originator": "iMERIT",
                "site_id": "BR_C000_0075",
                "status": "positive_pending",
                "validated": "False",
                "score": 0.0,
                "misc_info": {
                    "commit_hash": "b8980b308111f4d719b33abcdfd4475cdb0511ce"
                }
            },
            "geometry": {
                "type": "Polygon",
                "coordinates": [
                    [
                        [
                            -46.87545944757587,
                            -23.620429425729093
                        ],
                        [
                            -46.87495952133744,
                            -23.620442444641554
                        ],
                        [
                            -46.874954538834146,
                            -23.619266573863495
                        ],
                        [
                            -46.875426802659646,
                            -23.619265867643332
                        ],
                        [
                            -46.87545944757587,
                            -23.620429425729093
                        ]
                    ]
                ]
            }
        },
        {
            "type": "Feature",
            "properties": {
                "type": "observation",
                "score": 0.0,
                "observation_date": "2020-03-17",
                "source": null,
                "sensor_name": null,
                "current_phase": null,
                "is_occluded": null,
                "is_site_boundary": null
            },
            "geometry": {
                "type": "Polygon",
                "coordinates": [
                    [
                        [
                            -46.87545944757587,
                            -23.620429425729093
                        ],
                        [
                            -46.87495952133744,
                            -23.620442444641554
                        ],
                        [
                            -46.874954538834146,
                            -23.619266573863495
                        ],
                        [
                            -46.875426802659646,
                            -23.619265867643332
                        ],
                        [
                            -46.87545944757587,
                            -23.620429425729093
                        ]
                    ]
                ]
            }
        },
        {
            "type": "Feature",
            "properties": {
                "type": "observation",
                "score": 0.0,
                "observation_date": "2021-03-27",
                "source": null,
                "sensor_name": null,
                "current_phase": null,
                "is_occluded": null,
                "is_site_boundary": null
            },
            "geometry": {
                "type": "Polygon",
                "coordinates": [
                    [
                        [
                            -46.87545944757587,
                            -23.620429425729093
                        ],
                        [
                            -46.87495952133744,
                            -23.620442444641554
                        ],
                        [
                            -46.874954538834146,
                            -23.619266573863495
                        ],
                        [
                            -46.875426802659646,
                            -23.619265867643332
                        ],
                        [
                            -46.87545944757587,
                            -23.620429425729093
                        ]
                    ]
                ]
            }
        }
    ]
}