{
    "type": "FeatureCollection",
    "features": [
        {
            "type": "Feature",
            "properties": {
                "type": "site",
                "region_id": "BR_C000",
                "version": "2.0.1",
                "mgrs": "23KLQ",
                "model_content": "annotation",
                "start_date": "2021-03-12",
                "end_date": "2022-07-05",
                "originator": "iMERIT",
                "site_id": "BR_C000_0844",
                "status": "positive_pending",
                "validated": "False",
                "score": 0.0,
                "misc_info": {
                    "commit_hash": "b8980b308111f4d719b33abcdfd4475cdb0511ce"
                }
            },
            "geometry": {
                "type": "Polygon",
                "coordinates": [
                    [
                        [
                            -46.36926072178538,
                            -23.419564548640636
                        ],
                        [
                            -46.36905605056425,
                            -23.41994163592255
                        ],
                        [
                            -46.369113532896904,
                            -23.420460768469578
                        ],
                        [
                            -46.368154533645885,
                            -23.421508445714526
                        ],
                        [
                            -46.367451976947436,
                            -23.42112968299973
                        ],
                        [
                            -46.36707172317842,
                            -23.421671894552844
                        ],
                        [
                            -46.366798745624415,
                            -23.421491448768908
                        ],
                        [
                            -46.36786483049865,
                            -23.419701878212408
                        ],
                        [
                            -46.3686031467648,
                            -23.4195029520687
                        ],
                        [
                            -46.36926072178538,
                            -23.419564548640636
                        ]
                    ]
                ]
            }
        },
        {
            "type": "Feature",
            "properties": {
                "type": "observation",
                "score": 0.0,
                "observation_date": "2021-03-12",
                "source": null,
                "sensor_name": null,
                "current_phase": null,
                "is_occluded": null,
                "is_site_boundary": null
            },
            "geometry": {
                "type": "Polygon",
                "coordinates": [
                    [
                        [
                            -46.36926072178538,
                            -23.419564548640636
                        ],
                        [
                            -46.36905605056425,
                            -23.41994163592255
                        ],
                        [
                            -46.369113532896904,
                            -23.420460768469578
                        ],
                        [
                            -46.368154533645885,
                            -23.421508445714526
                        ],
                        [
                            -46.367451976947436,
                            -23.42112968299973
                        ],
                        [
                            -46.36707172317842,
                            -23.421671894552844
                        ],
                        [
                            -46.366798745624415,
                            -23.421491448768908
                        ],
                        [
                            -46.36786483049865,
                            -23.419701878212408
                        ],
                        [
                            -46.3686031467648,
                            -23.4195029520687
                        ],
                        [
                            -46.36926072178538,
                            -23.419564548640636
                        ]
                    ]
                ]
            }
        },
        {
            "type": "Feature",
            "properties": {
                "type": "observation",
                "score": 0.0,
                "observation_date": "2022-07-05",
                "source": null,
                "sensor_name": null,
                "current_phase": null,
                "is_occluded": null,
                "is_site_boundary": null
            },
            "geometry": {
                "type": "Polygon",
                "coordinates": [
                    [
                        [
                            -46.36926072178538,
                            -23.419564548640636
                        ],
                        [
                            -46.36905605056425,
                            -23.41994163592255
                        ],
                        [
                            -46.369113532896904,
                            -23.420460768469578
                        ],
                        [
                            -46.368154533645885,
                            -23.421508445714526
                        ],
                        [
                            -46.367451976947436,
                            -23.42112968299973
                        ],
                        [
                            -46.36707172317842,
                            -23.421671894552844
                        ],
                        [
                            -46.366798745624415,
                            -23.421491448768908
                        ],
                        [
                            -46.36786483049865,
                            -23.419701878212408
                        ],
                        [
                            -46.3686031467648,
                            -23.4195029520687
                        ],
                        [
                            -46.36926072178538,
                            -23.419564548640636
                        ]
                    ]
                ]
            }
        }
    ]
}