{
    "type": "FeatureCollection",
    "features": [
        {
            "type": "Feature",
            "properties": {
                "type": "site",
                "region_id": "BR_C000",
                "version": "2.0.1",
                "mgrs": "23KLQ",
                "model_content": "annotation",
                "start_date": "2018-06-01",
                "end_date": "2020-05-01",
                "originator": "iMERIT",
                "site_id": "BR_C000_0696",
                "status": "positive_pending",
                "validated": "False",
                "score": 0.0,
                "misc_info": {
                    "commit_hash": "b8980b308111f4d719b33abcdfd4475cdb0511ce"
                }
            },
            "geometry": {
                "type": "Polygon",
                "coordinates": [
                    [
                        [
                            -46.92953876706977,
                            -23.427884139045435
                        ],
                        [
                            -46.930060619111956,
                            -23.427868869824078
                        ],
                        [
                            -46.93056888363129,
                            -23.427886347808922
                        ],
                        [
                            -46.93058365409966,
                            -23.428364244695082
                        ],
                        [
                            -46.9295528324967,
                            -23.428480605250343
                        ],
                        [
                            -46.92953876706977,
                            -23.427884139045435
                        ]
                    ]
                ]
            }
        },
        {
            "type": "Feature",
            "properties": {
                "type": "observation",
                "score": 0.0,
                "observation_date": "2018-06-01",
                "source": null,
                "sensor_name": null,
                "current_phase": null,
                "is_occluded": null,
                "is_site_boundary": null
            },
            "geometry": {
                "type": "Polygon",
                "coordinates": [
                    [
                        [
                            -46.92953876706977,
                            -23.427884139045435
                        ],
                        [
                            -46.930060619111956,
                            -23.427868869824078
                        ],
                        [
                            -46.93056888363129,
                            -23.427886347808922
                        ],
                        [
                            -46.93058365409966,
                            -23.428364244695082
                        ],
                        [
                            -46.9295528324967,
                            -23.428480605250343
                        ],
                        [
                            -46.92953876706977,
                            -23.427884139045435
                        ]
                    ]
                ]
            }
        },
        {
            "type": "Feature",
            "properties": {
                "type": "observation",
                "score": 0.0,
                "observation_date": "2020-05-01",
                "source": null,
                "sensor_name": null,
                "current_phase": null,
                "is_occluded": null,
                "is_site_boundary": null
            },
            "geometry": {
                "type": "Polygon",
                "coordinates": [
                    [
                        [
                            -46.92953876706977,
                            -23.427884139045435
                        ],
                        [
                            -46.930060619111956,
                            -23.427868869824078
                        ],
                        [
                            -46.93056888363129,
                            -23.427886347808922
                        ],
                        [
                            -46.93058365409966,
                            -23.428364244695082
                        ],
                        [
                            -46.9295528324967,
                            -23.428480605250343
                        ],
                        [
                            -46.92953876706977,
                            -23.427884139045435
                        ]
                    ]
                ]
            }
        }
    ]
}