{
    "type": "FeatureCollection",
    "features": [
        {
            "type": "Feature",
            "properties": {
                "type": "site",
                "region_id": "BR_C000",
                "version": "2.0.0",
                "mgrs": "23KLP",
                "model_content": "annotation",
                "start_date": "2020-01-07",
                "end_date": "2020-08-24",
                "originator": "iMERIT",
                "site_id": "BR_C000_0027",
                "status": "positive_pending",
                "validated": "False",
                "score": 0.0,
                "misc_info": {
                    "commit_hash": "b8980b308111f4d719b33abcdfd4475cdb0511ce"
                }
            },
            "geometry": {
                "type": "Polygon",
                "coordinates": [
                    [
                        [
                            -46.29484576196802,
                            -23.984412866726753
                        ],
                        [
                            -46.294674139551475,
                            -23.98425427586716
                        ],
                        [
                            -46.29426759271431,
                            -23.984242464996182
                        ],
                        [
                            -46.29407307000857,
                            -23.984282210928143
                        ],
                        [
                            -46.293953533788375,
                            -23.984355618250174
                        ],
                        [
                            -46.29383426393152,
                            -23.984455696504
                        ],
                        [
                            -46.29376578449865,
                            -23.984658228873837
                        ],
                        [
                            -46.29408829807567,
                            -23.985390928172762
                        ],
                        [
                            -46.29446304963914,
                            -23.985955525251878
                        ],
                        [
                            -46.29510316149844,
                            -23.985767094847095
                        ],
                        [
                            -46.29484576196802,
                            -23.984412866726753
                        ]
                    ]
                ]
            }
        },
        {
            "type": "Feature",
            "properties": {
                "type": "observation",
                "score": 0.0,
                "observation_date": "2020-01-07",
                "source": null,
                "sensor_name": null,
                "current_phase": null,
                "is_occluded": null,
                "is_site_boundary": null
            },
            "geometry": {
                "type": "Polygon",
                "coordinates": [
                    [
                        [
                            -46.29484576196802,
                            -23.984412866726753
                        ],
                        [
                            -46.294674139551475,
                            -23.98425427586716
                        ],
                        [
                            -46.29426759271431,
                            -23.984242464996182
                        ],
                        [
                            -46.29407307000857,
                            -23.984282210928143
                        ],
                        [
                            -46.293953533788375,
                            -23.984355618250174
                        ],
                        [
                            -46.29383426393152,
                            -23.984455696504
                        ],
                        [
                            -46.29376578449865,
                            -23.984658228873837
                        ],
                        [
                            -46.29408829807567,
                            -23.985390928172762
                        ],
                        [
                            -46.29446304963914,
                            -23.985955525251878
                        ],
                        [
                            -46.29510316149844,
                            -23.985767094847095
                        ],
                        [
                            -46.29484576196802,
                            -23.984412866726753
                        ]
                    ]
                ]
            }
        },
        {
            "type": "Feature",
            "properties": {
                "type": "observation",
                "score": 0.0,
                "observation_date": "2020-08-24",
                "source": null,
                "sensor_name": null,
                "current_phase": null,
                "is_occluded": null,
                "is_site_boundary": null
            },
            "geometry": {
                "type": "Polygon",
                "coordinates": [
                    [
                        [
                            -46.29484576196802,
                            -23.984412866726753
                        ],
                        [
                            -46.294674139551475,
                            -23.98425427586716
                        ],
                        [
                            -46.29426759271431,
                            -23.984242464996182
                        ],
                        [
                            -46.29407307000857,
                            -23.984282210928143
                        ],
                        [
                            -46.293953533788375,
                            -23.984355618250174
                        ],
                        [
                            -46.29383426393152,
                            -23.984455696504
                        ],
                        [
                            -46.29376578449865,
                            -23.984658228873837
                        ],
                        [
                            -46.29408829807567,
                            -23.985390928172762
                        ],
                        [
                            -46.29446304963914,
                            -23.985955525251878
                        ],
                        [
                            -46.29510316149844,
                            -23.985767094847095
                        ],
                        [
                            -46.29484576196802,
                            -23.984412866726753
                        ]
                    ]
                ]
            }
        }
    ]
}