{
    "type": "FeatureCollection",
    "features": [
        {
            "type": "Feature",
            "properties": {
                "type": "site",
                "region_id": "BR_C000",
                "version": "2.0.1",
                "mgrs": "23KLQ",
                "model_content": "annotation",
                "start_date": "2020-01-27",
                "end_date": "2021-10-23",
                "originator": "iMERIT",
                "site_id": "BR_C000_0811",
                "status": "positive_pending",
                "validated": "False",
                "score": 0.0,
                "misc_info": {
                    "commit_hash": "b8980b308111f4d719b33abcdfd4475cdb0511ce"
                }
            },
            "geometry": {
                "type": "Polygon",
                "coordinates": [
                    [
                        [
                            -46.54278843819352,
                            -23.442251665322942
                        ],
                        [
                            -46.5417999023649,
                            -23.44330016558262
                        ],
                        [
                            -46.542165545963556,
                            -23.44366844367272
                        ],
                        [
                            -46.54324174879693,
                            -23.442589151951317
                        ],
                        [
                            -46.54278843819352,
                            -23.442251665322942
                        ]
                    ]
                ]
            }
        },
        {
            "type": "Feature",
            "properties": {
                "type": "observation",
                "score": 0.0,
                "observation_date": "2020-01-27",
                "source": null,
                "sensor_name": null,
                "current_phase": null,
                "is_occluded": null,
                "is_site_boundary": null
            },
            "geometry": {
                "type": "Polygon",
                "coordinates": [
                    [
                        [
                            -46.54278843819352,
                            -23.442251665322942
                        ],
                        [
                            -46.5417999023649,
                            -23.44330016558262
                        ],
                        [
                            -46.542165545963556,
                            -23.44366844367272
                        ],
                        [
                            -46.54324174879693,
                            -23.442589151951317
                        ],
                        [
                            -46.54278843819352,
                            -23.442251665322942
                        ]
                    ]
                ]
            }
        },
        {
            "type": "Feature",
            "properties": {
                "type": "observation",
                "score": 0.0,
                "observation_date": "2021-10-23",
                "source": null,
                "sensor_name": null,
                "current_phase": null,
                "is_occluded": null,
                "is_site_boundary": null
            },
            "geometry": {
                "type": "Polygon",
                "coordinates": [
                    [
                        [
                            -46.54278843819352,
                            -23.442251665322942
                        ],
                        [
                            -46.5417999023649,
                            -23.44330016558262
                        ],
                        [
                            -46.542165545963556,
                            -23.44366844367272
                        ],
                        [
                            -46.54324174879693,
                            -23.442589151951317
                        ],
                        [
                            -46.54278843819352,
                            -23.442251665322942
                        ]
                    ]
                ]
            }
        }
    ]
}