{
    "type": "FeatureCollection",
    "features": [
        {
            "type": "Feature",
            "properties": {
                "type": "site",
                "region_id": "BR_C000",
                "version": "2.0.1",
                "mgrs": "23KLP",
                "model_content": "annotation",
                "start_date": "2021-04-21",
                "end_date": "2022-08-01",
                "originator": "iMERIT",
                "site_id": "BR_C000_0021",
                "status": "positive_pending",
                "validated": "False",
                "score": 0.0,
                "misc_info": {
                    "commit_hash": "b8980b308111f4d719b33abcdfd4475cdb0511ce"
                }
            },
            "geometry": {
                "type": "Polygon",
                "coordinates": [
                    [
                        [
                            -46.20943631767886,
                            -23.972288457111766
                        ],
                        [
                            -46.20824602097035,
                            -23.973290226401755
                        ],
                        [
                            -46.2077135735436,
                            -23.972879865517985
                        ],
                        [
                            -46.207299074768365,
                            -23.973389802855923
                        ],
                        [
                            -46.20679297930514,
                            -23.973148591027023
                        ],
                        [
                            -46.20710766244487,
                            -23.97183531339056
                        ],
                        [
                            -46.20943631767886,
                            -23.972288457111766
                        ]
                    ]
                ]
            }
        },
        {
            "type": "Feature",
            "properties": {
                "type": "observation",
                "score": 0.0,
                "observation_date": "2021-04-21",
                "source": null,
                "sensor_name": null,
                "current_phase": null,
                "is_occluded": null,
                "is_site_boundary": null
            },
            "geometry": {
                "type": "Polygon",
                "coordinates": [
                    [
                        [
                            -46.20943631767886,
                            -23.972288457111766
                        ],
                        [
                            -46.20824602097035,
                            -23.973290226401755
                        ],
                        [
                            -46.2077135735436,
                            -23.972879865517985
                        ],
                        [
                            -46.207299074768365,
                            -23.973389802855923
                        ],
                        [
                            -46.20679297930514,
                            -23.973148591027023
                        ],
                        [
                            -46.20710766244487,
                            -23.97183531339056
                        ],
                        [
                            -46.20943631767886,
                            -23.972288457111766
                        ]
                    ]
                ]
            }
        },
        {
            "type": "Feature",
            "properties": {
                "type": "observation",
                "score": 0.0,
                "observation_date": "2022-08-01",
                "source": null,
                "sensor_name": null,
                "current_phase": null,
                "is_occluded": null,
                "is_site_boundary": null
            },
            "geometry": {
                "type": "Polygon",
                "coordinates": [
                    [
                        [
                            -46.20943631767886,
                            -23.972288457111766
                        ],
                        [
                            -46.20824602097035,
                            -23.973290226401755
                        ],
                        [
                            -46.2077135735436,
                            -23.972879865517985
                        ],
                        [
                            -46.207299074768365,
                            -23.973389802855923
                        ],
                        [
                            -46.20679297930514,
                            -23.973148591027023
                        ],
                        [
                            -46.20710766244487,
                            -23.97183531339056
                        ],
                        [
                            -46.20943631767886,
                            -23.972288457111766
                        ]
                    ]
                ]
            }
        }
    ]
}