{
    "type": "FeatureCollection",
    "features": [
        {
            "type": "Feature",
            "properties": {
                "type": "site",
                "region_id": "BR_C000",
                "version": "2.0.0",
                "mgrs": "23KLP",
                "model_content": "annotation",
                "start_date": "2017-03-23",
                "end_date": "2019-04-12",
                "originator": "iMERIT",
                "site_id": "BR_C000_0129",
                "status": "positive_pending",
                "validated": "False",
                "score": 0.0,
                "misc_info": {
                    "commit_hash": "b8980b308111f4d719b33abcdfd4475cdb0511ce"
                }
            },
            "geometry": {
                "type": "Polygon",
                "coordinates": [
                    [
                        [
                            -46.86582506574471,
                            -23.503330607844656
                        ],
                        [
                            -46.86562033925695,
                            -23.503619764016463
                        ],
                        [
                            -46.865395487970574,
                            -23.50363315547853
                        ],
                        [
                            -46.865275380682306,
                            -23.503835714485273
                        ],
                        [
                            -46.86525760725674,
                            -23.50405630390342
                        ],
                        [
                            -46.86661530528092,
                            -23.504091385441335
                        ],
                        [
                            -46.86670923359059,
                            -23.504006816034963
                        ],
                        [
                            -46.86582506574471,
                            -23.503330607844656
                        ]
                    ]
                ]
            }
        },
        {
            "type": "Feature",
            "properties": {
                "type": "observation",
                "score": 0.0,
                "observation_date": "2017-03-23",
                "source": null,
                "sensor_name": null,
                "current_phase": null,
                "is_occluded": null,
                "is_site_boundary": null
            },
            "geometry": {
                "type": "Polygon",
                "coordinates": [
                    [
                        [
                            -46.86582506574471,
                            -23.503330607844656
                        ],
                        [
                            -46.86562033925695,
                            -23.503619764016463
                        ],
                        [
                            -46.865395487970574,
                            -23.50363315547853
                        ],
                        [
                            -46.865275380682306,
                            -23.503835714485273
                        ],
                        [
                            -46.86525760725674,
                            -23.50405630390342
                        ],
                        [
                            -46.86661530528092,
                            -23.504091385441335
                        ],
                        [
                            -46.86670923359059,
                            -23.504006816034963
                        ],
                        [
                            -46.86582506574471,
                            -23.503330607844656
                        ]
                    ]
                ]
            }
        },
        {
            "type": "Feature",
            "properties": {
                "type": "observation",
                "score": 0.0,
                "observation_date": "2019-04-12",
                "source": null,
                "sensor_name": null,
                "current_phase": null,
                "is_occluded": null,
                "is_site_boundary": null
            },
            "geometry": {
                "type": "Polygon",
                "coordinates": [
                    [
                        [
                            -46.86582506574471,
                            -23.503330607844656
                        ],
                        [
                            -46.86562033925695,
                            -23.503619764016463
                        ],
                        [
                            -46.865395487970574,
                            -23.50363315547853
                        ],
                        [
                            -46.865275380682306,
                            -23.503835714485273
                        ],
                        [
                            -46.86525760725674,
                            -23.50405630390342
                        ],
                        [
                            -46.86661530528092,
                            -23.504091385441335
                        ],
                        [
                            -46.86670923359059,
                            -23.504006816034963
                        ],
                        [
                            -46.86582506574471,
                            -23.503330607844656
                        ]
                    ]
                ]
            }
        }
    ]
}