{
    "type": "FeatureCollection",
    "features": [
        {
            "type": "Feature",
            "properties": {
                "type": "site",
                "region_id": "BR_C000",
                "version": "2.0.1",
                "mgrs": "23KLQ",
                "model_content": "annotation",
                "start_date": "2020-03-12",
                "end_date": "2021-05-06",
                "originator": "iMERIT",
                "site_id": "BR_C000_0701",
                "status": "positive_pending",
                "validated": "False",
                "score": 0.0,
                "misc_info": {
                    "commit_hash": "b8980b308111f4d719b33abcdfd4475cdb0511ce"
                }
            },
            "geometry": {
                "type": "Polygon",
                "coordinates": [
                    [
                        [
                            -46.86223800878172,
                            -23.46289131810429
                        ],
                        [
                            -46.86151968140043,
                            -23.462528183291106
                        ],
                        [
                            -46.8610693838408,
                            -23.462287886547085
                        ],
                        [
                            -46.8610374705303,
                            -23.46229231616224
                        ],
                        [
                            -46.86093861281134,
                            -23.46230603776127
                        ],
                        [
                            -46.86083364290594,
                            -23.462320607740903
                        ],
                        [
                            -46.86073433950149,
                            -23.46240802501677
                        ],
                        [
                            -46.8607209805783,
                            -23.462419784942625
                        ],
                        [
                            -46.86057287323174,
                            -23.462550164569027
                        ],
                        [
                            -46.860528813075845,
                            -23.462710910940412
                        ],
                        [
                            -46.860535364958984,
                            -23.462751744035742
                        ],
                        [
                            -46.860559261894316,
                            -23.462900676154543
                        ],
                        [
                            -46.860686714284476,
                            -23.463072193673334
                        ],
                        [
                            -46.86100083871894,
                            -23.463179531326706
                        ],
                        [
                            -46.86159677262469,
                            -23.463236506136834
                        ],
                        [
                            -46.86198850984399,
                            -23.46326387298826
                        ],
                        [
                            -46.862193433635625,
                            -23.46318024743397
                        ],
                        [
                            -46.86228160258678,
                            -23.46302751901405
                        ],
                        [
                            -46.862277390453066,
                            -23.463014358968874
                        ],
                        [
                            -46.86223800878172,
                            -23.46289131810429
                        ]
                    ]
                ]
            }
        },
        {
            "type": "Feature",
            "properties": {
                "type": "observation",
                "score": 0.0,
                "observation_date": "2020-03-12",
                "source": null,
                "sensor_name": null,
                "current_phase": null,
                "is_occluded": null,
                "is_site_boundary": null
            },
            "geometry": {
                "type": "Polygon",
                "coordinates": [
                    [
                        [
                            -46.86223800878172,
                            -23.46289131810429
                        ],
                        [
                            -46.86151968140043,
                            -23.462528183291106
                        ],
                        [
                            -46.8610693838408,
                            -23.462287886547085
                        ],
                        [
                            -46.8610374705303,
                            -23.46229231616224
                        ],
                        [
                            -46.86093861281134,
                            -23.46230603776127
                        ],
                        [
                            -46.86083364290594,
                            -23.462320607740903
                        ],
                        [
                            -46.86073433950149,
                            -23.46240802501677
                        ],
                        [
                            -46.8607209805783,
                            -23.462419784942625
                        ],
                        [
                            -46.86057287323174,
                            -23.462550164569027
                        ],
                        [
                            -46.860528813075845,
                            -23.462710910940412
                        ],
                        [
                            -46.860535364958984,
                            -23.462751744035742
                        ],
                        [
                            -46.860559261894316,
                            -23.462900676154543
                        ],
                        [
                            -46.860686714284476,
                            -23.463072193673334
                        ],
                        [
                            -46.86100083871894,
                            -23.463179531326706
                        ],
                        [
                            -46.86159677262469,
                            -23.463236506136834
                        ],
                        [
                            -46.86198850984399,
                            -23.46326387298826
                        ],
                        [
                            -46.862193433635625,
                            -23.46318024743397
                        ],
                        [
                            -46.86228160258678,
                            -23.46302751901405
                        ],
                        [
                            -46.862277390453066,
                            -23.463014358968874
                        ],
                        [
                            -46.86223800878172,
                            -23.46289131810429
                        ]
                    ]
                ]
            }
        },
        {
            "type": "Feature",
            "properties": {
                "type": "observation",
                "score": 0.0,
                "observation_date": "2021-05-06",
                "source": null,
                "sensor_name": null,
                "current_phase": null,
                "is_occluded": null,
                "is_site_boundary": null
            },
            "geometry": {
                "type": "Polygon",
                "coordinates": [
                    [
                        [
                            -46.86223800878172,
                            -23.46289131810429
                        ],
                        [
                            -46.86151968140043,
                            -23.462528183291106
                        ],
                        [
                            -46.8610693838408,
                            -23.462287886547085
                        ],
                        [
                            -46.8610374705303,
                            -23.46229231616224
                        ],
                        [
                            -46.86093861281134,
                            -23.46230603776127
                        ],
                        [
                            -46.86083364290594,
                            -23.462320607740903
                        ],
                        [
                            -46.86073433950149,
                            -23.46240802501677
                        ],
                        [
                            -46.8607209805783,
                            -23.462419784942625
                        ],
                        [
                            -46.86057287323174,
                            -23.462550164569027
                        ],
                        [
                            -46.860528813075845,
                            -23.462710910940412
                        ],
                        [
                            -46.860535364958984,
                            -23.462751744035742
                        ],
                        [
                            -46.860559261894316,
                            -23.462900676154543
                        ],
                        [
                            -46.860686714284476,
                            -23.463072193673334
                        ],
                        [
                            -46.86100083871894,
                            -23.463179531326706
                        ],
                        [
                            -46.86159677262469,
                            -23.463236506136834
                        ],
                        [
                            -46.86198850984399,
                            -23.46326387298826
                        ],
                        [
                            -46.862193433635625,
                            -23.46318024743397
                        ],
                        [
                            -46.86228160258678,
                            -23.46302751901405
                        ],
                        [
                            -46.862277390453066,
                            -23.463014358968874
                        ],
                        [
                            -46.86223800878172,
                            -23.46289131810429
                        ]
                    ]
                ]
            }
        }
    ]
}