{
    "type": "FeatureCollection",
    "features": [
        {
            "type": "Feature",
            "properties": {
                "type": "site",
                "region_id": "BR_C000",
                "version": "2.0.0",
                "mgrs": "23KLP",
                "model_content": "annotation",
                "start_date": "2018-01-22",
                "end_date": "2020-10-23",
                "originator": "iMERIT",
                "site_id": "BR_C000_0290",
                "status": "positive_pending",
                "validated": "False",
                "score": 0.0,
                "misc_info": {
                    "commit_hash": "b8980b308111f4d719b33abcdfd4475cdb0511ce"
                }
            },
            "geometry": {
                "type": "Polygon",
                "coordinates": [
                    [
                        [
                            -46.78501394739922,
                            -23.53376649247668
                        ],
                        [
                            -46.78465168468705,
                            -23.53418173861647
                        ],
                        [
                            -46.78537144399475,
                            -23.53485090103575
                        ],
                        [
                            -46.78577390675144,
                            -23.5344410407106
                        ],
                        [
                            -46.78501394739922,
                            -23.53376649247668
                        ]
                    ]
                ]
            }
        },
        {
            "type": "Feature",
            "properties": {
                "type": "observation",
                "score": 0.0,
                "observation_date": "2018-01-22",
                "source": null,
                "sensor_name": null,
                "current_phase": null,
                "is_occluded": null,
                "is_site_boundary": null
            },
            "geometry": {
                "type": "Polygon",
                "coordinates": [
                    [
                        [
                            -46.78501394739922,
                            -23.53376649247668
                        ],
                        [
                            -46.78465168468705,
                            -23.53418173861647
                        ],
                        [
                            -46.78537144399475,
                            -23.53485090103575
                        ],
                        [
                            -46.78577390675144,
                            -23.5344410407106
                        ],
                        [
                            -46.78501394739922,
                            -23.53376649247668
                        ]
                    ]
                ]
            }
        },
        {
            "type": "Feature",
            "properties": {
                "type": "observation",
                "score": 0.0,
                "observation_date": "2020-10-23",
                "source": null,
                "sensor_name": null,
                "current_phase": null,
                "is_occluded": null,
                "is_site_boundary": null
            },
            "geometry": {
                "type": "Polygon",
                "coordinates": [
                    [
                        [
                            -46.78501394739922,
                            -23.53376649247668
                        ],
                        [
                            -46.78465168468705,
                            -23.53418173861647
                        ],
                        [
                            -46.78537144399475,
                            -23.53485090103575
                        ],
                        [
                            -46.78577390675144,
                            -23.5344410407106
                        ],
                        [
                            -46.78501394739922,
                            -23.53376649247668
                        ]
                    ]
                ]
            }
        }
    ]
}