{
    "type": "FeatureCollection",
    "features": [
        {
            "type": "Feature",
            "properties": {
                "type": "site",
                "region_id": "BR_C000",
                "version": "2.0.1",
                "mgrs": "23KLP",
                "model_content": "annotation",
                "start_date": "2019-12-08",
                "end_date": "2021-10-13",
                "originator": "iMERIT",
                "site_id": "BR_C000_0512",
                "status": "positive_pending",
                "validated": "False",
                "score": 0.0,
                "misc_info": {
                    "commit_hash": "b8980b308111f4d719b33abcdfd4475cdb0511ce"
                }
            },
            "geometry": {
                "type": "Polygon",
                "coordinates": [
                    [
                        [
                            -46.531848146508494,
                            -23.684817198116285
                        ],
                        [
                            -46.53268195602104,
                            -23.685513816528285
                        ],
                        [
                            -46.532181482683086,
                            -23.685954507535737
                        ],
                        [
                            -46.53134732405292,
                            -23.68522798634424
                        ],
                        [
                            -46.531848146508494,
                            -23.684817198116285
                        ]
                    ]
                ]
            }
        },
        {
            "type": "Feature",
            "properties": {
                "type": "observation",
                "score": 0.0,
                "observation_date": "2019-12-08",
                "source": null,
                "sensor_name": null,
                "current_phase": null,
                "is_occluded": null,
                "is_site_boundary": null
            },
            "geometry": {
                "type": "Polygon",
                "coordinates": [
                    [
                        [
                            -46.531848146508494,
                            -23.684817198116285
                        ],
                        [
                            -46.53268195602104,
                            -23.685513816528285
                        ],
                        [
                            -46.532181482683086,
                            -23.685954507535737
                        ],
                        [
                            -46.53134732405292,
                            -23.68522798634424
                        ],
                        [
                            -46.531848146508494,
                            -23.684817198116285
                        ]
                    ]
                ]
            }
        },
        {
            "type": "Feature",
            "properties": {
                "type": "observation",
                "score": 0.0,
                "observation_date": "2021-10-13",
                "source": null,
                "sensor_name": null,
                "current_phase": null,
                "is_occluded": null,
                "is_site_boundary": null
            },
            "geometry": {
                "type": "Polygon",
                "coordinates": [
                    [
                        [
                            -46.531848146508494,
                            -23.684817198116285
                        ],
                        [
                            -46.53268195602104,
                            -23.685513816528285
                        ],
                        [
                            -46.532181482683086,
                            -23.685954507535737
                        ],
                        [
                            -46.53134732405292,
                            -23.68522798634424
                        ],
                        [
                            -46.531848146508494,
                            -23.684817198116285
                        ]
                    ]
                ]
            }
        }
    ]
}