{
    "type": "FeatureCollection",
    "features": [
        {
            "type": "Feature",
            "properties": {
                "type": "site",
                "region_id": "BR_C000",
                "version": "2.0.1",
                "mgrs": "23KLQ",
                "model_content": "annotation",
                "start_date": "2020-10-13",
                "end_date": "2022-07-10",
                "originator": "iMERIT",
                "site_id": "BR_C000_0658",
                "status": "positive_pending",
                "validated": "False",
                "score": 0.0,
                "misc_info": {
                    "commit_hash": "b8980b308111f4d719b33abcdfd4475cdb0511ce"
                }
            },
            "geometry": {
                "type": "Polygon",
                "coordinates": [
                    [
                        [
                            -46.72662238324315,
                            -23.403051729391148
                        ],
                        [
                            -46.72823942346518,
                            -23.40434479358729
                        ],
                        [
                            -46.72817857134582,
                            -23.4046306391057
                        ],
                        [
                            -46.72587748504758,
                            -23.404643306026422
                        ],
                        [
                            -46.72586683973773,
                            -23.403111152533583
                        ],
                        [
                            -46.72662238324315,
                            -23.403051729391148
                        ]
                    ]
                ]
            }
        },
        {
            "type": "Feature",
            "properties": {
                "type": "observation",
                "score": 0.0,
                "observation_date": "2020-10-13",
                "source": null,
                "sensor_name": null,
                "current_phase": null,
                "is_occluded": null,
                "is_site_boundary": null
            },
            "geometry": {
                "type": "Polygon",
                "coordinates": [
                    [
                        [
                            -46.72662238324315,
                            -23.403051729391148
                        ],
                        [
                            -46.72823942346518,
                            -23.40434479358729
                        ],
                        [
                            -46.72817857134582,
                            -23.4046306391057
                        ],
                        [
                            -46.72587748504758,
                            -23.404643306026422
                        ],
                        [
                            -46.72586683973773,
                            -23.403111152533583
                        ],
                        [
                            -46.72662238324315,
                            -23.403051729391148
                        ]
                    ]
                ]
            }
        },
        {
            "type": "Feature",
            "properties": {
                "type": "observation",
                "score": 0.0,
                "observation_date": "2022-07-10",
                "source": null,
                "sensor_name": null,
                "current_phase": null,
                "is_occluded": null,
                "is_site_boundary": null
            },
            "geometry": {
                "type": "Polygon",
                "coordinates": [
                    [
                        [
                            -46.72662238324315,
                            -23.403051729391148
                        ],
                        [
                            -46.72823942346518,
                            -23.40434479358729
                        ],
                        [
                            -46.72817857134582,
                            -23.4046306391057
                        ],
                        [
                            -46.72587748504758,
                            -23.404643306026422
                        ],
                        [
                            -46.72586683973773,
                            -23.403111152533583
                        ],
                        [
                            -46.72662238324315,
                            -23.403051729391148
                        ]
                    ]
                ]
            }
        }
    ]
}