{
    "type": "FeatureCollection",
    "features": [
        {
            "type": "Feature",
            "properties": {
                "type": "site",
                "region_id": "BR_C000",
                "version": "2.0.1",
                "mgrs": "23JLP",
                "model_content": "annotation",
                "start_date": "2018-05-22",
                "end_date": "2019-05-22",
                "originator": "iMERIT",
                "site_id": "BR_C000_0000",
                "status": "positive_pending",
                "validated": "False",
                "score": 0.0,
                "misc_info": {
                    "commit_hash": "b8980b308111f4d719b33abcdfd4475cdb0511ce"
                }
            },
            "geometry": {
                "type": "Polygon",
                "coordinates": [
                    [
                        [
                            -46.651109104559964,
                            -24.10665654101355
                        ],
                        [
                            -46.6501765053031,
                            -24.1073065988099
                        ],
                        [
                            -46.64999325652493,
                            -24.10743433030448
                        ],
                        [
                            -46.65001917588478,
                            -24.107460249664324
                        ],
                        [
                            -46.65002347832397,
                            -24.107458914424576
                        ],
                        [
                            -46.65065542375033,
                            -24.107806243208522
                        ],
                        [
                            -46.651527376239514,
                            -24.107231753677883
                        ],
                        [
                            -46.65158047533867,
                            -24.1071805027469
                        ],
                        [
                            -46.651109104559964,
                            -24.10665654101355
                        ]
                    ]
                ]
            }
        },
        {
            "type": "Feature",
            "properties": {
                "type": "observation",
                "score": 0.0,
                "observation_date": "2018-05-22",
                "source": null,
                "sensor_name": null,
                "current_phase": null,
                "is_occluded": null,
                "is_site_boundary": null
            },
            "geometry": {
                "type": "Polygon",
                "coordinates": [
                    [
                        [
                            -46.651109104559964,
                            -24.10665654101355
                        ],
                        [
                            -46.6501765053031,
                            -24.1073065988099
                        ],
                        [
                            -46.64999325652493,
                            -24.10743433030448
                        ],
                        [
                            -46.65001917588478,
                            -24.107460249664324
                        ],
                        [
                            -46.65002347832397,
                            -24.107458914424576
                        ],
                        [
                            -46.65065542375033,
                            -24.107806243208522
                        ],
                        [
                            -46.651527376239514,
                            -24.107231753677883
                        ],
                        [
                            -46.65158047533867,
                            -24.1071805027469
                        ],
                        [
                            -46.651109104559964,
                            -24.10665654101355
                        ]
                    ]
                ]
            }
        },
        {
            "type": "Feature",
            "properties": {
                "type": "observation",
                "score": 0.0,
                "observation_date": "2019-05-22",
                "source": null,
                "sensor_name": null,
                "current_phase": null,
                "is_occluded": null,
                "is_site_boundary": null
            },
            "geometry": {
                "type": "Polygon",
                "coordinates": [
                    [
                        [
                            -46.651109104559964,
                            -24.10665654101355
                        ],
                        [
                            -46.6501765053031,
                            -24.1073065988099
                        ],
                        [
                            -46.64999325652493,
                            -24.10743433030448
                        ],
                        [
                            -46.65001917588478,
                            -24.107460249664324
                        ],
                        [
                            -46.65002347832397,
                            -24.107458914424576
                        ],
                        [
                            -46.65065542375033,
                            -24.107806243208522
                        ],
                        [
                            -46.651527376239514,
                            -24.107231753677883
                        ],
                        [
                            -46.65158047533867,
                            -24.1071805027469
                        ],
                        [
                            -46.651109104559964,
                            -24.10665654101355
                        ]
                    ]
                ]
            }
        }
    ]
}