{
    "type": "FeatureCollection",
    "features": [
        {
            "type": "Feature",
            "properties": {
                "type": "site",
                "region_id": "BR_C000",
                "version": "2.0.1",
                "mgrs": "23KLP",
                "model_content": "annotation",
                "start_date": "2016-08-06",
                "end_date": "2018-08-10",
                "originator": "iMERIT",
                "site_id": "BR_C000_0488",
                "status": "positive_pending",
                "validated": "False",
                "score": 0.0,
                "misc_info": {
                    "commit_hash": "b8980b308111f4d719b33abcdfd4475cdb0511ce"
                }
            },
            "geometry": {
                "type": "Polygon",
                "coordinates": [
                    [
                        [
                            -46.61607115606324,
                            -23.56626095541323
                        ],
                        [
                            -46.61524762203906,
                            -23.56574979636374
                        ],
                        [
                            -46.61508078540485,
                            -23.56574979636374
                        ],
                        [
                            -46.61544285639824,
                            -23.567169682612327
                        ],
                        [
                            -46.61592916743838,
                            -23.56705609171244
                        ],
                        [
                            -46.615847523979085,
                            -23.566459739488035
                        ],
                        [
                            -46.61592561772276,
                            -23.566505885791113
                        ],
                        [
                            -46.61607115606324,
                            -23.56626095541323
                        ]
                    ]
                ]
            }
        },
        {
            "type": "Feature",
            "properties": {
                "type": "observation",
                "score": 0.0,
                "observation_date": "2016-08-06",
                "source": null,
                "sensor_name": null,
                "current_phase": null,
                "is_occluded": null,
                "is_site_boundary": null
            },
            "geometry": {
                "type": "Polygon",
                "coordinates": [
                    [
                        [
                            -46.61607115606324,
                            -23.56626095541323
                        ],
                        [
                            -46.61524762203906,
                            -23.56574979636374
                        ],
                        [
                            -46.61508078540485,
                            -23.56574979636374
                        ],
                        [
                            -46.61544285639824,
                            -23.567169682612327
                        ],
                        [
                            -46.61592916743838,
                            -23.56705609171244
                        ],
                        [
                            -46.615847523979085,
                            -23.566459739488035
                        ],
                        [
                            -46.61592561772276,
                            -23.566505885791113
                        ],
                        [
                            -46.61607115606324,
                            -23.56626095541323
                        ]
                    ]
                ]
            }
        },
        {
            "type": "Feature",
            "properties": {
                "type": "observation",
                "score": 0.0,
                "observation_date": "2018-08-10",
                "source": null,
                "sensor_name": null,
                "current_phase": null,
                "is_occluded": null,
                "is_site_boundary": null
            },
            "geometry": {
                "type": "Polygon",
                "coordinates": [
                    [
                        [
                            -46.61607115606324,
                            -23.56626095541323
                        ],
                        [
                            -46.61524762203906,
                            -23.56574979636374
                        ],
                        [
                            -46.61508078540485,
                            -23.56574979636374
                        ],
                        [
                            -46.61544285639824,
                            -23.567169682612327
                        ],
                        [
                            -46.61592916743838,
                            -23.56705609171244
                        ],
                        [
                            -46.615847523979085,
                            -23.566459739488035
                        ],
                        [
                            -46.61592561772276,
                            -23.566505885791113
                        ],
                        [
                            -46.61607115606324,
                            -23.56626095541323
                        ]
                    ]
                ]
            }
        }
    ]
}