{
    "type": "FeatureCollection",
    "features": [
        {
            "type": "Feature",
            "properties": {
                "type": "site",
                "region_id": "BR_C000",
                "version": "2.0.1",
                "mgrs": "23KLQ",
                "model_content": "annotation",
                "start_date": "2018-07-01",
                "end_date": "2022-04-26",
                "originator": "iMERIT",
                "site_id": "BR_C000_0773",
                "status": "positive_pending",
                "validated": "False",
                "score": 0.0,
                "misc_info": {
                    "commit_hash": "b8980b308111f4d719b33abcdfd4475cdb0511ce"
                }
            },
            "geometry": {
                "type": "Polygon",
                "coordinates": [
                    [
                        [
                            -46.36420736663064,
                            -23.479442810941816
                        ],
                        [
                            -46.363707759473904,
                            -23.479838194592496
                        ],
                        [
                            -46.362818721498286,
                            -23.479375073877826
                        ],
                        [
                            -46.362985034432484,
                            -23.478925847869682
                        ],
                        [
                            -46.36420736663064,
                            -23.479442810941816
                        ]
                    ]
                ]
            }
        },
        {
            "type": "Feature",
            "properties": {
                "type": "observation",
                "score": 0.0,
                "observation_date": "2018-07-01",
                "source": null,
                "sensor_name": null,
                "current_phase": null,
                "is_occluded": null,
                "is_site_boundary": null
            },
            "geometry": {
                "type": "Polygon",
                "coordinates": [
                    [
                        [
                            -46.36420736663064,
                            -23.479442810941816
                        ],
                        [
                            -46.363707759473904,
                            -23.479838194592496
                        ],
                        [
                            -46.362818721498286,
                            -23.479375073877826
                        ],
                        [
                            -46.362985034432484,
                            -23.478925847869682
                        ],
                        [
                            -46.36420736663064,
                            -23.479442810941816
                        ]
                    ]
                ]
            }
        },
        {
            "type": "Feature",
            "properties": {
                "type": "observation",
                "score": 0.0,
                "observation_date": "2022-04-26",
                "source": null,
                "sensor_name": null,
                "current_phase": null,
                "is_occluded": null,
                "is_site_boundary": null
            },
            "geometry": {
                "type": "Polygon",
                "coordinates": [
                    [
                        [
                            -46.36420736663064,
                            -23.479442810941816
                        ],
                        [
                            -46.363707759473904,
                            -23.479838194592496
                        ],
                        [
                            -46.362818721498286,
                            -23.479375073877826
                        ],
                        [
                            -46.362985034432484,
                            -23.478925847869682
                        ],
                        [
                            -46.36420736663064,
                            -23.479442810941816
                        ]
                    ]
                ]
            }
        }
    ]
}