{
    "type": "FeatureCollection",
    "features": [
        {
            "type": "Feature",
            "properties": {
                "type": "site",
                "region_id": "BR_C000",
                "version": "2.0.1",
                "mgrs": "23KKP",
                "model_content": "annotation",
                "start_date": "2011-08-12",
                "end_date": "2021-11-22",
                "originator": "iMERIT",
                "site_id": "BR_C000_0051",
                "status": "positive_pending",
                "validated": "False",
                "score": 0.0,
                "misc_info": {
                    "commit_hash": "b8980b308111f4d719b33abcdfd4475cdb0511ce"
                }
            },
            "geometry": {
                "type": "Polygon",
                "coordinates": [
                    [
                        [
                            -46.991700198096986,
                            -23.651406674846967
                        ],
                        [
                            -46.991972045261335,
                            -23.653092127265918
                        ],
                        [
                            -46.991036791697326,
                            -23.655222198158402
                        ],
                        [
                            -46.99098568959827,
                            -23.65535405419178
                        ],
                        [
                            -46.991039547645975,
                            -23.655430497872395
                        ],
                        [
                            -46.991083127133095,
                            -23.655492754282562
                        ],
                        [
                            -46.994019332064724,
                            -23.655571897272637
                        ],
                        [
                            -46.99588426573989,
                            -23.653010721692077
                        ],
                        [
                            -46.995903325849284,
                            -23.65300277997983
                        ],
                        [
                            -46.99571470380087,
                            -23.650252869063504
                        ],
                        [
                            -46.9948609408449,
                            -23.650997429780922
                        ],
                        [
                            -46.99354058650602,
                            -23.649895479919145
                        ],
                        [
                            -46.99260054757856,
                            -23.650933609865124
                        ],
                        [
                            -46.991700198096986,
                            -23.651406674846967
                        ]
                    ]
                ]
            }
        },
        {
            "type": "Feature",
            "properties": {
                "type": "observation",
                "score": 0.0,
                "observation_date": "2011-08-12",
                "source": null,
                "sensor_name": null,
                "current_phase": null,
                "is_occluded": null,
                "is_site_boundary": null
            },
            "geometry": {
                "type": "Polygon",
                "coordinates": [
                    [
                        [
                            -46.991700198096986,
                            -23.651406674846967
                        ],
                        [
                            -46.991972045261335,
                            -23.653092127265918
                        ],
                        [
                            -46.991036791697326,
                            -23.655222198158402
                        ],
                        [
                            -46.99098568959827,
                            -23.65535405419178
                        ],
                        [
                            -46.991039547645975,
                            -23.655430497872395
                        ],
                        [
                            -46.991083127133095,
                            -23.655492754282562
                        ],
                        [
                            -46.994019332064724,
                            -23.655571897272637
                        ],
                        [
                            -46.99588426573989,
                            -23.653010721692077
                        ],
                        [
                            -46.995903325849284,
                            -23.65300277997983
                        ],
                        [
                            -46.99571470380087,
                            -23.650252869063504
                        ],
                        [
                            -46.9948609408449,
                            -23.650997429780922
                        ],
                        [
                            -46.99354058650602,
                            -23.649895479919145
                        ],
                        [
                            -46.99260054757856,
                            -23.650933609865124
                        ],
                        [
                            -46.991700198096986,
                            -23.651406674846967
                        ]
                    ]
                ]
            }
        },
        {
            "type": "Feature",
            "properties": {
                "type": "observation",
                "score": 0.0,
                "observation_date": "2021-11-22",
                "source": null,
                "sensor_name": null,
                "current_phase": null,
                "is_occluded": null,
                "is_site_boundary": null
            },
            "geometry": {
                "type": "Polygon",
                "coordinates": [
                    [
                        [
                            -46.991700198096986,
                            -23.651406674846967
                        ],
                        [
                            -46.991972045261335,
                            -23.653092127265918
                        ],
                        [
                            -46.991036791697326,
                            -23.655222198158402
                        ],
                        [
                            -46.99098568959827,
                            -23.65535405419178
                        ],
                        [
                            -46.991039547645975,
                            -23.655430497872395
                        ],
                        [
                            -46.991083127133095,
                            -23.655492754282562
                        ],
                        [
                            -46.994019332064724,
                            -23.655571897272637
                        ],
                        [
                            -46.99588426573989,
                            -23.653010721692077
                        ],
                        [
                            -46.995903325849284,
                            -23.65300277997983
                        ],
                        [
                            -46.99571470380087,
                            -23.650252869063504
                        ],
                        [
                            -46.9948609408449,
                            -23.650997429780922
                        ],
                        [
                            -46.99354058650602,
                            -23.649895479919145
                        ],
                        [
                            -46.99260054757856,
                            -23.650933609865124
                        ],
                        [
                            -46.991700198096986,
                            -23.651406674846967
                        ]
                    ]
                ]
            }
        }
    ]
}