{
    "type": "FeatureCollection",
    "features": [
        {
            "type": "Feature",
            "properties": {
                "type": "site",
                "region_id": "BR_C000",
                "version": "2.0.1",
                "mgrs": "23KLQ",
                "model_content": "annotation",
                "start_date": "2021-01-31",
                "end_date": "2022-02-10",
                "originator": "iMERIT",
                "site_id": "BR_C000_0745",
                "status": "positive_pending",
                "validated": "False",
                "score": 0.0,
                "misc_info": {
                    "commit_hash": "b8980b308111f4d719b33abcdfd4475cdb0511ce"
                }
            },
            "geometry": {
                "type": "Polygon",
                "coordinates": [
                    [
                        [
                            -46.76851631209241,
                            -23.312881473191762
                        ],
                        [
                            -46.768784262845436,
                            -23.3133383072625
                        ],
                        [
                            -46.76838330226164,
                            -23.313476483400585
                        ],
                        [
                            -46.76799157298184,
                            -23.313619301367176
                        ],
                        [
                            -46.76785828628085,
                            -23.313592873831634
                        ],
                        [
                            -46.767637785033294,
                            -23.31354915375669
                        ],
                        [
                            -46.76749722070383,
                            -23.313241669285997
                        ],
                        [
                            -46.76851631209241,
                            -23.312881473191762
                        ]
                    ]
                ]
            }
        },
        {
            "type": "Feature",
            "properties": {
                "type": "observation",
                "score": 0.0,
                "observation_date": "2021-01-31",
                "source": null,
                "sensor_name": null,
                "current_phase": null,
                "is_occluded": null,
                "is_site_boundary": null
            },
            "geometry": {
                "type": "Polygon",
                "coordinates": [
                    [
                        [
                            -46.76851631209241,
                            -23.312881473191762
                        ],
                        [
                            -46.768784262845436,
                            -23.3133383072625
                        ],
                        [
                            -46.76838330226164,
                            -23.313476483400585
                        ],
                        [
                            -46.76799157298184,
                            -23.313619301367176
                        ],
                        [
                            -46.76785828628085,
                            -23.313592873831634
                        ],
                        [
                            -46.767637785033294,
                            -23.31354915375669
                        ],
                        [
                            -46.76749722070383,
                            -23.313241669285997
                        ],
                        [
                            -46.76851631209241,
                            -23.312881473191762
                        ]
                    ]
                ]
            }
        },
        {
            "type": "Feature",
            "properties": {
                "type": "observation",
                "score": 0.0,
                "observation_date": "2022-02-10",
                "source": null,
                "sensor_name": null,
                "current_phase": null,
                "is_occluded": null,
                "is_site_boundary": null
            },
            "geometry": {
                "type": "Polygon",
                "coordinates": [
                    [
                        [
                            -46.76851631209241,
                            -23.312881473191762
                        ],
                        [
                            -46.768784262845436,
                            -23.3133383072625
                        ],
                        [
                            -46.76838330226164,
                            -23.313476483400585
                        ],
                        [
                            -46.76799157298184,
                            -23.313619301367176
                        ],
                        [
                            -46.76785828628085,
                            -23.313592873831634
                        ],
                        [
                            -46.767637785033294,
                            -23.31354915375669
                        ],
                        [
                            -46.76749722070383,
                            -23.313241669285997
                        ],
                        [
                            -46.76851631209241,
                            -23.312881473191762
                        ]
                    ]
                ]
            }
        }
    ]
}