{
    "type": "FeatureCollection",
    "features": [
        {
            "type": "Feature",
            "properties": {
                "type": "site",
                "region_id": "BR_C000",
                "version": "2.0.0",
                "mgrs": "23KLP",
                "model_content": "annotation",
                "start_date": "2018-04-27",
                "end_date": "2019-10-04",
                "originator": "iMERIT",
                "site_id": "BR_C000_0590",
                "status": "positive_pending",
                "validated": "False",
                "score": 0.0,
                "misc_info": {
                    "commit_hash": "b8980b308111f4d719b33abcdfd4475cdb0511ce"
                }
            },
            "geometry": {
                "type": "Polygon",
                "coordinates": [
                    [
                        [
                            -46.455795243423346,
                            -23.554987214299064
                        ],
                        [
                            -46.45550393710367,
                            -23.554492671012174
                        ],
                        [
                            -46.45460589785107,
                            -23.554955141617782
                        ],
                        [
                            -46.45490397873631,
                            -23.555497106863687
                        ],
                        [
                            -46.455795243423346,
                            -23.554987214299064
                        ]
                    ]
                ]
            }
        },
        {
            "type": "Feature",
            "properties": {
                "type": "observation",
                "score": 0.0,
                "observation_date": "2018-04-27",
                "source": null,
                "sensor_name": null,
                "current_phase": null,
                "is_occluded": null,
                "is_site_boundary": null
            },
            "geometry": {
                "type": "Polygon",
                "coordinates": [
                    [
                        [
                            -46.455795243423346,
                            -23.554987214299064
                        ],
                        [
                            -46.45550393710367,
                            -23.554492671012174
                        ],
                        [
                            -46.45460589785107,
                            -23.554955141617782
                        ],
                        [
                            -46.45490397873631,
                            -23.555497106863687
                        ],
                        [
                            -46.455795243423346,
                            -23.554987214299064
                        ]
                    ]
                ]
            }
        },
        {
            "type": "Feature",
            "properties": {
                "type": "observation",
                "score": 0.0,
                "observation_date": "2019-10-04",
                "source": null,
                "sensor_name": null,
                "current_phase": null,
                "is_occluded": null,
                "is_site_boundary": null
            },
            "geometry": {
                "type": "Polygon",
                "coordinates": [
                    [
                        [
                            -46.455795243423346,
                            -23.554987214299064
                        ],
                        [
                            -46.45550393710367,
                            -23.554492671012174
                        ],
                        [
                            -46.45460589785107,
                            -23.554955141617782
                        ],
                        [
                            -46.45490397873631,
                            -23.555497106863687
                        ],
                        [
                            -46.455795243423346,
                            -23.554987214299064
                        ]
                    ]
                ]
            }
        }
    ]
}