{
    "type": "FeatureCollection",
    "features": [
        {
            "type": "Feature",
            "properties": {
                "type": "site",
                "region_id": "BR_C000",
                "version": "2.0.1",
                "mgrs": "23KLQ",
                "model_content": "annotation",
                "start_date": "2020-09-23",
                "end_date": "2022-02-25",
                "originator": "iMERIT",
                "site_id": "BR_C000_0887",
                "status": "positive_pending",
                "validated": "False",
                "score": 0.0,
                "misc_info": {
                    "commit_hash": "b8980b308111f4d719b33abcdfd4475cdb0511ce"
                }
            },
            "geometry": {
                "type": "Polygon",
                "coordinates": [
                    [
                        [
                            -46.38471712435572,
                            -23.41507649001177
                        ],
                        [
                            -46.38605091318097,
                            -23.415946486707657
                        ],
                        [
                            -46.38569747038782,
                            -23.416415587723687
                        ],
                        [
                            -46.38430427573582,
                            -23.415576176916275
                        ],
                        [
                            -46.38471712435572,
                            -23.41507649001177
                        ]
                    ]
                ]
            }
        },
        {
            "type": "Feature",
            "properties": {
                "type": "observation",
                "score": 0.0,
                "observation_date": "2020-09-23",
                "source": null,
                "sensor_name": null,
                "current_phase": null,
                "is_occluded": null,
                "is_site_boundary": null
            },
            "geometry": {
                "type": "Polygon",
                "coordinates": [
                    [
                        [
                            -46.38471712435572,
                            -23.41507649001177
                        ],
                        [
                            -46.38605091318097,
                            -23.415946486707657
                        ],
                        [
                            -46.38569747038782,
                            -23.416415587723687
                        ],
                        [
                            -46.38430427573582,
                            -23.415576176916275
                        ],
                        [
                            -46.38471712435572,
                            -23.41507649001177
                        ]
                    ]
                ]
            }
        },
        {
            "type": "Feature",
            "properties": {
                "type": "observation",
                "score": 0.0,
                "observation_date": "2022-02-25",
                "source": null,
                "sensor_name": null,
                "current_phase": null,
                "is_occluded": null,
                "is_site_boundary": null
            },
            "geometry": {
                "type": "Polygon",
                "coordinates": [
                    [
                        [
                            -46.38471712435572,
                            -23.41507649001177
                        ],
                        [
                            -46.38605091318097,
                            -23.415946486707657
                        ],
                        [
                            -46.38569747038782,
                            -23.416415587723687
                        ],
                        [
                            -46.38430427573582,
                            -23.415576176916275
                        ],
                        [
                            -46.38471712435572,
                            -23.41507649001177
                        ]
                    ]
                ]
            }
        }
    ]
}