{
    "type": "FeatureCollection",
    "features": [
        {
            "type": "Feature",
            "properties": {
                "type": "site",
                "region_id": "BR_C000",
                "version": "2.0.0",
                "mgrs": "23KLP",
                "model_content": "annotation",
                "start_date": "2019-05-22",
                "end_date": null,
                "originator": "iMERIT",
                "site_id": "BR_C000_0616",
                "status": "positive_pending",
                "validated": "False",
                "score": 0.0,
                "misc_info": {
                    "commit_hash": "b8980b308111f4d719b33abcdfd4475cdb0511ce"
                }
            },
            "geometry": {
                "type": "Polygon",
                "coordinates": [
                    [
                        [
                            -46.44020696803803,
                            -23.57742457547952
                        ],
                        [
                            -46.438906251447854,
                            -23.577505870266403
                        ],
                        [
                            -46.43845913011998,
                            -23.579633083856578
                        ],
                        [
                            -46.43996308367737,
                            -23.579876968217235
                        ],
                        [
                            -46.44020696803803,
                            -23.57742457547952
                        ]
                    ]
                ]
            }
        },
        {
            "type": "Feature",
            "properties": {
                "type": "observation",
                "score": 0.0,
                "observation_date": "2019-05-22",
                "source": null,
                "sensor_name": null,
                "current_phase": null,
                "is_occluded": null,
                "is_site_boundary": null
            },
            "geometry": {
                "type": "Polygon",
                "coordinates": [
                    [
                        [
                            -46.44020696803803,
                            -23.57742457547952
                        ],
                        [
                            -46.438906251447854,
                            -23.577505870266403
                        ],
                        [
                            -46.43845913011998,
                            -23.579633083856578
                        ],
                        [
                            -46.43996308367737,
                            -23.579876968217235
                        ],
                        [
                            -46.44020696803803,
                            -23.57742457547952
                        ]
                    ]
                ]
            }
        },
        {
            "type": "Feature",
            "properties": {
                "type": "observation",
                "score": 0.0,
                "observation_date": null,
                "source": null,
                "sensor_name": null,
                "current_phase": null,
                "is_occluded": null,
                "is_site_boundary": null
            },
            "geometry": {
                "type": "Polygon",
                "coordinates": [
                    [
                        [
                            -46.44020696803803,
                            -23.57742457547952
                        ],
                        [
                            -46.438906251447854,
                            -23.577505870266403
                        ],
                        [
                            -46.43845913011998,
                            -23.579633083856578
                        ],
                        [
                            -46.43996308367737,
                            -23.579876968217235
                        ],
                        [
                            -46.44020696803803,
                            -23.57742457547952
                        ]
                    ]
                ]
            }
        }
    ]
}