{
    "type": "FeatureCollection",
    "features": [
        {
            "type": "Feature",
            "properties": {
                "type": "site",
                "region_id": "BR_C000",
                "version": "2.0.1",
                "mgrs": "23KLQ",
                "model_content": "annotation",
                "start_date": "2017-07-21",
                "end_date": "2018-04-12",
                "originator": "iMERIT",
                "site_id": "BR_C000_0869",
                "status": "positive_pending",
                "validated": "False",
                "score": 0.0,
                "misc_info": {
                    "commit_hash": "b8980b308111f4d719b33abcdfd4475cdb0511ce"
                }
            },
            "geometry": {
                "type": "Polygon",
                "coordinates": [
                    [
                        [
                            -46.4067882028218,
                            -23.435801175938426
                        ],
                        [
                            -46.407158776018896,
                            -23.436952717747253
                        ],
                        [
                            -46.406801832009684,
                            -23.437088709014596
                        ],
                        [
                            -46.4059190594809,
                            -23.435768924001326
                        ],
                        [
                            -46.4067882028218,
                            -23.435801175938426
                        ]
                    ]
                ]
            }
        },
        {
            "type": "Feature",
            "properties": {
                "type": "observation",
                "score": 0.0,
                "observation_date": "2017-07-21",
                "source": null,
                "sensor_name": null,
                "current_phase": null,
                "is_occluded": null,
                "is_site_boundary": null
            },
            "geometry": {
                "type": "Polygon",
                "coordinates": [
                    [
                        [
                            -46.4067882028218,
                            -23.435801175938426
                        ],
                        [
                            -46.407158776018896,
                            -23.436952717747253
                        ],
                        [
                            -46.406801832009684,
                            -23.437088709014596
                        ],
                        [
                            -46.4059190594809,
                            -23.435768924001326
                        ],
                        [
                            -46.4067882028218,
                            -23.435801175938426
                        ]
                    ]
                ]
            }
        },
        {
            "type": "Feature",
            "properties": {
                "type": "observation",
                "score": 0.0,
                "observation_date": "2018-04-12",
                "source": null,
                "sensor_name": null,
                "current_phase": null,
                "is_occluded": null,
                "is_site_boundary": null
            },
            "geometry": {
                "type": "Polygon",
                "coordinates": [
                    [
                        [
                            -46.4067882028218,
                            -23.435801175938426
                        ],
                        [
                            -46.407158776018896,
                            -23.436952717747253
                        ],
                        [
                            -46.406801832009684,
                            -23.437088709014596
                        ],
                        [
                            -46.4059190594809,
                            -23.435768924001326
                        ],
                        [
                            -46.4067882028218,
                            -23.435801175938426
                        ]
                    ]
                ]
            }
        }
    ]
}