{
    "type": "FeatureCollection",
    "features": [
        {
            "type": "Feature",
            "properties": {
                "type": "site",
                "region_id": "BR_C000",
                "version": "2.0.1",
                "mgrs": "23KLP",
                "model_content": "annotation",
                "start_date": "2021-02-15",
                "end_date": "2022-04-16",
                "originator": "iMERIT",
                "site_id": "BR_C000_0451",
                "status": "positive_pending",
                "validated": "False",
                "score": 0.0,
                "misc_info": {
                    "commit_hash": "b8980b308111f4d719b33abcdfd4475cdb0511ce"
                }
            },
            "geometry": {
                "type": "Polygon",
                "coordinates": [
                    [
                        [
                            -46.57830939570702,
                            -23.60555674199198
                        ],
                        [
                            -46.57764867007531,
                            -23.60643399408751
                        ],
                        [
                            -46.57754083412187,
                            -23.606560263245143
                        ],
                        [
                            -46.57678516535501,
                            -23.607237841863057
                        ],
                        [
                            -46.57674125320405,
                            -23.606834123549362
                        ],
                        [
                            -46.576444409501995,
                            -23.60683003480996
                        ],
                        [
                            -46.57644938891807,
                            -23.605903568108275
                        ],
                        [
                            -46.57645104368445,
                            -23.605595683424898
                        ],
                        [
                            -46.57830939570702,
                            -23.60555674199198
                        ]
                    ]
                ]
            }
        },
        {
            "type": "Feature",
            "properties": {
                "type": "observation",
                "score": 0.0,
                "observation_date": "2021-02-15",
                "source": null,
                "sensor_name": null,
                "current_phase": null,
                "is_occluded": null,
                "is_site_boundary": null
            },
            "geometry": {
                "type": "Polygon",
                "coordinates": [
                    [
                        [
                            -46.57830939570702,
                            -23.60555674199198
                        ],
                        [
                            -46.57764867007531,
                            -23.60643399408751
                        ],
                        [
                            -46.57754083412187,
                            -23.606560263245143
                        ],
                        [
                            -46.57678516535501,
                            -23.607237841863057
                        ],
                        [
                            -46.57674125320405,
                            -23.606834123549362
                        ],
                        [
                            -46.576444409501995,
                            -23.60683003480996
                        ],
                        [
                            -46.57644938891807,
                            -23.605903568108275
                        ],
                        [
                            -46.57645104368445,
                            -23.605595683424898
                        ],
                        [
                            -46.57830939570702,
                            -23.60555674199198
                        ]
                    ]
                ]
            }
        },
        {
            "type": "Feature",
            "properties": {
                "type": "observation",
                "score": 0.0,
                "observation_date": "2022-04-16",
                "source": null,
                "sensor_name": null,
                "current_phase": null,
                "is_occluded": null,
                "is_site_boundary": null
            },
            "geometry": {
                "type": "Polygon",
                "coordinates": [
                    [
                        [
                            -46.57830939570702,
                            -23.60555674199198
                        ],
                        [
                            -46.57764867007531,
                            -23.60643399408751
                        ],
                        [
                            -46.57754083412187,
                            -23.606560263245143
                        ],
                        [
                            -46.57678516535501,
                            -23.607237841863057
                        ],
                        [
                            -46.57674125320405,
                            -23.606834123549362
                        ],
                        [
                            -46.576444409501995,
                            -23.60683003480996
                        ],
                        [
                            -46.57644938891807,
                            -23.605903568108275
                        ],
                        [
                            -46.57645104368445,
                            -23.605595683424898
                        ],
                        [
                            -46.57830939570702,
                            -23.60555674199198
                        ]
                    ]
                ]
            }
        }
    ]
}