{
    "type": "FeatureCollection",
    "features": [
        {
            "type": "Feature",
            "properties": {
                "type": "site",
                "region_id": "BR_C000",
                "version": "2.0.1",
                "mgrs": "23KLQ",
                "model_content": "annotation",
                "start_date": "2017-08-30",
                "end_date": "2019-09-29",
                "originator": "iMERIT",
                "site_id": "BR_C000_0723",
                "status": "positive_pending",
                "validated": "False",
                "score": 0.0,
                "misc_info": {
                    "commit_hash": "b8980b308111f4d719b33abcdfd4475cdb0511ce"
                }
            },
            "geometry": {
                "type": "Polygon",
                "coordinates": [
                    [
                        [
                            -46.84817068328299,
                            -23.46817605049247
                        ],
                        [
                            -46.84645316898951,
                            -23.467056129473164
                        ],
                        [
                            -46.84694410216793,
                            -23.466539745406827
                        ],
                        [
                            -46.84842519390947,
                            -23.467904984575988
                        ],
                        [
                            -46.84817068328299,
                            -23.46817605049247
                        ]
                    ]
                ]
            }
        },
        {
            "type": "Feature",
            "properties": {
                "type": "observation",
                "score": 0.0,
                "observation_date": "2017-08-30",
                "source": null,
                "sensor_name": null,
                "current_phase": null,
                "is_occluded": null,
                "is_site_boundary": null
            },
            "geometry": {
                "type": "Polygon",
                "coordinates": [
                    [
                        [
                            -46.84817068328299,
                            -23.46817605049247
                        ],
                        [
                            -46.84645316898951,
                            -23.467056129473164
                        ],
                        [
                            -46.84694410216793,
                            -23.466539745406827
                        ],
                        [
                            -46.84842519390947,
                            -23.467904984575988
                        ],
                        [
                            -46.84817068328299,
                            -23.46817605049247
                        ]
                    ]
                ]
            }
        },
        {
            "type": "Feature",
            "properties": {
                "type": "observation",
                "score": 0.0,
                "observation_date": "2019-09-29",
                "source": null,
                "sensor_name": null,
                "current_phase": null,
                "is_occluded": null,
                "is_site_boundary": null
            },
            "geometry": {
                "type": "Polygon",
                "coordinates": [
                    [
                        [
                            -46.84817068328299,
                            -23.46817605049247
                        ],
                        [
                            -46.84645316898951,
                            -23.467056129473164
                        ],
                        [
                            -46.84694410216793,
                            -23.466539745406827
                        ],
                        [
                            -46.84842519390947,
                            -23.467904984575988
                        ],
                        [
                            -46.84817068328299,
                            -23.46817605049247
                        ]
                    ]
                ]
            }
        }
    ]
}