{
    "type": "FeatureCollection",
    "features": [
        {
            "type": "Feature",
            "properties": {
                "type": "site",
                "region_id": "BR_C000",
                "version": "2.0.1",
                "mgrs": "23KLQ",
                "model_content": "annotation",
                "start_date": "2020-10-13",
                "end_date": null,
                "originator": "iMERIT",
                "site_id": "BR_C000_0820",
                "status": "positive_pending",
                "validated": "False",
                "score": 0.0,
                "misc_info": {
                    "commit_hash": "b8980b308111f4d719b33abcdfd4475cdb0511ce"
                }
            },
            "geometry": {
                "type": "Polygon",
                "coordinates": [
                    [
                        [
                            -46.47970521776972,
                            -23.470757961202253
                        ],
                        [
                            -46.47774867398632,
                            -23.47057088843184
                        ],
                        [
                            -46.47771630399305,
                            -23.470476822354442
                        ],
                        [
                            -46.477913253621416,
                            -23.46874152136495
                        ],
                        [
                            -46.478716361537366,
                            -23.468820578161377
                        ],
                        [
                            -46.47938549761657,
                            -23.468767561912316
                        ],
                        [
                            -46.47984455042402,
                            -23.470614409484284
                        ],
                        [
                            -46.47970521776972,
                            -23.470757961202253
                        ]
                    ]
                ]
            }
        },
        {
            "type": "Feature",
            "properties": {
                "type": "observation",
                "score": 0.0,
                "observation_date": "2020-10-13",
                "source": null,
                "sensor_name": null,
                "current_phase": null,
                "is_occluded": null,
                "is_site_boundary": null
            },
            "geometry": {
                "type": "Polygon",
                "coordinates": [
                    [
                        [
                            -46.47970521776972,
                            -23.470757961202253
                        ],
                        [
                            -46.47774867398632,
                            -23.47057088843184
                        ],
                        [
                            -46.47771630399305,
                            -23.470476822354442
                        ],
                        [
                            -46.477913253621416,
                            -23.46874152136495
                        ],
                        [
                            -46.478716361537366,
                            -23.468820578161377
                        ],
                        [
                            -46.47938549761657,
                            -23.468767561912316
                        ],
                        [
                            -46.47984455042402,
                            -23.470614409484284
                        ],
                        [
                            -46.47970521776972,
                            -23.470757961202253
                        ]
                    ]
                ]
            }
        },
        {
            "type": "Feature",
            "properties": {
                "type": "observation",
                "score": 0.0,
                "observation_date": null,
                "source": null,
                "sensor_name": null,
                "current_phase": null,
                "is_occluded": null,
                "is_site_boundary": null
            },
            "geometry": {
                "type": "Polygon",
                "coordinates": [
                    [
                        [
                            -46.47970521776972,
                            -23.470757961202253
                        ],
                        [
                            -46.47774867398632,
                            -23.47057088843184
                        ],
                        [
                            -46.47771630399305,
                            -23.470476822354442
                        ],
                        [
                            -46.477913253621416,
                            -23.46874152136495
                        ],
                        [
                            -46.478716361537366,
                            -23.468820578161377
                        ],
                        [
                            -46.47938549761657,
                            -23.468767561912316
                        ],
                        [
                            -46.47984455042402,
                            -23.470614409484284
                        ],
                        [
                            -46.47970521776972,
                            -23.470757961202253
                        ]
                    ]
                ]
            }
        }
    ]
}