{
    "type": "FeatureCollection",
    "features": [
        {
            "type": "Feature",
            "properties": {
                "type": "site",
                "region_id": "BR_C000",
                "version": "2.0.0",
                "mgrs": "23KLP",
                "model_content": "annotation",
                "start_date": "2019-07-01",
                "end_date": null,
                "originator": "iMERIT",
                "site_id": "BR_C000_0467",
                "status": "positive_pending",
                "validated": "False",
                "score": 0.0,
                "misc_info": {
                    "commit_hash": "b8980b308111f4d719b33abcdfd4475cdb0511ce"
                }
            },
            "geometry": {
                "type": "Polygon",
                "coordinates": [
                    [
                        [
                            -46.62903116779745,
                            -23.55960523862298
                        ],
                        [
                            -46.62778521761431,
                            -23.55897693895798
                        ],
                        [
                            -46.62773552159561,
                            -23.56163212624284
                        ],
                        [
                            -46.62879333685081,
                            -23.561589529655382
                        ],
                        [
                            -46.628619400785354,
                            -23.560684352171908
                        ],
                        [
                            -46.62892822604442,
                            -23.5606169075751
                        ],
                        [
                            -46.62899922035685,
                            -23.5601873919849
                        ],
                        [
                            -46.628796886566434,
                            -23.560031204497555
                        ],
                        [
                            -46.62903116779745,
                            -23.55960523862298
                        ]
                    ]
                ]
            }
        },
        {
            "type": "Feature",
            "properties": {
                "type": "observation",
                "score": 0.0,
                "observation_date": "2019-07-01",
                "source": null,
                "sensor_name": null,
                "current_phase": null,
                "is_occluded": null,
                "is_site_boundary": null
            },
            "geometry": {
                "type": "Polygon",
                "coordinates": [
                    [
                        [
                            -46.62903116779745,
                            -23.55960523862298
                        ],
                        [
                            -46.62778521761431,
                            -23.55897693895798
                        ],
                        [
                            -46.62773552159561,
                            -23.56163212624284
                        ],
                        [
                            -46.62879333685081,
                            -23.561589529655382
                        ],
                        [
                            -46.628619400785354,
                            -23.560684352171908
                        ],
                        [
                            -46.62892822604442,
                            -23.5606169075751
                        ],
                        [
                            -46.62899922035685,
                            -23.5601873919849
                        ],
                        [
                            -46.628796886566434,
                            -23.560031204497555
                        ],
                        [
                            -46.62903116779745,
                            -23.55960523862298
                        ]
                    ]
                ]
            }
        },
        {
            "type": "Feature",
            "properties": {
                "type": "observation",
                "score": 0.0,
                "observation_date": null,
                "source": null,
                "sensor_name": null,
                "current_phase": null,
                "is_occluded": null,
                "is_site_boundary": null
            },
            "geometry": {
                "type": "Polygon",
                "coordinates": [
                    [
                        [
                            -46.62903116779745,
                            -23.55960523862298
                        ],
                        [
                            -46.62778521761431,
                            -23.55897693895798
                        ],
                        [
                            -46.62773552159561,
                            -23.56163212624284
                        ],
                        [
                            -46.62879333685081,
                            -23.561589529655382
                        ],
                        [
                            -46.628619400785354,
                            -23.560684352171908
                        ],
                        [
                            -46.62892822604442,
                            -23.5606169075751
                        ],
                        [
                            -46.62899922035685,
                            -23.5601873919849
                        ],
                        [
                            -46.628796886566434,
                            -23.560031204497555
                        ],
                        [
                            -46.62903116779745,
                            -23.55960523862298
                        ]
                    ]
                ]
            }
        }
    ]
}