{
    "type": "FeatureCollection",
    "features": [
        {
            "type": "Feature",
            "properties": {
                "type": "site",
                "region_id": "BR_C000",
                "version": "2.0.0",
                "mgrs": "23KLP",
                "model_content": "annotation",
                "start_date": "2017-11-16",
                "end_date": "2019-08-30",
                "originator": "iMERIT",
                "site_id": "BR_C000_0054",
                "status": "positive_pending",
                "validated": "False",
                "score": 0.0,
                "misc_info": {
                    "commit_hash": "b8980b308111f4d719b33abcdfd4475cdb0511ce"
                }
            },
            "geometry": {
                "type": "Polygon",
                "coordinates": [
                    [
                        [
                            -46.95680129149773,
                            -23.611891651253345
                        ],
                        [
                            -46.95770736104577,
                            -23.61264014348868
                        ],
                        [
                            -46.95887880324118,
                            -23.611428991388347
                        ],
                        [
                            -46.95795151673352,
                            -23.61067966895792
                        ],
                        [
                            -46.95680129149773,
                            -23.611891651253345
                        ]
                    ]
                ]
            }
        },
        {
            "type": "Feature",
            "properties": {
                "type": "observation",
                "score": 0.0,
                "observation_date": "2017-11-16",
                "source": null,
                "sensor_name": null,
                "current_phase": null,
                "is_occluded": null,
                "is_site_boundary": null
            },
            "geometry": {
                "type": "Polygon",
                "coordinates": [
                    [
                        [
                            -46.95680129149773,
                            -23.611891651253345
                        ],
                        [
                            -46.95770736104577,
                            -23.61264014348868
                        ],
                        [
                            -46.95887880324118,
                            -23.611428991388347
                        ],
                        [
                            -46.95795151673352,
                            -23.61067966895792
                        ],
                        [
                            -46.95680129149773,
                            -23.611891651253345
                        ]
                    ]
                ]
            }
        },
        {
            "type": "Feature",
            "properties": {
                "type": "observation",
                "score": 0.0,
                "observation_date": "2019-08-30",
                "source": null,
                "sensor_name": null,
                "current_phase": null,
                "is_occluded": null,
                "is_site_boundary": null
            },
            "geometry": {
                "type": "Polygon",
                "coordinates": [
                    [
                        [
                            -46.95680129149773,
                            -23.611891651253345
                        ],
                        [
                            -46.95770736104577,
                            -23.61264014348868
                        ],
                        [
                            -46.95887880324118,
                            -23.611428991388347
                        ],
                        [
                            -46.95795151673352,
                            -23.61067966895792
                        ],
                        [
                            -46.95680129149773,
                            -23.611891651253345
                        ]
                    ]
                ]
            }
        }
    ]
}