{
    "type": "FeatureCollection",
    "features": [
        {
            "type": "Feature",
            "properties": {
                "type": "site",
                "region_id": "BR_C000",
                "version": "2.0.1",
                "mgrs": "23KLP",
                "model_content": "annotation",
                "start_date": "2014-01-30",
                "end_date": "2018-04-12",
                "originator": "iMERIT",
                "site_id": "BR_C000_0411",
                "status": "positive_pending",
                "validated": "False",
                "score": 0.0,
                "misc_info": {
                    "commit_hash": "b8980b308111f4d719b33abcdfd4475cdb0511ce"
                }
            },
            "geometry": {
                "type": "Polygon",
                "coordinates": [
                    [
                        [
                            -46.59512033759317,
                            -23.72804414808789
                        ],
                        [
                            -46.59460558694325,
                            -23.7279014244304
                        ],
                        [
                            -46.59427938078925,
                            -23.72767964198388
                        ],
                        [
                            -46.59372539791532,
                            -23.72742156774241
                        ],
                        [
                            -46.59355452320098,
                            -23.72751326765884
                        ],
                        [
                            -46.59331432764206,
                            -23.72832484303627
                        ],
                        [
                            -46.59317284865958,
                            -23.72903974870201
                        ],
                        [
                            -46.59386601441626,
                            -23.72949734181158
                        ],
                        [
                            -46.59465341083992,
                            -23.72995209246881
                        ],
                        [
                            -46.59501203215,
                            -23.72916508928998
                        ],
                        [
                            -46.5948225032834,
                            -23.72904951365403
                        ],
                        [
                            -46.59512033759317,
                            -23.72804414808789
                        ]
                    ]
                ]
            }
        },
        {
            "type": "Feature",
            "properties": {
                "type": "observation",
                "score": 0.0,
                "observation_date": "2014-01-30",
                "source": null,
                "sensor_name": null,
                "current_phase": null,
                "is_occluded": null,
                "is_site_boundary": null
            },
            "geometry": {
                "type": "Polygon",
                "coordinates": [
                    [
                        [
                            -46.59512033759317,
                            -23.72804414808789
                        ],
                        [
                            -46.59460558694325,
                            -23.7279014244304
                        ],
                        [
                            -46.59427938078925,
                            -23.72767964198388
                        ],
                        [
                            -46.59372539791532,
                            -23.72742156774241
                        ],
                        [
                            -46.59355452320098,
                            -23.72751326765884
                        ],
                        [
                            -46.59331432764206,
                            -23.72832484303627
                        ],
                        [
                            -46.59317284865958,
                            -23.72903974870201
                        ],
                        [
                            -46.59386601441626,
                            -23.72949734181158
                        ],
                        [
                            -46.59465341083992,
                            -23.72995209246881
                        ],
                        [
                            -46.59501203215,
                            -23.72916508928998
                        ],
                        [
                            -46.5948225032834,
                            -23.72904951365403
                        ],
                        [
                            -46.59512033759317,
                            -23.72804414808789
                        ]
                    ]
                ]
            }
        },
        {
            "type": "Feature",
            "properties": {
                "type": "observation",
                "score": 0.0,
                "observation_date": "2018-04-12",
                "source": null,
                "sensor_name": null,
                "current_phase": null,
                "is_occluded": null,
                "is_site_boundary": null
            },
            "geometry": {
                "type": "Polygon",
                "coordinates": [
                    [
                        [
                            -46.59512033759317,
                            -23.72804414808789
                        ],
                        [
                            -46.59460558694325,
                            -23.7279014244304
                        ],
                        [
                            -46.59427938078925,
                            -23.72767964198388
                        ],
                        [
                            -46.59372539791532,
                            -23.72742156774241
                        ],
                        [
                            -46.59355452320098,
                            -23.72751326765884
                        ],
                        [
                            -46.59331432764206,
                            -23.72832484303627
                        ],
                        [
                            -46.59317284865958,
                            -23.72903974870201
                        ],
                        [
                            -46.59386601441626,
                            -23.72949734181158
                        ],
                        [
                            -46.59465341083992,
                            -23.72995209246881
                        ],
                        [
                            -46.59501203215,
                            -23.72916508928998
                        ],
                        [
                            -46.5948225032834,
                            -23.72904951365403
                        ],
                        [
                            -46.59512033759317,
                            -23.72804414808789
                        ]
                    ]
                ]
            }
        }
    ]
}