{
    "type": "FeatureCollection",
    "features": [
        {
            "type": "Feature",
            "properties": {
                "type": "site",
                "region_id": "BR_C000",
                "version": "2.0.0",
                "mgrs": "23KLP",
                "model_content": "annotation",
                "start_date": "2020-08-04",
                "end_date": "2021-07-10",
                "originator": "iMERIT",
                "site_id": "BR_C000_0029",
                "status": "positive_pending",
                "validated": "False",
                "score": 0.0,
                "misc_info": {
                    "commit_hash": "b8980b308111f4d719b33abcdfd4475cdb0511ce"
                }
            },
            "geometry": {
                "type": "Polygon",
                "coordinates": [
                    [
                        [
                            -46.30007812468139,
                            -23.956578870275383
                        ],
                        [
                            -46.30062230118612,
                            -23.957092485237766
                        ],
                        [
                            -46.299103474530625,
                            -23.958621914253772
                        ],
                        [
                            -46.29850079454847,
                            -23.958063063194547
                        ],
                        [
                            -46.30007812468139,
                            -23.956578870275383
                        ]
                    ]
                ]
            }
        },
        {
            "type": "Feature",
            "properties": {
                "type": "observation",
                "score": 0.0,
                "observation_date": "2020-08-04",
                "source": null,
                "sensor_name": null,
                "current_phase": null,
                "is_occluded": null,
                "is_site_boundary": null
            },
            "geometry": {
                "type": "Polygon",
                "coordinates": [
                    [
                        [
                            -46.30007812468139,
                            -23.956578870275383
                        ],
                        [
                            -46.30062230118612,
                            -23.957092485237766
                        ],
                        [
                            -46.299103474530625,
                            -23.958621914253772
                        ],
                        [
                            -46.29850079454847,
                            -23.958063063194547
                        ],
                        [
                            -46.30007812468139,
                            -23.956578870275383
                        ]
                    ]
                ]
            }
        },
        {
            "type": "Feature",
            "properties": {
                "type": "observation",
                "score": 0.0,
                "observation_date": "2021-07-10",
                "source": null,
                "sensor_name": null,
                "current_phase": null,
                "is_occluded": null,
                "is_site_boundary": null
            },
            "geometry": {
                "type": "Polygon",
                "coordinates": [
                    [
                        [
                            -46.30007812468139,
                            -23.956578870275383
                        ],
                        [
                            -46.30062230118612,
                            -23.957092485237766
                        ],
                        [
                            -46.299103474530625,
                            -23.958621914253772
                        ],
                        [
                            -46.29850079454847,
                            -23.958063063194547
                        ],
                        [
                            -46.30007812468139,
                            -23.956578870275383
                        ]
                    ]
                ]
            }
        }
    ]
}