{
    "type": "FeatureCollection",
    "features": [
        {
            "type": "Feature",
            "properties": {
                "type": "site",
                "region_id": "BR_C000",
                "version": "2.0.1",
                "mgrs": "23KLQ",
                "model_content": "annotation",
                "start_date": "2018-08-10",
                "end_date": "2019-12-08",
                "originator": "iMERIT",
                "site_id": "BR_C000_0781",
                "status": "positive_pending",
                "validated": "False",
                "score": 0.0,
                "misc_info": {
                    "commit_hash": "b8980b308111f4d719b33abcdfd4475cdb0511ce"
                }
            },
            "geometry": {
                "type": "Polygon",
                "coordinates": [
                    [
                        [
                            -46.29867609995274,
                            -23.4713307630874
                        ],
                        [
                            -46.298752860857256,
                            -23.47137321993962
                        ],
                        [
                            -46.29846787838531,
                            -23.472293227753777
                        ],
                        [
                            -46.298384420648446,
                            -23.473080166046
                        ],
                        [
                            -46.29782835011281,
                            -23.473080591366685
                        ],
                        [
                            -46.29769642591463,
                            -23.473106916533638
                        ],
                        [
                            -46.2976888286983,
                            -23.473029196331403
                        ],
                        [
                            -46.29820047770825,
                            -23.472215568771286
                        ],
                        [
                            -46.29848355278696,
                            -23.47179906732695
                        ],
                        [
                            -46.29867609995274,
                            -23.4713307630874
                        ]
                    ]
                ]
            }
        },
        {
            "type": "Feature",
            "properties": {
                "type": "observation",
                "score": 0.0,
                "observation_date": "2018-08-10",
                "source": null,
                "sensor_name": null,
                "current_phase": null,
                "is_occluded": null,
                "is_site_boundary": null
            },
            "geometry": {
                "type": "Polygon",
                "coordinates": [
                    [
                        [
                            -46.29867609995274,
                            -23.4713307630874
                        ],
                        [
                            -46.298752860857256,
                            -23.47137321993962
                        ],
                        [
                            -46.29846787838531,
                            -23.472293227753777
                        ],
                        [
                            -46.298384420648446,
                            -23.473080166046
                        ],
                        [
                            -46.29782835011281,
                            -23.473080591366685
                        ],
                        [
                            -46.29769642591463,
                            -23.473106916533638
                        ],
                        [
                            -46.2976888286983,
                            -23.473029196331403
                        ],
                        [
                            -46.29820047770825,
                            -23.472215568771286
                        ],
                        [
                            -46.29848355278696,
                            -23.47179906732695
                        ],
                        [
                            -46.29867609995274,
                            -23.4713307630874
                        ]
                    ]
                ]
            }
        },
        {
            "type": "Feature",
            "properties": {
                "type": "observation",
                "score": 0.0,
                "observation_date": "2019-12-08",
                "source": null,
                "sensor_name": null,
                "current_phase": null,
                "is_occluded": null,
                "is_site_boundary": null
            },
            "geometry": {
                "type": "Polygon",
                "coordinates": [
                    [
                        [
                            -46.29867609995274,
                            -23.4713307630874
                        ],
                        [
                            -46.298752860857256,
                            -23.47137321993962
                        ],
                        [
                            -46.29846787838531,
                            -23.472293227753777
                        ],
                        [
                            -46.298384420648446,
                            -23.473080166046
                        ],
                        [
                            -46.29782835011281,
                            -23.473080591366685
                        ],
                        [
                            -46.29769642591463,
                            -23.473106916533638
                        ],
                        [
                            -46.2976888286983,
                            -23.473029196331403
                        ],
                        [
                            -46.29820047770825,
                            -23.472215568771286
                        ],
                        [
                            -46.29848355278696,
                            -23.47179906732695
                        ],
                        [
                            -46.29867609995274,
                            -23.4713307630874
                        ]
                    ]
                ]
            }
        }
    ]
}