{
    "type": "FeatureCollection",
    "features": [
        {
            "type": "Feature",
            "properties": {
                "type": "site",
                "region_id": "BR_C000",
                "version": "2.0.1",
                "mgrs": "23KKP",
                "model_content": "annotation",
                "start_date": "2019-08-30",
                "end_date": "2020-03-27",
                "originator": "iMERIT",
                "site_id": "BR_C000_0038",
                "status": "positive_pending",
                "validated": "False",
                "score": 0.0,
                "misc_info": {
                    "commit_hash": "b8980b308111f4d719b33abcdfd4475cdb0511ce"
                }
            },
            "geometry": {
                "type": "Polygon",
                "coordinates": [
                    [
                        [
                            -47.038852842682594,
                            -23.518527327811995
                        ],
                        [
                            -47.03894475872756,
                            -23.51934871481744
                        ],
                        [
                            -47.038408773907605,
                            -23.519420173424532
                        ],
                        [
                            -47.03834579308,
                            -23.519131473390864
                        ],
                        [
                            -47.03798889645062,
                            -23.518935956106944
                        ],
                        [
                            -47.03825268961147,
                            -23.51843319737686
                        ],
                        [
                            -47.038852842682594,
                            -23.518527327811995
                        ]
                    ]
                ]
            }
        },
        {
            "type": "Feature",
            "properties": {
                "type": "observation",
                "score": 0.0,
                "observation_date": "2019-08-30",
                "source": null,
                "sensor_name": null,
                "current_phase": null,
                "is_occluded": null,
                "is_site_boundary": null
            },
            "geometry": {
                "type": "Polygon",
                "coordinates": [
                    [
                        [
                            -47.038852842682594,
                            -23.518527327811995
                        ],
                        [
                            -47.03894475872756,
                            -23.51934871481744
                        ],
                        [
                            -47.038408773907605,
                            -23.519420173424532
                        ],
                        [
                            -47.03834579308,
                            -23.519131473390864
                        ],
                        [
                            -47.03798889645062,
                            -23.518935956106944
                        ],
                        [
                            -47.03825268961147,
                            -23.51843319737686
                        ],
                        [
                            -47.038852842682594,
                            -23.518527327811995
                        ]
                    ]
                ]
            }
        },
        {
            "type": "Feature",
            "properties": {
                "type": "observation",
                "score": 0.0,
                "observation_date": "2020-03-27",
                "source": null,
                "sensor_name": null,
                "current_phase": null,
                "is_occluded": null,
                "is_site_boundary": null
            },
            "geometry": {
                "type": "Polygon",
                "coordinates": [
                    [
                        [
                            -47.038852842682594,
                            -23.518527327811995
                        ],
                        [
                            -47.03894475872756,
                            -23.51934871481744
                        ],
                        [
                            -47.038408773907605,
                            -23.519420173424532
                        ],
                        [
                            -47.03834579308,
                            -23.519131473390864
                        ],
                        [
                            -47.03798889645062,
                            -23.518935956106944
                        ],
                        [
                            -47.03825268961147,
                            -23.51843319737686
                        ],
                        [
                            -47.038852842682594,
                            -23.518527327811995
                        ]
                    ]
                ]
            }
        }
    ]
}