{
    "type": "FeatureCollection",
    "features": [
        {
            "type": "Feature",
            "properties": {
                "type": "site",
                "region_id": "BR_C000",
                "version": "2.0.0",
                "mgrs": "23KLP",
                "model_content": "annotation",
                "start_date": "2021-04-11",
                "end_date": null,
                "originator": "iMERIT",
                "site_id": "BR_C000_0262",
                "status": "positive_pending",
                "validated": "False",
                "score": 0.0,
                "misc_info": {
                    "commit_hash": "b8980b308111f4d719b33abcdfd4475cdb0511ce"
                }
            },
            "geometry": {
                "type": "Polygon",
                "coordinates": [
                    [
                        [
                            -46.833541381912106,
                            -23.60455059939428
                        ],
                        [
                            -46.83358601989987,
                            -23.605763264728562
                        ],
                        [
                            -46.83431510703337,
                            -23.605733506070052
                        ],
                        [
                            -46.834352305356504,
                            -23.60455059939428
                        ],
                        [
                            -46.833541381912106,
                            -23.60455059939428
                        ]
                    ]
                ]
            }
        },
        {
            "type": "Feature",
            "properties": {
                "type": "observation",
                "score": 0.0,
                "observation_date": "2021-04-11",
                "source": null,
                "sensor_name": null,
                "current_phase": null,
                "is_occluded": null,
                "is_site_boundary": null
            },
            "geometry": {
                "type": "Polygon",
                "coordinates": [
                    [
                        [
                            -46.833541381912106,
                            -23.60455059939428
                        ],
                        [
                            -46.83358601989987,
                            -23.605763264728562
                        ],
                        [
                            -46.83431510703337,
                            -23.605733506070052
                        ],
                        [
                            -46.834352305356504,
                            -23.60455059939428
                        ],
                        [
                            -46.833541381912106,
                            -23.60455059939428
                        ]
                    ]
                ]
            }
        },
        {
            "type": "Feature",
            "properties": {
                "type": "observation",
                "score": 0.0,
                "observation_date": null,
                "source": null,
                "sensor_name": null,
                "current_phase": null,
                "is_occluded": null,
                "is_site_boundary": null
            },
            "geometry": {
                "type": "Polygon",
                "coordinates": [
                    [
                        [
                            -46.833541381912106,
                            -23.60455059939428
                        ],
                        [
                            -46.83358601989987,
                            -23.605763264728562
                        ],
                        [
                            -46.83431510703337,
                            -23.605733506070052
                        ],
                        [
                            -46.834352305356504,
                            -23.60455059939428
                        ],
                        [
                            -46.833541381912106,
                            -23.60455059939428
                        ]
                    ]
                ]
            }
        }
    ]
}