{
    "type": "FeatureCollection",
    "features": [
        {
            "type": "Feature",
            "properties": {
                "type": "site",
                "region_id": "BR_C000",
                "version": "2.0.0",
                "mgrs": "23KLP",
                "model_content": "annotation",
                "start_date": "2019-01-22",
                "end_date": "2020-02-16",
                "originator": "iMERIT",
                "site_id": "BR_C000_0474",
                "status": "positive_pending",
                "validated": "False",
                "score": 0.0,
                "misc_info": {
                    "commit_hash": "b8980b308111f4d719b33abcdfd4475cdb0511ce"
                }
            },
            "geometry": {
                "type": "Polygon",
                "coordinates": [
                    [
                        [
                            -46.65119115499361,
                            -23.585617554697173
                        ],
                        [
                            -46.65067289651288,
                            -23.585688549009603
                        ],
                        [
                            -46.650773590893195,
                            -23.58614089914887
                        ],
                        [
                            -46.65113030696684,
                            -23.587743377510478
                        ],
                        [
                            -46.65113435954367,
                            -23.587761582932544
                        ],
                        [
                            -46.651681015749375,
                            -23.587250423883052
                        ],
                        [
                            -46.651675699941535,
                            -23.58723270452359
                        ],
                        [
                            -46.651346331260974,
                            -23.586134808921717
                        ],
                        [
                            -46.65119115499361,
                            -23.585617554697173
                        ]
                    ]
                ]
            }
        },
        {
            "type": "Feature",
            "properties": {
                "type": "observation",
                "score": 0.0,
                "observation_date": "2019-01-22",
                "source": null,
                "sensor_name": null,
                "current_phase": null,
                "is_occluded": null,
                "is_site_boundary": null
            },
            "geometry": {
                "type": "Polygon",
                "coordinates": [
                    [
                        [
                            -46.65119115499361,
                            -23.585617554697173
                        ],
                        [
                            -46.65067289651288,
                            -23.585688549009603
                        ],
                        [
                            -46.650773590893195,
                            -23.58614089914887
                        ],
                        [
                            -46.65113030696684,
                            -23.587743377510478
                        ],
                        [
                            -46.65113435954367,
                            -23.587761582932544
                        ],
                        [
                            -46.651681015749375,
                            -23.587250423883052
                        ],
                        [
                            -46.651675699941535,
                            -23.58723270452359
                        ],
                        [
                            -46.651346331260974,
                            -23.586134808921717
                        ],
                        [
                            -46.65119115499361,
                            -23.585617554697173
                        ]
                    ]
                ]
            }
        },
        {
            "type": "Feature",
            "properties": {
                "type": "observation",
                "score": 0.0,
                "observation_date": "2020-02-16",
                "source": null,
                "sensor_name": null,
                "current_phase": null,
                "is_occluded": null,
                "is_site_boundary": null
            },
            "geometry": {
                "type": "Polygon",
                "coordinates": [
                    [
                        [
                            -46.65119115499361,
                            -23.585617554697173
                        ],
                        [
                            -46.65067289651288,
                            -23.585688549009603
                        ],
                        [
                            -46.650773590893195,
                            -23.58614089914887
                        ],
                        [
                            -46.65113030696684,
                            -23.587743377510478
                        ],
                        [
                            -46.65113435954367,
                            -23.587761582932544
                        ],
                        [
                            -46.651681015749375,
                            -23.587250423883052
                        ],
                        [
                            -46.651675699941535,
                            -23.58723270452359
                        ],
                        [
                            -46.651346331260974,
                            -23.586134808921717
                        ],
                        [
                            -46.65119115499361,
                            -23.585617554697173
                        ]
                    ]
                ]
            }
        }
    ]
}