{
    "type": "FeatureCollection",
    "features": [
        {
            "type": "Feature",
            "properties": {
                "type": "site",
                "region_id": "BR_C000",
                "version": "2.0.0",
                "mgrs": "23KLP",
                "model_content": "annotation",
                "start_date": "2019-05-22",
                "end_date": null,
                "originator": "iMERIT",
                "site_id": "BR_C000_0496",
                "status": "positive_pending",
                "validated": "False",
                "score": 0.0,
                "misc_info": {
                    "commit_hash": "b8980b308111f4d719b33abcdfd4475cdb0511ce"
                }
            },
            "geometry": {
                "type": "Polygon",
                "coordinates": [
                    [
                        [
                            -46.56431364001525,
                            -23.533356866459908
                        ],
                        [
                            -46.56363919404717,
                            -23.533104836650782
                        ],
                        [
                            -46.56322032760384,
                            -23.534819349295955
                        ],
                        [
                            -46.56427814285904,
                            -23.535160121995617
                        ],
                        [
                            -46.564363336033956,
                            -23.534787401855365
                        ],
                        [
                            -46.56406161020613,
                            -23.534688009817962
                        ],
                        [
                            -46.56431364001525,
                            -23.533356866459908
                        ]
                    ]
                ]
            }
        },
        {
            "type": "Feature",
            "properties": {
                "type": "observation",
                "score": 0.0,
                "observation_date": "2019-05-22",
                "source": null,
                "sensor_name": null,
                "current_phase": null,
                "is_occluded": null,
                "is_site_boundary": null
            },
            "geometry": {
                "type": "Polygon",
                "coordinates": [
                    [
                        [
                            -46.56431364001525,
                            -23.533356866459908
                        ],
                        [
                            -46.56363919404717,
                            -23.533104836650782
                        ],
                        [
                            -46.56322032760384,
                            -23.534819349295955
                        ],
                        [
                            -46.56427814285904,
                            -23.535160121995617
                        ],
                        [
                            -46.564363336033956,
                            -23.534787401855365
                        ],
                        [
                            -46.56406161020613,
                            -23.534688009817962
                        ],
                        [
                            -46.56431364001525,
                            -23.533356866459908
                        ]
                    ]
                ]
            }
        },
        {
            "type": "Feature",
            "properties": {
                "type": "observation",
                "score": 0.0,
                "observation_date": null,
                "source": null,
                "sensor_name": null,
                "current_phase": null,
                "is_occluded": null,
                "is_site_boundary": null
            },
            "geometry": {
                "type": "Polygon",
                "coordinates": [
                    [
                        [
                            -46.56431364001525,
                            -23.533356866459908
                        ],
                        [
                            -46.56363919404717,
                            -23.533104836650782
                        ],
                        [
                            -46.56322032760384,
                            -23.534819349295955
                        ],
                        [
                            -46.56427814285904,
                            -23.535160121995617
                        ],
                        [
                            -46.564363336033956,
                            -23.534787401855365
                        ],
                        [
                            -46.56406161020613,
                            -23.534688009817962
                        ],
                        [
                            -46.56431364001525,
                            -23.533356866459908
                        ]
                    ]
                ]
            }
        }
    ]
}