{
    "type": "FeatureCollection",
    "features": [
        {
            "type": "Feature",
            "properties": {
                "type": "site",
                "region_id": "BR_C000",
                "version": "2.0.0",
                "mgrs": "23KLP",
                "model_content": "annotation",
                "start_date": "2020-05-11",
                "end_date": "2021-11-07",
                "originator": "iMERIT",
                "site_id": "BR_C000_0241",
                "status": "positive_pending",
                "validated": "False",
                "score": 0.0,
                "misc_info": {
                    "commit_hash": "b8980b308111f4d719b33abcdfd4475cdb0511ce"
                }
            },
            "geometry": {
                "type": "Polygon",
                "coordinates": [
                    [
                        [
                            -46.67835092096929,
                            -23.505403473342266
                        ],
                        [
                            -46.6782823230143,
                            -23.503662012674496
                        ],
                        [
                            -46.67758240521062,
                            -23.50368545953159
                        ],
                        [
                            -46.67765443337791,
                            -23.505514246103402
                        ],
                        [
                            -46.67796318704486,
                            -23.505503902784987
                        ],
                        [
                            -46.67835092096929,
                            -23.505403473342266
                        ]
                    ]
                ]
            }
        },
        {
            "type": "Feature",
            "properties": {
                "type": "observation",
                "score": 0.0,
                "observation_date": "2020-05-11",
                "source": null,
                "sensor_name": null,
                "current_phase": null,
                "is_occluded": null,
                "is_site_boundary": null
            },
            "geometry": {
                "type": "Polygon",
                "coordinates": [
                    [
                        [
                            -46.67835092096929,
                            -23.505403473342266
                        ],
                        [
                            -46.6782823230143,
                            -23.503662012674496
                        ],
                        [
                            -46.67758240521062,
                            -23.50368545953159
                        ],
                        [
                            -46.67765443337791,
                            -23.505514246103402
                        ],
                        [
                            -46.67796318704486,
                            -23.505503902784987
                        ],
                        [
                            -46.67835092096929,
                            -23.505403473342266
                        ]
                    ]
                ]
            }
        },
        {
            "type": "Feature",
            "properties": {
                "type": "observation",
                "score": 0.0,
                "observation_date": "2021-11-07",
                "source": null,
                "sensor_name": null,
                "current_phase": null,
                "is_occluded": null,
                "is_site_boundary": null
            },
            "geometry": {
                "type": "Polygon",
                "coordinates": [
                    [
                        [
                            -46.67835092096929,
                            -23.505403473342266
                        ],
                        [
                            -46.6782823230143,
                            -23.503662012674496
                        ],
                        [
                            -46.67758240521062,
                            -23.50368545953159
                        ],
                        [
                            -46.67765443337791,
                            -23.505514246103402
                        ],
                        [
                            -46.67796318704486,
                            -23.505503902784987
                        ],
                        [
                            -46.67835092096929,
                            -23.505403473342266
                        ]
                    ]
                ]
            }
        }
    ]
}