{
    "type": "FeatureCollection",
    "features": [
        {
            "type": "Feature",
            "properties": {
                "type": "site",
                "region_id": "BR_C000",
                "version": "2.0.0",
                "mgrs": "23KLP",
                "model_content": "annotation",
                "start_date": "2020-05-31",
                "end_date": null,
                "originator": "iMERIT",
                "site_id": "BR_C000_0503",
                "status": "positive_pending",
                "validated": "False",
                "score": 0.0,
                "misc_info": {
                    "commit_hash": "b8980b308111f4d719b33abcdfd4475cdb0511ce"
                }
            },
            "geometry": {
                "type": "Polygon",
                "coordinates": [
                    [
                        [
                            -46.59887544616384,
                            -23.582492030092393
                        ],
                        [
                            -46.5979596195335,
                            -23.58201991791474
                        ],
                        [
                            -46.5975478525214,
                            -23.582910896535726
                        ],
                        [
                            -46.598555971757904,
                            -23.583287166391603
                        ],
                        [
                            -46.59887544616384,
                            -23.582492030092393
                        ]
                    ]
                ]
            }
        },
        {
            "type": "Feature",
            "properties": {
                "type": "observation",
                "score": 0.0,
                "observation_date": "2020-05-31",
                "source": null,
                "sensor_name": null,
                "current_phase": null,
                "is_occluded": null,
                "is_site_boundary": null
            },
            "geometry": {
                "type": "Polygon",
                "coordinates": [
                    [
                        [
                            -46.59887544616384,
                            -23.582492030092393
                        ],
                        [
                            -46.5979596195335,
                            -23.58201991791474
                        ],
                        [
                            -46.5975478525214,
                            -23.582910896535726
                        ],
                        [
                            -46.598555971757904,
                            -23.583287166391603
                        ],
                        [
                            -46.59887544616384,
                            -23.582492030092393
                        ]
                    ]
                ]
            }
        },
        {
            "type": "Feature",
            "properties": {
                "type": "observation",
                "score": 0.0,
                "observation_date": null,
                "source": null,
                "sensor_name": null,
                "current_phase": null,
                "is_occluded": null,
                "is_site_boundary": null
            },
            "geometry": {
                "type": "Polygon",
                "coordinates": [
                    [
                        [
                            -46.59887544616384,
                            -23.582492030092393
                        ],
                        [
                            -46.5979596195335,
                            -23.58201991791474
                        ],
                        [
                            -46.5975478525214,
                            -23.582910896535726
                        ],
                        [
                            -46.598555971757904,
                            -23.583287166391603
                        ],
                        [
                            -46.59887544616384,
                            -23.582492030092393
                        ]
                    ]
                ]
            }
        }
    ]
}