{
    "type": "FeatureCollection",
    "features": [
        {
            "type": "Feature",
            "properties": {
                "type": "site",
                "region_id": "BR_C000",
                "version": "2.0.0",
                "mgrs": "23KLP",
                "model_content": "annotation",
                "start_date": "2021-06-30",
                "end_date": null,
                "originator": "iMERIT",
                "site_id": "BR_C000_0402",
                "status": "positive_pending",
                "validated": "False",
                "score": 0.0,
                "misc_info": {
                    "commit_hash": "b8980b308111f4d719b33abcdfd4475cdb0511ce"
                }
            },
            "geometry": {
                "type": "Polygon",
                "coordinates": [
                    [
                        [
                            -46.54532312672352,
                            -23.555181236023625
                        ],
                        [
                            -46.54422509468831,
                            -23.554999904497368
                        ],
                        [
                            -46.54429248307964,
                            -23.5543120767994
                        ],
                        [
                            -46.54523051417319,
                            -23.55447045691673
                        ],
                        [
                            -46.54532312672352,
                            -23.555181236023625
                        ]
                    ]
                ]
            }
        },
        {
            "type": "Feature",
            "properties": {
                "type": "observation",
                "score": 0.0,
                "observation_date": "2021-06-30",
                "source": null,
                "sensor_name": null,
                "current_phase": null,
                "is_occluded": null,
                "is_site_boundary": null
            },
            "geometry": {
                "type": "Polygon",
                "coordinates": [
                    [
                        [
                            -46.54532312672352,
                            -23.555181236023625
                        ],
                        [
                            -46.54422509468831,
                            -23.554999904497368
                        ],
                        [
                            -46.54429248307964,
                            -23.5543120767994
                        ],
                        [
                            -46.54523051417319,
                            -23.55447045691673
                        ],
                        [
                            -46.54532312672352,
                            -23.555181236023625
                        ]
                    ]
                ]
            }
        },
        {
            "type": "Feature",
            "properties": {
                "type": "observation",
                "score": 0.0,
                "observation_date": null,
                "source": null,
                "sensor_name": null,
                "current_phase": null,
                "is_occluded": null,
                "is_site_boundary": null
            },
            "geometry": {
                "type": "Polygon",
                "coordinates": [
                    [
                        [
                            -46.54532312672352,
                            -23.555181236023625
                        ],
                        [
                            -46.54422509468831,
                            -23.554999904497368
                        ],
                        [
                            -46.54429248307964,
                            -23.5543120767994
                        ],
                        [
                            -46.54523051417319,
                            -23.55447045691673
                        ],
                        [
                            -46.54532312672352,
                            -23.555181236023625
                        ]
                    ]
                ]
            }
        }
    ]
}