{
    "type": "FeatureCollection",
    "features": [
        {
            "type": "Feature",
            "properties": {
                "type": "site",
                "region_id": "BR_C000",
                "version": "2.0.0",
                "mgrs": "23KLP",
                "model_content": "annotation",
                "start_date": "2021-09-28",
                "end_date": null,
                "originator": "iMERIT",
                "site_id": "BR_C000_0163",
                "status": "positive_pending",
                "validated": "False",
                "score": 0.0,
                "misc_info": {
                    "commit_hash": "b8980b308111f4d719b33abcdfd4475cdb0511ce"
                }
            },
            "geometry": {
                "type": "Polygon",
                "coordinates": [
                    [
                        [
                            -46.6784179293297,
                            -23.58927204057502
                        ],
                        [
                            -46.67764915644455,
                            -23.589001487884325
                        ],
                        [
                            -46.67804834469546,
                            -23.588201606999846
                        ],
                        [
                            -46.67877293691291,
                            -23.58849724067577
                        ],
                        [
                            -46.6784179293297,
                            -23.58927204057502
                        ]
                    ]
                ]
            }
        },
        {
            "type": "Feature",
            "properties": {
                "type": "observation",
                "score": 0.0,
                "observation_date": "2021-09-28",
                "source": null,
                "sensor_name": null,
                "current_phase": null,
                "is_occluded": null,
                "is_site_boundary": null
            },
            "geometry": {
                "type": "Polygon",
                "coordinates": [
                    [
                        [
                            -46.6784179293297,
                            -23.58927204057502
                        ],
                        [
                            -46.67764915644455,
                            -23.589001487884325
                        ],
                        [
                            -46.67804834469546,
                            -23.588201606999846
                        ],
                        [
                            -46.67877293691291,
                            -23.58849724067577
                        ],
                        [
                            -46.6784179293297,
                            -23.58927204057502
                        ]
                    ]
                ]
            }
        },
        {
            "type": "Feature",
            "properties": {
                "type": "observation",
                "score": 0.0,
                "observation_date": null,
                "source": null,
                "sensor_name": null,
                "current_phase": null,
                "is_occluded": null,
                "is_site_boundary": null
            },
            "geometry": {
                "type": "Polygon",
                "coordinates": [
                    [
                        [
                            -46.6784179293297,
                            -23.58927204057502
                        ],
                        [
                            -46.67764915644455,
                            -23.589001487884325
                        ],
                        [
                            -46.67804834469546,
                            -23.588201606999846
                        ],
                        [
                            -46.67877293691291,
                            -23.58849724067577
                        ],
                        [
                            -46.6784179293297,
                            -23.58927204057502
                        ]
                    ]
                ]
            }
        }
    ]
}