{
    "type": "FeatureCollection",
    "features": [
        {
            "type": "Feature",
            "properties": {
                "type": "site",
                "region_id": "BR_C000",
                "version": "2.0.1",
                "mgrs": "23KLP",
                "model_content": "annotation",
                "start_date": "2014-10-31",
                "end_date": "2019-01-07",
                "originator": "iMERIT",
                "site_id": "BR_C000_0133",
                "status": "positive_pending",
                "validated": "False",
                "score": 0.0,
                "misc_info": {
                    "commit_hash": "b8980b308111f4d719b33abcdfd4475cdb0511ce"
                }
            },
            "geometry": {
                "type": "Polygon",
                "coordinates": [
                    [
                        [
                            -46.82213652802835,
                            -23.829470396010382
                        ],
                        [
                            -46.82193620149588,
                            -23.829223184544777
                        ],
                        [
                            -46.821708769255046,
                            -23.829281607505724
                        ],
                        [
                            -46.82153677761533,
                            -23.82915748982758
                        ],
                        [
                            -46.81978667034933,
                            -23.830752557561024
                        ],
                        [
                            -46.8201125161466,
                            -23.831141470286806
                        ],
                        [
                            -46.82213652802835,
                            -23.829470396010382
                        ]
                    ]
                ]
            }
        },
        {
            "type": "Feature",
            "properties": {
                "type": "observation",
                "score": 0.0,
                "observation_date": "2014-10-31",
                "source": null,
                "sensor_name": null,
                "current_phase": null,
                "is_occluded": null,
                "is_site_boundary": null
            },
            "geometry": {
                "type": "Polygon",
                "coordinates": [
                    [
                        [
                            -46.82213652802835,
                            -23.829470396010382
                        ],
                        [
                            -46.82193620149588,
                            -23.829223184544777
                        ],
                        [
                            -46.821708769255046,
                            -23.829281607505724
                        ],
                        [
                            -46.82153677761533,
                            -23.82915748982758
                        ],
                        [
                            -46.81978667034933,
                            -23.830752557561024
                        ],
                        [
                            -46.8201125161466,
                            -23.831141470286806
                        ],
                        [
                            -46.82213652802835,
                            -23.829470396010382
                        ]
                    ]
                ]
            }
        },
        {
            "type": "Feature",
            "properties": {
                "type": "observation",
                "score": 0.0,
                "observation_date": "2019-01-07",
                "source": null,
                "sensor_name": null,
                "current_phase": null,
                "is_occluded": null,
                "is_site_boundary": null
            },
            "geometry": {
                "type": "Polygon",
                "coordinates": [
                    [
                        [
                            -46.82213652802835,
                            -23.829470396010382
                        ],
                        [
                            -46.82193620149588,
                            -23.829223184544777
                        ],
                        [
                            -46.821708769255046,
                            -23.829281607505724
                        ],
                        [
                            -46.82153677761533,
                            -23.82915748982758
                        ],
                        [
                            -46.81978667034933,
                            -23.830752557561024
                        ],
                        [
                            -46.8201125161466,
                            -23.831141470286806
                        ],
                        [
                            -46.82213652802835,
                            -23.829470396010382
                        ]
                    ]
                ]
            }
        }
    ]
}