{
    "type": "FeatureCollection",
    "features": [
        {
            "type": "Feature",
            "properties": {
                "type": "site",
                "region_id": "BR_C000",
                "version": "2.0.1",
                "mgrs": "23KKQ",
                "model_content": "annotation",
                "start_date": "2011-08-12",
                "end_date": "2023-05-26",
                "originator": "iMERIT",
                "site_id": "BR_C000_0033",
                "status": "positive_pending",
                "validated": "False",
                "score": 0.0,
                "misc_info": {
                    "commit_hash": "b8980b308111f4d719b33abcdfd4475cdb0511ce"
                }
            },
            "geometry": {
                "type": "Polygon",
                "coordinates": [
                    [
                        [
                            -47.08929812757005,
                            -23.432741715204422
                        ],
                        [
                            -47.088682793443624,
                            -23.432385148781247
                        ],
                        [
                            -47.0881195921839,
                            -23.43321991332099
                        ],
                        [
                            -47.08886450591607,
                            -23.43349510754524
                        ],
                        [
                            -47.08929812757005,
                            -23.432741715204422
                        ]
                    ]
                ]
            }
        },
        {
            "type": "Feature",
            "properties": {
                "type": "observation",
                "score": 0.0,
                "observation_date": "2011-08-12",
                "source": null,
                "sensor_name": null,
                "current_phase": null,
                "is_occluded": null,
                "is_site_boundary": null
            },
            "geometry": {
                "type": "Polygon",
                "coordinates": [
                    [
                        [
                            -47.08929812757005,
                            -23.432741715204422
                        ],
                        [
                            -47.088682793443624,
                            -23.432385148781247
                        ],
                        [
                            -47.0881195921839,
                            -23.43321991332099
                        ],
                        [
                            -47.08886450591607,
                            -23.43349510754524
                        ],
                        [
                            -47.08929812757005,
                            -23.432741715204422
                        ]
                    ]
                ]
            }
        },
        {
            "type": "Feature",
            "properties": {
                "type": "observation",
                "score": 0.0,
                "observation_date": "2023-05-26",
                "source": null,
                "sensor_name": null,
                "current_phase": null,
                "is_occluded": null,
                "is_site_boundary": null
            },
            "geometry": {
                "type": "Polygon",
                "coordinates": [
                    [
                        [
                            -47.08929812757005,
                            -23.432741715204422
                        ],
                        [
                            -47.088682793443624,
                            -23.432385148781247
                        ],
                        [
                            -47.0881195921839,
                            -23.43321991332099
                        ],
                        [
                            -47.08886450591607,
                            -23.43349510754524
                        ],
                        [
                            -47.08929812757005,
                            -23.432741715204422
                        ]
                    ]
                ]
            }
        }
    ]
}