{
    "type": "FeatureCollection",
    "features": [
        {
            "type": "Feature",
            "properties": {
                "type": "site",
                "region_id": "BR_C000",
                "version": "2.0.0",
                "mgrs": "23KLP",
                "model_content": "annotation",
                "start_date": "2017-07-06",
                "end_date": "2021-07-01",
                "originator": "iMERIT",
                "site_id": "BR_C000_0564",
                "status": "positive_pending",
                "validated": "False",
                "score": 0.0,
                "misc_info": {
                    "commit_hash": "b8980b308111f4d719b33abcdfd4475cdb0511ce"
                }
            },
            "geometry": {
                "type": "Polygon",
                "coordinates": [
                    [
                        [
                            -46.21499706858287,
                            -23.918160585619972
                        ],
                        [
                            -46.21495173215877,
                            -23.918090669206894
                        ],
                        [
                            -46.21488971842952,
                            -23.918006470833685
                        ],
                        [
                            -46.21464008969598,
                            -23.91818050776763
                        ],
                        [
                            -46.214712165597916,
                            -23.91828422674847
                        ],
                        [
                            -46.21444948519668,
                            -23.918509408894305
                        ],
                        [
                            -46.21393396551222,
                            -23.91791879250341
                        ],
                        [
                            -46.21398587030542,
                            -23.91776078512023
                        ],
                        [
                            -46.21404439379298,
                            -23.917693395867833
                        ],
                        [
                            -46.21490133311763,
                            -23.917419135658953
                        ],
                        [
                            -46.21578224223516,
                            -23.91823978208681
                        ],
                        [
                            -46.21533980933075,
                            -23.918680979056518
                        ],
                        [
                            -46.21495367339366,
                            -23.91833206880052
                        ],
                        [
                            -46.21505672356815,
                            -23.918252583669567
                        ],
                        [
                            -46.21499706858287,
                            -23.918160585619972
                        ]
                    ]
                ]
            }
        },
        {
            "type": "Feature",
            "properties": {
                "type": "observation",
                "score": 0.0,
                "observation_date": "2017-07-06",
                "source": null,
                "sensor_name": null,
                "current_phase": null,
                "is_occluded": null,
                "is_site_boundary": null
            },
            "geometry": {
                "type": "Polygon",
                "coordinates": [
                    [
                        [
                            -46.21499706858287,
                            -23.918160585619972
                        ],
                        [
                            -46.21495173215877,
                            -23.918090669206894
                        ],
                        [
                            -46.21488971842952,
                            -23.918006470833685
                        ],
                        [
                            -46.21464008969598,
                            -23.91818050776763
                        ],
                        [
                            -46.214712165597916,
                            -23.91828422674847
                        ],
                        [
                            -46.21444948519668,
                            -23.918509408894305
                        ],
                        [
                            -46.21393396551222,
                            -23.91791879250341
                        ],
                        [
                            -46.21398587030542,
                            -23.91776078512023
                        ],
                        [
                            -46.21404439379298,
                            -23.917693395867833
                        ],
                        [
                            -46.21490133311763,
                            -23.917419135658953
                        ],
                        [
                            -46.21578224223516,
                            -23.91823978208681
                        ],
                        [
                            -46.21533980933075,
                            -23.918680979056518
                        ],
                        [
                            -46.21495367339366,
                            -23.91833206880052
                        ],
                        [
                            -46.21505672356815,
                            -23.918252583669567
                        ],
                        [
                            -46.21499706858287,
                            -23.918160585619972
                        ]
                    ]
                ]
            }
        },
        {
            "type": "Feature",
            "properties": {
                "type": "observation",
                "score": 0.0,
                "observation_date": "2021-07-01",
                "source": null,
                "sensor_name": null,
                "current_phase": null,
                "is_occluded": null,
                "is_site_boundary": null
            },
            "geometry": {
                "type": "Polygon",
                "coordinates": [
                    [
                        [
                            -46.21499706858287,
                            -23.918160585619972
                        ],
                        [
                            -46.21495173215877,
                            -23.918090669206894
                        ],
                        [
                            -46.21488971842952,
                            -23.918006470833685
                        ],
                        [
                            -46.21464008969598,
                            -23.91818050776763
                        ],
                        [
                            -46.214712165597916,
                            -23.91828422674847
                        ],
                        [
                            -46.21444948519668,
                            -23.918509408894305
                        ],
                        [
                            -46.21393396551222,
                            -23.91791879250341
                        ],
                        [
                            -46.21398587030542,
                            -23.91776078512023
                        ],
                        [
                            -46.21404439379298,
                            -23.917693395867833
                        ],
                        [
                            -46.21490133311763,
                            -23.917419135658953
                        ],
                        [
                            -46.21578224223516,
                            -23.91823978208681
                        ],
                        [
                            -46.21533980933075,
                            -23.918680979056518
                        ],
                        [
                            -46.21495367339366,
                            -23.91833206880052
                        ],
                        [
                            -46.21505672356815,
                            -23.918252583669567
                        ],
                        [
                            -46.21499706858287,
                            -23.918160585619972
                        ]
                    ]
                ]
            }
        }
    ]
}