{
    "type": "FeatureCollection",
    "features": [
        {
            "type": "Feature",
            "properties": {
                "type": "site",
                "region_id": "BR_C000",
                "version": "2.0.1",
                "mgrs": "23KLQ",
                "model_content": "annotation",
                "start_date": "2019-11-03",
                "end_date": "2020-01-27",
                "originator": "iMERIT",
                "site_id": "BR_C000_0897",
                "status": "positive_pending",
                "validated": "False",
                "score": 0.0,
                "misc_info": {
                    "commit_hash": "b8980b308111f4d719b33abcdfd4475cdb0511ce"
                }
            },
            "geometry": {
                "type": "Polygon",
                "coordinates": [
                    [
                        [
                            -46.388277315749995,
                            -23.405173498132143
                        ],
                        [
                            -46.38689676086496,
                            -23.40481343987944
                        ],
                        [
                            -46.38671247735336,
                            -23.40539610240145
                        ],
                        [
                            -46.38822022576108,
                            -23.405849579500945
                        ],
                        [
                            -46.3882568869626,
                            -23.40564336024239
                        ],
                        [
                            -46.388277315749995,
                            -23.405173498132143
                        ]
                    ]
                ]
            }
        },
        {
            "type": "Feature",
            "properties": {
                "type": "observation",
                "score": 0.0,
                "observation_date": "2019-11-03",
                "source": null,
                "sensor_name": null,
                "current_phase": null,
                "is_occluded": null,
                "is_site_boundary": null
            },
            "geometry": {
                "type": "Polygon",
                "coordinates": [
                    [
                        [
                            -46.388277315749995,
                            -23.405173498132143
                        ],
                        [
                            -46.38689676086496,
                            -23.40481343987944
                        ],
                        [
                            -46.38671247735336,
                            -23.40539610240145
                        ],
                        [
                            -46.38822022576108,
                            -23.405849579500945
                        ],
                        [
                            -46.3882568869626,
                            -23.40564336024239
                        ],
                        [
                            -46.388277315749995,
                            -23.405173498132143
                        ]
                    ]
                ]
            }
        },
        {
            "type": "Feature",
            "properties": {
                "type": "observation",
                "score": 0.0,
                "observation_date": "2020-01-27",
                "source": null,
                "sensor_name": null,
                "current_phase": null,
                "is_occluded": null,
                "is_site_boundary": null
            },
            "geometry": {
                "type": "Polygon",
                "coordinates": [
                    [
                        [
                            -46.388277315749995,
                            -23.405173498132143
                        ],
                        [
                            -46.38689676086496,
                            -23.40481343987944
                        ],
                        [
                            -46.38671247735336,
                            -23.40539610240145
                        ],
                        [
                            -46.38822022576108,
                            -23.405849579500945
                        ],
                        [
                            -46.3882568869626,
                            -23.40564336024239
                        ],
                        [
                            -46.388277315749995,
                            -23.405173498132143
                        ]
                    ]
                ]
            }
        }
    ]
}