{
    "type": "FeatureCollection",
    "features": [
        {
            "type": "Feature",
            "properties": {
                "type": "site",
                "region_id": "BR_C000",
                "version": "2.0.0",
                "mgrs": "23KLP",
                "model_content": "annotation",
                "start_date": "2019-04-27",
                "end_date": "2021-03-02",
                "originator": "iMERIT",
                "site_id": "BR_C000_0070",
                "status": "positive_pending",
                "validated": "False",
                "score": 0.0,
                "misc_info": {
                    "commit_hash": "b8980b308111f4d719b33abcdfd4475cdb0511ce"
                }
            },
            "geometry": {
                "type": "Polygon",
                "coordinates": [
                    [
                        [
                            -46.928906194638216,
                            -23.619677433631992
                        ],
                        [
                            -46.92844541157517,
                            -23.619210423770795
                        ],
                        [
                            -46.928076687655896,
                            -23.619520412906468
                        ],
                        [
                            -46.92774650075673,
                            -23.61919516814937
                        ],
                        [
                            -46.92787764200036,
                            -23.61866223245719
                        ],
                        [
                            -46.927758571270985,
                            -23.618641524504255
                        ],
                        [
                            -46.92779916520015,
                            -23.618399745273027
                        ],
                        [
                            -46.92880405713577,
                            -23.618265184403548
                        ],
                        [
                            -46.929222015936105,
                            -23.61834898027799
                        ],
                        [
                            -46.929688631161376,
                            -23.61791499548805
                        ],
                        [
                            -46.929932705326074,
                            -23.61785766087696
                        ],
                        [
                            -46.93040650073872,
                            -23.618238036797855
                        ],
                        [
                            -46.928906194638216,
                            -23.619677433631992
                        ]
                    ]
                ]
            }
        },
        {
            "type": "Feature",
            "properties": {
                "type": "observation",
                "score": 0.0,
                "observation_date": "2019-04-27",
                "source": null,
                "sensor_name": null,
                "current_phase": null,
                "is_occluded": null,
                "is_site_boundary": null
            },
            "geometry": {
                "type": "Polygon",
                "coordinates": [
                    [
                        [
                            -46.928906194638216,
                            -23.619677433631992
                        ],
                        [
                            -46.92844541157517,
                            -23.619210423770795
                        ],
                        [
                            -46.928076687655896,
                            -23.619520412906468
                        ],
                        [
                            -46.92774650075673,
                            -23.61919516814937
                        ],
                        [
                            -46.92787764200036,
                            -23.61866223245719
                        ],
                        [
                            -46.927758571270985,
                            -23.618641524504255
                        ],
                        [
                            -46.92779916520015,
                            -23.618399745273027
                        ],
                        [
                            -46.92880405713577,
                            -23.618265184403548
                        ],
                        [
                            -46.929222015936105,
                            -23.61834898027799
                        ],
                        [
                            -46.929688631161376,
                            -23.61791499548805
                        ],
                        [
                            -46.929932705326074,
                            -23.61785766087696
                        ],
                        [
                            -46.93040650073872,
                            -23.618238036797855
                        ],
                        [
                            -46.928906194638216,
                            -23.619677433631992
                        ]
                    ]
                ]
            }
        },
        {
            "type": "Feature",
            "properties": {
                "type": "observation",
                "score": 0.0,
                "observation_date": "2021-03-02",
                "source": null,
                "sensor_name": null,
                "current_phase": null,
                "is_occluded": null,
                "is_site_boundary": null
            },
            "geometry": {
                "type": "Polygon",
                "coordinates": [
                    [
                        [
                            -46.928906194638216,
                            -23.619677433631992
                        ],
                        [
                            -46.92844541157517,
                            -23.619210423770795
                        ],
                        [
                            -46.928076687655896,
                            -23.619520412906468
                        ],
                        [
                            -46.92774650075673,
                            -23.61919516814937
                        ],
                        [
                            -46.92787764200036,
                            -23.61866223245719
                        ],
                        [
                            -46.927758571270985,
                            -23.618641524504255
                        ],
                        [
                            -46.92779916520015,
                            -23.618399745273027
                        ],
                        [
                            -46.92880405713577,
                            -23.618265184403548
                        ],
                        [
                            -46.929222015936105,
                            -23.61834898027799
                        ],
                        [
                            -46.929688631161376,
                            -23.61791499548805
                        ],
                        [
                            -46.929932705326074,
                            -23.61785766087696
                        ],
                        [
                            -46.93040650073872,
                            -23.618238036797855
                        ],
                        [
                            -46.928906194638216,
                            -23.619677433631992
                        ]
                    ]
                ]
            }
        }
    ]
}