{
    "type": "FeatureCollection",
    "features": [
        {
            "type": "Feature",
            "properties": {
                "type": "site",
                "region_id": "BR_C000",
                "version": "2.0.1",
                "mgrs": "23KLP",
                "model_content": "annotation",
                "start_date": "2016-11-20",
                "end_date": "2021-12-12",
                "originator": "iMERIT",
                "site_id": "BR_C000_0459",
                "status": "positive_pending",
                "validated": "False",
                "score": 0.0,
                "misc_info": {
                    "commit_hash": "b8980b308111f4d719b33abcdfd4475cdb0511ce"
                }
            },
            "geometry": {
                "type": "Polygon",
                "coordinates": [
                    [
                        [
                            -46.61237308131555,
                            -23.56168001045673
                        ],
                        [
                            -46.612751837596825,
                            -23.560802404439137
                        ],
                        [
                            -46.6109974457528,
                            -23.560197207252635
                        ],
                        [
                            -46.61093554923716,
                            -23.560389774190185
                        ],
                        [
                            -46.61067420839335,
                            -23.560300368112035
                        ],
                        [
                            -46.609580703283704,
                            -23.562329198346916
                        ],
                        [
                            -46.61083926576839,
                            -23.562789983518908
                        ],
                        [
                            -46.610942426627794,
                            -23.562232914878145
                        ],
                        [
                            -46.61141008919041,
                            -23.561861535784303
                        ],
                        [
                            -46.6118708743624,
                            -23.5617583749249
                        ],
                        [
                            -46.612098442305815,
                            -23.561808573735945
                        ],
                        [
                            -46.61216660215935,
                            -23.561655214065496
                        ],
                        [
                            -46.612269763018745,
                            -23.561655214065496
                        ],
                        [
                            -46.61237308131555,
                            -23.56168001045673
                        ]
                    ]
                ]
            }
        },
        {
            "type": "Feature",
            "properties": {
                "type": "observation",
                "score": 0.0,
                "observation_date": "2016-11-20",
                "source": null,
                "sensor_name": null,
                "current_phase": null,
                "is_occluded": null,
                "is_site_boundary": null
            },
            "geometry": {
                "type": "Polygon",
                "coordinates": [
                    [
                        [
                            -46.61237308131555,
                            -23.56168001045673
                        ],
                        [
                            -46.612751837596825,
                            -23.560802404439137
                        ],
                        [
                            -46.6109974457528,
                            -23.560197207252635
                        ],
                        [
                            -46.61093554923716,
                            -23.560389774190185
                        ],
                        [
                            -46.61067420839335,
                            -23.560300368112035
                        ],
                        [
                            -46.609580703283704,
                            -23.562329198346916
                        ],
                        [
                            -46.61083926576839,
                            -23.562789983518908
                        ],
                        [
                            -46.610942426627794,
                            -23.562232914878145
                        ],
                        [
                            -46.61141008919041,
                            -23.561861535784303
                        ],
                        [
                            -46.6118708743624,
                            -23.5617583749249
                        ],
                        [
                            -46.612098442305815,
                            -23.561808573735945
                        ],
                        [
                            -46.61216660215935,
                            -23.561655214065496
                        ],
                        [
                            -46.612269763018745,
                            -23.561655214065496
                        ],
                        [
                            -46.61237308131555,
                            -23.56168001045673
                        ]
                    ]
                ]
            }
        },
        {
            "type": "Feature",
            "properties": {
                "type": "observation",
                "score": 0.0,
                "observation_date": "2021-12-12",
                "source": null,
                "sensor_name": null,
                "current_phase": null,
                "is_occluded": null,
                "is_site_boundary": null
            },
            "geometry": {
                "type": "Polygon",
                "coordinates": [
                    [
                        [
                            -46.61237308131555,
                            -23.56168001045673
                        ],
                        [
                            -46.612751837596825,
                            -23.560802404439137
                        ],
                        [
                            -46.6109974457528,
                            -23.560197207252635
                        ],
                        [
                            -46.61093554923716,
                            -23.560389774190185
                        ],
                        [
                            -46.61067420839335,
                            -23.560300368112035
                        ],
                        [
                            -46.609580703283704,
                            -23.562329198346916
                        ],
                        [
                            -46.61083926576839,
                            -23.562789983518908
                        ],
                        [
                            -46.610942426627794,
                            -23.562232914878145
                        ],
                        [
                            -46.61141008919041,
                            -23.561861535784303
                        ],
                        [
                            -46.6118708743624,
                            -23.5617583749249
                        ],
                        [
                            -46.612098442305815,
                            -23.561808573735945
                        ],
                        [
                            -46.61216660215935,
                            -23.561655214065496
                        ],
                        [
                            -46.612269763018745,
                            -23.561655214065496
                        ],
                        [
                            -46.61237308131555,
                            -23.56168001045673
                        ]
                    ]
                ]
            }
        }
    ]
}