{
    "type": "FeatureCollection",
    "features": [
        {
            "type": "Feature",
            "properties": {
                "type": "site",
                "region_id": "BR_C000",
                "version": "2.0.0",
                "mgrs": "23KLP",
                "model_content": "annotation",
                "start_date": "2018-09-24",
                "end_date": "2021-06-05",
                "originator": "iMERIT",
                "site_id": "BR_C000_0175",
                "status": "positive_pending",
                "validated": "False",
                "score": 0.0,
                "misc_info": {
                    "commit_hash": "b8980b308111f4d719b33abcdfd4475cdb0511ce"
                }
            },
            "geometry": {
                "type": "Polygon",
                "coordinates": [
                    [
                        [
                            -46.74570038380435,
                            -23.62419084595657
                        ],
                        [
                            -46.74461468849533,
                            -23.62421126129027
                        ],
                        [
                            -46.74428615379309,
                            -23.624944889843697
                        ],
                        [
                            -46.74537131193582,
                            -23.624883475049586
                        ],
                        [
                            -46.74570038380435,
                            -23.62419084595657
                        ]
                    ]
                ]
            }
        },
        {
            "type": "Feature",
            "properties": {
                "type": "observation",
                "score": 0.0,
                "observation_date": "2018-09-24",
                "source": null,
                "sensor_name": null,
                "current_phase": null,
                "is_occluded": null,
                "is_site_boundary": null
            },
            "geometry": {
                "type": "Polygon",
                "coordinates": [
                    [
                        [
                            -46.74570038380435,
                            -23.62419084595657
                        ],
                        [
                            -46.74461468849533,
                            -23.62421126129027
                        ],
                        [
                            -46.74428615379309,
                            -23.624944889843697
                        ],
                        [
                            -46.74537131193582,
                            -23.624883475049586
                        ],
                        [
                            -46.74570038380435,
                            -23.62419084595657
                        ]
                    ]
                ]
            }
        },
        {
            "type": "Feature",
            "properties": {
                "type": "observation",
                "score": 0.0,
                "observation_date": "2021-06-05",
                "source": null,
                "sensor_name": null,
                "current_phase": null,
                "is_occluded": null,
                "is_site_boundary": null
            },
            "geometry": {
                "type": "Polygon",
                "coordinates": [
                    [
                        [
                            -46.74570038380435,
                            -23.62419084595657
                        ],
                        [
                            -46.74461468849533,
                            -23.62421126129027
                        ],
                        [
                            -46.74428615379309,
                            -23.624944889843697
                        ],
                        [
                            -46.74537131193582,
                            -23.624883475049586
                        ],
                        [
                            -46.74570038380435,
                            -23.62419084595657
                        ]
                    ]
                ]
            }
        }
    ]
}