{
    "type": "FeatureCollection",
    "features": [
        {
            "type": "Feature",
            "properties": {
                "type": "site",
                "region_id": "BR_C000",
                "version": "2.0.1",
                "mgrs": "23KLP",
                "model_content": "annotation",
                "start_date": "2016-02-12",
                "end_date": "2018-04-12",
                "originator": "iMERIT",
                "site_id": "BR_C000_0265",
                "status": "positive_pending",
                "validated": "False",
                "score": 0.0,
                "misc_info": {
                    "commit_hash": "b8980b308111f4d719b33abcdfd4475cdb0511ce"
                }
            },
            "geometry": {
                "type": "Polygon",
                "coordinates": [
                    [
                        [
                            -46.849261393269906,
                            -23.613015077824166
                        ],
                        [
                            -46.84928371226379,
                            -23.61439885544488
                        ],
                        [
                            -46.849774730129205,
                            -23.61439141578025
                        ],
                        [
                            -46.84975241113532,
                            -23.61314527195514
                        ],
                        [
                            -46.849261393269906,
                            -23.613015077824166
                        ]
                    ]
                ]
            }
        },
        {
            "type": "Feature",
            "properties": {
                "type": "observation",
                "score": 0.0,
                "observation_date": "2016-02-12",
                "source": null,
                "sensor_name": null,
                "current_phase": null,
                "is_occluded": null,
                "is_site_boundary": null
            },
            "geometry": {
                "type": "Polygon",
                "coordinates": [
                    [
                        [
                            -46.849261393269906,
                            -23.613015077824166
                        ],
                        [
                            -46.84928371226379,
                            -23.61439885544488
                        ],
                        [
                            -46.849774730129205,
                            -23.61439141578025
                        ],
                        [
                            -46.84975241113532,
                            -23.61314527195514
                        ],
                        [
                            -46.849261393269906,
                            -23.613015077824166
                        ]
                    ]
                ]
            }
        },
        {
            "type": "Feature",
            "properties": {
                "type": "observation",
                "score": 0.0,
                "observation_date": "2018-04-12",
                "source": null,
                "sensor_name": null,
                "current_phase": null,
                "is_occluded": null,
                "is_site_boundary": null
            },
            "geometry": {
                "type": "Polygon",
                "coordinates": [
                    [
                        [
                            -46.849261393269906,
                            -23.613015077824166
                        ],
                        [
                            -46.84928371226379,
                            -23.61439885544488
                        ],
                        [
                            -46.849774730129205,
                            -23.61439141578025
                        ],
                        [
                            -46.84975241113532,
                            -23.61314527195514
                        ],
                        [
                            -46.849261393269906,
                            -23.613015077824166
                        ]
                    ]
                ]
            }
        }
    ]
}