{
    "type": "FeatureCollection",
    "features": [
        {
            "type": "Feature",
            "properties": {
                "type": "site",
                "region_id": "BR_C000",
                "version": "2.0.0",
                "mgrs": "23KLP",
                "model_content": "annotation",
                "start_date": "2017-10-14",
                "end_date": "2019-10-14",
                "originator": "iMERIT",
                "site_id": "BR_C000_0067",
                "status": "positive_pending",
                "validated": "False",
                "score": 0.0,
                "misc_info": {
                    "commit_hash": "b8980b308111f4d719b33abcdfd4475cdb0511ce"
                }
            },
            "geometry": {
                "type": "Polygon",
                "coordinates": [
                    [
                        [
                            -46.95044376121386,
                            -23.643975194690576
                        ],
                        [
                            -46.949022841806276,
                            -23.64466038120847
                        ],
                        [
                            -46.9493303694343,
                            -23.645144793396124
                        ],
                        [
                            -46.950734110355306,
                            -23.64449237199961
                        ],
                        [
                            -46.95044376121386,
                            -23.643975194690576
                        ]
                    ]
                ]
            }
        },
        {
            "type": "Feature",
            "properties": {
                "type": "observation",
                "score": 0.0,
                "observation_date": "2017-10-14",
                "source": null,
                "sensor_name": null,
                "current_phase": null,
                "is_occluded": null,
                "is_site_boundary": null
            },
            "geometry": {
                "type": "Polygon",
                "coordinates": [
                    [
                        [
                            -46.95044376121386,
                            -23.643975194690576
                        ],
                        [
                            -46.949022841806276,
                            -23.64466038120847
                        ],
                        [
                            -46.9493303694343,
                            -23.645144793396124
                        ],
                        [
                            -46.950734110355306,
                            -23.64449237199961
                        ],
                        [
                            -46.95044376121386,
                            -23.643975194690576
                        ]
                    ]
                ]
            }
        },
        {
            "type": "Feature",
            "properties": {
                "type": "observation",
                "score": 0.0,
                "observation_date": "2019-10-14",
                "source": null,
                "sensor_name": null,
                "current_phase": null,
                "is_occluded": null,
                "is_site_boundary": null
            },
            "geometry": {
                "type": "Polygon",
                "coordinates": [
                    [
                        [
                            -46.95044376121386,
                            -23.643975194690576
                        ],
                        [
                            -46.949022841806276,
                            -23.64466038120847
                        ],
                        [
                            -46.9493303694343,
                            -23.645144793396124
                        ],
                        [
                            -46.950734110355306,
                            -23.64449237199961
                        ],
                        [
                            -46.95044376121386,
                            -23.643975194690576
                        ]
                    ]
                ]
            }
        }
    ]
}