{
    "type": "FeatureCollection",
    "features": [
        {
            "type": "Feature",
            "properties": {
                "type": "site",
                "region_id": "BR_C000",
                "version": "2.0.0",
                "mgrs": "23KLP",
                "model_content": "annotation",
                "start_date": "2018-04-07",
                "end_date": "2019-09-09",
                "originator": "iMERIT",
                "site_id": "BR_C000_0322",
                "status": "positive_pending",
                "validated": "False",
                "score": 0.0,
                "misc_info": {
                    "commit_hash": "b8980b308111f4d719b33abcdfd4475cdb0511ce"
                }
            },
            "geometry": {
                "type": "Polygon",
                "coordinates": [
                    [
                        [
                            -46.81416312234076,
                            -23.56700170764571
                        ],
                        [
                            -46.81373137920379,
                            -23.56663007876006
                        ],
                        [
                            -46.81190076445753,
                            -23.56762476683147
                        ],
                        [
                            -46.81244709979247,
                            -23.56797508335013
                        ],
                        [
                            -46.81416312234076,
                            -23.56700170764571
                        ]
                    ]
                ]
            }
        },
        {
            "type": "Feature",
            "properties": {
                "type": "observation",
                "score": 0.0,
                "observation_date": "2018-04-07",
                "source": null,
                "sensor_name": null,
                "current_phase": null,
                "is_occluded": null,
                "is_site_boundary": null
            },
            "geometry": {
                "type": "Polygon",
                "coordinates": [
                    [
                        [
                            -46.81416312234076,
                            -23.56700170764571
                        ],
                        [
                            -46.81373137920379,
                            -23.56663007876006
                        ],
                        [
                            -46.81190076445753,
                            -23.56762476683147
                        ],
                        [
                            -46.81244709979247,
                            -23.56797508335013
                        ],
                        [
                            -46.81416312234076,
                            -23.56700170764571
                        ]
                    ]
                ]
            }
        },
        {
            "type": "Feature",
            "properties": {
                "type": "observation",
                "score": 0.0,
                "observation_date": "2019-09-09",
                "source": null,
                "sensor_name": null,
                "current_phase": null,
                "is_occluded": null,
                "is_site_boundary": null
            },
            "geometry": {
                "type": "Polygon",
                "coordinates": [
                    [
                        [
                            -46.81416312234076,
                            -23.56700170764571
                        ],
                        [
                            -46.81373137920379,
                            -23.56663007876006
                        ],
                        [
                            -46.81190076445753,
                            -23.56762476683147
                        ],
                        [
                            -46.81244709979247,
                            -23.56797508335013
                        ],
                        [
                            -46.81416312234076,
                            -23.56700170764571
                        ]
                    ]
                ]
            }
        }
    ]
}