{
    "type": "FeatureCollection",
    "features": [
        {
            "type": "Feature",
            "properties": {
                "type": "site",
                "region_id": "BR_C000",
                "version": "2.0.1",
                "mgrs": "23KLP",
                "model_content": "annotation",
                "start_date": "2021-03-12",
                "end_date": "2023-02-10",
                "originator": "iMERIT",
                "site_id": "BR_C000_0486",
                "status": "positive_pending",
                "validated": "False",
                "score": 0.0,
                "misc_info": {
                    "commit_hash": "b8980b308111f4d719b33abcdfd4475cdb0511ce"
                }
            },
            "geometry": {
                "type": "Polygon",
                "coordinates": [
                    [
                        [
                            -46.61718221705288,
                            -23.52069858055381
                        ],
                        [
                            -46.61633738473496,
                            -23.52116714301584
                        ],
                        [
                            -46.61635868302869,
                            -23.52149371685302
                        ],
                        [
                            -46.61699763184056,
                            -23.521323330503186
                        ],
                        [
                            -46.61726741022779,
                            -23.522260455427258
                        ],
                        [
                            -46.617828265295984,
                            -23.522146864527368
                        ],
                        [
                            -46.61752298975254,
                            -23.52113874529087
                        ],
                        [
                            -46.61718221705288,
                            -23.52069858055381
                        ]
                    ]
                ]
            }
        },
        {
            "type": "Feature",
            "properties": {
                "type": "observation",
                "score": 0.0,
                "observation_date": "2021-03-12",
                "source": null,
                "sensor_name": null,
                "current_phase": null,
                "is_occluded": null,
                "is_site_boundary": null
            },
            "geometry": {
                "type": "Polygon",
                "coordinates": [
                    [
                        [
                            -46.61718221705288,
                            -23.52069858055381
                        ],
                        [
                            -46.61633738473496,
                            -23.52116714301584
                        ],
                        [
                            -46.61635868302869,
                            -23.52149371685302
                        ],
                        [
                            -46.61699763184056,
                            -23.521323330503186
                        ],
                        [
                            -46.61726741022779,
                            -23.522260455427258
                        ],
                        [
                            -46.617828265295984,
                            -23.522146864527368
                        ],
                        [
                            -46.61752298975254,
                            -23.52113874529087
                        ],
                        [
                            -46.61718221705288,
                            -23.52069858055381
                        ]
                    ]
                ]
            }
        },
        {
            "type": "Feature",
            "properties": {
                "type": "observation",
                "score": 0.0,
                "observation_date": "2023-02-10",
                "source": null,
                "sensor_name": null,
                "current_phase": null,
                "is_occluded": null,
                "is_site_boundary": null
            },
            "geometry": {
                "type": "Polygon",
                "coordinates": [
                    [
                        [
                            -46.61718221705288,
                            -23.52069858055381
                        ],
                        [
                            -46.61633738473496,
                            -23.52116714301584
                        ],
                        [
                            -46.61635868302869,
                            -23.52149371685302
                        ],
                        [
                            -46.61699763184056,
                            -23.521323330503186
                        ],
                        [
                            -46.61726741022779,
                            -23.522260455427258
                        ],
                        [
                            -46.617828265295984,
                            -23.522146864527368
                        ],
                        [
                            -46.61752298975254,
                            -23.52113874529087
                        ],
                        [
                            -46.61718221705288,
                            -23.52069858055381
                        ]
                    ]
                ]
            }
        }
    ]
}