{
    "type": "FeatureCollection",
    "features": [
        {
            "type": "Feature",
            "properties": {
                "type": "site",
                "region_id": "BR_C000",
                "version": "2.0.0",
                "mgrs": "23KLP",
                "model_content": "annotation",
                "start_date": "2019-08-30",
                "end_date": "2021-03-12",
                "originator": "iMERIT",
                "site_id": "BR_C000_0401",
                "status": "positive_pending",
                "validated": "False",
                "score": 0.0,
                "misc_info": {
                    "commit_hash": "b8980b308111f4d719b33abcdfd4475cdb0511ce"
                }
            },
            "geometry": {
                "type": "Polygon",
                "coordinates": [
                    [
                        [
                            -46.51974193998116,
                            -23.511672155541632
                        ],
                        [
                            -46.519554973216366,
                            -23.51313497774174
                        ],
                        [
                            -46.52006673895853,
                            -23.51316065934997
                        ],
                        [
                            -46.52024153483106,
                            -23.511724798076983
                        ],
                        [
                            -46.51974193998116,
                            -23.511672155541632
                        ]
                    ]
                ]
            }
        },
        {
            "type": "Feature",
            "properties": {
                "type": "observation",
                "score": 0.0,
                "observation_date": "2019-08-30",
                "source": null,
                "sensor_name": null,
                "current_phase": null,
                "is_occluded": null,
                "is_site_boundary": null
            },
            "geometry": {
                "type": "Polygon",
                "coordinates": [
                    [
                        [
                            -46.51974193998116,
                            -23.511672155541632
                        ],
                        [
                            -46.519554973216366,
                            -23.51313497774174
                        ],
                        [
                            -46.52006673895853,
                            -23.51316065934997
                        ],
                        [
                            -46.52024153483106,
                            -23.511724798076983
                        ],
                        [
                            -46.51974193998116,
                            -23.511672155541632
                        ]
                    ]
                ]
            }
        },
        {
            "type": "Feature",
            "properties": {
                "type": "observation",
                "score": 0.0,
                "observation_date": "2021-03-12",
                "source": null,
                "sensor_name": null,
                "current_phase": null,
                "is_occluded": null,
                "is_site_boundary": null
            },
            "geometry": {
                "type": "Polygon",
                "coordinates": [
                    [
                        [
                            -46.51974193998116,
                            -23.511672155541632
                        ],
                        [
                            -46.519554973216366,
                            -23.51313497774174
                        ],
                        [
                            -46.52006673895853,
                            -23.51316065934997
                        ],
                        [
                            -46.52024153483106,
                            -23.511724798076983
                        ],
                        [
                            -46.51974193998116,
                            -23.511672155541632
                        ]
                    ]
                ]
            }
        }
    ]
}