{
    "type": "FeatureCollection",
    "features": [
        {
            "type": "Feature",
            "properties": {
                "type": "site",
                "region_id": "BR_C000",
                "version": "2.0.1",
                "mgrs": "23KLQ",
                "model_content": "annotation",
                "start_date": "2020-01-27",
                "end_date": "2023-08-04",
                "originator": "iMERIT",
                "site_id": "BR_C000_0814",
                "status": "positive_pending",
                "validated": "False",
                "score": 0.0,
                "misc_info": {
                    "commit_hash": "b8980b308111f4d719b33abcdfd4475cdb0511ce"
                }
            },
            "geometry": {
                "type": "Polygon",
                "coordinates": [
                    [
                        [
                            -46.55389457452907,
                            -23.48844910293498
                        ],
                        [
                            -46.554640263717054,
                            -23.48840960562283
                        ],
                        [
                            -46.55455429408164,
                            -23.487797062415645
                        ],
                        [
                            -46.55432045642381,
                            -23.487814356084023
                        ],
                        [
                            -46.55421546404015,
                            -23.48696262628958
                        ],
                        [
                            -46.55361350862684,
                            -23.487007100121517
                        ],
                        [
                            -46.55385984498511,
                            -23.488451586550937
                        ],
                        [
                            -46.55389457452907,
                            -23.48844910293498
                        ]
                    ]
                ]
            }
        },
        {
            "type": "Feature",
            "properties": {
                "type": "observation",
                "score": 0.0,
                "observation_date": "2020-01-27",
                "source": null,
                "sensor_name": null,
                "current_phase": null,
                "is_occluded": null,
                "is_site_boundary": null
            },
            "geometry": {
                "type": "Polygon",
                "coordinates": [
                    [
                        [
                            -46.55389457452907,
                            -23.48844910293498
                        ],
                        [
                            -46.554640263717054,
                            -23.48840960562283
                        ],
                        [
                            -46.55455429408164,
                            -23.487797062415645
                        ],
                        [
                            -46.55432045642381,
                            -23.487814356084023
                        ],
                        [
                            -46.55421546404015,
                            -23.48696262628958
                        ],
                        [
                            -46.55361350862684,
                            -23.487007100121517
                        ],
                        [
                            -46.55385984498511,
                            -23.488451586550937
                        ],
                        [
                            -46.55389457452907,
                            -23.48844910293498
                        ]
                    ]
                ]
            }
        },
        {
            "type": "Feature",
            "properties": {
                "type": "observation",
                "score": 0.0,
                "observation_date": "2023-08-04",
                "source": null,
                "sensor_name": null,
                "current_phase": null,
                "is_occluded": null,
                "is_site_boundary": null
            },
            "geometry": {
                "type": "Polygon",
                "coordinates": [
                    [
                        [
                            -46.55389457452907,
                            -23.48844910293498
                        ],
                        [
                            -46.554640263717054,
                            -23.48840960562283
                        ],
                        [
                            -46.55455429408164,
                            -23.487797062415645
                        ],
                        [
                            -46.55432045642381,
                            -23.487814356084023
                        ],
                        [
                            -46.55421546404015,
                            -23.48696262628958
                        ],
                        [
                            -46.55361350862684,
                            -23.487007100121517
                        ],
                        [
                            -46.55385984498511,
                            -23.488451586550937
                        ],
                        [
                            -46.55389457452907,
                            -23.48844910293498
                        ]
                    ]
                ]
            }
        }
    ]
}