{
    "type": "FeatureCollection",
    "features": [
        {
            "type": "Feature",
            "properties": {
                "type": "site",
                "region_id": "BR_C000",
                "version": "2.0.1",
                "mgrs": "23KLP",
                "model_content": "annotation",
                "start_date": "2017-08-30",
                "end_date": "2023-05-15",
                "originator": "iMERIT",
                "site_id": "BR_C000_0522",
                "status": "positive_pending",
                "validated": "False",
                "score": 0.0,
                "misc_info": {
                    "commit_hash": "b8980b308111f4d719b33abcdfd4475cdb0511ce"
                }
            },
            "geometry": {
                "type": "Polygon",
                "coordinates": [
                    [
                        [
                            -46.47845228688726,
                            -23.698444301929918
                        ],
                        [
                            -46.479764827785864,
                            -23.700018345229775
                        ],
                        [
                            -46.479060782859406,
                            -23.701019094803804
                        ],
                        [
                            -46.47775829974547,
                            -23.701335915020714
                        ],
                        [
                            -46.47659159672449,
                            -23.699787016182512
                        ],
                        [
                            -46.47845228688726,
                            -23.698444301929918
                        ]
                    ]
                ]
            }
        },
        {
            "type": "Feature",
            "properties": {
                "type": "observation",
                "score": 0.0,
                "observation_date": "2017-08-30",
                "source": null,
                "sensor_name": null,
                "current_phase": null,
                "is_occluded": null,
                "is_site_boundary": null
            },
            "geometry": {
                "type": "Polygon",
                "coordinates": [
                    [
                        [
                            -46.47845228688726,
                            -23.698444301929918
                        ],
                        [
                            -46.479764827785864,
                            -23.700018345229775
                        ],
                        [
                            -46.479060782859406,
                            -23.701019094803804
                        ],
                        [
                            -46.47775829974547,
                            -23.701335915020714
                        ],
                        [
                            -46.47659159672449,
                            -23.699787016182512
                        ],
                        [
                            -46.47845228688726,
                            -23.698444301929918
                        ]
                    ]
                ]
            }
        },
        {
            "type": "Feature",
            "properties": {
                "type": "observation",
                "score": 0.0,
                "observation_date": "2023-05-15",
                "source": null,
                "sensor_name": null,
                "current_phase": null,
                "is_occluded": null,
                "is_site_boundary": null
            },
            "geometry": {
                "type": "Polygon",
                "coordinates": [
                    [
                        [
                            -46.47845228688726,
                            -23.698444301929918
                        ],
                        [
                            -46.479764827785864,
                            -23.700018345229775
                        ],
                        [
                            -46.479060782859406,
                            -23.701019094803804
                        ],
                        [
                            -46.47775829974547,
                            -23.701335915020714
                        ],
                        [
                            -46.47659159672449,
                            -23.699787016182512
                        ],
                        [
                            -46.47845228688726,
                            -23.698444301929918
                        ]
                    ]
                ]
            }
        }
    ]
}