{
    "type": "FeatureCollection",
    "features": [
        {
            "type": "Feature",
            "properties": {
                "type": "site",
                "region_id": "BR_C000",
                "version": "2.0.0",
                "mgrs": "23KLP",
                "model_content": "annotation",
                "start_date": "2019-01-27",
                "end_date": null,
                "originator": "iMERIT",
                "site_id": "BR_C000_0518",
                "status": "positive_pending",
                "validated": "False",
                "score": 0.0,
                "misc_info": {
                    "commit_hash": "b8980b308111f4d719b33abcdfd4475cdb0511ce"
                }
            },
            "geometry": {
                "type": "Polygon",
                "coordinates": [
                    [
                        [
                            -46.53123291436029,
                            -23.722182383091926
                        ],
                        [
                            -46.52977831009076,
                            -23.72072852054914
                        ],
                        [
                            -46.529056830414966,
                            -23.719950072831125
                        ],
                        [
                            -46.528063391008814,
                            -23.72070320624907
                        ],
                        [
                            -46.52861935924658,
                            -23.721229566871493
                        ],
                        [
                            -46.52903784329534,
                            -23.7212274988451
                        ],
                        [
                            -46.53046181809515,
                            -23.72270478245141
                        ],
                        [
                            -46.53123291436029,
                            -23.722182383091926
                        ]
                    ]
                ]
            }
        },
        {
            "type": "Feature",
            "properties": {
                "type": "observation",
                "score": 0.0,
                "observation_date": "2019-01-27",
                "source": null,
                "sensor_name": null,
                "current_phase": null,
                "is_occluded": null,
                "is_site_boundary": null
            },
            "geometry": {
                "type": "Polygon",
                "coordinates": [
                    [
                        [
                            -46.53123291436029,
                            -23.722182383091926
                        ],
                        [
                            -46.52977831009076,
                            -23.72072852054914
                        ],
                        [
                            -46.529056830414966,
                            -23.719950072831125
                        ],
                        [
                            -46.528063391008814,
                            -23.72070320624907
                        ],
                        [
                            -46.52861935924658,
                            -23.721229566871493
                        ],
                        [
                            -46.52903784329534,
                            -23.7212274988451
                        ],
                        [
                            -46.53046181809515,
                            -23.72270478245141
                        ],
                        [
                            -46.53123291436029,
                            -23.722182383091926
                        ]
                    ]
                ]
            }
        },
        {
            "type": "Feature",
            "properties": {
                "type": "observation",
                "score": 0.0,
                "observation_date": null,
                "source": null,
                "sensor_name": null,
                "current_phase": null,
                "is_occluded": null,
                "is_site_boundary": null
            },
            "geometry": {
                "type": "Polygon",
                "coordinates": [
                    [
                        [
                            -46.53123291436029,
                            -23.722182383091926
                        ],
                        [
                            -46.52977831009076,
                            -23.72072852054914
                        ],
                        [
                            -46.529056830414966,
                            -23.719950072831125
                        ],
                        [
                            -46.528063391008814,
                            -23.72070320624907
                        ],
                        [
                            -46.52861935924658,
                            -23.721229566871493
                        ],
                        [
                            -46.52903784329534,
                            -23.7212274988451
                        ],
                        [
                            -46.53046181809515,
                            -23.72270478245141
                        ],
                        [
                            -46.53123291436029,
                            -23.722182383091926
                        ]
                    ]
                ]
            }
        }
    ]
}