{
    "type": "FeatureCollection",
    "features": [
        {
            "type": "Feature",
            "properties": {
                "type": "site",
                "region_id": "BR_C000",
                "version": "2.0.1",
                "mgrs": "23KKP",
                "model_content": "annotation",
                "start_date": "2020-08-07",
                "end_date": "2022-06-05",
                "originator": "iMERIT",
                "site_id": "BR_C000_0045",
                "status": "positive_pending",
                "validated": "False",
                "score": 0.0,
                "misc_info": {
                    "commit_hash": "b8980b308111f4d719b33abcdfd4475cdb0511ce"
                }
            },
            "geometry": {
                "type": "Polygon",
                "coordinates": [
                    [
                        [
                            -47.008192542531056,
                            -23.635934015869477
                        ],
                        [
                            -47.00765189776561,
                            -23.63477786783261
                        ],
                        [
                            -47.006901233302834,
                            -23.635062746035953
                        ],
                        [
                            -47.00698856822648,
                            -23.635990159748978
                        ],
                        [
                            -47.00790974373067,
                            -23.636083732881445
                        ],
                        [
                            -47.008192542531056,
                            -23.635934015869477
                        ]
                    ]
                ]
            }
        },
        {
            "type": "Feature",
            "properties": {
                "type": "observation",
                "score": 0.0,
                "observation_date": "2020-08-07",
                "source": null,
                "sensor_name": null,
                "current_phase": null,
                "is_occluded": null,
                "is_site_boundary": null
            },
            "geometry": {
                "type": "Polygon",
                "coordinates": [
                    [
                        [
                            -47.008192542531056,
                            -23.635934015869477
                        ],
                        [
                            -47.00765189776561,
                            -23.63477786783261
                        ],
                        [
                            -47.006901233302834,
                            -23.635062746035953
                        ],
                        [
                            -47.00698856822648,
                            -23.635990159748978
                        ],
                        [
                            -47.00790974373067,
                            -23.636083732881445
                        ],
                        [
                            -47.008192542531056,
                            -23.635934015869477
                        ]
                    ]
                ]
            }
        },
        {
            "type": "Feature",
            "properties": {
                "type": "observation",
                "score": 0.0,
                "observation_date": "2022-06-05",
                "source": null,
                "sensor_name": null,
                "current_phase": null,
                "is_occluded": null,
                "is_site_boundary": null
            },
            "geometry": {
                "type": "Polygon",
                "coordinates": [
                    [
                        [
                            -47.008192542531056,
                            -23.635934015869477
                        ],
                        [
                            -47.00765189776561,
                            -23.63477786783261
                        ],
                        [
                            -47.006901233302834,
                            -23.635062746035953
                        ],
                        [
                            -47.00698856822648,
                            -23.635990159748978
                        ],
                        [
                            -47.00790974373067,
                            -23.636083732881445
                        ],
                        [
                            -47.008192542531056,
                            -23.635934015869477
                        ]
                    ]
                ]
            }
        }
    ]
}