{
    "type": "FeatureCollection",
    "features": [
        {
            "type": "Feature",
            "properties": {
                "type": "site",
                "region_id": "BR_C000",
                "version": "2.0.0",
                "mgrs": "23KLP",
                "model_content": "annotation",
                "start_date": "2020-03-07",
                "end_date": null,
                "originator": "iMERIT",
                "site_id": "BR_C000_0453",
                "status": "positive_pending",
                "validated": "False",
                "score": 0.0,
                "misc_info": {
                    "commit_hash": "b8980b308111f4d719b33abcdfd4475cdb0511ce"
                }
            },
            "geometry": {
                "type": "Polygon",
                "coordinates": [
                    [
                        [
                            -46.5702836089119,
                            -23.67509926051234
                        ],
                        [
                            -46.57100636579311,
                            -23.675100410894494
                        ],
                        [
                            -46.57091917394975,
                            -23.675508320981155
                        ],
                        [
                            -46.57311450930808,
                            -23.67546483958132
                        ],
                        [
                            -46.57316635857659,
                            -23.676719307859514
                        ],
                        [
                            -46.56974094812869,
                            -23.676686226290013
                        ],
                        [
                            -46.5702836089119,
                            -23.67509926051234
                        ]
                    ]
                ]
            }
        },
        {
            "type": "Feature",
            "properties": {
                "type": "observation",
                "score": 0.0,
                "observation_date": "2020-03-07",
                "source": null,
                "sensor_name": null,
                "current_phase": null,
                "is_occluded": null,
                "is_site_boundary": null
            },
            "geometry": {
                "type": "Polygon",
                "coordinates": [
                    [
                        [
                            -46.5702836089119,
                            -23.67509926051234
                        ],
                        [
                            -46.57100636579311,
                            -23.675100410894494
                        ],
                        [
                            -46.57091917394975,
                            -23.675508320981155
                        ],
                        [
                            -46.57311450930808,
                            -23.67546483958132
                        ],
                        [
                            -46.57316635857659,
                            -23.676719307859514
                        ],
                        [
                            -46.56974094812869,
                            -23.676686226290013
                        ],
                        [
                            -46.5702836089119,
                            -23.67509926051234
                        ]
                    ]
                ]
            }
        },
        {
            "type": "Feature",
            "properties": {
                "type": "observation",
                "score": 0.0,
                "observation_date": null,
                "source": null,
                "sensor_name": null,
                "current_phase": null,
                "is_occluded": null,
                "is_site_boundary": null
            },
            "geometry": {
                "type": "Polygon",
                "coordinates": [
                    [
                        [
                            -46.5702836089119,
                            -23.67509926051234
                        ],
                        [
                            -46.57100636579311,
                            -23.675100410894494
                        ],
                        [
                            -46.57091917394975,
                            -23.675508320981155
                        ],
                        [
                            -46.57311450930808,
                            -23.67546483958132
                        ],
                        [
                            -46.57316635857659,
                            -23.676719307859514
                        ],
                        [
                            -46.56974094812869,
                            -23.676686226290013
                        ],
                        [
                            -46.5702836089119,
                            -23.67509926051234
                        ]
                    ]
                ]
            }
        }
    ]
}