{
    "type": "FeatureCollection",
    "features": [
        {
            "type": "Feature",
            "properties": {
                "type": "site",
                "region_id": "BR_C000",
                "version": "2.0.0",
                "mgrs": "23KLP",
                "model_content": "annotation",
                "start_date": "2019-07-26",
                "end_date": "2020-12-21",
                "originator": "iMERIT",
                "site_id": "BR_C000_0621",
                "status": "positive_pending",
                "validated": "False",
                "score": 0.0,
                "misc_info": {
                    "commit_hash": "b8980b308111f4d719b33abcdfd4475cdb0511ce"
                }
            },
            "geometry": {
                "type": "Polygon",
                "coordinates": [
                    [
                        [
                            -46.3925771424112,
                            -23.58606441073125
                        ],
                        [
                            -46.391740251575364,
                            -23.585832366938853
                        ],
                        [
                            -46.39153344063618,
                            -23.586465940046413
                        ],
                        [
                            -46.39237033525196,
                            -23.586697984762253
                        ],
                        [
                            -46.3925771424112,
                            -23.58606441073125
                        ]
                    ]
                ]
            }
        },
        {
            "type": "Feature",
            "properties": {
                "type": "observation",
                "score": 0.0,
                "observation_date": "2019-07-26",
                "source": null,
                "sensor_name": null,
                "current_phase": null,
                "is_occluded": null,
                "is_site_boundary": null
            },
            "geometry": {
                "type": "Polygon",
                "coordinates": [
                    [
                        [
                            -46.3925771424112,
                            -23.58606441073125
                        ],
                        [
                            -46.391740251575364,
                            -23.585832366938853
                        ],
                        [
                            -46.39153344063618,
                            -23.586465940046413
                        ],
                        [
                            -46.39237033525196,
                            -23.586697984762253
                        ],
                        [
                            -46.3925771424112,
                            -23.58606441073125
                        ]
                    ]
                ]
            }
        },
        {
            "type": "Feature",
            "properties": {
                "type": "observation",
                "score": 0.0,
                "observation_date": "2020-12-21",
                "source": null,
                "sensor_name": null,
                "current_phase": null,
                "is_occluded": null,
                "is_site_boundary": null
            },
            "geometry": {
                "type": "Polygon",
                "coordinates": [
                    [
                        [
                            -46.3925771424112,
                            -23.58606441073125
                        ],
                        [
                            -46.391740251575364,
                            -23.585832366938853
                        ],
                        [
                            -46.39153344063618,
                            -23.586465940046413
                        ],
                        [
                            -46.39237033525196,
                            -23.586697984762253
                        ],
                        [
                            -46.3925771424112,
                            -23.58606441073125
                        ]
                    ]
                ]
            }
        }
    ]
}