{
    "type": "FeatureCollection",
    "features": [
        {
            "type": "Feature",
            "properties": {
                "type": "site",
                "region_id": "BR_C000",
                "version": "2.0.1",
                "mgrs": "23KLQ",
                "model_content": "annotation",
                "start_date": "2020-05-31",
                "end_date": "2020-11-09",
                "originator": "iMERIT",
                "site_id": "BR_C000_0797",
                "status": "positive_pending",
                "validated": "False",
                "score": 0.0,
                "misc_info": {
                    "commit_hash": "b8980b308111f4d719b33abcdfd4475cdb0511ce"
                }
            },
            "geometry": {
                "type": "Polygon",
                "coordinates": [
                    [
                        [
                            -46.326535438898276,
                            -23.477281013795814
                        ],
                        [
                            -46.32639727343211,
                            -23.477822464449133
                        ],
                        [
                            -46.325720722141995,
                            -23.47739936313839
                        ],
                        [
                            -46.32488578792357,
                            -23.477547311436556
                        ],
                        [
                            -46.32466644543554,
                            -23.476350899550805
                        ],
                        [
                            -46.32521670638922,
                            -23.476680478733673
                        ],
                        [
                            -46.326535438898276,
                            -23.477281013795814
                        ]
                    ]
                ]
            }
        },
        {
            "type": "Feature",
            "properties": {
                "type": "observation",
                "score": 0.0,
                "observation_date": "2020-05-31",
                "source": null,
                "sensor_name": null,
                "current_phase": null,
                "is_occluded": null,
                "is_site_boundary": null
            },
            "geometry": {
                "type": "Polygon",
                "coordinates": [
                    [
                        [
                            -46.326535438898276,
                            -23.477281013795814
                        ],
                        [
                            -46.32639727343211,
                            -23.477822464449133
                        ],
                        [
                            -46.325720722141995,
                            -23.47739936313839
                        ],
                        [
                            -46.32488578792357,
                            -23.477547311436556
                        ],
                        [
                            -46.32466644543554,
                            -23.476350899550805
                        ],
                        [
                            -46.32521670638922,
                            -23.476680478733673
                        ],
                        [
                            -46.326535438898276,
                            -23.477281013795814
                        ]
                    ]
                ]
            }
        },
        {
            "type": "Feature",
            "properties": {
                "type": "observation",
                "score": 0.0,
                "observation_date": "2020-11-09",
                "source": null,
                "sensor_name": null,
                "current_phase": null,
                "is_occluded": null,
                "is_site_boundary": null
            },
            "geometry": {
                "type": "Polygon",
                "coordinates": [
                    [
                        [
                            -46.326535438898276,
                            -23.477281013795814
                        ],
                        [
                            -46.32639727343211,
                            -23.477822464449133
                        ],
                        [
                            -46.325720722141995,
                            -23.47739936313839
                        ],
                        [
                            -46.32488578792357,
                            -23.477547311436556
                        ],
                        [
                            -46.32466644543554,
                            -23.476350899550805
                        ],
                        [
                            -46.32521670638922,
                            -23.476680478733673
                        ],
                        [
                            -46.326535438898276,
                            -23.477281013795814
                        ]
                    ]
                ]
            }
        }
    ]
}