{
    "type": "FeatureCollection",
    "features": [
        {
            "type": "Feature",
            "properties": {
                "type": "site",
                "region_id": "BR_C000",
                "version": "2.0.1",
                "mgrs": "23KLQ",
                "model_content": "annotation",
                "start_date": "2019-07-01",
                "end_date": "2020-07-10",
                "originator": "iMERIT",
                "site_id": "BR_C000_0833",
                "status": "positive_pending",
                "validated": "False",
                "score": 0.0,
                "misc_info": {
                    "commit_hash": "b8980b308111f4d719b33abcdfd4475cdb0511ce"
                }
            },
            "geometry": {
                "type": "Polygon",
                "coordinates": [
                    [
                        [
                            -46.52669030528706,
                            -23.477165207478684
                        ],
                        [
                            -46.52570755218412,
                            -23.47927712437326
                        ],
                        [
                            -46.525131763097875,
                            -23.479069418654188
                        ],
                        [
                            -46.525891061955306,
                            -23.476799686995246
                        ],
                        [
                            -46.52669030528706,
                            -23.477165207478684
                        ]
                    ]
                ]
            }
        },
        {
            "type": "Feature",
            "properties": {
                "type": "observation",
                "score": 0.0,
                "observation_date": "2019-07-01",
                "source": null,
                "sensor_name": null,
                "current_phase": null,
                "is_occluded": null,
                "is_site_boundary": null
            },
            "geometry": {
                "type": "Polygon",
                "coordinates": [
                    [
                        [
                            -46.52669030528706,
                            -23.477165207478684
                        ],
                        [
                            -46.52570755218412,
                            -23.47927712437326
                        ],
                        [
                            -46.525131763097875,
                            -23.479069418654188
                        ],
                        [
                            -46.525891061955306,
                            -23.476799686995246
                        ],
                        [
                            -46.52669030528706,
                            -23.477165207478684
                        ]
                    ]
                ]
            }
        },
        {
            "type": "Feature",
            "properties": {
                "type": "observation",
                "score": 0.0,
                "observation_date": "2020-07-10",
                "source": null,
                "sensor_name": null,
                "current_phase": null,
                "is_occluded": null,
                "is_site_boundary": null
            },
            "geometry": {
                "type": "Polygon",
                "coordinates": [
                    [
                        [
                            -46.52669030528706,
                            -23.477165207478684
                        ],
                        [
                            -46.52570755218412,
                            -23.47927712437326
                        ],
                        [
                            -46.525131763097875,
                            -23.479069418654188
                        ],
                        [
                            -46.525891061955306,
                            -23.476799686995246
                        ],
                        [
                            -46.52669030528706,
                            -23.477165207478684
                        ]
                    ]
                ]
            }
        }
    ]
}