{
    "type": "FeatureCollection",
    "features": [
        {
            "type": "Feature",
            "properties": {
                "type": "site",
                "region_id": "BR_C000",
                "version": "2.0.1",
                "mgrs": "23KLQ",
                "model_content": "annotation",
                "start_date": "2016-11-08",
                "end_date": "2018-03-23",
                "originator": "iMERIT",
                "site_id": "BR_C000_0705",
                "status": "positive_pending",
                "validated": "False",
                "score": 0.0,
                "misc_info": {
                    "commit_hash": "b8980b308111f4d719b33abcdfd4475cdb0511ce"
                }
            },
            "geometry": {
                "type": "Polygon",
                "coordinates": [
                    [
                        [
                            -46.868569111322216,
                            -23.49494073109157
                        ],
                        [
                            -46.86841807847024,
                            -23.495399702605603
                        ],
                        [
                            -46.86756385765013,
                            -23.495597937536246
                        ],
                        [
                            -46.86761253749688,
                            -23.49461467351359
                        ],
                        [
                            -46.867789744091155,
                            -23.49453350713618
                        ],
                        [
                            -46.868569111322216,
                            -23.49494073109157
                        ]
                    ]
                ]
            }
        },
        {
            "type": "Feature",
            "properties": {
                "type": "observation",
                "score": 0.0,
                "observation_date": "2016-11-08",
                "source": null,
                "sensor_name": null,
                "current_phase": null,
                "is_occluded": null,
                "is_site_boundary": null
            },
            "geometry": {
                "type": "Polygon",
                "coordinates": [
                    [
                        [
                            -46.868569111322216,
                            -23.49494073109157
                        ],
                        [
                            -46.86841807847024,
                            -23.495399702605603
                        ],
                        [
                            -46.86756385765013,
                            -23.495597937536246
                        ],
                        [
                            -46.86761253749688,
                            -23.49461467351359
                        ],
                        [
                            -46.867789744091155,
                            -23.49453350713618
                        ],
                        [
                            -46.868569111322216,
                            -23.49494073109157
                        ]
                    ]
                ]
            }
        },
        {
            "type": "Feature",
            "properties": {
                "type": "observation",
                "score": 0.0,
                "observation_date": "2018-03-23",
                "source": null,
                "sensor_name": null,
                "current_phase": null,
                "is_occluded": null,
                "is_site_boundary": null
            },
            "geometry": {
                "type": "Polygon",
                "coordinates": [
                    [
                        [
                            -46.868569111322216,
                            -23.49494073109157
                        ],
                        [
                            -46.86841807847024,
                            -23.495399702605603
                        ],
                        [
                            -46.86756385765013,
                            -23.495597937536246
                        ],
                        [
                            -46.86761253749688,
                            -23.49461467351359
                        ],
                        [
                            -46.867789744091155,
                            -23.49453350713618
                        ],
                        [
                            -46.868569111322216,
                            -23.49494073109157
                        ]
                    ]
                ]
            }
        }
    ]
}