{
    "type": "FeatureCollection",
    "features": [
        {
            "type": "Feature",
            "properties": {
                "type": "site",
                "region_id": "BR_C000",
                "version": "2.0.0",
                "mgrs": "23KLP",
                "model_content": "annotation",
                "start_date": "2017-08-30",
                "end_date": "2019-04-02",
                "originator": "iMERIT",
                "site_id": "BR_C000_0089",
                "status": "positive_pending",
                "validated": "False",
                "score": 0.0,
                "misc_info": {
                    "commit_hash": "b8980b308111f4d719b33abcdfd4475cdb0511ce"
                }
            },
            "geometry": {
                "type": "Polygon",
                "coordinates": [
                    [
                        [
                            -46.93342799434083,
                            -23.6283956826358
                        ],
                        [
                            -46.93189622070497,
                            -23.628217144781555
                        ],
                        [
                            -46.93181124625359,
                            -23.62896189372948
                        ],
                        [
                            -46.93336864562916,
                            -23.62915407664015
                        ],
                        [
                            -46.93342799434083,
                            -23.6283956826358
                        ]
                    ]
                ]
            }
        },
        {
            "type": "Feature",
            "properties": {
                "type": "observation",
                "score": 0.0,
                "observation_date": "2017-08-30",
                "source": null,
                "sensor_name": null,
                "current_phase": null,
                "is_occluded": null,
                "is_site_boundary": null
            },
            "geometry": {
                "type": "Polygon",
                "coordinates": [
                    [
                        [
                            -46.93342799434083,
                            -23.6283956826358
                        ],
                        [
                            -46.93189622070497,
                            -23.628217144781555
                        ],
                        [
                            -46.93181124625359,
                            -23.62896189372948
                        ],
                        [
                            -46.93336864562916,
                            -23.62915407664015
                        ],
                        [
                            -46.93342799434083,
                            -23.6283956826358
                        ]
                    ]
                ]
            }
        },
        {
            "type": "Feature",
            "properties": {
                "type": "observation",
                "score": 0.0,
                "observation_date": "2019-04-02",
                "source": null,
                "sensor_name": null,
                "current_phase": null,
                "is_occluded": null,
                "is_site_boundary": null
            },
            "geometry": {
                "type": "Polygon",
                "coordinates": [
                    [
                        [
                            -46.93342799434083,
                            -23.6283956826358
                        ],
                        [
                            -46.93189622070497,
                            -23.628217144781555
                        ],
                        [
                            -46.93181124625359,
                            -23.62896189372948
                        ],
                        [
                            -46.93336864562916,
                            -23.62915407664015
                        ],
                        [
                            -46.93342799434083,
                            -23.6283956826358
                        ]
                    ]
                ]
            }
        }
    ]
}