{
    "type": "FeatureCollection",
    "features": [
        {
            "type": "Feature",
            "properties": {
                "type": "site",
                "region_id": "BR_C000",
                "version": "2.0.1",
                "mgrs": "23KLQ",
                "model_content": "annotation",
                "start_date": "2016-08-17",
                "end_date": "2018-12-13",
                "originator": "iMERIT",
                "site_id": "BR_C000_0892",
                "status": "positive_pending",
                "validated": "False",
                "score": 0.0,
                "misc_info": {
                    "commit_hash": "b8980b308111f4d719b33abcdfd4475cdb0511ce"
                }
            },
            "geometry": {
                "type": "Polygon",
                "coordinates": [
                    [
                        [
                            -46.38658078586742,
                            -23.436952768472654
                        ],
                        [
                            -46.38810948692794,
                            -23.44151363951889
                        ],
                        [
                            -46.38955536048999,
                            -23.44190911676294
                        ],
                        [
                            -46.3894629804567,
                            -23.440604741423417
                        ],
                        [
                            -46.390030360858184,
                            -23.440597183975136
                        ],
                        [
                            -46.38998194721818,
                            -23.439213504191276
                        ],
                        [
                            -46.38938228735344,
                            -23.439379174852238
                        ],
                        [
                            -46.38917826412868,
                            -23.43882233597818
                        ],
                        [
                            -46.38872626742637,
                            -23.438698594119664
                        ],
                        [
                            -46.38832132488409,
                            -23.4376212114037
                        ],
                        [
                            -46.38658078586742,
                            -23.436952768472654
                        ]
                    ]
                ]
            }
        },
        {
            "type": "Feature",
            "properties": {
                "type": "observation",
                "score": 0.0,
                "observation_date": "2016-08-17",
                "source": null,
                "sensor_name": null,
                "current_phase": null,
                "is_occluded": null,
                "is_site_boundary": null
            },
            "geometry": {
                "type": "Polygon",
                "coordinates": [
                    [
                        [
                            -46.38658078586742,
                            -23.436952768472654
                        ],
                        [
                            -46.38810948692794,
                            -23.44151363951889
                        ],
                        [
                            -46.38955536048999,
                            -23.44190911676294
                        ],
                        [
                            -46.3894629804567,
                            -23.440604741423417
                        ],
                        [
                            -46.390030360858184,
                            -23.440597183975136
                        ],
                        [
                            -46.38998194721818,
                            -23.439213504191276
                        ],
                        [
                            -46.38938228735344,
                            -23.439379174852238
                        ],
                        [
                            -46.38917826412868,
                            -23.43882233597818
                        ],
                        [
                            -46.38872626742637,
                            -23.438698594119664
                        ],
                        [
                            -46.38832132488409,
                            -23.4376212114037
                        ],
                        [
                            -46.38658078586742,
                            -23.436952768472654
                        ]
                    ]
                ]
            }
        },
        {
            "type": "Feature",
            "properties": {
                "type": "observation",
                "score": 0.0,
                "observation_date": "2018-12-13",
                "source": null,
                "sensor_name": null,
                "current_phase": null,
                "is_occluded": null,
                "is_site_boundary": null
            },
            "geometry": {
                "type": "Polygon",
                "coordinates": [
                    [
                        [
                            -46.38658078586742,
                            -23.436952768472654
                        ],
                        [
                            -46.38810948692794,
                            -23.44151363951889
                        ],
                        [
                            -46.38955536048999,
                            -23.44190911676294
                        ],
                        [
                            -46.3894629804567,
                            -23.440604741423417
                        ],
                        [
                            -46.390030360858184,
                            -23.440597183975136
                        ],
                        [
                            -46.38998194721818,
                            -23.439213504191276
                        ],
                        [
                            -46.38938228735344,
                            -23.439379174852238
                        ],
                        [
                            -46.38917826412868,
                            -23.43882233597818
                        ],
                        [
                            -46.38872626742637,
                            -23.438698594119664
                        ],
                        [
                            -46.38832132488409,
                            -23.4376212114037
                        ],
                        [
                            -46.38658078586742,
                            -23.436952768472654
                        ]
                    ]
                ]
            }
        }
    ]
}