{
    "type": "FeatureCollection",
    "features": [
        {
            "type": "Feature",
            "properties": {
                "type": "site",
                "region_id": "BR_C000",
                "version": "2.0.0",
                "mgrs": "23KLP",
                "model_content": "annotation",
                "start_date": "2017-07-06",
                "end_date": "2019-04-27",
                "originator": "iMERIT",
                "site_id": "BR_C000_0643",
                "status": "positive_pending",
                "validated": "False",
                "score": 0.0,
                "misc_info": {
                    "commit_hash": "b8980b308111f4d719b33abcdfd4475cdb0511ce"
                }
            },
            "geometry": {
                "type": "Polygon",
                "coordinates": [
                    [
                        [
                            -46.213503619132226,
                            -23.56788660713602
                        ],
                        [
                            -46.21347473436286,
                            -23.56820520385388
                        ],
                        [
                            -46.21241117547946,
                            -23.568686871271932
                        ],
                        [
                            -46.21136017616237,
                            -23.56855682563098
                        ],
                        [
                            -46.21163906881749,
                            -23.566757529191392
                        ],
                        [
                            -46.21219025793213,
                            -23.567394163587853
                        ],
                        [
                            -46.212830106679114,
                            -23.5677871364818
                        ],
                        [
                            -46.213503619132226,
                            -23.56788660713602
                        ]
                    ]
                ]
            }
        },
        {
            "type": "Feature",
            "properties": {
                "type": "observation",
                "score": 0.0,
                "observation_date": "2017-07-06",
                "source": null,
                "sensor_name": null,
                "current_phase": null,
                "is_occluded": null,
                "is_site_boundary": null
            },
            "geometry": {
                "type": "Polygon",
                "coordinates": [
                    [
                        [
                            -46.213503619132226,
                            -23.56788660713602
                        ],
                        [
                            -46.21347473436286,
                            -23.56820520385388
                        ],
                        [
                            -46.21241117547946,
                            -23.568686871271932
                        ],
                        [
                            -46.21136017616237,
                            -23.56855682563098
                        ],
                        [
                            -46.21163906881749,
                            -23.566757529191392
                        ],
                        [
                            -46.21219025793213,
                            -23.567394163587853
                        ],
                        [
                            -46.212830106679114,
                            -23.5677871364818
                        ],
                        [
                            -46.213503619132226,
                            -23.56788660713602
                        ]
                    ]
                ]
            }
        },
        {
            "type": "Feature",
            "properties": {
                "type": "observation",
                "score": 0.0,
                "observation_date": "2019-04-27",
                "source": null,
                "sensor_name": null,
                "current_phase": null,
                "is_occluded": null,
                "is_site_boundary": null
            },
            "geometry": {
                "type": "Polygon",
                "coordinates": [
                    [
                        [
                            -46.213503619132226,
                            -23.56788660713602
                        ],
                        [
                            -46.21347473436286,
                            -23.56820520385388
                        ],
                        [
                            -46.21241117547946,
                            -23.568686871271932
                        ],
                        [
                            -46.21136017616237,
                            -23.56855682563098
                        ],
                        [
                            -46.21163906881749,
                            -23.566757529191392
                        ],
                        [
                            -46.21219025793213,
                            -23.567394163587853
                        ],
                        [
                            -46.212830106679114,
                            -23.5677871364818
                        ],
                        [
                            -46.213503619132226,
                            -23.56788660713602
                        ]
                    ]
                ]
            }
        }
    ]
}