{
    "type": "FeatureCollection",
    "features": [
        {
            "type": "Feature",
            "properties": {
                "type": "site",
                "region_id": "BR_C000",
                "version": "2.0.1",
                "mgrs": "23KLP",
                "model_content": "annotation",
                "start_date": "2015-06-29",
                "end_date": "2018-11-28",
                "originator": "iMERIT",
                "site_id": "BR_C000_0300",
                "status": "positive_pending",
                "validated": "False",
                "score": 0.0,
                "misc_info": {
                    "commit_hash": "b8980b308111f4d719b33abcdfd4475cdb0511ce"
                }
            },
            "geometry": {
                "type": "Polygon",
                "coordinates": [
                    [
                        [
                            -46.763169040360985,
                            -23.53595639273623
                        ],
                        [
                            -46.76130036235711,
                            -23.535544166373764
                        ],
                        [
                            -46.76140508646733,
                            -23.53726269782319
                        ],
                        [
                            -46.76291161043788,
                            -23.53727462848743
                        ],
                        [
                            -46.76301629336068,
                            -23.53671708931511
                        ],
                        [
                            -46.763169040360985,
                            -23.53595639273623
                        ]
                    ]
                ]
            }
        },
        {
            "type": "Feature",
            "properties": {
                "type": "observation",
                "score": 0.0,
                "observation_date": "2015-06-29",
                "source": null,
                "sensor_name": null,
                "current_phase": null,
                "is_occluded": null,
                "is_site_boundary": null
            },
            "geometry": {
                "type": "Polygon",
                "coordinates": [
                    [
                        [
                            -46.763169040360985,
                            -23.53595639273623
                        ],
                        [
                            -46.76130036235711,
                            -23.535544166373764
                        ],
                        [
                            -46.76140508646733,
                            -23.53726269782319
                        ],
                        [
                            -46.76291161043788,
                            -23.53727462848743
                        ],
                        [
                            -46.76301629336068,
                            -23.53671708931511
                        ],
                        [
                            -46.763169040360985,
                            -23.53595639273623
                        ]
                    ]
                ]
            }
        },
        {
            "type": "Feature",
            "properties": {
                "type": "observation",
                "score": 0.0,
                "observation_date": "2018-11-28",
                "source": null,
                "sensor_name": null,
                "current_phase": null,
                "is_occluded": null,
                "is_site_boundary": null
            },
            "geometry": {
                "type": "Polygon",
                "coordinates": [
                    [
                        [
                            -46.763169040360985,
                            -23.53595639273623
                        ],
                        [
                            -46.76130036235711,
                            -23.535544166373764
                        ],
                        [
                            -46.76140508646733,
                            -23.53726269782319
                        ],
                        [
                            -46.76291161043788,
                            -23.53727462848743
                        ],
                        [
                            -46.76301629336068,
                            -23.53671708931511
                        ],
                        [
                            -46.763169040360985,
                            -23.53595639273623
                        ]
                    ]
                ]
            }
        }
    ]
}