{
    "type": "FeatureCollection",
    "features": [
        {
            "type": "Feature",
            "properties": {
                "type": "site",
                "region_id": "BR_C000",
                "version": "2.0.1",
                "mgrs": "23KLP",
                "model_content": "annotation",
                "start_date": "2021-03-02",
                "end_date": "2023-07-05",
                "originator": "iMERIT",
                "site_id": "BR_C000_0600",
                "status": "positive_pending",
                "validated": "False",
                "score": 0.0,
                "misc_info": {
                    "commit_hash": "b8980b308111f4d719b33abcdfd4475cdb0511ce"
                }
            },
            "geometry": {
                "type": "Polygon",
                "coordinates": [
                    [
                        [
                            -46.42126866997645,
                            -23.541604060008012
                        ],
                        [
                            -46.41995101697235,
                            -23.542051181335882
                        ],
                        [
                            -46.419849398488736,
                            -23.542267967434245
                        ],
                        [
                            -46.421126404099404,
                            -23.543263828573593
                        ],
                        [
                            -46.42126528269367,
                            -23.543087689868674
                        ],
                        [
                            -46.42126866997645,
                            -23.541604060008012
                        ]
                    ]
                ]
            }
        },
        {
            "type": "Feature",
            "properties": {
                "type": "observation",
                "score": 0.0,
                "observation_date": "2021-03-02",
                "source": null,
                "sensor_name": null,
                "current_phase": null,
                "is_occluded": null,
                "is_site_boundary": null
            },
            "geometry": {
                "type": "Polygon",
                "coordinates": [
                    [
                        [
                            -46.42126866997645,
                            -23.541604060008012
                        ],
                        [
                            -46.41995101697235,
                            -23.542051181335882
                        ],
                        [
                            -46.419849398488736,
                            -23.542267967434245
                        ],
                        [
                            -46.421126404099404,
                            -23.543263828573593
                        ],
                        [
                            -46.42126528269367,
                            -23.543087689868674
                        ],
                        [
                            -46.42126866997645,
                            -23.541604060008012
                        ]
                    ]
                ]
            }
        },
        {
            "type": "Feature",
            "properties": {
                "type": "observation",
                "score": 0.0,
                "observation_date": "2023-07-05",
                "source": null,
                "sensor_name": null,
                "current_phase": null,
                "is_occluded": null,
                "is_site_boundary": null
            },
            "geometry": {
                "type": "Polygon",
                "coordinates": [
                    [
                        [
                            -46.42126866997645,
                            -23.541604060008012
                        ],
                        [
                            -46.41995101697235,
                            -23.542051181335882
                        ],
                        [
                            -46.419849398488736,
                            -23.542267967434245
                        ],
                        [
                            -46.421126404099404,
                            -23.543263828573593
                        ],
                        [
                            -46.42126528269367,
                            -23.543087689868674
                        ],
                        [
                            -46.42126866997645,
                            -23.541604060008012
                        ]
                    ]
                ]
            }
        }
    ]
}