{
    "type": "FeatureCollection",
    "features": [
        {
            "type": "Feature",
            "properties": {
                "type": "site",
                "region_id": "BR_C000",
                "version": "2.0.1",
                "mgrs": "23KLQ",
                "model_content": "annotation",
                "start_date": "2017-07-26",
                "end_date": "2019-08-09",
                "originator": "iMERIT",
                "site_id": "BR_C000_0794",
                "status": "positive_pending",
                "validated": "False",
                "score": 0.0,
                "misc_info": {
                    "commit_hash": "b8980b308111f4d719b33abcdfd4475cdb0511ce"
                }
            },
            "geometry": {
                "type": "Polygon",
                "coordinates": [
                    [
                        [
                            -46.31099106999526,
                            -23.440845254796166
                        ],
                        [
                            -46.31107690641004,
                            -23.440392204053563
                        ],
                        [
                            -46.30882969709696,
                            -23.43939777707149
                        ],
                        [
                            -46.30866222299052,
                            -23.440437696407717
                        ],
                        [
                            -46.310702275768186,
                            -23.44081922943977
                        ],
                        [
                            -46.31037176257296,
                            -23.441665786174458
                        ],
                        [
                            -46.311036249962484,
                            -23.44181367031221
                        ],
                        [
                            -46.311025957993046,
                            -23.441925176301485
                        ],
                        [
                            -46.311361505751194,
                            -23.44198752713282
                        ],
                        [
                            -46.31150307336229,
                            -23.441094981361164
                        ],
                        [
                            -46.31099106999526,
                            -23.440845254796166
                        ]
                    ]
                ]
            }
        },
        {
            "type": "Feature",
            "properties": {
                "type": "observation",
                "score": 0.0,
                "observation_date": "2017-07-26",
                "source": null,
                "sensor_name": null,
                "current_phase": null,
                "is_occluded": null,
                "is_site_boundary": null
            },
            "geometry": {
                "type": "Polygon",
                "coordinates": [
                    [
                        [
                            -46.31099106999526,
                            -23.440845254796166
                        ],
                        [
                            -46.31107690641004,
                            -23.440392204053563
                        ],
                        [
                            -46.30882969709696,
                            -23.43939777707149
                        ],
                        [
                            -46.30866222299052,
                            -23.440437696407717
                        ],
                        [
                            -46.310702275768186,
                            -23.44081922943977
                        ],
                        [
                            -46.31037176257296,
                            -23.441665786174458
                        ],
                        [
                            -46.311036249962484,
                            -23.44181367031221
                        ],
                        [
                            -46.311025957993046,
                            -23.441925176301485
                        ],
                        [
                            -46.311361505751194,
                            -23.44198752713282
                        ],
                        [
                            -46.31150307336229,
                            -23.441094981361164
                        ],
                        [
                            -46.31099106999526,
                            -23.440845254796166
                        ]
                    ]
                ]
            }
        },
        {
            "type": "Feature",
            "properties": {
                "type": "observation",
                "score": 0.0,
                "observation_date": "2019-08-09",
                "source": null,
                "sensor_name": null,
                "current_phase": null,
                "is_occluded": null,
                "is_site_boundary": null
            },
            "geometry": {
                "type": "Polygon",
                "coordinates": [
                    [
                        [
                            -46.31099106999526,
                            -23.440845254796166
                        ],
                        [
                            -46.31107690641004,
                            -23.440392204053563
                        ],
                        [
                            -46.30882969709696,
                            -23.43939777707149
                        ],
                        [
                            -46.30866222299052,
                            -23.440437696407717
                        ],
                        [
                            -46.310702275768186,
                            -23.44081922943977
                        ],
                        [
                            -46.31037176257296,
                            -23.441665786174458
                        ],
                        [
                            -46.311036249962484,
                            -23.44181367031221
                        ],
                        [
                            -46.311025957993046,
                            -23.441925176301485
                        ],
                        [
                            -46.311361505751194,
                            -23.44198752713282
                        ],
                        [
                            -46.31150307336229,
                            -23.441094981361164
                        ],
                        [
                            -46.31099106999526,
                            -23.440845254796166
                        ]
                    ]
                ]
            }
        }
    ]
}