{
    "type": "FeatureCollection",
    "features": [
        {
            "type": "Feature",
            "properties": {
                "type": "site",
                "region_id": "BR_C000",
                "version": "2.0.1",
                "mgrs": "23KLQ",
                "model_content": "annotation",
                "start_date": "2018-07-01",
                "end_date": "2022-04-11",
                "originator": "iMERIT",
                "site_id": "BR_C000_0659",
                "status": "positive_pending",
                "validated": "False",
                "score": 0.0,
                "misc_info": {
                    "commit_hash": "b8980b308111f4d719b33abcdfd4475cdb0511ce"
                }
            },
            "geometry": {
                "type": "Polygon",
                "coordinates": [
                    [
                        [
                            -46.6640849349376,
                            -23.39150696304937
                        ],
                        [
                            -46.66461573038391,
                            -23.392099336447433
                        ],
                        [
                            -46.664005376368145,
                            -23.392520835168973
                        ],
                        [
                            -46.66390812425772,
                            -23.392487819221117
                        ],
                        [
                            -46.663525991350596,
                            -23.391983245853726
                        ],
                        [
                            -46.66359440868301,
                            -23.391922927966387
                        ],
                        [
                            -46.66378337828806,
                            -23.392099685773577
                        ],
                        [
                            -46.66409168094157,
                            -23.391862301315893
                        ],
                        [
                            -46.66391561303707,
                            -23.391610919391773
                        ],
                        [
                            -46.6640849349376,
                            -23.39150696304937
                        ]
                    ]
                ]
            }
        },
        {
            "type": "Feature",
            "properties": {
                "type": "observation",
                "score": 0.0,
                "observation_date": "2018-07-01",
                "source": null,
                "sensor_name": null,
                "current_phase": null,
                "is_occluded": null,
                "is_site_boundary": null
            },
            "geometry": {
                "type": "Polygon",
                "coordinates": [
                    [
                        [
                            -46.6640849349376,
                            -23.39150696304937
                        ],
                        [
                            -46.66461573038391,
                            -23.392099336447433
                        ],
                        [
                            -46.664005376368145,
                            -23.392520835168973
                        ],
                        [
                            -46.66390812425772,
                            -23.392487819221117
                        ],
                        [
                            -46.663525991350596,
                            -23.391983245853726
                        ],
                        [
                            -46.66359440868301,
                            -23.391922927966387
                        ],
                        [
                            -46.66378337828806,
                            -23.392099685773577
                        ],
                        [
                            -46.66409168094157,
                            -23.391862301315893
                        ],
                        [
                            -46.66391561303707,
                            -23.391610919391773
                        ],
                        [
                            -46.6640849349376,
                            -23.39150696304937
                        ]
                    ]
                ]
            }
        },
        {
            "type": "Feature",
            "properties": {
                "type": "observation",
                "score": 0.0,
                "observation_date": "2022-04-11",
                "source": null,
                "sensor_name": null,
                "current_phase": null,
                "is_occluded": null,
                "is_site_boundary": null
            },
            "geometry": {
                "type": "Polygon",
                "coordinates": [
                    [
                        [
                            -46.6640849349376,
                            -23.39150696304937
                        ],
                        [
                            -46.66461573038391,
                            -23.392099336447433
                        ],
                        [
                            -46.664005376368145,
                            -23.392520835168973
                        ],
                        [
                            -46.66390812425772,
                            -23.392487819221117
                        ],
                        [
                            -46.663525991350596,
                            -23.391983245853726
                        ],
                        [
                            -46.66359440868301,
                            -23.391922927966387
                        ],
                        [
                            -46.66378337828806,
                            -23.392099685773577
                        ],
                        [
                            -46.66409168094157,
                            -23.391862301315893
                        ],
                        [
                            -46.66391561303707,
                            -23.391610919391773
                        ],
                        [
                            -46.6640849349376,
                            -23.39150696304937
                        ]
                    ]
                ]
            }
        }
    ]
}