{
    "type": "FeatureCollection",
    "features": [
        {
            "type": "Feature",
            "properties": {
                "type": "site",
                "region_id": "BR_C000",
                "version": "2.0.0",
                "mgrs": "23KLP",
                "model_content": "annotation",
                "start_date": "2017-07-06",
                "end_date": null,
                "originator": "iMERIT",
                "site_id": "BR_C000_0260",
                "status": "positive_pending",
                "validated": "False",
                "score": 0.0,
                "misc_info": {
                    "commit_hash": "b8980b308111f4d719b33abcdfd4475cdb0511ce"
                }
            },
            "geometry": {
                "type": "Polygon",
                "coordinates": [
                    [
                        [
                            -46.81460790041363,
                            -23.627313590139238
                        ],
                        [
                            -46.816036316022185,
                            -23.629032152668284
                        ],
                        [
                            -46.81677284282035,
                            -23.628600652119868
                        ],
                        [
                            -46.81700347242381,
                            -23.628913118034237
                        ],
                        [
                            -46.81801526681321,
                            -23.627968280626494
                        ],
                        [
                            -46.81629670428416,
                            -23.625795898555143
                        ],
                        [
                            -46.81533698754716,
                            -23.626286916420586
                        ],
                        [
                            -46.81468229705991,
                            -23.62688208959082
                        ],
                        [
                            -46.81460790041363,
                            -23.627313590139238
                        ]
                    ]
                ]
            }
        },
        {
            "type": "Feature",
            "properties": {
                "type": "observation",
                "score": 0.0,
                "observation_date": "2017-07-06",
                "source": null,
                "sensor_name": null,
                "current_phase": null,
                "is_occluded": null,
                "is_site_boundary": null
            },
            "geometry": {
                "type": "Polygon",
                "coordinates": [
                    [
                        [
                            -46.81460790041363,
                            -23.627313590139238
                        ],
                        [
                            -46.816036316022185,
                            -23.629032152668284
                        ],
                        [
                            -46.81677284282035,
                            -23.628600652119868
                        ],
                        [
                            -46.81700347242381,
                            -23.628913118034237
                        ],
                        [
                            -46.81801526681321,
                            -23.627968280626494
                        ],
                        [
                            -46.81629670428416,
                            -23.625795898555143
                        ],
                        [
                            -46.81533698754716,
                            -23.626286916420586
                        ],
                        [
                            -46.81468229705991,
                            -23.62688208959082
                        ],
                        [
                            -46.81460790041363,
                            -23.627313590139238
                        ]
                    ]
                ]
            }
        },
        {
            "type": "Feature",
            "properties": {
                "type": "observation",
                "score": 0.0,
                "observation_date": null,
                "source": null,
                "sensor_name": null,
                "current_phase": null,
                "is_occluded": null,
                "is_site_boundary": null
            },
            "geometry": {
                "type": "Polygon",
                "coordinates": [
                    [
                        [
                            -46.81460790041363,
                            -23.627313590139238
                        ],
                        [
                            -46.816036316022185,
                            -23.629032152668284
                        ],
                        [
                            -46.81677284282035,
                            -23.628600652119868
                        ],
                        [
                            -46.81700347242381,
                            -23.628913118034237
                        ],
                        [
                            -46.81801526681321,
                            -23.627968280626494
                        ],
                        [
                            -46.81629670428416,
                            -23.625795898555143
                        ],
                        [
                            -46.81533698754716,
                            -23.626286916420586
                        ],
                        [
                            -46.81468229705991,
                            -23.62688208959082
                        ],
                        [
                            -46.81460790041363,
                            -23.627313590139238
                        ]
                    ]
                ]
            }
        }
    ]
}