{
    "type": "FeatureCollection",
    "features": [
        {
            "type": "Feature",
            "properties": {
                "type": "site",
                "region_id": "BR_C000",
                "version": "2.0.1",
                "mgrs": "23KLQ",
                "model_content": "annotation",
                "start_date": "2020-10-13",
                "end_date": "2022-10-13",
                "originator": "iMERIT",
                "site_id": "BR_C000_0756",
                "status": "positive_pending",
                "validated": "False",
                "score": 0.0,
                "misc_info": {
                    "commit_hash": "b8980b308111f4d719b33abcdfd4475cdb0511ce"
                }
            },
            "geometry": {
                "type": "Polygon",
                "coordinates": [
                    [
                        [
                            -46.723793147239085,
                            -23.404707707688114
                        ],
                        [
                            -46.72379309070153,
                            -23.405860862152146
                        ],
                        [
                            -46.72345272909418,
                            -23.405821566103594
                        ],
                        [
                            -46.72227590011219,
                            -23.404739815727186
                        ],
                        [
                            -46.723793147239085,
                            -23.404707707688114
                        ]
                    ]
                ]
            }
        },
        {
            "type": "Feature",
            "properties": {
                "type": "observation",
                "score": 0.0,
                "observation_date": "2020-10-13",
                "source": null,
                "sensor_name": null,
                "current_phase": null,
                "is_occluded": null,
                "is_site_boundary": null
            },
            "geometry": {
                "type": "Polygon",
                "coordinates": [
                    [
                        [
                            -46.723793147239085,
                            -23.404707707688114
                        ],
                        [
                            -46.72379309070153,
                            -23.405860862152146
                        ],
                        [
                            -46.72345272909418,
                            -23.405821566103594
                        ],
                        [
                            -46.72227590011219,
                            -23.404739815727186
                        ],
                        [
                            -46.723793147239085,
                            -23.404707707688114
                        ]
                    ]
                ]
            }
        },
        {
            "type": "Feature",
            "properties": {
                "type": "observation",
                "score": 0.0,
                "observation_date": "2022-10-13",
                "source": null,
                "sensor_name": null,
                "current_phase": null,
                "is_occluded": null,
                "is_site_boundary": null
            },
            "geometry": {
                "type": "Polygon",
                "coordinates": [
                    [
                        [
                            -46.723793147239085,
                            -23.404707707688114
                        ],
                        [
                            -46.72379309070153,
                            -23.405860862152146
                        ],
                        [
                            -46.72345272909418,
                            -23.405821566103594
                        ],
                        [
                            -46.72227590011219,
                            -23.404739815727186
                        ],
                        [
                            -46.723793147239085,
                            -23.404707707688114
                        ]
                    ]
                ]
            }
        }
    ]
}