{
    "type": "FeatureCollection",
    "features": [
        {
            "type": "Feature",
            "properties": {
                "type": "site",
                "region_id": "BR_C000",
                "version": "2.0.0",
                "mgrs": "23KLP",
                "model_content": "annotation",
                "start_date": "2018-02-11",
                "end_date": "2020-04-26",
                "originator": "iMERIT",
                "site_id": "BR_C000_0609",
                "status": "positive_pending",
                "validated": "False",
                "score": 0.0,
                "misc_info": {
                    "commit_hash": "b8980b308111f4d719b33abcdfd4475cdb0511ce"
                }
            },
            "geometry": {
                "type": "Polygon",
                "coordinates": [
                    [
                        [
                            -46.37042129951793,
                            -23.550386129661455
                        ],
                        [
                            -46.37045151751829,
                            -23.549848282161083
                        ],
                        [
                            -46.368829213563004,
                            -23.549798505070537
                        ],
                        [
                            -46.368798989845516,
                            -23.55033635266082
                        ],
                        [
                            -46.37042129951793,
                            -23.550386129661455
                        ]
                    ]
                ]
            }
        },
        {
            "type": "Feature",
            "properties": {
                "type": "observation",
                "score": 0.0,
                "observation_date": "2018-02-11",
                "source": null,
                "sensor_name": null,
                "current_phase": null,
                "is_occluded": null,
                "is_site_boundary": null
            },
            "geometry": {
                "type": "Polygon",
                "coordinates": [
                    [
                        [
                            -46.37042129951793,
                            -23.550386129661455
                        ],
                        [
                            -46.37045151751829,
                            -23.549848282161083
                        ],
                        [
                            -46.368829213563004,
                            -23.549798505070537
                        ],
                        [
                            -46.368798989845516,
                            -23.55033635266082
                        ],
                        [
                            -46.37042129951793,
                            -23.550386129661455
                        ]
                    ]
                ]
            }
        },
        {
            "type": "Feature",
            "properties": {
                "type": "observation",
                "score": 0.0,
                "observation_date": "2020-04-26",
                "source": null,
                "sensor_name": null,
                "current_phase": null,
                "is_occluded": null,
                "is_site_boundary": null
            },
            "geometry": {
                "type": "Polygon",
                "coordinates": [
                    [
                        [
                            -46.37042129951793,
                            -23.550386129661455
                        ],
                        [
                            -46.37045151751829,
                            -23.549848282161083
                        ],
                        [
                            -46.368829213563004,
                            -23.549798505070537
                        ],
                        [
                            -46.368798989845516,
                            -23.55033635266082
                        ],
                        [
                            -46.37042129951793,
                            -23.550386129661455
                        ]
                    ]
                ]
            }
        }
    ]
}