{
    "type": "FeatureCollection",
    "features": [
        {
            "type": "Feature",
            "properties": {
                "type": "site",
                "region_id": "BR_C000",
                "version": "2.0.0",
                "mgrs": "23KLP",
                "model_content": "annotation",
                "start_date": "2017-11-03",
                "end_date": "2019-04-02",
                "originator": "iMERIT",
                "site_id": "BR_C000_0092",
                "status": "positive_pending",
                "validated": "False",
                "score": 0.0,
                "misc_info": {
                    "commit_hash": "b8980b308111f4d719b33abcdfd4475cdb0511ce"
                }
            },
            "geometry": {
                "type": "Polygon",
                "coordinates": [
                    [
                        [
                            -46.91994741374077,
                            -23.519015547830932
                        ],
                        [
                            -46.91852415797881,
                            -23.518789191356852
                        ],
                        [
                            -46.918537852379295,
                            -23.51941376507197
                        ],
                        [
                            -46.91869413566379,
                            -23.51995099985404
                        ],
                        [
                            -46.91955173939489,
                            -23.520210005770167
                        ],
                        [
                            -46.91982940550605,
                            -23.519517653013907
                        ],
                        [
                            -46.91994741374077,
                            -23.519015547830932
                        ]
                    ]
                ]
            }
        },
        {
            "type": "Feature",
            "properties": {
                "type": "observation",
                "score": 0.0,
                "observation_date": "2017-11-03",
                "source": null,
                "sensor_name": null,
                "current_phase": null,
                "is_occluded": null,
                "is_site_boundary": null
            },
            "geometry": {
                "type": "Polygon",
                "coordinates": [
                    [
                        [
                            -46.91994741374077,
                            -23.519015547830932
                        ],
                        [
                            -46.91852415797881,
                            -23.518789191356852
                        ],
                        [
                            -46.918537852379295,
                            -23.51941376507197
                        ],
                        [
                            -46.91869413566379,
                            -23.51995099985404
                        ],
                        [
                            -46.91955173939489,
                            -23.520210005770167
                        ],
                        [
                            -46.91982940550605,
                            -23.519517653013907
                        ],
                        [
                            -46.91994741374077,
                            -23.519015547830932
                        ]
                    ]
                ]
            }
        },
        {
            "type": "Feature",
            "properties": {
                "type": "observation",
                "score": 0.0,
                "observation_date": "2019-04-02",
                "source": null,
                "sensor_name": null,
                "current_phase": null,
                "is_occluded": null,
                "is_site_boundary": null
            },
            "geometry": {
                "type": "Polygon",
                "coordinates": [
                    [
                        [
                            -46.91994741374077,
                            -23.519015547830932
                        ],
                        [
                            -46.91852415797881,
                            -23.518789191356852
                        ],
                        [
                            -46.918537852379295,
                            -23.51941376507197
                        ],
                        [
                            -46.91869413566379,
                            -23.51995099985404
                        ],
                        [
                            -46.91955173939489,
                            -23.520210005770167
                        ],
                        [
                            -46.91982940550605,
                            -23.519517653013907
                        ],
                        [
                            -46.91994741374077,
                            -23.519015547830932
                        ]
                    ]
                ]
            }
        }
    ]
}