{
    "type": "FeatureCollection",
    "features": [
        {
            "type": "Feature",
            "properties": {
                "type": "site",
                "region_id": "BR_C000",
                "version": "2.0.1",
                "mgrs": "23KLP",
                "model_content": "annotation",
                "start_date": "2015-02-21",
                "end_date": "2017-03-23",
                "originator": "iMERIT",
                "site_id": "BR_C000_0595",
                "status": "positive_pending",
                "validated": "False",
                "score": 0.0,
                "misc_info": {
                    "commit_hash": "b8980b308111f4d719b33abcdfd4475cdb0511ce"
                }
            },
            "geometry": {
                "type": "Polygon",
                "coordinates": [
                    [
                        [
                            -46.44236805445609,
                            -23.556494555139235
                        ],
                        [
                            -46.44030858652165,
                            -23.556901029073664
                        ],
                        [
                            -46.44067441306264,
                            -23.558201745663837
                        ],
                        [
                            -46.44281517578396,
                            -23.55790366477859
                        ],
                        [
                            -46.44236805445609,
                            -23.556494555139235
                        ]
                    ]
                ]
            }
        },
        {
            "type": "Feature",
            "properties": {
                "type": "observation",
                "score": 0.0,
                "observation_date": "2015-02-21",
                "source": null,
                "sensor_name": null,
                "current_phase": null,
                "is_occluded": null,
                "is_site_boundary": null
            },
            "geometry": {
                "type": "Polygon",
                "coordinates": [
                    [
                        [
                            -46.44236805445609,
                            -23.556494555139235
                        ],
                        [
                            -46.44030858652165,
                            -23.556901029073664
                        ],
                        [
                            -46.44067441306264,
                            -23.558201745663837
                        ],
                        [
                            -46.44281517578396,
                            -23.55790366477859
                        ],
                        [
                            -46.44236805445609,
                            -23.556494555139235
                        ]
                    ]
                ]
            }
        },
        {
            "type": "Feature",
            "properties": {
                "type": "observation",
                "score": 0.0,
                "observation_date": "2017-03-23",
                "source": null,
                "sensor_name": null,
                "current_phase": null,
                "is_occluded": null,
                "is_site_boundary": null
            },
            "geometry": {
                "type": "Polygon",
                "coordinates": [
                    [
                        [
                            -46.44236805445609,
                            -23.556494555139235
                        ],
                        [
                            -46.44030858652165,
                            -23.556901029073664
                        ],
                        [
                            -46.44067441306264,
                            -23.558201745663837
                        ],
                        [
                            -46.44281517578396,
                            -23.55790366477859
                        ],
                        [
                            -46.44236805445609,
                            -23.556494555139235
                        ]
                    ]
                ]
            }
        }
    ]
}