{
    "type": "FeatureCollection",
    "features": [
        {
            "type": "Feature",
            "properties": {
                "type": "site",
                "region_id": "BR_C000",
                "version": "2.0.1",
                "mgrs": "23JLP",
                "model_content": "annotation",
                "start_date": "2016-07-07",
                "end_date": "2021-09-03",
                "originator": "iMERIT",
                "site_id": "BR_C000_0006",
                "status": "positive_pending",
                "validated": "False",
                "score": 0.0,
                "misc_info": {
                    "commit_hash": "b8980b308111f4d719b33abcdfd4475cdb0511ce"
                }
            },
            "geometry": {
                "type": "Polygon",
                "coordinates": [
                    [
                        [
                            -46.493684185784254,
                            -24.033974475198246
                        ],
                        [
                            -46.49330889312565,
                            -24.03353541922386
                        ],
                        [
                            -46.492816157766875,
                            -24.03388323241829
                        ],
                        [
                            -46.49268121922391,
                            -24.033705113541583
                        ],
                        [
                            -46.49219664974115,
                            -24.034072276321467
                        ],
                        [
                            -46.4927126967398,
                            -24.034677560881644
                        ],
                        [
                            -46.493684185784254,
                            -24.033974475198246
                        ]
                    ]
                ]
            }
        },
        {
            "type": "Feature",
            "properties": {
                "type": "observation",
                "score": 0.0,
                "observation_date": "2016-07-07",
                "source": null,
                "sensor_name": null,
                "current_phase": null,
                "is_occluded": null,
                "is_site_boundary": null
            },
            "geometry": {
                "type": "Polygon",
                "coordinates": [
                    [
                        [
                            -46.493684185784254,
                            -24.033974475198246
                        ],
                        [
                            -46.49330889312565,
                            -24.03353541922386
                        ],
                        [
                            -46.492816157766875,
                            -24.03388323241829
                        ],
                        [
                            -46.49268121922391,
                            -24.033705113541583
                        ],
                        [
                            -46.49219664974115,
                            -24.034072276321467
                        ],
                        [
                            -46.4927126967398,
                            -24.034677560881644
                        ],
                        [
                            -46.493684185784254,
                            -24.033974475198246
                        ]
                    ]
                ]
            }
        },
        {
            "type": "Feature",
            "properties": {
                "type": "observation",
                "score": 0.0,
                "observation_date": "2021-09-03",
                "source": null,
                "sensor_name": null,
                "current_phase": null,
                "is_occluded": null,
                "is_site_boundary": null
            },
            "geometry": {
                "type": "Polygon",
                "coordinates": [
                    [
                        [
                            -46.493684185784254,
                            -24.033974475198246
                        ],
                        [
                            -46.49330889312565,
                            -24.03353541922386
                        ],
                        [
                            -46.492816157766875,
                            -24.03388323241829
                        ],
                        [
                            -46.49268121922391,
                            -24.033705113541583
                        ],
                        [
                            -46.49219664974115,
                            -24.034072276321467
                        ],
                        [
                            -46.4927126967398,
                            -24.034677560881644
                        ],
                        [
                            -46.493684185784254,
                            -24.033974475198246
                        ]
                    ]
                ]
            }
        }
    ]
}