{
    "type": "FeatureCollection",
    "features": [
        {
            "type": "Feature",
            "properties": {
                "type": "site",
                "region_id": "BR_C000",
                "version": "2.0.0",
                "mgrs": "23KLP",
                "model_content": "annotation",
                "start_date": "2018-04-07",
                "end_date": "2019-05-27",
                "originator": "iMERIT",
                "site_id": "BR_C000_0217",
                "status": "positive_pending",
                "validated": "False",
                "score": 0.0,
                "misc_info": {
                    "commit_hash": "b8980b308111f4d719b33abcdfd4475cdb0511ce"
                }
            },
            "geometry": {
                "type": "Polygon",
                "coordinates": [
                    [
                        [
                            -46.684922183323835,
                            -23.514047308830975
                        ],
                        [
                            -46.683155190726836,
                            -23.513848164515398
                        ],
                        [
                            -46.68298598808045,
                            -23.511934985164743
                        ],
                        [
                            -46.68432363865019,
                            -23.51125596497913
                        ],
                        [
                            -46.68571651363838,
                            -23.513169070384603
                        ],
                        [
                            -46.684922183323835,
                            -23.514047308830975
                        ]
                    ]
                ]
            }
        },
        {
            "type": "Feature",
            "properties": {
                "type": "observation",
                "score": 0.0,
                "observation_date": "2018-04-07",
                "source": null,
                "sensor_name": null,
                "current_phase": null,
                "is_occluded": null,
                "is_site_boundary": null
            },
            "geometry": {
                "type": "Polygon",
                "coordinates": [
                    [
                        [
                            -46.684922183323835,
                            -23.514047308830975
                        ],
                        [
                            -46.683155190726836,
                            -23.513848164515398
                        ],
                        [
                            -46.68298598808045,
                            -23.511934985164743
                        ],
                        [
                            -46.68432363865019,
                            -23.51125596497913
                        ],
                        [
                            -46.68571651363838,
                            -23.513169070384603
                        ],
                        [
                            -46.684922183323835,
                            -23.514047308830975
                        ]
                    ]
                ]
            }
        },
        {
            "type": "Feature",
            "properties": {
                "type": "observation",
                "score": 0.0,
                "observation_date": "2019-05-27",
                "source": null,
                "sensor_name": null,
                "current_phase": null,
                "is_occluded": null,
                "is_site_boundary": null
            },
            "geometry": {
                "type": "Polygon",
                "coordinates": [
                    [
                        [
                            -46.684922183323835,
                            -23.514047308830975
                        ],
                        [
                            -46.683155190726836,
                            -23.513848164515398
                        ],
                        [
                            -46.68298598808045,
                            -23.511934985164743
                        ],
                        [
                            -46.68432363865019,
                            -23.51125596497913
                        ],
                        [
                            -46.68571651363838,
                            -23.513169070384603
                        ],
                        [
                            -46.684922183323835,
                            -23.514047308830975
                        ]
                    ]
                ]
            }
        }
    ]
}