{
    "type": "FeatureCollection",
    "features": [
        {
            "type": "Feature",
            "properties": {
                "type": "site",
                "region_id": "BR_C000",
                "version": "2.0.0",
                "mgrs": "23KLP",
                "model_content": "annotation",
                "start_date": "2018-12-13",
                "end_date": "2020-03-27",
                "originator": "iMERIT",
                "site_id": "BR_C000_0646",
                "status": "positive_pending",
                "validated": "False",
                "score": 0.0,
                "misc_info": {
                    "commit_hash": "b8980b308111f4d719b33abcdfd4475cdb0511ce"
                }
            },
            "geometry": {
                "type": "Polygon",
                "coordinates": [
                    [
                        [
                            -46.26514931029539,
                            -23.550230624476022
                        ],
                        [
                            -46.26410334022314,
                            -23.55037736839605
                        ],
                        [
                            -46.26426727712758,
                            -23.551364651299004
                        ],
                        [
                            -46.26537463340664,
                            -23.551221595613672
                        ],
                        [
                            -46.26514931029539,
                            -23.550230624476022
                        ]
                    ]
                ]
            }
        },
        {
            "type": "Feature",
            "properties": {
                "type": "observation",
                "score": 0.0,
                "observation_date": "2018-12-13",
                "source": null,
                "sensor_name": null,
                "current_phase": null,
                "is_occluded": null,
                "is_site_boundary": null
            },
            "geometry": {
                "type": "Polygon",
                "coordinates": [
                    [
                        [
                            -46.26514931029539,
                            -23.550230624476022
                        ],
                        [
                            -46.26410334022314,
                            -23.55037736839605
                        ],
                        [
                            -46.26426727712758,
                            -23.551364651299004
                        ],
                        [
                            -46.26537463340664,
                            -23.551221595613672
                        ],
                        [
                            -46.26514931029539,
                            -23.550230624476022
                        ]
                    ]
                ]
            }
        },
        {
            "type": "Feature",
            "properties": {
                "type": "observation",
                "score": 0.0,
                "observation_date": "2020-03-27",
                "source": null,
                "sensor_name": null,
                "current_phase": null,
                "is_occluded": null,
                "is_site_boundary": null
            },
            "geometry": {
                "type": "Polygon",
                "coordinates": [
                    [
                        [
                            -46.26514931029539,
                            -23.550230624476022
                        ],
                        [
                            -46.26410334022314,
                            -23.55037736839605
                        ],
                        [
                            -46.26426727712758,
                            -23.551364651299004
                        ],
                        [
                            -46.26537463340664,
                            -23.551221595613672
                        ],
                        [
                            -46.26514931029539,
                            -23.550230624476022
                        ]
                    ]
                ]
            }
        }
    ]
}