{
    "type": "FeatureCollection",
    "features": [
        {
            "type": "Feature",
            "properties": {
                "type": "site",
                "region_id": "BR_C000",
                "version": "2.0.1",
                "mgrs": "23KLP",
                "model_content": "annotation",
                "start_date": "2021-03-27",
                "end_date": "2022-06-05",
                "originator": "iMERIT",
                "site_id": "BR_C000_0335",
                "status": "positive_pending",
                "validated": "False",
                "score": 0.0,
                "misc_info": {
                    "commit_hash": "b8980b308111f4d719b33abcdfd4475cdb0511ce"
                }
            },
            "geometry": {
                "type": "Polygon",
                "coordinates": [
                    [
                        [
                            -46.82616161856286,
                            -23.5105248204356
                        ],
                        [
                            -46.82619888980221,
                            -23.51293080853865
                        ],
                        [
                            -46.82973483875256,
                            -23.51271155831677
                        ],
                        [
                            -46.82965928562796,
                            -23.51113738134529
                        ],
                        [
                            -46.82756217285844,
                            -23.51072014461428
                        ],
                        [
                            -46.82753993730086,
                            -23.51053546129577
                        ],
                        [
                            -46.82616161856286,
                            -23.5105248204356
                        ]
                    ]
                ]
            }
        },
        {
            "type": "Feature",
            "properties": {
                "type": "observation",
                "score": 0.0,
                "observation_date": "2021-03-27",
                "source": null,
                "sensor_name": null,
                "current_phase": null,
                "is_occluded": null,
                "is_site_boundary": null
            },
            "geometry": {
                "type": "Polygon",
                "coordinates": [
                    [
                        [
                            -46.82616161856286,
                            -23.5105248204356
                        ],
                        [
                            -46.82619888980221,
                            -23.51293080853865
                        ],
                        [
                            -46.82973483875256,
                            -23.51271155831677
                        ],
                        [
                            -46.82965928562796,
                            -23.51113738134529
                        ],
                        [
                            -46.82756217285844,
                            -23.51072014461428
                        ],
                        [
                            -46.82753993730086,
                            -23.51053546129577
                        ],
                        [
                            -46.82616161856286,
                            -23.5105248204356
                        ]
                    ]
                ]
            }
        },
        {
            "type": "Feature",
            "properties": {
                "type": "observation",
                "score": 0.0,
                "observation_date": "2022-06-05",
                "source": null,
                "sensor_name": null,
                "current_phase": null,
                "is_occluded": null,
                "is_site_boundary": null
            },
            "geometry": {
                "type": "Polygon",
                "coordinates": [
                    [
                        [
                            -46.82616161856286,
                            -23.5105248204356
                        ],
                        [
                            -46.82619888980221,
                            -23.51293080853865
                        ],
                        [
                            -46.82973483875256,
                            -23.51271155831677
                        ],
                        [
                            -46.82965928562796,
                            -23.51113738134529
                        ],
                        [
                            -46.82756217285844,
                            -23.51072014461428
                        ],
                        [
                            -46.82753993730086,
                            -23.51053546129577
                        ],
                        [
                            -46.82616161856286,
                            -23.5105248204356
                        ]
                    ]
                ]
            }
        }
    ]
}