{
    "type": "FeatureCollection",
    "features": [
        {
            "type": "Feature",
            "properties": {
                "type": "site",
                "region_id": "BR_C000",
                "version": "2.0.0",
                "mgrs": "23KLP",
                "model_content": "annotation",
                "start_date": "2017-06-11",
                "end_date": "2019-04-12",
                "originator": "iMERIT",
                "site_id": "BR_C000_0115",
                "status": "positive_pending",
                "validated": "False",
                "score": 0.0,
                "misc_info": {
                    "commit_hash": "b8980b308111f4d719b33abcdfd4475cdb0511ce"
                }
            },
            "geometry": {
                "type": "Polygon",
                "coordinates": [
                    [
                        [
                            -46.902801676858346,
                            -23.525536084754922
                        ],
                        [
                            -46.90193367074401,
                            -23.524378032393177
                        ],
                        [
                            -46.90369232576409,
                            -23.52307708342802
                        ],
                        [
                            -46.903932171124694,
                            -23.523220543077652
                        ],
                        [
                            -46.903835905665936,
                            -23.524025283071374
                        ],
                        [
                            -46.90402656952624,
                            -23.524052903985737
                        ],
                        [
                            -46.90398887430211,
                            -23.524335784508054
                        ],
                        [
                            -46.90375425092998,
                            -23.524800795653498
                        ],
                        [
                            -46.902801676858346,
                            -23.525536084754922
                        ]
                    ]
                ]
            }
        },
        {
            "type": "Feature",
            "properties": {
                "type": "observation",
                "score": 0.0,
                "observation_date": "2017-06-11",
                "source": null,
                "sensor_name": null,
                "current_phase": null,
                "is_occluded": null,
                "is_site_boundary": null
            },
            "geometry": {
                "type": "Polygon",
                "coordinates": [
                    [
                        [
                            -46.902801676858346,
                            -23.525536084754922
                        ],
                        [
                            -46.90193367074401,
                            -23.524378032393177
                        ],
                        [
                            -46.90369232576409,
                            -23.52307708342802
                        ],
                        [
                            -46.903932171124694,
                            -23.523220543077652
                        ],
                        [
                            -46.903835905665936,
                            -23.524025283071374
                        ],
                        [
                            -46.90402656952624,
                            -23.524052903985737
                        ],
                        [
                            -46.90398887430211,
                            -23.524335784508054
                        ],
                        [
                            -46.90375425092998,
                            -23.524800795653498
                        ],
                        [
                            -46.902801676858346,
                            -23.525536084754922
                        ]
                    ]
                ]
            }
        },
        {
            "type": "Feature",
            "properties": {
                "type": "observation",
                "score": 0.0,
                "observation_date": "2019-04-12",
                "source": null,
                "sensor_name": null,
                "current_phase": null,
                "is_occluded": null,
                "is_site_boundary": null
            },
            "geometry": {
                "type": "Polygon",
                "coordinates": [
                    [
                        [
                            -46.902801676858346,
                            -23.525536084754922
                        ],
                        [
                            -46.90193367074401,
                            -23.524378032393177
                        ],
                        [
                            -46.90369232576409,
                            -23.52307708342802
                        ],
                        [
                            -46.903932171124694,
                            -23.523220543077652
                        ],
                        [
                            -46.903835905665936,
                            -23.524025283071374
                        ],
                        [
                            -46.90402656952624,
                            -23.524052903985737
                        ],
                        [
                            -46.90398887430211,
                            -23.524335784508054
                        ],
                        [
                            -46.90375425092998,
                            -23.524800795653498
                        ],
                        [
                            -46.902801676858346,
                            -23.525536084754922
                        ]
                    ]
                ]
            }
        }
    ]
}