{
    "type": "FeatureCollection",
    "features": [
        {
            "type": "Feature",
            "properties": {
                "type": "site",
                "region_id": "BR_C000",
                "version": "2.0.0",
                "mgrs": "23KLP",
                "model_content": "annotation",
                "start_date": "2019-04-27",
                "end_date": "2021-09-28",
                "originator": "iMERIT",
                "site_id": "BR_C000_0360",
                "status": "positive_pending",
                "validated": "False",
                "score": 0.0,
                "misc_info": {
                    "commit_hash": "b8980b308111f4d719b33abcdfd4475cdb0511ce"
                }
            },
            "geometry": {
                "type": "Polygon",
                "coordinates": [
                    [
                        [
                            -46.477463406106814,
                            -23.66854491777671
                        ],
                        [
                            -46.47620759853505,
                            -23.667179423078682
                        ],
                        [
                            -46.47529860640561,
                            -23.668134867373574
                        ],
                        [
                            -46.475634304377465,
                            -23.6684342145045
                        ],
                        [
                            -46.47617916538256,
                            -23.668432583071766
                        ],
                        [
                            -46.47631802873972,
                            -23.668409903781853
                        ],
                        [
                            -46.4767913685915,
                            -23.66892149711951
                        ],
                        [
                            -46.477463406106814,
                            -23.66854491777671
                        ]
                    ]
                ]
            }
        },
        {
            "type": "Feature",
            "properties": {
                "type": "observation",
                "score": 0.0,
                "observation_date": "2019-04-27",
                "source": null,
                "sensor_name": null,
                "current_phase": null,
                "is_occluded": null,
                "is_site_boundary": null
            },
            "geometry": {
                "type": "Polygon",
                "coordinates": [
                    [
                        [
                            -46.477463406106814,
                            -23.66854491777671
                        ],
                        [
                            -46.47620759853505,
                            -23.667179423078682
                        ],
                        [
                            -46.47529860640561,
                            -23.668134867373574
                        ],
                        [
                            -46.475634304377465,
                            -23.6684342145045
                        ],
                        [
                            -46.47617916538256,
                            -23.668432583071766
                        ],
                        [
                            -46.47631802873972,
                            -23.668409903781853
                        ],
                        [
                            -46.4767913685915,
                            -23.66892149711951
                        ],
                        [
                            -46.477463406106814,
                            -23.66854491777671
                        ]
                    ]
                ]
            }
        },
        {
            "type": "Feature",
            "properties": {
                "type": "observation",
                "score": 0.0,
                "observation_date": "2021-09-28",
                "source": null,
                "sensor_name": null,
                "current_phase": null,
                "is_occluded": null,
                "is_site_boundary": null
            },
            "geometry": {
                "type": "Polygon",
                "coordinates": [
                    [
                        [
                            -46.477463406106814,
                            -23.66854491777671
                        ],
                        [
                            -46.47620759853505,
                            -23.667179423078682
                        ],
                        [
                            -46.47529860640561,
                            -23.668134867373574
                        ],
                        [
                            -46.475634304377465,
                            -23.6684342145045
                        ],
                        [
                            -46.47617916538256,
                            -23.668432583071766
                        ],
                        [
                            -46.47631802873972,
                            -23.668409903781853
                        ],
                        [
                            -46.4767913685915,
                            -23.66892149711951
                        ],
                        [
                            -46.477463406106814,
                            -23.66854491777671
                        ]
                    ]
                ]
            }
        }
    ]
}