{
    "type": "FeatureCollection",
    "features": [
        {
            "type": "Feature",
            "properties": {
                "type": "site",
                "region_id": "BR_C000",
                "version": "2.0.1",
                "mgrs": "23KLQ",
                "model_content": "annotation",
                "start_date": "2018-07-01",
                "end_date": "2019-09-29",
                "originator": "iMERIT",
                "site_id": "BR_C000_0719",
                "status": "positive_pending",
                "validated": "False",
                "score": 0.0,
                "misc_info": {
                    "commit_hash": "b8980b308111f4d719b33abcdfd4475cdb0511ce"
                }
            },
            "geometry": {
                "type": "Polygon",
                "coordinates": [
                    [
                        [
                            -46.874101847935556,
                            -23.35298535570163
                        ],
                        [
                            -46.874069996276965,
                            -23.35041235326534
                        ],
                        [
                            -46.873406953153605,
                            -23.35002601517834
                        ],
                        [
                            -46.87128623638003,
                            -23.34981032134348
                        ],
                        [
                            -46.868219004906926,
                            -23.348293436114506
                        ],
                        [
                            -46.86672022512558,
                            -23.347949721264687
                        ],
                        [
                            -46.86534005254,
                            -23.346581832856206
                        ],
                        [
                            -46.86495618944403,
                            -23.346585871732174
                        ],
                        [
                            -46.86522483899227,
                            -23.35226653710205
                        ],
                        [
                            -46.866591828232686,
                            -23.352250241661814
                        ],
                        [
                            -46.866633360985446,
                            -23.353141809039492
                        ],
                        [
                            -46.874101847935556,
                            -23.35298535570163
                        ]
                    ]
                ]
            }
        },
        {
            "type": "Feature",
            "properties": {
                "type": "observation",
                "score": 0.0,
                "observation_date": "2018-07-01",
                "source": null,
                "sensor_name": null,
                "current_phase": null,
                "is_occluded": null,
                "is_site_boundary": null
            },
            "geometry": {
                "type": "Polygon",
                "coordinates": [
                    [
                        [
                            -46.874101847935556,
                            -23.35298535570163
                        ],
                        [
                            -46.874069996276965,
                            -23.35041235326534
                        ],
                        [
                            -46.873406953153605,
                            -23.35002601517834
                        ],
                        [
                            -46.87128623638003,
                            -23.34981032134348
                        ],
                        [
                            -46.868219004906926,
                            -23.348293436114506
                        ],
                        [
                            -46.86672022512558,
                            -23.347949721264687
                        ],
                        [
                            -46.86534005254,
                            -23.346581832856206
                        ],
                        [
                            -46.86495618944403,
                            -23.346585871732174
                        ],
                        [
                            -46.86522483899227,
                            -23.35226653710205
                        ],
                        [
                            -46.866591828232686,
                            -23.352250241661814
                        ],
                        [
                            -46.866633360985446,
                            -23.353141809039492
                        ],
                        [
                            -46.874101847935556,
                            -23.35298535570163
                        ]
                    ]
                ]
            }
        },
        {
            "type": "Feature",
            "properties": {
                "type": "observation",
                "score": 0.0,
                "observation_date": "2019-09-29",
                "source": null,
                "sensor_name": null,
                "current_phase": null,
                "is_occluded": null,
                "is_site_boundary": null
            },
            "geometry": {
                "type": "Polygon",
                "coordinates": [
                    [
                        [
                            -46.874101847935556,
                            -23.35298535570163
                        ],
                        [
                            -46.874069996276965,
                            -23.35041235326534
                        ],
                        [
                            -46.873406953153605,
                            -23.35002601517834
                        ],
                        [
                            -46.87128623638003,
                            -23.34981032134348
                        ],
                        [
                            -46.868219004906926,
                            -23.348293436114506
                        ],
                        [
                            -46.86672022512558,
                            -23.347949721264687
                        ],
                        [
                            -46.86534005254,
                            -23.346581832856206
                        ],
                        [
                            -46.86495618944403,
                            -23.346585871732174
                        ],
                        [
                            -46.86522483899227,
                            -23.35226653710205
                        ],
                        [
                            -46.866591828232686,
                            -23.352250241661814
                        ],
                        [
                            -46.866633360985446,
                            -23.353141809039492
                        ],
                        [
                            -46.874101847935556,
                            -23.35298535570163
                        ]
                    ]
                ]
            }
        }
    ]
}