{
    "type": "FeatureCollection",
    "features": [
        {
            "type": "Feature",
            "properties": {
                "type": "site",
                "region_id": "BR_C000",
                "version": "2.0.1",
                "mgrs": "23KLP",
                "model_content": "annotation",
                "start_date": "2015-08-30",
                "end_date": "2023-05-23",
                "originator": "iMERIT",
                "site_id": "BR_C000_0495",
                "status": "positive_pending",
                "validated": "False",
                "score": 0.0,
                "misc_info": {
                    "commit_hash": "b8980b308111f4d719b33abcdfd4475cdb0511ce"
                }
            },
            "geometry": {
                "type": "Polygon",
                "coordinates": [
                    [
                        [
                            -46.5804896941024,
                            -23.53409343245138
                        ],
                        [
                            -46.58034060604629,
                            -23.534018888423333
                        ],
                        [
                            -46.579066258138184,
                            -23.53370296373302
                        ],
                        [
                            -46.57894201809143,
                            -23.534341912544885
                        ],
                        [
                            -46.57981524813432,
                            -23.5343774097011
                        ],
                        [
                            -46.57978685040934,
                            -23.534842422447515
                        ],
                        [
                            -46.580344155761914,
                            -23.534853071594377
                        ],
                        [
                            -46.5804896941024,
                            -23.53409343245138
                        ]
                    ]
                ]
            }
        },
        {
            "type": "Feature",
            "properties": {
                "type": "observation",
                "score": 0.0,
                "observation_date": "2015-08-30",
                "source": null,
                "sensor_name": null,
                "current_phase": null,
                "is_occluded": null,
                "is_site_boundary": null
            },
            "geometry": {
                "type": "Polygon",
                "coordinates": [
                    [
                        [
                            -46.5804896941024,
                            -23.53409343245138
                        ],
                        [
                            -46.58034060604629,
                            -23.534018888423333
                        ],
                        [
                            -46.579066258138184,
                            -23.53370296373302
                        ],
                        [
                            -46.57894201809143,
                            -23.534341912544885
                        ],
                        [
                            -46.57981524813432,
                            -23.5343774097011
                        ],
                        [
                            -46.57978685040934,
                            -23.534842422447515
                        ],
                        [
                            -46.580344155761914,
                            -23.534853071594377
                        ],
                        [
                            -46.5804896941024,
                            -23.53409343245138
                        ]
                    ]
                ]
            }
        },
        {
            "type": "Feature",
            "properties": {
                "type": "observation",
                "score": 0.0,
                "observation_date": "2023-05-23",
                "source": null,
                "sensor_name": null,
                "current_phase": null,
                "is_occluded": null,
                "is_site_boundary": null
            },
            "geometry": {
                "type": "Polygon",
                "coordinates": [
                    [
                        [
                            -46.5804896941024,
                            -23.53409343245138
                        ],
                        [
                            -46.58034060604629,
                            -23.534018888423333
                        ],
                        [
                            -46.579066258138184,
                            -23.53370296373302
                        ],
                        [
                            -46.57894201809143,
                            -23.534341912544885
                        ],
                        [
                            -46.57981524813432,
                            -23.5343774097011
                        ],
                        [
                            -46.57978685040934,
                            -23.534842422447515
                        ],
                        [
                            -46.580344155761914,
                            -23.534853071594377
                        ],
                        [
                            -46.5804896941024,
                            -23.53409343245138
                        ]
                    ]
                ]
            }
        }
    ]
}