{
    "type": "FeatureCollection",
    "features": [
        {
            "type": "Feature",
            "properties": {
                "type": "site",
                "region_id": "BR_C000",
                "version": "2.0.1",
                "mgrs": "23KLQ",
                "model_content": "annotation",
                "start_date": "2016-11-20",
                "end_date": "2021-04-11",
                "originator": "iMERIT",
                "site_id": "BR_C000_0762",
                "status": "positive_pending",
                "validated": "False",
                "score": 0.0,
                "misc_info": {
                    "commit_hash": "b8980b308111f4d719b33abcdfd4475cdb0511ce"
                }
            },
            "geometry": {
                "type": "Polygon",
                "coordinates": [
                    [
                        [
                            -46.71421495020474,
                            -23.447035479642434
                        ],
                        [
                            -46.71407824143834,
                            -23.447547443655086
                        ],
                        [
                            -46.714018655128974,
                            -23.44809546118217
                        ],
                        [
                            -46.715094770501516,
                            -23.448062109669358
                        ],
                        [
                            -46.714761914593346,
                            -23.44757990706669
                        ],
                        [
                            -46.714741518686914,
                            -23.447032768432724
                        ],
                        [
                            -46.71421495020474,
                            -23.447035479642434
                        ]
                    ]
                ]
            }
        },
        {
            "type": "Feature",
            "properties": {
                "type": "observation",
                "score": 0.0,
                "observation_date": "2016-11-20",
                "source": null,
                "sensor_name": null,
                "current_phase": null,
                "is_occluded": null,
                "is_site_boundary": null
            },
            "geometry": {
                "type": "Polygon",
                "coordinates": [
                    [
                        [
                            -46.71421495020474,
                            -23.447035479642434
                        ],
                        [
                            -46.71407824143834,
                            -23.447547443655086
                        ],
                        [
                            -46.714018655128974,
                            -23.44809546118217
                        ],
                        [
                            -46.715094770501516,
                            -23.448062109669358
                        ],
                        [
                            -46.714761914593346,
                            -23.44757990706669
                        ],
                        [
                            -46.714741518686914,
                            -23.447032768432724
                        ],
                        [
                            -46.71421495020474,
                            -23.447035479642434
                        ]
                    ]
                ]
            }
        },
        {
            "type": "Feature",
            "properties": {
                "type": "observation",
                "score": 0.0,
                "observation_date": "2021-04-11",
                "source": null,
                "sensor_name": null,
                "current_phase": null,
                "is_occluded": null,
                "is_site_boundary": null
            },
            "geometry": {
                "type": "Polygon",
                "coordinates": [
                    [
                        [
                            -46.71421495020474,
                            -23.447035479642434
                        ],
                        [
                            -46.71407824143834,
                            -23.447547443655086
                        ],
                        [
                            -46.714018655128974,
                            -23.44809546118217
                        ],
                        [
                            -46.715094770501516,
                            -23.448062109669358
                        ],
                        [
                            -46.714761914593346,
                            -23.44757990706669
                        ],
                        [
                            -46.714741518686914,
                            -23.447032768432724
                        ],
                        [
                            -46.71421495020474,
                            -23.447035479642434
                        ]
                    ]
                ]
            }
        }
    ]
}