{
    "type": "FeatureCollection",
    "features": [
        {
            "type": "Feature",
            "properties": {
                "type": "site",
                "region_id": "BR_C000",
                "version": "2.0.0",
                "mgrs": "23KLP",
                "model_content": "annotation",
                "start_date": "2020-04-21",
                "end_date": "2021-06-15",
                "originator": "iMERIT",
                "site_id": "BR_C000_0221",
                "status": "positive_pending",
                "validated": "False",
                "score": 0.0,
                "misc_info": {
                    "commit_hash": "b8980b308111f4d719b33abcdfd4475cdb0511ce"
                }
            },
            "geometry": {
                "type": "Polygon",
                "coordinates": [
                    [
                        [
                            -46.744492308080964,
                            -23.568717397282775
                        ],
                        [
                            -46.74394733647277,
                            -23.56826624980637
                        ],
                        [
                            -46.74335318081575,
                            -23.568871160521283
                        ],
                        [
                            -46.743474449200555,
                            -23.568991781450944
                        ],
                        [
                            -46.743322245872356,
                            -23.56914929585154
                        ],
                        [
                            -46.74382253817378,
                            -23.569566815551923
                        ],
                        [
                            -46.74446732239616,
                            -23.568910356318238
                        ],
                        [
                            -46.74437883404204,
                            -23.568835307207284
                        ],
                        [
                            -46.744492308080964,
                            -23.568717397282775
                        ]
                    ]
                ]
            }
        },
        {
            "type": "Feature",
            "properties": {
                "type": "observation",
                "score": 0.0,
                "observation_date": "2020-04-21",
                "source": null,
                "sensor_name": null,
                "current_phase": null,
                "is_occluded": null,
                "is_site_boundary": null
            },
            "geometry": {
                "type": "Polygon",
                "coordinates": [
                    [
                        [
                            -46.744492308080964,
                            -23.568717397282775
                        ],
                        [
                            -46.74394733647277,
                            -23.56826624980637
                        ],
                        [
                            -46.74335318081575,
                            -23.568871160521283
                        ],
                        [
                            -46.743474449200555,
                            -23.568991781450944
                        ],
                        [
                            -46.743322245872356,
                            -23.56914929585154
                        ],
                        [
                            -46.74382253817378,
                            -23.569566815551923
                        ],
                        [
                            -46.74446732239616,
                            -23.568910356318238
                        ],
                        [
                            -46.74437883404204,
                            -23.568835307207284
                        ],
                        [
                            -46.744492308080964,
                            -23.568717397282775
                        ]
                    ]
                ]
            }
        },
        {
            "type": "Feature",
            "properties": {
                "type": "observation",
                "score": 0.0,
                "observation_date": "2021-06-15",
                "source": null,
                "sensor_name": null,
                "current_phase": null,
                "is_occluded": null,
                "is_site_boundary": null
            },
            "geometry": {
                "type": "Polygon",
                "coordinates": [
                    [
                        [
                            -46.744492308080964,
                            -23.568717397282775
                        ],
                        [
                            -46.74394733647277,
                            -23.56826624980637
                        ],
                        [
                            -46.74335318081575,
                            -23.568871160521283
                        ],
                        [
                            -46.743474449200555,
                            -23.568991781450944
                        ],
                        [
                            -46.743322245872356,
                            -23.56914929585154
                        ],
                        [
                            -46.74382253817378,
                            -23.569566815551923
                        ],
                        [
                            -46.74446732239616,
                            -23.568910356318238
                        ],
                        [
                            -46.74437883404204,
                            -23.568835307207284
                        ],
                        [
                            -46.744492308080964,
                            -23.568717397282775
                        ]
                    ]
                ]
            }
        }
    ]
}