{
    "type": "FeatureCollection",
    "features": [
        {
            "type": "Feature",
            "properties": {
                "type": "site",
                "region_id": "BR_C000",
                "version": "2.0.0",
                "mgrs": "23KLP",
                "model_content": "annotation",
                "start_date": "2019-07-06",
                "end_date": "2020-04-06",
                "originator": "iMERIT",
                "site_id": "BR_C000_0024",
                "status": "positive_pending",
                "validated": "False",
                "score": 0.0,
                "misc_info": {
                    "commit_hash": "b8980b308111f4d719b33abcdfd4475cdb0511ce"
                }
            },
            "geometry": {
                "type": "Polygon",
                "coordinates": [
                    [
                        [
                            -46.23259648721461,
                            -23.9791305545619
                        ],
                        [
                            -46.231580482950356,
                            -23.97891887729337
                        ],
                        [
                            -46.23140794912861,
                            -23.97970539455349
                        ],
                        [
                            -46.23243283422873,
                            -23.979891877181657
                        ],
                        [
                            -46.23261707303168,
                            -23.97913876390476
                        ],
                        [
                            -46.23259648721461,
                            -23.9791305545619
                        ]
                    ]
                ]
            }
        },
        {
            "type": "Feature",
            "properties": {
                "type": "observation",
                "score": 0.0,
                "observation_date": "2019-07-06",
                "source": null,
                "sensor_name": null,
                "current_phase": null,
                "is_occluded": null,
                "is_site_boundary": null
            },
            "geometry": {
                "type": "Polygon",
                "coordinates": [
                    [
                        [
                            -46.23259648721461,
                            -23.9791305545619
                        ],
                        [
                            -46.231580482950356,
                            -23.97891887729337
                        ],
                        [
                            -46.23140794912861,
                            -23.97970539455349
                        ],
                        [
                            -46.23243283422873,
                            -23.979891877181657
                        ],
                        [
                            -46.23261707303168,
                            -23.97913876390476
                        ],
                        [
                            -46.23259648721461,
                            -23.9791305545619
                        ]
                    ]
                ]
            }
        },
        {
            "type": "Feature",
            "properties": {
                "type": "observation",
                "score": 0.0,
                "observation_date": "2020-04-06",
                "source": null,
                "sensor_name": null,
                "current_phase": null,
                "is_occluded": null,
                "is_site_boundary": null
            },
            "geometry": {
                "type": "Polygon",
                "coordinates": [
                    [
                        [
                            -46.23259648721461,
                            -23.9791305545619
                        ],
                        [
                            -46.231580482950356,
                            -23.97891887729337
                        ],
                        [
                            -46.23140794912861,
                            -23.97970539455349
                        ],
                        [
                            -46.23243283422873,
                            -23.979891877181657
                        ],
                        [
                            -46.23261707303168,
                            -23.97913876390476
                        ],
                        [
                            -46.23259648721461,
                            -23.9791305545619
                        ]
                    ]
                ]
            }
        }
    ]
}