{
    "type": "FeatureCollection",
    "features": [
        {
            "type": "Feature",
            "properties": {
                "type": "site",
                "region_id": "BR_C000",
                "version": "2.0.0",
                "mgrs": "23KLP",
                "model_content": "annotation",
                "start_date": "2018-06-01",
                "end_date": "2019-08-10",
                "originator": "iMERIT",
                "site_id": "BR_C000_0636",
                "status": "positive_pending",
                "validated": "False",
                "score": 0.0,
                "misc_info": {
                    "commit_hash": "b8980b308111f4d719b33abcdfd4475cdb0511ce"
                }
            },
            "geometry": {
                "type": "Polygon",
                "coordinates": [
                    [
                        [
                            -46.316360269518626,
                            -23.921178897640587
                        ],
                        [
                            -46.31372877290881,
                            -23.92120562158018
                        ],
                        [
                            -46.31319168793119,
                            -23.92195492227746
                        ],
                        [
                            -46.31294643894062,
                            -23.922596543167565
                        ],
                        [
                            -46.31636980801053,
                            -23.922571465661182
                        ],
                        [
                            -46.316360269518626,
                            -23.921178897640587
                        ]
                    ]
                ]
            }
        },
        {
            "type": "Feature",
            "properties": {
                "type": "observation",
                "score": 0.0,
                "observation_date": "2018-06-01",
                "source": null,
                "sensor_name": null,
                "current_phase": null,
                "is_occluded": null,
                "is_site_boundary": null
            },
            "geometry": {
                "type": "Polygon",
                "coordinates": [
                    [
                        [
                            -46.316360269518626,
                            -23.921178897640587
                        ],
                        [
                            -46.31372877290881,
                            -23.92120562158018
                        ],
                        [
                            -46.31319168793119,
                            -23.92195492227746
                        ],
                        [
                            -46.31294643894062,
                            -23.922596543167565
                        ],
                        [
                            -46.31636980801053,
                            -23.922571465661182
                        ],
                        [
                            -46.316360269518626,
                            -23.921178897640587
                        ]
                    ]
                ]
            }
        },
        {
            "type": "Feature",
            "properties": {
                "type": "observation",
                "score": 0.0,
                "observation_date": "2019-08-10",
                "source": null,
                "sensor_name": null,
                "current_phase": null,
                "is_occluded": null,
                "is_site_boundary": null
            },
            "geometry": {
                "type": "Polygon",
                "coordinates": [
                    [
                        [
                            -46.316360269518626,
                            -23.921178897640587
                        ],
                        [
                            -46.31372877290881,
                            -23.92120562158018
                        ],
                        [
                            -46.31319168793119,
                            -23.92195492227746
                        ],
                        [
                            -46.31294643894062,
                            -23.922596543167565
                        ],
                        [
                            -46.31636980801053,
                            -23.922571465661182
                        ],
                        [
                            -46.316360269518626,
                            -23.921178897640587
                        ]
                    ]
                ]
            }
        }
    ]
}