{
    "type": "FeatureCollection",
    "features": [
        {
            "type": "Feature",
            "properties": {
                "type": "site",
                "region_id": "BR_C000",
                "version": "2.0.0",
                "mgrs": "23KLP",
                "model_content": "annotation",
                "start_date": null,
                "end_date": "2017-06-11",
                "originator": "iMERIT",
                "site_id": "BR_C000_0352",
                "status": "positive_pending",
                "validated": "False",
                "score": 0.0,
                "misc_info": {
                    "commit_hash": "b8980b308111f4d719b33abcdfd4475cdb0511ce"
                }
            },
            "geometry": {
                "type": "Polygon",
                "coordinates": [
                    [
                        [
                            -46.5499912368628,
                            -23.61344901181323
                        ],
                        [
                            -46.55165947337281,
                            -23.612880761306837
                        ],
                        [
                            -46.54996529331872,
                            -23.61154438858938
                        ],
                        [
                            -46.54764873326054,
                            -23.611362094176243
                        ],
                        [
                            -46.547383408788804,
                            -23.613334279203173
                        ],
                        [
                            -46.5499912368628,
                            -23.61344901181323
                        ]
                    ]
                ]
            }
        },
        {
            "type": "Feature",
            "properties": {
                "type": "observation",
                "score": 0.0,
                "observation_date": null,
                "source": null,
                "sensor_name": null,
                "current_phase": null,
                "is_occluded": null,
                "is_site_boundary": null
            },
            "geometry": {
                "type": "Polygon",
                "coordinates": [
                    [
                        [
                            -46.5499912368628,
                            -23.61344901181323
                        ],
                        [
                            -46.55165947337281,
                            -23.612880761306837
                        ],
                        [
                            -46.54996529331872,
                            -23.61154438858938
                        ],
                        [
                            -46.54764873326054,
                            -23.611362094176243
                        ],
                        [
                            -46.547383408788804,
                            -23.613334279203173
                        ],
                        [
                            -46.5499912368628,
                            -23.61344901181323
                        ]
                    ]
                ]
            }
        },
        {
            "type": "Feature",
            "properties": {
                "type": "observation",
                "score": 0.0,
                "observation_date": "2017-06-11",
                "source": null,
                "sensor_name": null,
                "current_phase": null,
                "is_occluded": null,
                "is_site_boundary": null
            },
            "geometry": {
                "type": "Polygon",
                "coordinates": [
                    [
                        [
                            -46.5499912368628,
                            -23.61344901181323
                        ],
                        [
                            -46.55165947337281,
                            -23.612880761306837
                        ],
                        [
                            -46.54996529331872,
                            -23.61154438858938
                        ],
                        [
                            -46.54764873326054,
                            -23.611362094176243
                        ],
                        [
                            -46.547383408788804,
                            -23.613334279203173
                        ],
                        [
                            -46.5499912368628,
                            -23.61344901181323
                        ]
                    ]
                ]
            }
        }
    ]
}