{
    "type": "FeatureCollection",
    "features": [
        {
            "type": "Feature",
            "properties": {
                "type": "site",
                "region_id": "BR_C000",
                "version": "2.0.1",
                "mgrs": "23KLP",
                "model_content": "annotation",
                "start_date": "2018-04-12",
                "end_date": "2023-01-01",
                "originator": "iMERIT",
                "site_id": "BR_C000_0617",
                "status": "positive_pending",
                "validated": "False",
                "score": 0.0,
                "misc_info": {
                    "commit_hash": "b8980b308111f4d719b33abcdfd4475cdb0511ce"
                }
            },
            "geometry": {
                "type": "Polygon",
                "coordinates": [
                    [
                        [
                            -46.43064128144782,
                            -23.57413213661065
                        ],
                        [
                            -46.42774176738223,
                            -23.572614633922118
                        ],
                        [
                            -46.42805339739862,
                            -23.57519139131121
                        ],
                        [
                            -46.42963356064209,
                            -23.57524988772195
                        ],
                        [
                            -46.43064128144782,
                            -23.57413213661065
                        ]
                    ]
                ]
            }
        },
        {
            "type": "Feature",
            "properties": {
                "type": "observation",
                "score": 0.0,
                "observation_date": "2018-04-12",
                "source": null,
                "sensor_name": null,
                "current_phase": null,
                "is_occluded": null,
                "is_site_boundary": null
            },
            "geometry": {
                "type": "Polygon",
                "coordinates": [
                    [
                        [
                            -46.43064128144782,
                            -23.57413213661065
                        ],
                        [
                            -46.42774176738223,
                            -23.572614633922118
                        ],
                        [
                            -46.42805339739862,
                            -23.57519139131121
                        ],
                        [
                            -46.42963356064209,
                            -23.57524988772195
                        ],
                        [
                            -46.43064128144782,
                            -23.57413213661065
                        ]
                    ]
                ]
            }
        },
        {
            "type": "Feature",
            "properties": {
                "type": "observation",
                "score": 0.0,
                "observation_date": "2023-01-01",
                "source": null,
                "sensor_name": null,
                "current_phase": null,
                "is_occluded": null,
                "is_site_boundary": null
            },
            "geometry": {
                "type": "Polygon",
                "coordinates": [
                    [
                        [
                            -46.43064128144782,
                            -23.57413213661065
                        ],
                        [
                            -46.42774176738223,
                            -23.572614633922118
                        ],
                        [
                            -46.42805339739862,
                            -23.57519139131121
                        ],
                        [
                            -46.42963356064209,
                            -23.57524988772195
                        ],
                        [
                            -46.43064128144782,
                            -23.57413213661065
                        ]
                    ]
                ]
            }
        }
    ]
}