{
    "type": "FeatureCollection",
    "features": [
        {
            "type": "Feature",
            "properties": {
                "type": "site",
                "region_id": "BR_C000",
                "version": "2.0.0",
                "mgrs": "23KLP",
                "model_content": "annotation",
                "start_date": "2020-03-12",
                "end_date": "2021-08-09",
                "originator": "iMERIT",
                "site_id": "BR_C000_0114",
                "status": "positive_pending",
                "validated": "False",
                "score": 0.0,
                "misc_info": {
                    "commit_hash": "b8980b308111f4d719b33abcdfd4475cdb0511ce"
                }
            },
            "geometry": {
                "type": "Polygon",
                "coordinates": [
                    [
                        [
                            -46.900333763463124,
                            -23.520901563055464
                        ],
                        [
                            -46.90025009630794,
                            -23.520568815685515
                        ],
                        [
                            -46.89996157397361,
                            -23.520512430829484
                        ],
                        [
                            -46.89914904470945,
                            -23.520158624895174
                        ],
                        [
                            -46.89866947266101,
                            -23.51972372947494
                        ],
                        [
                            -46.8981300650468,
                            -23.51996993787531
                        ],
                        [
                            -46.897936386788416,
                            -23.520378813580006
                        ],
                        [
                            -46.89805429204164,
                            -23.52148138159123
                        ],
                        [
                            -46.89874700145747,
                            -23.52124614024442
                        ],
                        [
                            -46.89916024557896,
                            -23.52126249360012
                        ],
                        [
                            -46.90008171129269,
                            -23.521122873940385
                        ],
                        [
                            -46.900333763463124,
                            -23.520901563055464
                        ]
                    ]
                ]
            }
        },
        {
            "type": "Feature",
            "properties": {
                "type": "observation",
                "score": 0.0,
                "observation_date": "2020-03-12",
                "source": null,
                "sensor_name": null,
                "current_phase": null,
                "is_occluded": null,
                "is_site_boundary": null
            },
            "geometry": {
                "type": "Polygon",
                "coordinates": [
                    [
                        [
                            -46.900333763463124,
                            -23.520901563055464
                        ],
                        [
                            -46.90025009630794,
                            -23.520568815685515
                        ],
                        [
                            -46.89996157397361,
                            -23.520512430829484
                        ],
                        [
                            -46.89914904470945,
                            -23.520158624895174
                        ],
                        [
                            -46.89866947266101,
                            -23.51972372947494
                        ],
                        [
                            -46.8981300650468,
                            -23.51996993787531
                        ],
                        [
                            -46.897936386788416,
                            -23.520378813580006
                        ],
                        [
                            -46.89805429204164,
                            -23.52148138159123
                        ],
                        [
                            -46.89874700145747,
                            -23.52124614024442
                        ],
                        [
                            -46.89916024557896,
                            -23.52126249360012
                        ],
                        [
                            -46.90008171129269,
                            -23.521122873940385
                        ],
                        [
                            -46.900333763463124,
                            -23.520901563055464
                        ]
                    ]
                ]
            }
        },
        {
            "type": "Feature",
            "properties": {
                "type": "observation",
                "score": 0.0,
                "observation_date": "2021-08-09",
                "source": null,
                "sensor_name": null,
                "current_phase": null,
                "is_occluded": null,
                "is_site_boundary": null
            },
            "geometry": {
                "type": "Polygon",
                "coordinates": [
                    [
                        [
                            -46.900333763463124,
                            -23.520901563055464
                        ],
                        [
                            -46.90025009630794,
                            -23.520568815685515
                        ],
                        [
                            -46.89996157397361,
                            -23.520512430829484
                        ],
                        [
                            -46.89914904470945,
                            -23.520158624895174
                        ],
                        [
                            -46.89866947266101,
                            -23.51972372947494
                        ],
                        [
                            -46.8981300650468,
                            -23.51996993787531
                        ],
                        [
                            -46.897936386788416,
                            -23.520378813580006
                        ],
                        [
                            -46.89805429204164,
                            -23.52148138159123
                        ],
                        [
                            -46.89874700145747,
                            -23.52124614024442
                        ],
                        [
                            -46.89916024557896,
                            -23.52126249360012
                        ],
                        [
                            -46.90008171129269,
                            -23.521122873940385
                        ],
                        [
                            -46.900333763463124,
                            -23.520901563055464
                        ]
                    ]
                ]
            }
        }
    ]
}