{
    "type": "FeatureCollection",
    "features": [
        {
            "type": "Feature",
            "properties": {
                "type": "site",
                "region_id": "BR_C000",
                "version": "2.0.1",
                "mgrs": "23KLP",
                "model_content": "annotation",
                "start_date": "2016-04-12",
                "end_date": "2019-07-31",
                "originator": "iMERIT",
                "site_id": "BR_C000_0237",
                "status": "positive_pending",
                "validated": "False",
                "score": 0.0,
                "misc_info": {
                    "commit_hash": "b8980b308111f4d719b33abcdfd4475cdb0511ce"
                }
            },
            "geometry": {
                "type": "Polygon",
                "coordinates": [
                    [
                        [
                            -46.688261080376904,
                            -23.536869928692994
                        ],
                        [
                            -46.688850226175155,
                            -23.53653429394386
                        ],
                        [
                            -46.68825935472866,
                            -23.535652613238305
                        ],
                        [
                            -46.687670211056925,
                            -23.53598824564557
                        ],
                        [
                            -46.688261080376904,
                            -23.536869928692994
                        ]
                    ]
                ]
            }
        },
        {
            "type": "Feature",
            "properties": {
                "type": "observation",
                "score": 0.0,
                "observation_date": "2016-04-12",
                "source": null,
                "sensor_name": null,
                "current_phase": null,
                "is_occluded": null,
                "is_site_boundary": null
            },
            "geometry": {
                "type": "Polygon",
                "coordinates": [
                    [
                        [
                            -46.688261080376904,
                            -23.536869928692994
                        ],
                        [
                            -46.688850226175155,
                            -23.53653429394386
                        ],
                        [
                            -46.68825935472866,
                            -23.535652613238305
                        ],
                        [
                            -46.687670211056925,
                            -23.53598824564557
                        ],
                        [
                            -46.688261080376904,
                            -23.536869928692994
                        ]
                    ]
                ]
            }
        },
        {
            "type": "Feature",
            "properties": {
                "type": "observation",
                "score": 0.0,
                "observation_date": "2019-07-31",
                "source": null,
                "sensor_name": null,
                "current_phase": null,
                "is_occluded": null,
                "is_site_boundary": null
            },
            "geometry": {
                "type": "Polygon",
                "coordinates": [
                    [
                        [
                            -46.688261080376904,
                            -23.536869928692994
                        ],
                        [
                            -46.688850226175155,
                            -23.53653429394386
                        ],
                        [
                            -46.68825935472866,
                            -23.535652613238305
                        ],
                        [
                            -46.687670211056925,
                            -23.53598824564557
                        ],
                        [
                            -46.688261080376904,
                            -23.536869928692994
                        ]
                    ]
                ]
            }
        }
    ]
}