{
    "type": "FeatureCollection",
    "features": [
        {
            "type": "Feature",
            "properties": {
                "type": "site",
                "region_id": "BR_C000",
                "version": "2.0.0",
                "mgrs": "23KLP",
                "model_content": "annotation",
                "start_date": "2018-05-02",
                "end_date": "2019-12-08",
                "originator": "iMERIT",
                "site_id": "BR_C000_0583",
                "status": "positive_pending",
                "validated": "False",
                "score": 0.0,
                "misc_info": {
                    "commit_hash": "b8980b308111f4d719b33abcdfd4475cdb0511ce"
                }
            },
            "geometry": {
                "type": "Polygon",
                "coordinates": [
                    [
                        [
                            -46.4089571559846,
                            -23.60704725029031
                        ],
                        [
                            -46.40812144615406,
                            -23.60677909957389
                        ],
                        [
                            -46.40788083287195,
                            -23.60764929012272
                        ],
                        [
                            -46.40869386694539,
                            -23.60789549329729
                        ],
                        [
                            -46.4089571559846,
                            -23.60704725029031
                        ]
                    ]
                ]
            }
        },
        {
            "type": "Feature",
            "properties": {
                "type": "observation",
                "score": 0.0,
                "observation_date": "2018-05-02",
                "source": null,
                "sensor_name": null,
                "current_phase": null,
                "is_occluded": null,
                "is_site_boundary": null
            },
            "geometry": {
                "type": "Polygon",
                "coordinates": [
                    [
                        [
                            -46.4089571559846,
                            -23.60704725029031
                        ],
                        [
                            -46.40812144615406,
                            -23.60677909957389
                        ],
                        [
                            -46.40788083287195,
                            -23.60764929012272
                        ],
                        [
                            -46.40869386694539,
                            -23.60789549329729
                        ],
                        [
                            -46.4089571559846,
                            -23.60704725029031
                        ]
                    ]
                ]
            }
        },
        {
            "type": "Feature",
            "properties": {
                "type": "observation",
                "score": 0.0,
                "observation_date": "2019-12-08",
                "source": null,
                "sensor_name": null,
                "current_phase": null,
                "is_occluded": null,
                "is_site_boundary": null
            },
            "geometry": {
                "type": "Polygon",
                "coordinates": [
                    [
                        [
                            -46.4089571559846,
                            -23.60704725029031
                        ],
                        [
                            -46.40812144615406,
                            -23.60677909957389
                        ],
                        [
                            -46.40788083287195,
                            -23.60764929012272
                        ],
                        [
                            -46.40869386694539,
                            -23.60789549329729
                        ],
                        [
                            -46.4089571559846,
                            -23.60704725029031
                        ]
                    ]
                ]
            }
        }
    ]
}