{
    "type": "FeatureCollection",
    "features": [
        {
            "type": "Feature",
            "properties": {
                "type": "site",
                "region_id": "BR_C000",
                "version": "2.0.1",
                "mgrs": "23KLP",
                "model_content": "annotation",
                "start_date": "2019-03-23",
                "end_date": "2022-01-16",
                "originator": "iMERIT",
                "site_id": "BR_C000_0465",
                "status": "positive_pending",
                "validated": "False",
                "score": 0.0,
                "misc_info": {
                    "commit_hash": "b8980b308111f4d719b33abcdfd4475cdb0511ce"
                }
            },
            "geometry": {
                "type": "Polygon",
                "coordinates": [
                    [
                        [
                            -46.626100877551885,
                            -23.53720475819366
                        ],
                        [
                            -46.62539093442759,
                            -23.536068849194788
                        ],
                        [
                            -46.62283513918013,
                            -23.536686499712925
                        ],
                        [
                            -46.62274284657397,
                            -23.537786911555582
                        ],
                        [
                            -46.62331790050465,
                            -23.538376164348744
                        ],
                        [
                            -46.624872675946854,
                            -23.53776561326185
                        ],
                        [
                            -46.62619317015804,
                            -23.537403542268464
                        ],
                        [
                            -46.626100877551885,
                            -23.53720475819366
                        ]
                    ]
                ]
            }
        },
        {
            "type": "Feature",
            "properties": {
                "type": "observation",
                "score": 0.0,
                "observation_date": "2019-03-23",
                "source": null,
                "sensor_name": null,
                "current_phase": null,
                "is_occluded": null,
                "is_site_boundary": null
            },
            "geometry": {
                "type": "Polygon",
                "coordinates": [
                    [
                        [
                            -46.626100877551885,
                            -23.53720475819366
                        ],
                        [
                            -46.62539093442759,
                            -23.536068849194788
                        ],
                        [
                            -46.62283513918013,
                            -23.536686499712925
                        ],
                        [
                            -46.62274284657397,
                            -23.537786911555582
                        ],
                        [
                            -46.62331790050465,
                            -23.538376164348744
                        ],
                        [
                            -46.624872675946854,
                            -23.53776561326185
                        ],
                        [
                            -46.62619317015804,
                            -23.537403542268464
                        ],
                        [
                            -46.626100877551885,
                            -23.53720475819366
                        ]
                    ]
                ]
            }
        },
        {
            "type": "Feature",
            "properties": {
                "type": "observation",
                "score": 0.0,
                "observation_date": "2022-01-16",
                "source": null,
                "sensor_name": null,
                "current_phase": null,
                "is_occluded": null,
                "is_site_boundary": null
            },
            "geometry": {
                "type": "Polygon",
                "coordinates": [
                    [
                        [
                            -46.626100877551885,
                            -23.53720475819366
                        ],
                        [
                            -46.62539093442759,
                            -23.536068849194788
                        ],
                        [
                            -46.62283513918013,
                            -23.536686499712925
                        ],
                        [
                            -46.62274284657397,
                            -23.537786911555582
                        ],
                        [
                            -46.62331790050465,
                            -23.538376164348744
                        ],
                        [
                            -46.624872675946854,
                            -23.53776561326185
                        ],
                        [
                            -46.62619317015804,
                            -23.537403542268464
                        ],
                        [
                            -46.626100877551885,
                            -23.53720475819366
                        ]
                    ]
                ]
            }
        }
    ]
}