{
    "type": "FeatureCollection",
    "features": [
        {
            "type": "Feature",
            "properties": {
                "type": "site",
                "region_id": "BR_C000",
                "version": "2.0.0",
                "mgrs": "23KLP",
                "model_content": "annotation",
                "start_date": "2019-01-27",
                "end_date": "2020-05-11",
                "originator": "iMERIT",
                "site_id": "BR_C000_0446",
                "status": "positive_pending",
                "validated": "False",
                "score": 0.0,
                "misc_info": {
                    "commit_hash": "b8980b308111f4d719b33abcdfd4475cdb0511ce"
                }
            },
            "geometry": {
                "type": "Polygon",
                "coordinates": [
                    [
                        [
                            -46.602929949458826,
                            -23.622116433078062
                        ],
                        [
                            -46.60247781137601,
                            -23.6227287697237
                        ],
                        [
                            -46.601862487662224,
                            -23.62239423836578
                        ],
                        [
                            -46.60187219938833,
                            -23.622248044160905
                        ],
                        [
                            -46.60232590085339,
                            -23.62119741127447
                        ],
                        [
                            -46.60238742194534,
                            -23.621154429835393
                        ],
                        [
                            -46.602545258056054,
                            -23.62128407243239
                        ],
                        [
                            -46.602406384437714,
                            -23.621579811937984
                        ],
                        [
                            -46.60269301800518,
                            -23.621718710566853
                        ],
                        [
                            -46.60257368982567,
                            -23.62192108697387
                        ],
                        [
                            -46.602929949458826,
                            -23.622116433078062
                        ]
                    ]
                ]
            }
        },
        {
            "type": "Feature",
            "properties": {
                "type": "observation",
                "score": 0.0,
                "observation_date": "2019-01-27",
                "source": null,
                "sensor_name": null,
                "current_phase": null,
                "is_occluded": null,
                "is_site_boundary": null
            },
            "geometry": {
                "type": "Polygon",
                "coordinates": [
                    [
                        [
                            -46.602929949458826,
                            -23.622116433078062
                        ],
                        [
                            -46.60247781137601,
                            -23.6227287697237
                        ],
                        [
                            -46.601862487662224,
                            -23.62239423836578
                        ],
                        [
                            -46.60187219938833,
                            -23.622248044160905
                        ],
                        [
                            -46.60232590085339,
                            -23.62119741127447
                        ],
                        [
                            -46.60238742194534,
                            -23.621154429835393
                        ],
                        [
                            -46.602545258056054,
                            -23.62128407243239
                        ],
                        [
                            -46.602406384437714,
                            -23.621579811937984
                        ],
                        [
                            -46.60269301800518,
                            -23.621718710566853
                        ],
                        [
                            -46.60257368982567,
                            -23.62192108697387
                        ],
                        [
                            -46.602929949458826,
                            -23.622116433078062
                        ]
                    ]
                ]
            }
        },
        {
            "type": "Feature",
            "properties": {
                "type": "observation",
                "score": 0.0,
                "observation_date": "2020-05-11",
                "source": null,
                "sensor_name": null,
                "current_phase": null,
                "is_occluded": null,
                "is_site_boundary": null
            },
            "geometry": {
                "type": "Polygon",
                "coordinates": [
                    [
                        [
                            -46.602929949458826,
                            -23.622116433078062
                        ],
                        [
                            -46.60247781137601,
                            -23.6227287697237
                        ],
                        [
                            -46.601862487662224,
                            -23.62239423836578
                        ],
                        [
                            -46.60187219938833,
                            -23.622248044160905
                        ],
                        [
                            -46.60232590085339,
                            -23.62119741127447
                        ],
                        [
                            -46.60238742194534,
                            -23.621154429835393
                        ],
                        [
                            -46.602545258056054,
                            -23.62128407243239
                        ],
                        [
                            -46.602406384437714,
                            -23.621579811937984
                        ],
                        [
                            -46.60269301800518,
                            -23.621718710566853
                        ],
                        [
                            -46.60257368982567,
                            -23.62192108697387
                        ],
                        [
                            -46.602929949458826,
                            -23.622116433078062
                        ]
                    ]
                ]
            }
        }
    ]
}