{
    "type": "FeatureCollection",
    "features": [
        {
            "type": "Feature",
            "properties": {
                "type": "site",
                "region_id": "BR_C000",
                "version": "2.0.0",
                "mgrs": "23KLP",
                "model_content": "annotation",
                "start_date": "2017-06-11",
                "end_date": "2021-03-27",
                "originator": "iMERIT",
                "site_id": "BR_C000_0112",
                "status": "positive_pending",
                "validated": "False",
                "score": 0.0,
                "misc_info": {
                    "commit_hash": "b8980b308111f4d719b33abcdfd4475cdb0511ce"
                }
            },
            "geometry": {
                "type": "Polygon",
                "coordinates": [
                    [
                        [
                            -46.87323278484668,
                            -23.53547873827691
                        ],
                        [
                            -46.87333089350359,
                            -23.535549867053174
                        ],
                        [
                            -46.87355292582093,
                            -23.53570920789269
                        ],
                        [
                            -46.873667860196974,
                            -23.53582414226873
                        ],
                        [
                            -46.873701818080804,
                            -23.535892058036392
                        ],
                        [
                            -46.87371487880535,
                            -23.535954749514236
                        ],
                        [
                            -46.87332828135867,
                            -23.536030501716624
                        ],
                        [
                            -46.87313237049041,
                            -23.536022665281894
                        ],
                        [
                            -46.87294927042436,
                            -23.53599804678562
                        ],
                        [
                            -46.872947757768905,
                            -23.53600081749069
                        ],
                        [
                            -46.87229665764994,
                            -23.535905956155705
                        ],
                        [
                            -46.87279884649313,
                            -23.53482585011609
                        ],
                        [
                            -46.872909663004805,
                            -23.53511335715918
                        ],
                        [
                            -46.8729113287759,
                            -23.535115074349523
                        ],
                        [
                            -46.872941683911996,
                            -23.535199839635226
                        ],
                        [
                            -46.87312192191079,
                            -23.53539836264839
                        ],
                        [
                            -46.87323278484668,
                            -23.53547873827691
                        ]
                    ]
                ]
            }
        },
        {
            "type": "Feature",
            "properties": {
                "type": "observation",
                "score": 0.0,
                "observation_date": "2017-06-11",
                "source": null,
                "sensor_name": null,
                "current_phase": null,
                "is_occluded": null,
                "is_site_boundary": null
            },
            "geometry": {
                "type": "Polygon",
                "coordinates": [
                    [
                        [
                            -46.87323278484668,
                            -23.53547873827691
                        ],
                        [
                            -46.87333089350359,
                            -23.535549867053174
                        ],
                        [
                            -46.87355292582093,
                            -23.53570920789269
                        ],
                        [
                            -46.873667860196974,
                            -23.53582414226873
                        ],
                        [
                            -46.873701818080804,
                            -23.535892058036392
                        ],
                        [
                            -46.87371487880535,
                            -23.535954749514236
                        ],
                        [
                            -46.87332828135867,
                            -23.536030501716624
                        ],
                        [
                            -46.87313237049041,
                            -23.536022665281894
                        ],
                        [
                            -46.87294927042436,
                            -23.53599804678562
                        ],
                        [
                            -46.872947757768905,
                            -23.53600081749069
                        ],
                        [
                            -46.87229665764994,
                            -23.535905956155705
                        ],
                        [
                            -46.87279884649313,
                            -23.53482585011609
                        ],
                        [
                            -46.872909663004805,
                            -23.53511335715918
                        ],
                        [
                            -46.8729113287759,
                            -23.535115074349523
                        ],
                        [
                            -46.872941683911996,
                            -23.535199839635226
                        ],
                        [
                            -46.87312192191079,
                            -23.53539836264839
                        ],
                        [
                            -46.87323278484668,
                            -23.53547873827691
                        ]
                    ]
                ]
            }
        },
        {
            "type": "Feature",
            "properties": {
                "type": "observation",
                "score": 0.0,
                "observation_date": "2021-03-27",
                "source": null,
                "sensor_name": null,
                "current_phase": null,
                "is_occluded": null,
                "is_site_boundary": null
            },
            "geometry": {
                "type": "Polygon",
                "coordinates": [
                    [
                        [
                            -46.87323278484668,
                            -23.53547873827691
                        ],
                        [
                            -46.87333089350359,
                            -23.535549867053174
                        ],
                        [
                            -46.87355292582093,
                            -23.53570920789269
                        ],
                        [
                            -46.873667860196974,
                            -23.53582414226873
                        ],
                        [
                            -46.873701818080804,
                            -23.535892058036392
                        ],
                        [
                            -46.87371487880535,
                            -23.535954749514236
                        ],
                        [
                            -46.87332828135867,
                            -23.536030501716624
                        ],
                        [
                            -46.87313237049041,
                            -23.536022665281894
                        ],
                        [
                            -46.87294927042436,
                            -23.53599804678562
                        ],
                        [
                            -46.872947757768905,
                            -23.53600081749069
                        ],
                        [
                            -46.87229665764994,
                            -23.535905956155705
                        ],
                        [
                            -46.87279884649313,
                            -23.53482585011609
                        ],
                        [
                            -46.872909663004805,
                            -23.53511335715918
                        ],
                        [
                            -46.8729113287759,
                            -23.535115074349523
                        ],
                        [
                            -46.872941683911996,
                            -23.535199839635226
                        ],
                        [
                            -46.87312192191079,
                            -23.53539836264839
                        ],
                        [
                            -46.87323278484668,
                            -23.53547873827691
                        ]
                    ]
                ]
            }
        }
    ]
}