{
    "type": "FeatureCollection",
    "features": [
        {
            "type": "Feature",
            "properties": {
                "type": "site",
                "region_id": "BR_C000",
                "version": "2.0.1",
                "mgrs": "23KLP",
                "model_content": "annotation",
                "start_date": "2016-08-17",
                "end_date": "2018-01-22",
                "originator": "iMERIT",
                "site_id": "BR_C000_0591",
                "status": "positive_pending",
                "validated": "False",
                "score": 0.0,
                "misc_info": {
                    "commit_hash": "b8980b308111f4d719b33abcdfd4475cdb0511ce"
                }
            },
            "geometry": {
                "type": "Polygon",
                "coordinates": [
                    [
                        [
                            -46.42166498206252,
                            -23.547853596749846
                        ],
                        [
                            -46.42097397637399,
                            -23.54756229043017
                        ],
                        [
                            -46.420736866578906,
                            -23.54811103024165
                        ],
                        [
                            -46.42146851966088,
                            -23.548368463733457
                        ],
                        [
                            -46.42166498206252,
                            -23.547853596749846
                        ]
                    ]
                ]
            }
        },
        {
            "type": "Feature",
            "properties": {
                "type": "observation",
                "score": 0.0,
                "observation_date": "2016-08-17",
                "source": null,
                "sensor_name": null,
                "current_phase": null,
                "is_occluded": null,
                "is_site_boundary": null
            },
            "geometry": {
                "type": "Polygon",
                "coordinates": [
                    [
                        [
                            -46.42166498206252,
                            -23.547853596749846
                        ],
                        [
                            -46.42097397637399,
                            -23.54756229043017
                        ],
                        [
                            -46.420736866578906,
                            -23.54811103024165
                        ],
                        [
                            -46.42146851966088,
                            -23.548368463733457
                        ],
                        [
                            -46.42166498206252,
                            -23.547853596749846
                        ]
                    ]
                ]
            }
        },
        {
            "type": "Feature",
            "properties": {
                "type": "observation",
                "score": 0.0,
                "observation_date": "2018-01-22",
                "source": null,
                "sensor_name": null,
                "current_phase": null,
                "is_occluded": null,
                "is_site_boundary": null
            },
            "geometry": {
                "type": "Polygon",
                "coordinates": [
                    [
                        [
                            -46.42166498206252,
                            -23.547853596749846
                        ],
                        [
                            -46.42097397637399,
                            -23.54756229043017
                        ],
                        [
                            -46.420736866578906,
                            -23.54811103024165
                        ],
                        [
                            -46.42146851966088,
                            -23.548368463733457
                        ],
                        [
                            -46.42166498206252,
                            -23.547853596749846
                        ]
                    ]
                ]
            }
        }
    ]
}