{
    "type": "FeatureCollection",
    "features": [
        {
            "type": "Feature",
            "properties": {
                "type": "site",
                "region_id": "BR_C000",
                "version": "2.0.1",
                "mgrs": "23KLP",
                "model_content": "annotation",
                "start_date": "2020-09-13",
                "end_date": "2022-02-20",
                "originator": "iMERIT",
                "site_id": "BR_C000_0394",
                "status": "positive_pending",
                "validated": "False",
                "score": 0.0,
                "misc_info": {
                    "commit_hash": "b8980b308111f4d719b33abcdfd4475cdb0511ce"
                }
            },
            "geometry": {
                "type": "Polygon",
                "coordinates": [
                    [
                        [
                            -46.53180772095999,
                            -23.57397638861946
                        ],
                        [
                            -46.53212073001963,
                            -23.574850658065447
                        ],
                        [
                            -46.53145741147821,
                            -23.5750504606449
                        ],
                        [
                            -46.53117195362265,
                            -23.57425567777957
                        ],
                        [
                            -46.53180772095999,
                            -23.57397638861946
                        ]
                    ]
                ]
            }
        },
        {
            "type": "Feature",
            "properties": {
                "type": "observation",
                "score": 0.0,
                "observation_date": "2020-09-13",
                "source": null,
                "sensor_name": null,
                "current_phase": null,
                "is_occluded": null,
                "is_site_boundary": null
            },
            "geometry": {
                "type": "Polygon",
                "coordinates": [
                    [
                        [
                            -46.53180772095999,
                            -23.57397638861946
                        ],
                        [
                            -46.53212073001963,
                            -23.574850658065447
                        ],
                        [
                            -46.53145741147821,
                            -23.5750504606449
                        ],
                        [
                            -46.53117195362265,
                            -23.57425567777957
                        ],
                        [
                            -46.53180772095999,
                            -23.57397638861946
                        ]
                    ]
                ]
            }
        },
        {
            "type": "Feature",
            "properties": {
                "type": "observation",
                "score": 0.0,
                "observation_date": "2022-02-20",
                "source": null,
                "sensor_name": null,
                "current_phase": null,
                "is_occluded": null,
                "is_site_boundary": null
            },
            "geometry": {
                "type": "Polygon",
                "coordinates": [
                    [
                        [
                            -46.53180772095999,
                            -23.57397638861946
                        ],
                        [
                            -46.53212073001963,
                            -23.574850658065447
                        ],
                        [
                            -46.53145741147821,
                            -23.5750504606449
                        ],
                        [
                            -46.53117195362265,
                            -23.57425567777957
                        ],
                        [
                            -46.53180772095999,
                            -23.57397638861946
                        ]
                    ]
                ]
            }
        }
    ]
}