{
    "type": "FeatureCollection",
    "features": [
        {
            "type": "Feature",
            "properties": {
                "type": "site",
                "region_id": "BR_C000",
                "version": "2.0.1",
                "mgrs": "23KLQ",
                "model_content": "annotation",
                "start_date": "2018-12-21",
                "end_date": "2020-01-27",
                "originator": "iMERIT",
                "site_id": "BR_C000_0868",
                "status": "positive_pending",
                "validated": "False",
                "score": 0.0,
                "misc_info": {
                    "commit_hash": "b8980b308111f4d719b33abcdfd4475cdb0511ce"
                }
            },
            "geometry": {
                "type": "Polygon",
                "coordinates": [
                    [
                        [
                            -46.40887672623829,
                            -23.447899816565744
                        ],
                        [
                            -46.40886929385833,
                            -23.448223049557228
                        ],
                        [
                            -46.409539409266735,
                            -23.448938483829817
                        ],
                        [
                            -46.40886889824176,
                            -23.449465613304017
                        ],
                        [
                            -46.40819846475777,
                            -23.448720117082004
                        ],
                        [
                            -46.40824908516277,
                            -23.44786038955573
                        ],
                        [
                            -46.40887672623829,
                            -23.447899816565744
                        ]
                    ]
                ]
            }
        },
        {
            "type": "Feature",
            "properties": {
                "type": "observation",
                "score": 0.0,
                "observation_date": "2018-12-21",
                "source": null,
                "sensor_name": null,
                "current_phase": null,
                "is_occluded": null,
                "is_site_boundary": null
            },
            "geometry": {
                "type": "Polygon",
                "coordinates": [
                    [
                        [
                            -46.40887672623829,
                            -23.447899816565744
                        ],
                        [
                            -46.40886929385833,
                            -23.448223049557228
                        ],
                        [
                            -46.409539409266735,
                            -23.448938483829817
                        ],
                        [
                            -46.40886889824176,
                            -23.449465613304017
                        ],
                        [
                            -46.40819846475777,
                            -23.448720117082004
                        ],
                        [
                            -46.40824908516277,
                            -23.44786038955573
                        ],
                        [
                            -46.40887672623829,
                            -23.447899816565744
                        ]
                    ]
                ]
            }
        },
        {
            "type": "Feature",
            "properties": {
                "type": "observation",
                "score": 0.0,
                "observation_date": "2020-01-27",
                "source": null,
                "sensor_name": null,
                "current_phase": null,
                "is_occluded": null,
                "is_site_boundary": null
            },
            "geometry": {
                "type": "Polygon",
                "coordinates": [
                    [
                        [
                            -46.40887672623829,
                            -23.447899816565744
                        ],
                        [
                            -46.40886929385833,
                            -23.448223049557228
                        ],
                        [
                            -46.409539409266735,
                            -23.448938483829817
                        ],
                        [
                            -46.40886889824176,
                            -23.449465613304017
                        ],
                        [
                            -46.40819846475777,
                            -23.448720117082004
                        ],
                        [
                            -46.40824908516277,
                            -23.44786038955573
                        ],
                        [
                            -46.40887672623829,
                            -23.447899816565744
                        ]
                    ]
                ]
            }
        }
    ]
}