{
    "type": "FeatureCollection",
    "features": [
        {
            "type": "Feature",
            "properties": {
                "type": "site",
                "region_id": "BR_C000",
                "version": "2.0.0",
                "mgrs": "23KLP",
                "model_content": "annotation",
                "start_date": "2017-08-30",
                "end_date": "2018-04-07",
                "originator": "iMERIT",
                "site_id": "BR_C000_0445",
                "status": "positive_pending",
                "validated": "False",
                "score": 0.0,
                "misc_info": {
                    "commit_hash": "b8980b308111f4d719b33abcdfd4475cdb0511ce"
                }
            },
            "geometry": {
                "type": "Polygon",
                "coordinates": [
                    [
                        [
                            -46.59934791964276,
                            -23.63252305745103
                        ],
                        [
                            -46.59939222035473,
                            -23.632423984636517
                        ],
                        [
                            -46.59993438718011,
                            -23.63165192925386
                        ],
                        [
                            -46.6002031627418,
                            -23.631454364640774
                        ],
                        [
                            -46.600554232571376,
                            -23.631598953305694
                        ],
                        [
                            -46.60031502345349,
                            -23.632338242760838
                        ],
                        [
                            -46.6006655810045,
                            -23.63244049030222
                        ],
                        [
                            -46.600301963929304,
                            -23.633532535723965
                        ],
                        [
                            -46.599092399156106,
                            -23.63332103630244
                        ],
                        [
                            -46.5983508664668,
                            -23.633827905391012
                        ],
                        [
                            -46.5964718251936,
                            -23.633329999513897
                        ],
                        [
                            -46.59692411806271,
                            -23.631540371869047
                        ],
                        [
                            -46.59735731064747,
                            -23.63159102893048
                        ],
                        [
                            -46.59751000559831,
                            -23.632038878875267
                        ],
                        [
                            -46.59934791964276,
                            -23.63252305745103
                        ]
                    ]
                ]
            }
        },
        {
            "type": "Feature",
            "properties": {
                "type": "observation",
                "score": 0.0,
                "observation_date": "2017-08-30",
                "source": null,
                "sensor_name": null,
                "current_phase": null,
                "is_occluded": null,
                "is_site_boundary": null
            },
            "geometry": {
                "type": "Polygon",
                "coordinates": [
                    [
                        [
                            -46.59934791964276,
                            -23.63252305745103
                        ],
                        [
                            -46.59939222035473,
                            -23.632423984636517
                        ],
                        [
                            -46.59993438718011,
                            -23.63165192925386
                        ],
                        [
                            -46.6002031627418,
                            -23.631454364640774
                        ],
                        [
                            -46.600554232571376,
                            -23.631598953305694
                        ],
                        [
                            -46.60031502345349,
                            -23.632338242760838
                        ],
                        [
                            -46.6006655810045,
                            -23.63244049030222
                        ],
                        [
                            -46.600301963929304,
                            -23.633532535723965
                        ],
                        [
                            -46.599092399156106,
                            -23.63332103630244
                        ],
                        [
                            -46.5983508664668,
                            -23.633827905391012
                        ],
                        [
                            -46.5964718251936,
                            -23.633329999513897
                        ],
                        [
                            -46.59692411806271,
                            -23.631540371869047
                        ],
                        [
                            -46.59735731064747,
                            -23.63159102893048
                        ],
                        [
                            -46.59751000559831,
                            -23.632038878875267
                        ],
                        [
                            -46.59934791964276,
                            -23.63252305745103
                        ]
                    ]
                ]
            }
        },
        {
            "type": "Feature",
            "properties": {
                "type": "observation",
                "score": 0.0,
                "observation_date": "2018-04-07",
                "source": null,
                "sensor_name": null,
                "current_phase": null,
                "is_occluded": null,
                "is_site_boundary": null
            },
            "geometry": {
                "type": "Polygon",
                "coordinates": [
                    [
                        [
                            -46.59934791964276,
                            -23.63252305745103
                        ],
                        [
                            -46.59939222035473,
                            -23.632423984636517
                        ],
                        [
                            -46.59993438718011,
                            -23.63165192925386
                        ],
                        [
                            -46.6002031627418,
                            -23.631454364640774
                        ],
                        [
                            -46.600554232571376,
                            -23.631598953305694
                        ],
                        [
                            -46.60031502345349,
                            -23.632338242760838
                        ],
                        [
                            -46.6006655810045,
                            -23.63244049030222
                        ],
                        [
                            -46.600301963929304,
                            -23.633532535723965
                        ],
                        [
                            -46.599092399156106,
                            -23.63332103630244
                        ],
                        [
                            -46.5983508664668,
                            -23.633827905391012
                        ],
                        [
                            -46.5964718251936,
                            -23.633329999513897
                        ],
                        [
                            -46.59692411806271,
                            -23.631540371869047
                        ],
                        [
                            -46.59735731064747,
                            -23.63159102893048
                        ],
                        [
                            -46.59751000559831,
                            -23.632038878875267
                        ],
                        [
                            -46.59934791964276,
                            -23.63252305745103
                        ]
                    ]
                ]
            }
        }
    ]
}