{
    "type": "FeatureCollection",
    "features": [
        {
            "type": "Feature",
            "properties": {
                "type": "site",
                "region_id": "BR_C000",
                "version": "2.0.1",
                "mgrs": "23KLQ",
                "model_content": "annotation",
                "start_date": "2021-06-05",
                "end_date": "2022-06-25",
                "originator": "iMERIT",
                "site_id": "BR_C000_0810",
                "status": "positive_pending",
                "validated": "False",
                "score": 0.0,
                "misc_info": {
                    "commit_hash": "b8980b308111f4d719b33abcdfd4475cdb0511ce"
                }
            },
            "geometry": {
                "type": "Polygon",
                "coordinates": [
                    [
                        [
                            -46.46836505051975,
                            -23.479155889263318
                        ],
                        [
                            -46.46711419548696,
                            -23.47911655389376
                        ],
                        [
                            -46.467049917014656,
                            -23.4805561031769
                        ],
                        [
                            -46.46831503547711,
                            -23.47998513468752
                        ],
                        [
                            -46.46836505051975,
                            -23.479155889263318
                        ]
                    ]
                ]
            }
        },
        {
            "type": "Feature",
            "properties": {
                "type": "observation",
                "score": 0.0,
                "observation_date": "2021-06-05",
                "source": null,
                "sensor_name": null,
                "current_phase": null,
                "is_occluded": null,
                "is_site_boundary": null
            },
            "geometry": {
                "type": "Polygon",
                "coordinates": [
                    [
                        [
                            -46.46836505051975,
                            -23.479155889263318
                        ],
                        [
                            -46.46711419548696,
                            -23.47911655389376
                        ],
                        [
                            -46.467049917014656,
                            -23.4805561031769
                        ],
                        [
                            -46.46831503547711,
                            -23.47998513468752
                        ],
                        [
                            -46.46836505051975,
                            -23.479155889263318
                        ]
                    ]
                ]
            }
        },
        {
            "type": "Feature",
            "properties": {
                "type": "observation",
                "score": 0.0,
                "observation_date": "2022-06-25",
                "source": null,
                "sensor_name": null,
                "current_phase": null,
                "is_occluded": null,
                "is_site_boundary": null
            },
            "geometry": {
                "type": "Polygon",
                "coordinates": [
                    [
                        [
                            -46.46836505051975,
                            -23.479155889263318
                        ],
                        [
                            -46.46711419548696,
                            -23.47911655389376
                        ],
                        [
                            -46.467049917014656,
                            -23.4805561031769
                        ],
                        [
                            -46.46831503547711,
                            -23.47998513468752
                        ],
                        [
                            -46.46836505051975,
                            -23.479155889263318
                        ]
                    ]
                ]
            }
        }
    ]
}