{
    "type": "FeatureCollection",
    "features": [
        {
            "type": "Feature",
            "properties": {
                "type": "site",
                "region_id": "BR_C000",
                "version": "2.0.1",
                "mgrs": "23KLP",
                "model_content": "annotation",
                "start_date": "2016-08-17",
                "end_date": "2019-01-07",
                "originator": "iMERIT",
                "site_id": "BR_C000_0400",
                "status": "positive_pending",
                "validated": "False",
                "score": 0.0,
                "misc_info": {
                    "commit_hash": "b8980b308111f4d719b33abcdfd4475cdb0511ce"
                }
            },
            "geometry": {
                "type": "Polygon",
                "coordinates": [
                    [
                        [
                            -46.520493740070556,
                            -23.5101501336575
                        ],
                        [
                            -46.520544954565764,
                            -23.510264673159938
                        ],
                        [
                            -46.5200983851001,
                            -23.511208519309893
                        ],
                        [
                            -46.51902053368886,
                            -23.510770385388767
                        ],
                        [
                            -46.519638257148024,
                            -23.50952193462793
                        ],
                        [
                            -46.520399276309774,
                            -23.509890300589102
                        ],
                        [
                            -46.520483355439424,
                            -23.50997000703195
                        ],
                        [
                            -46.520493740070556,
                            -23.5101501336575
                        ]
                    ]
                ]
            }
        },
        {
            "type": "Feature",
            "properties": {
                "type": "observation",
                "score": 0.0,
                "observation_date": "2016-08-17",
                "source": null,
                "sensor_name": null,
                "current_phase": null,
                "is_occluded": null,
                "is_site_boundary": null
            },
            "geometry": {
                "type": "Polygon",
                "coordinates": [
                    [
                        [
                            -46.520493740070556,
                            -23.5101501336575
                        ],
                        [
                            -46.520544954565764,
                            -23.510264673159938
                        ],
                        [
                            -46.5200983851001,
                            -23.511208519309893
                        ],
                        [
                            -46.51902053368886,
                            -23.510770385388767
                        ],
                        [
                            -46.519638257148024,
                            -23.50952193462793
                        ],
                        [
                            -46.520399276309774,
                            -23.509890300589102
                        ],
                        [
                            -46.520483355439424,
                            -23.50997000703195
                        ],
                        [
                            -46.520493740070556,
                            -23.5101501336575
                        ]
                    ]
                ]
            }
        },
        {
            "type": "Feature",
            "properties": {
                "type": "observation",
                "score": 0.0,
                "observation_date": "2019-01-07",
                "source": null,
                "sensor_name": null,
                "current_phase": null,
                "is_occluded": null,
                "is_site_boundary": null
            },
            "geometry": {
                "type": "Polygon",
                "coordinates": [
                    [
                        [
                            -46.520493740070556,
                            -23.5101501336575
                        ],
                        [
                            -46.520544954565764,
                            -23.510264673159938
                        ],
                        [
                            -46.5200983851001,
                            -23.511208519309893
                        ],
                        [
                            -46.51902053368886,
                            -23.510770385388767
                        ],
                        [
                            -46.519638257148024,
                            -23.50952193462793
                        ],
                        [
                            -46.520399276309774,
                            -23.509890300589102
                        ],
                        [
                            -46.520483355439424,
                            -23.50997000703195
                        ],
                        [
                            -46.520493740070556,
                            -23.5101501336575
                        ]
                    ]
                ]
            }
        }
    ]
}