{
    "type": "FeatureCollection",
    "features": [
        {
            "type": "Feature",
            "properties": {
                "type": "site",
                "region_id": "BR_C000",
                "version": "2.0.1",
                "mgrs": "23KLQ",
                "model_content": "annotation",
                "start_date": "2019-12-28",
                "end_date": "2020-11-07",
                "originator": "iMERIT",
                "site_id": "BR_C000_0744",
                "status": "positive_pending",
                "validated": "False",
                "score": 0.0,
                "misc_info": {
                    "commit_hash": "b8980b308111f4d719b33abcdfd4475cdb0511ce"
                }
            },
            "geometry": {
                "type": "Polygon",
                "coordinates": [
                    [
                        [
                            -46.85499187038347,
                            -23.34212186857998
                        ],
                        [
                            -46.854256024527906,
                            -23.340739267169855
                        ],
                        [
                            -46.853538803437566,
                            -23.34069685829787
                        ],
                        [
                            -46.85182074806929,
                            -23.342685398375956
                        ],
                        [
                            -46.851858656861836,
                            -23.344093237074343
                        ],
                        [
                            -46.850621313322556,
                            -23.344973203171257
                        ],
                        [
                            -46.84946043692182,
                            -23.344079171040267
                        ],
                        [
                            -46.84894670714275,
                            -23.34413614167929
                        ],
                        [
                            -46.849049872173225,
                            -23.344287629119805
                        ],
                        [
                            -46.85184214959165,
                            -23.346214346290132
                        ],
                        [
                            -46.85289906467726,
                            -23.3455740485678
                        ],
                        [
                            -46.855103567984195,
                            -23.34553097081079
                        ],
                        [
                            -46.85499187038347,
                            -23.34212186857998
                        ]
                    ]
                ]
            }
        },
        {
            "type": "Feature",
            "properties": {
                "type": "observation",
                "score": 0.0,
                "observation_date": "2019-12-28",
                "source": null,
                "sensor_name": null,
                "current_phase": null,
                "is_occluded": null,
                "is_site_boundary": null
            },
            "geometry": {
                "type": "Polygon",
                "coordinates": [
                    [
                        [
                            -46.85499187038347,
                            -23.34212186857998
                        ],
                        [
                            -46.854256024527906,
                            -23.340739267169855
                        ],
                        [
                            -46.853538803437566,
                            -23.34069685829787
                        ],
                        [
                            -46.85182074806929,
                            -23.342685398375956
                        ],
                        [
                            -46.851858656861836,
                            -23.344093237074343
                        ],
                        [
                            -46.850621313322556,
                            -23.344973203171257
                        ],
                        [
                            -46.84946043692182,
                            -23.344079171040267
                        ],
                        [
                            -46.84894670714275,
                            -23.34413614167929
                        ],
                        [
                            -46.849049872173225,
                            -23.344287629119805
                        ],
                        [
                            -46.85184214959165,
                            -23.346214346290132
                        ],
                        [
                            -46.85289906467726,
                            -23.3455740485678
                        ],
                        [
                            -46.855103567984195,
                            -23.34553097081079
                        ],
                        [
                            -46.85499187038347,
                            -23.34212186857998
                        ]
                    ]
                ]
            }
        },
        {
            "type": "Feature",
            "properties": {
                "type": "observation",
                "score": 0.0,
                "observation_date": "2020-11-07",
                "source": null,
                "sensor_name": null,
                "current_phase": null,
                "is_occluded": null,
                "is_site_boundary": null
            },
            "geometry": {
                "type": "Polygon",
                "coordinates": [
                    [
                        [
                            -46.85499187038347,
                            -23.34212186857998
                        ],
                        [
                            -46.854256024527906,
                            -23.340739267169855
                        ],
                        [
                            -46.853538803437566,
                            -23.34069685829787
                        ],
                        [
                            -46.85182074806929,
                            -23.342685398375956
                        ],
                        [
                            -46.851858656861836,
                            -23.344093237074343
                        ],
                        [
                            -46.850621313322556,
                            -23.344973203171257
                        ],
                        [
                            -46.84946043692182,
                            -23.344079171040267
                        ],
                        [
                            -46.84894670714275,
                            -23.34413614167929
                        ],
                        [
                            -46.849049872173225,
                            -23.344287629119805
                        ],
                        [
                            -46.85184214959165,
                            -23.346214346290132
                        ],
                        [
                            -46.85289906467726,
                            -23.3455740485678
                        ],
                        [
                            -46.855103567984195,
                            -23.34553097081079
                        ],
                        [
                            -46.85499187038347,
                            -23.34212186857998
                        ]
                    ]
                ]
            }
        }
    ]
}