{
    "type": "FeatureCollection",
    "features": [
        {
            "type": "Feature",
            "properties": {
                "type": "site",
                "region_id": "BR_C000",
                "version": "2.0.1",
                "mgrs": "23KLQ",
                "model_content": "annotation",
                "start_date": "2020-10-13",
                "end_date": "2021-05-26",
                "originator": "iMERIT",
                "site_id": "BR_C000_0860",
                "status": "positive_pending",
                "validated": "False",
                "score": 0.0,
                "misc_info": {
                    "commit_hash": "b8980b308111f4d719b33abcdfd4475cdb0511ce"
                }
            },
            "geometry": {
                "type": "Polygon",
                "coordinates": [
                    [
                        [
                            -46.44707844174072,
                            -23.413956298348463
                        ],
                        [
                            -46.44573959212377,
                            -23.41515112358236
                        ],
                        [
                            -46.445253946823364,
                            -23.41492514455755
                        ],
                        [
                            -46.44610014980424,
                            -23.41335911289334
                        ],
                        [
                            -46.44707844174072,
                            -23.413956298348463
                        ]
                    ]
                ]
            }
        },
        {
            "type": "Feature",
            "properties": {
                "type": "observation",
                "score": 0.0,
                "observation_date": "2020-10-13",
                "source": null,
                "sensor_name": null,
                "current_phase": null,
                "is_occluded": null,
                "is_site_boundary": null
            },
            "geometry": {
                "type": "Polygon",
                "coordinates": [
                    [
                        [
                            -46.44707844174072,
                            -23.413956298348463
                        ],
                        [
                            -46.44573959212377,
                            -23.41515112358236
                        ],
                        [
                            -46.445253946823364,
                            -23.41492514455755
                        ],
                        [
                            -46.44610014980424,
                            -23.41335911289334
                        ],
                        [
                            -46.44707844174072,
                            -23.413956298348463
                        ]
                    ]
                ]
            }
        },
        {
            "type": "Feature",
            "properties": {
                "type": "observation",
                "score": 0.0,
                "observation_date": "2021-05-26",
                "source": null,
                "sensor_name": null,
                "current_phase": null,
                "is_occluded": null,
                "is_site_boundary": null
            },
            "geometry": {
                "type": "Polygon",
                "coordinates": [
                    [
                        [
                            -46.44707844174072,
                            -23.413956298348463
                        ],
                        [
                            -46.44573959212377,
                            -23.41515112358236
                        ],
                        [
                            -46.445253946823364,
                            -23.41492514455755
                        ],
                        [
                            -46.44610014980424,
                            -23.41335911289334
                        ],
                        [
                            -46.44707844174072,
                            -23.413956298348463
                        ]
                    ]
                ]
            }
        }
    ]
}