{
    "type": "FeatureCollection",
    "features": [
        {
            "type": "Feature",
            "properties": {
                "type": "site",
                "region_id": "BR_C000",
                "version": "2.0.0",
                "mgrs": "23KLP",
                "model_content": "annotation",
                "start_date": "2020-03-27",
                "end_date": "2020-10-13",
                "originator": "iMERIT",
                "site_id": "BR_C000_0084",
                "status": "positive_pending",
                "validated": "False",
                "score": 0.0,
                "misc_info": {
                    "commit_hash": "b8980b308111f4d719b33abcdfd4475cdb0511ce"
                }
            },
            "geometry": {
                "type": "Polygon",
                "coordinates": [
                    [
                        [
                            -46.88449290941601,
                            -23.6130996679601
                        ],
                        [
                            -46.8844795050825,
                            -23.612661793065314
                        ],
                        [
                            -46.88462037988499,
                            -23.61219780066028
                        ],
                        [
                            -46.884708315749876,
                            -23.6119525156733
                        ],
                        [
                            -46.885482651158945,
                            -23.612233488969274
                        ],
                        [
                            -46.884739484572904,
                            -23.613152373451594
                        ],
                        [
                            -46.88449290941601,
                            -23.6130996679601
                        ]
                    ]
                ]
            }
        },
        {
            "type": "Feature",
            "properties": {
                "type": "observation",
                "score": 0.0,
                "observation_date": "2020-03-27",
                "source": null,
                "sensor_name": null,
                "current_phase": null,
                "is_occluded": null,
                "is_site_boundary": null
            },
            "geometry": {
                "type": "Polygon",
                "coordinates": [
                    [
                        [
                            -46.88449290941601,
                            -23.6130996679601
                        ],
                        [
                            -46.8844795050825,
                            -23.612661793065314
                        ],
                        [
                            -46.88462037988499,
                            -23.61219780066028
                        ],
                        [
                            -46.884708315749876,
                            -23.6119525156733
                        ],
                        [
                            -46.885482651158945,
                            -23.612233488969274
                        ],
                        [
                            -46.884739484572904,
                            -23.613152373451594
                        ],
                        [
                            -46.88449290941601,
                            -23.6130996679601
                        ]
                    ]
                ]
            }
        },
        {
            "type": "Feature",
            "properties": {
                "type": "observation",
                "score": 0.0,
                "observation_date": "2020-10-13",
                "source": null,
                "sensor_name": null,
                "current_phase": null,
                "is_occluded": null,
                "is_site_boundary": null
            },
            "geometry": {
                "type": "Polygon",
                "coordinates": [
                    [
                        [
                            -46.88449290941601,
                            -23.6130996679601
                        ],
                        [
                            -46.8844795050825,
                            -23.612661793065314
                        ],
                        [
                            -46.88462037988499,
                            -23.61219780066028
                        ],
                        [
                            -46.884708315749876,
                            -23.6119525156733
                        ],
                        [
                            -46.885482651158945,
                            -23.612233488969274
                        ],
                        [
                            -46.884739484572904,
                            -23.613152373451594
                        ],
                        [
                            -46.88449290941601,
                            -23.6130996679601
                        ]
                    ]
                ]
            }
        }
    ]
}