{
    "type": "FeatureCollection",
    "features": [
        {
            "type": "Feature",
            "properties": {
                "type": "site",
                "region_id": "BR_C000",
                "version": "2.0.1",
                "mgrs": "23KLQ",
                "model_content": "annotation",
                "start_date": "2017-08-30",
                "end_date": "2018-12-13",
                "originator": "iMERIT",
                "site_id": "BR_C000_0806",
                "status": "positive_pending",
                "validated": "False",
                "score": 0.0,
                "misc_info": {
                    "commit_hash": "b8980b308111f4d719b33abcdfd4475cdb0511ce"
                }
            },
            "geometry": {
                "type": "Polygon",
                "coordinates": [
                    [
                        [
                            -46.34723517550664,
                            -23.40366019483372
                        ],
                        [
                            -46.34657909404854,
                            -23.40553113875942
                        ],
                        [
                            -46.34755713218497,
                            -23.40582204000335
                        ],
                        [
                            -46.34780111206895,
                            -23.40489489390814
                        ],
                        [
                            -46.34784654755919,
                            -23.40376101610193
                        ],
                        [
                            -46.34749289479068,
                            -23.40361189663837
                        ],
                        [
                            -46.34734560688625,
                            -23.40361192919078
                        ],
                        [
                            -46.34723517550664,
                            -23.40366019483372
                        ]
                    ]
                ]
            }
        },
        {
            "type": "Feature",
            "properties": {
                "type": "observation",
                "score": 0.0,
                "observation_date": "2017-08-30",
                "source": null,
                "sensor_name": null,
                "current_phase": null,
                "is_occluded": null,
                "is_site_boundary": null
            },
            "geometry": {
                "type": "Polygon",
                "coordinates": [
                    [
                        [
                            -46.34723517550664,
                            -23.40366019483372
                        ],
                        [
                            -46.34657909404854,
                            -23.40553113875942
                        ],
                        [
                            -46.34755713218497,
                            -23.40582204000335
                        ],
                        [
                            -46.34780111206895,
                            -23.40489489390814
                        ],
                        [
                            -46.34784654755919,
                            -23.40376101610193
                        ],
                        [
                            -46.34749289479068,
                            -23.40361189663837
                        ],
                        [
                            -46.34734560688625,
                            -23.40361192919078
                        ],
                        [
                            -46.34723517550664,
                            -23.40366019483372
                        ]
                    ]
                ]
            }
        },
        {
            "type": "Feature",
            "properties": {
                "type": "observation",
                "score": 0.0,
                "observation_date": "2018-12-13",
                "source": null,
                "sensor_name": null,
                "current_phase": null,
                "is_occluded": null,
                "is_site_boundary": null
            },
            "geometry": {
                "type": "Polygon",
                "coordinates": [
                    [
                        [
                            -46.34723517550664,
                            -23.40366019483372
                        ],
                        [
                            -46.34657909404854,
                            -23.40553113875942
                        ],
                        [
                            -46.34755713218497,
                            -23.40582204000335
                        ],
                        [
                            -46.34780111206895,
                            -23.40489489390814
                        ],
                        [
                            -46.34784654755919,
                            -23.40376101610193
                        ],
                        [
                            -46.34749289479068,
                            -23.40361189663837
                        ],
                        [
                            -46.34734560688625,
                            -23.40361192919078
                        ],
                        [
                            -46.34723517550664,
                            -23.40366019483372
                        ]
                    ]
                ]
            }
        }
    ]
}