{
    "type": "FeatureCollection",
    "features": [
        {
            "type": "Feature",
            "properties": {
                "type": "site",
                "region_id": "BR_C000",
                "version": "2.0.1",
                "mgrs": "23KLQ",
                "model_content": "annotation",
                "start_date": "2019-07-11",
                "end_date": "2022-09-01",
                "originator": "iMERIT",
                "site_id": "BR_C000_0793",
                "status": "positive_pending",
                "validated": "False",
                "score": 0.0,
                "misc_info": {
                    "commit_hash": "b8980b308111f4d719b33abcdfd4475cdb0511ce"
                }
            },
            "geometry": {
                "type": "Polygon",
                "coordinates": [
                    [
                        [
                            -46.32883559361695,
                            -23.44137197312863
                        ],
                        [
                            -46.32900798151587,
                            -23.441978054047965
                        ],
                        [
                            -46.32759564872401,
                            -23.44269222457343
                        ],
                        [
                            -46.32749822839183,
                            -23.442291524364197
                        ],
                        [
                            -46.32773095589676,
                            -23.442096138013333
                        ],
                        [
                            -46.32769071321507,
                            -23.441945118687276
                        ],
                        [
                            -46.328438100121744,
                            -23.441495185003543
                        ],
                        [
                            -46.32883559361695,
                            -23.44137197312863
                        ]
                    ]
                ]
            }
        },
        {
            "type": "Feature",
            "properties": {
                "type": "observation",
                "score": 0.0,
                "observation_date": "2019-07-11",
                "source": null,
                "sensor_name": null,
                "current_phase": null,
                "is_occluded": null,
                "is_site_boundary": null
            },
            "geometry": {
                "type": "Polygon",
                "coordinates": [
                    [
                        [
                            -46.32883559361695,
                            -23.44137197312863
                        ],
                        [
                            -46.32900798151587,
                            -23.441978054047965
                        ],
                        [
                            -46.32759564872401,
                            -23.44269222457343
                        ],
                        [
                            -46.32749822839183,
                            -23.442291524364197
                        ],
                        [
                            -46.32773095589676,
                            -23.442096138013333
                        ],
                        [
                            -46.32769071321507,
                            -23.441945118687276
                        ],
                        [
                            -46.328438100121744,
                            -23.441495185003543
                        ],
                        [
                            -46.32883559361695,
                            -23.44137197312863
                        ]
                    ]
                ]
            }
        },
        {
            "type": "Feature",
            "properties": {
                "type": "observation",
                "score": 0.0,
                "observation_date": "2022-09-01",
                "source": null,
                "sensor_name": null,
                "current_phase": null,
                "is_occluded": null,
                "is_site_boundary": null
            },
            "geometry": {
                "type": "Polygon",
                "coordinates": [
                    [
                        [
                            -46.32883559361695,
                            -23.44137197312863
                        ],
                        [
                            -46.32900798151587,
                            -23.441978054047965
                        ],
                        [
                            -46.32759564872401,
                            -23.44269222457343
                        ],
                        [
                            -46.32749822839183,
                            -23.442291524364197
                        ],
                        [
                            -46.32773095589676,
                            -23.442096138013333
                        ],
                        [
                            -46.32769071321507,
                            -23.441945118687276
                        ],
                        [
                            -46.328438100121744,
                            -23.441495185003543
                        ],
                        [
                            -46.32883559361695,
                            -23.44137197312863
                        ]
                    ]
                ]
            }
        }
    ]
}