{
    "type": "FeatureCollection",
    "features": [
        {
            "type": "Feature",
            "properties": {
                "type": "site",
                "region_id": "BR_C000",
                "version": "2.0.0",
                "mgrs": "23KLP",
                "model_content": "annotation",
                "start_date": "2021-02-15",
                "end_date": null,
                "originator": "iMERIT",
                "site_id": "BR_C000_0269",
                "status": "positive_pending",
                "validated": "False",
                "score": 0.0,
                "misc_info": {
                    "commit_hash": "b8980b308111f4d719b33abcdfd4475cdb0511ce"
                }
            },
            "geometry": {
                "type": "Polygon",
                "coordinates": [
                    [
                        [
                            -46.83604854889156,
                            -23.621914776634835
                        ],
                        [
                            -46.83508883215462,
                            -23.62341014922496
                        ],
                        [
                            -46.83441554250583,
                            -23.622852174377897
                        ],
                        [
                            -46.83513347014238,
                            -23.62142375876942
                        ],
                        [
                            -46.83604854889156,
                            -23.621914776634835
                        ]
                    ]
                ]
            }
        },
        {
            "type": "Feature",
            "properties": {
                "type": "observation",
                "score": 0.0,
                "observation_date": "2021-02-15",
                "source": null,
                "sensor_name": null,
                "current_phase": null,
                "is_occluded": null,
                "is_site_boundary": null
            },
            "geometry": {
                "type": "Polygon",
                "coordinates": [
                    [
                        [
                            -46.83604854889156,
                            -23.621914776634835
                        ],
                        [
                            -46.83508883215462,
                            -23.62341014922496
                        ],
                        [
                            -46.83441554250583,
                            -23.622852174377897
                        ],
                        [
                            -46.83513347014238,
                            -23.62142375876942
                        ],
                        [
                            -46.83604854889156,
                            -23.621914776634835
                        ]
                    ]
                ]
            }
        },
        {
            "type": "Feature",
            "properties": {
                "type": "observation",
                "score": 0.0,
                "observation_date": null,
                "source": null,
                "sensor_name": null,
                "current_phase": null,
                "is_occluded": null,
                "is_site_boundary": null
            },
            "geometry": {
                "type": "Polygon",
                "coordinates": [
                    [
                        [
                            -46.83604854889156,
                            -23.621914776634835
                        ],
                        [
                            -46.83508883215462,
                            -23.62341014922496
                        ],
                        [
                            -46.83441554250583,
                            -23.622852174377897
                        ],
                        [
                            -46.83513347014238,
                            -23.62142375876942
                        ],
                        [
                            -46.83604854889156,
                            -23.621914776634835
                        ]
                    ]
                ]
            }
        }
    ]
}