{
    "type": "FeatureCollection",
    "features": [
        {
            "type": "Feature",
            "properties": {
                "type": "site",
                "region_id": "BR_C000",
                "version": "2.0.0",
                "mgrs": "23KLP",
                "model_content": "annotation",
                "start_date": "2020-03-12",
                "end_date": "2021-05-06",
                "originator": "iMERIT",
                "site_id": "BR_C000_0215",
                "status": "positive_pending",
                "validated": "False",
                "score": 0.0,
                "misc_info": {
                    "commit_hash": "b8980b308111f4d719b33abcdfd4475cdb0511ce"
                }
            },
            "geometry": {
                "type": "Polygon",
                "coordinates": [
                    [
                        [
                            -46.709260667679104,
                            -23.617108258585702
                        ],
                        [
                            -46.70800591265803,
                            -23.61713027716146
                        ],
                        [
                            -46.708012929801356,
                            -23.617671506883447
                        ],
                        [
                            -46.70926705156998,
                            -23.61760028528575
                        ],
                        [
                            -46.709260667679104,
                            -23.617108258585702
                        ]
                    ]
                ]
            }
        },
        {
            "type": "Feature",
            "properties": {
                "type": "observation",
                "score": 0.0,
                "observation_date": "2020-03-12",
                "source": null,
                "sensor_name": null,
                "current_phase": null,
                "is_occluded": null,
                "is_site_boundary": null
            },
            "geometry": {
                "type": "Polygon",
                "coordinates": [
                    [
                        [
                            -46.709260667679104,
                            -23.617108258585702
                        ],
                        [
                            -46.70800591265803,
                            -23.61713027716146
                        ],
                        [
                            -46.708012929801356,
                            -23.617671506883447
                        ],
                        [
                            -46.70926705156998,
                            -23.61760028528575
                        ],
                        [
                            -46.709260667679104,
                            -23.617108258585702
                        ]
                    ]
                ]
            }
        },
        {
            "type": "Feature",
            "properties": {
                "type": "observation",
                "score": 0.0,
                "observation_date": "2021-05-06",
                "source": null,
                "sensor_name": null,
                "current_phase": null,
                "is_occluded": null,
                "is_site_boundary": null
            },
            "geometry": {
                "type": "Polygon",
                "coordinates": [
                    [
                        [
                            -46.709260667679104,
                            -23.617108258585702
                        ],
                        [
                            -46.70800591265803,
                            -23.61713027716146
                        ],
                        [
                            -46.708012929801356,
                            -23.617671506883447
                        ],
                        [
                            -46.70926705156998,
                            -23.61760028528575
                        ],
                        [
                            -46.709260667679104,
                            -23.617108258585702
                        ]
                    ]
                ]
            }
        }
    ]
}