{
    "type": "FeatureCollection",
    "features": [
        {
            "type": "Feature",
            "properties": {
                "type": "site",
                "region_id": "BR_C000",
                "version": "2.0.1",
                "mgrs": "23KLP",
                "model_content": "annotation",
                "start_date": "2016-08-27",
                "end_date": "2022-08-01",
                "originator": "iMERIT",
                "site_id": "BR_C000_0312",
                "status": "positive_pending",
                "validated": "False",
                "score": 0.0,
                "misc_info": {
                    "commit_hash": "b8980b308111f4d719b33abcdfd4475cdb0511ce"
                }
            },
            "geometry": {
                "type": "Polygon",
                "coordinates": [
                    [
                        [
                            -46.848340761744346,
                            -23.575970340768833
                        ],
                        [
                            -46.84803986065746,
                            -23.575082736805477
                        ],
                        [
                            -46.84786133709583,
                            -23.574849152649236
                        ],
                        [
                            -46.847569163386794,
                            -23.574860369840717
                        ],
                        [
                            -46.84766202904133,
                            -23.576577352811324
                        ],
                        [
                            -46.848340761744346,
                            -23.575970340768833
                        ]
                    ]
                ]
            }
        },
        {
            "type": "Feature",
            "properties": {
                "type": "observation",
                "score": 0.0,
                "observation_date": "2016-08-27",
                "source": null,
                "sensor_name": null,
                "current_phase": null,
                "is_occluded": null,
                "is_site_boundary": null
            },
            "geometry": {
                "type": "Polygon",
                "coordinates": [
                    [
                        [
                            -46.848340761744346,
                            -23.575970340768833
                        ],
                        [
                            -46.84803986065746,
                            -23.575082736805477
                        ],
                        [
                            -46.84786133709583,
                            -23.574849152649236
                        ],
                        [
                            -46.847569163386794,
                            -23.574860369840717
                        ],
                        [
                            -46.84766202904133,
                            -23.576577352811324
                        ],
                        [
                            -46.848340761744346,
                            -23.575970340768833
                        ]
                    ]
                ]
            }
        },
        {
            "type": "Feature",
            "properties": {
                "type": "observation",
                "score": 0.0,
                "observation_date": "2022-08-01",
                "source": null,
                "sensor_name": null,
                "current_phase": null,
                "is_occluded": null,
                "is_site_boundary": null
            },
            "geometry": {
                "type": "Polygon",
                "coordinates": [
                    [
                        [
                            -46.848340761744346,
                            -23.575970340768833
                        ],
                        [
                            -46.84803986065746,
                            -23.575082736805477
                        ],
                        [
                            -46.84786133709583,
                            -23.574849152649236
                        ],
                        [
                            -46.847569163386794,
                            -23.574860369840717
                        ],
                        [
                            -46.84766202904133,
                            -23.576577352811324
                        ],
                        [
                            -46.848340761744346,
                            -23.575970340768833
                        ]
                    ]
                ]
            }
        }
    ]
}