{
    "type": "FeatureCollection",
    "features": [
        {
            "type": "Feature",
            "properties": {
                "type": "site",
                "region_id": "CO_C001",
                "site_id": "CO_C001_0449",
                "version": "2.0.3",
                "status": "positive_pending",
                "mgrs": "18NXL",
                "score": 0.0,
                "start_date": "2020-03-21",
                "end_date": null,
                "model_content": "annotation",
                "originator": "iMERIT",
                "validated": "True",
                "misc_info": {
                    "commit_hash": "09ad7a622ce4c3b3840401c27b2fc588d36033b7"
                }
            },
            "geometry": {
                "type": "Polygon",
                "coordinates": [
                    [
                        [
                            -74.082371,
                            4.637117
                        ],
                        [
                            -74.081836,
                            4.636077
                        ],
                        [
                            -74.081396,
                            4.636292
                        ],
                        [
                            -74.081166,
                            4.636009
                        ],
                        [
                            -74.080951,
                            4.636134
                        ],
                        [
                            -74.081,
                            4.636533
                        ],
                        [
                            -74.081143,
                            4.637022
                        ],
                        [
                            -74.081449,
                            4.637576
                        ],
                        [
                            -74.082371,
                            4.637117
                        ]
                    ]
                ]
            }
        },
        {
            "type": "Feature",
            "properties": {
                "observation_date": "2020-03-21",
                "source": null,
                "sensor_name": null,
                "type": "observation",
                "current_phase": null,
                "is_occluded": null,
                "is_site_boundary": null,
                "score": 0.0
            },
            "geometry": {
                "type": "MultiPolygon",
                "coordinates": [
                    [
                        [
                            [
                                -74.082371,
                                4.637117
                            ],
                            [
                                -74.081836,
                                4.636077
                            ],
                            [
                                -74.081396,
                                4.636292
                            ],
                            [
                                -74.081166,
                                4.636009
                            ],
                            [
                                -74.080951,
                                4.636134
                            ],
                            [
                                -74.081,
                                4.636533
                            ],
                            [
                                -74.081143,
                                4.637022
                            ],
                            [
                                -74.081449,
                                4.637576
                            ],
                            [
                                -74.082371,
                                4.637117
                            ]
                        ]
                    ]
                ]
            }
        },
        {
            "type": "Feature",
            "properties": {
                "observation_date": null,
                "source": null,
                "sensor_name": null,
                "type": "observation",
                "current_phase": null,
                "is_occluded": null,
                "is_site_boundary": null,
                "score": 0.0
            },
            "geometry": {
                "type": "MultiPolygon",
                "coordinates": [
                    [
                        [
                            [
                                -74.082371,
                                4.637117
                            ],
                            [
                                -74.081836,
                                4.636077
                            ],
                            [
                                -74.081396,
                                4.636292
                            ],
                            [
                                -74.081166,
                                4.636009
                            ],
                            [
                                -74.080951,
                                4.636134
                            ],
                            [
                                -74.081,
                                4.636533
                            ],
                            [
                                -74.081143,
                                4.637022
                            ],
                            [
                                -74.081449,
                                4.637576
                            ],
                            [
                                -74.082371,
                                4.637117
                            ]
                        ]
                    ]
                ]
            }
        }
    ]
}