{
    "type": "FeatureCollection",
    "features": [
        {
            "type": "Feature",
            "properties": {
                "type": "site",
                "region_id": "QA_C001",
                "site_id": "QA_C001_0614",
                "version": "2.0.2",
                "status": "positive_pending",
                "mgrs": "39RWH",
                "score": 1.0,
                "start_date": "2017-10-14",
                "end_date": "2023-08-26",
                "model_content": "annotation",
                "originator": "iMERIT",
                "validated": "True",
                "misc_info": {
                    "commit_hash": "09ad7a622ce4c3b3840401c27b2fc588d36033b7"
                }
            },
            "geometry": {
                "type": "Polygon",
                "coordinates": [
                    [
                        [
                            51.566655,
                            25.186605
                        ],
                        [
                            51.568486,
                            25.186634
                        ],
                        [
                            51.568502,
                            25.185026
                        ],
                        [
                            51.566732,
                            25.184911
                        ],
                        [
                            51.566655,
                            25.186605
                        ]
                    ]
                ]
            }
        },
        {
            "type": "Feature",
            "properties": {
                "observation_date": "2017-10-14",
                "source": null,
                "sensor_name": null,
                "type": "observation",
                "current_phase": null,
                "is_occluded": null,
                "is_site_boundary": null,
                "score": 1.0
            },
            "geometry": {
                "type": "MultiPolygon",
                "coordinates": [
                    [
                        [
                            [
                                51.566655,
                                25.186605
                            ],
                            [
                                51.568486,
                                25.186634
                            ],
                            [
                                51.568502,
                                25.185026
                            ],
                            [
                                51.566732,
                                25.184911
                            ],
                            [
                                51.566655,
                                25.186605
                            ]
                        ]
                    ]
                ]
            }
        },
        {
            "type": "Feature",
            "properties": {
                "observation_date": "2023-08-26",
                "source": null,
                "sensor_name": null,
                "type": "observation",
                "current_phase": null,
                "is_occluded": null,
                "is_site_boundary": null,
                "score": 1.0
            },
            "geometry": {
                "type": "MultiPolygon",
                "coordinates": [
                    [
                        [
                            [
                                51.566655,
                                25.186605
                            ],
                            [
                                51.568486,
                                25.186634
                            ],
                            [
                                51.568502,
                                25.185026
                            ],
                            [
                                51.566732,
                                25.184911
                            ],
                            [
                                51.566655,
                                25.186605
                            ]
                        ]
                    ]
                ]
            }
        }
    ]
}