{
    "type": "FeatureCollection",
    "features": [
        {
            "type": "Feature",
            "properties": {
                "type": "site",
                "region_id": "RU_C000",
                "site_id": "RU_C000_0046",
                "version": "2.0.2",
                "status": "positive_pending",
                "mgrs": "37UCB",
                "score": 1.0,
                "start_date": "2020-03-17",
                "end_date": null,
                "model_content": "annotation",
                "originator": "iMERIT",
                "validated": "True",
                "misc_info": {
                    "commit_hash": "b2a36269f1cbef9c8830197db1fd1e207add163e"
                }
            },
            "geometry": {
                "type": "Polygon",
                "coordinates": [
                    [
                        [
                            37.343014,
                            55.681363
                        ],
                        [
                            37.342355,
                            55.680723
                        ],
                        [
                            37.339662,
                            55.681631
                        ],
                        [
                            37.340146,
                            55.682242
                        ],
                        [
                            37.343014,
                            55.681363
                        ]
                    ]
                ]
            }
        },
        {
            "type": "Feature",
            "properties": {
                "observation_date": "2020-03-17",
                "source": null,
                "sensor_name": null,
                "type": "observation",
                "current_phase": null,
                "is_occluded": null,
                "is_site_boundary": null,
                "score": 1.0
            },
            "geometry": {
                "type": "MultiPolygon",
                "coordinates": [
                    [
                        [
                            [
                                37.343014,
                                55.681363
                            ],
                            [
                                37.342355,
                                55.680723
                            ],
                            [
                                37.339662,
                                55.681631
                            ],
                            [
                                37.340146,
                                55.682242
                            ],
                            [
                                37.343014,
                                55.681363
                            ]
                        ]
                    ]
                ]
            }
        },
        {
            "type": "Feature",
            "properties": {
                "observation_date": null,
                "source": null,
                "sensor_name": null,
                "type": "observation",
                "current_phase": null,
                "is_occluded": null,
                "is_site_boundary": null,
                "score": 1.0
            },
            "geometry": {
                "type": "MultiPolygon",
                "coordinates": [
                    [
                        [
                            [
                                37.343014,
                                55.681363
                            ],
                            [
                                37.342355,
                                55.680723
                            ],
                            [
                                37.339662,
                                55.681631
                            ],
                            [
                                37.340146,
                                55.682242
                            ],
                            [
                                37.343014,
                                55.681363
                            ]
                        ]
                    ]
                ]
            }
        }
    ]
}