{
    "type": "FeatureCollection",
    "features": [
        {
            "type": "Feature",
            "properties": {
                "type": "site",
                "region_id": "SA_C001",
                "site_id": "SA_C001_1030",
                "version": "2.0.2",
                "status": "positive_pending",
                "mgrs": "38RPN",
                "score": 1.0,
                "start_date": "2019-09-07",
                "end_date": "2021-04-30",
                "model_content": "annotation",
                "originator": "iMERIT",
                "validated": "True",
                "misc_info": {
                    "commit_hash": "09ad7a622ce4c3b3840401c27b2fc588d36033b7"
                }
            },
            "geometry": {
                "type": "Polygon",
                "coordinates": [
                    [
                        [
                            46.631886,
                            24.85806
                        ],
                        [
                            46.633277,
                            24.855259
                        ],
                        [
                            46.633832,
                            24.855498
                        ],
                        [
                            46.632352,
                            24.858291
                        ],
                        [
                            46.631886,
                            24.85806
                        ]
                    ]
                ]
            }
        },
        {
            "type": "Feature",
            "properties": {
                "observation_date": "2019-09-07",
                "source": null,
                "sensor_name": null,
                "type": "observation",
                "current_phase": null,
                "is_occluded": null,
                "is_site_boundary": null,
                "score": 0.0
            },
            "geometry": {
                "type": "MultiPolygon",
                "coordinates": [
                    [
                        [
                            [
                                46.631886,
                                24.85806
                            ],
                            [
                                46.633277,
                                24.855259
                            ],
                            [
                                46.633832,
                                24.855498
                            ],
                            [
                                46.632352,
                                24.858291
                            ],
                            [
                                46.631886,
                                24.85806
                            ]
                        ]
                    ]
                ]
            }
        },
        {
            "type": "Feature",
            "properties": {
                "observation_date": "2021-04-30",
                "source": null,
                "sensor_name": null,
                "type": "observation",
                "current_phase": null,
                "is_occluded": null,
                "is_site_boundary": null,
                "score": 0.0
            },
            "geometry": {
                "type": "MultiPolygon",
                "coordinates": [
                    [
                        [
                            [
                                46.631886,
                                24.85806
                            ],
                            [
                                46.633277,
                                24.855259
                            ],
                            [
                                46.633832,
                                24.855498
                            ],
                            [
                                46.632352,
                                24.858291
                            ],
                            [
                                46.631886,
                                24.85806
                            ]
                        ]
                    ]
                ]
            }
        }
    ]
}