{
    "type": "FeatureCollection",
    "features": [
        {
            "type": "Feature",
            "properties": {
                "type": "site",
                "region_id": "TH_C001",
                "site_id": "TH_C001_3097",
                "version": "2.0.1",
                "status": "positive_pending",
                "mgrs": "47PPR",
                "score": 0.0,
                "start_date": "2019-01-29",
                "end_date": "2022-10-29",
                "model_content": "annotation",
                "originator": "iMERIT",
                "validated": "True",
                "misc_info": {
                    "commit_hash": "09ad7a622ce4c3b3840401c27b2fc588d36033b7"
                }
            },
            "geometry": {
                "type": "Polygon",
                "coordinates": [
                    [
                        [
                            100.521765,
                            13.849499
                        ],
                        [
                            100.522528,
                            13.849039
                        ],
                        [
                            100.522535,
                            13.848613
                        ],
                        [
                            100.522195,
                            13.84853
                        ],
                        [
                            100.521466,
                            13.849104
                        ],
                        [
                            100.521765,
                            13.849499
                        ]
                    ]
                ]
            }
        },
        {
            "type": "Feature",
            "properties": {
                "observation_date": "2019-01-29",
                "source": null,
                "sensor_name": null,
                "type": "observation",
                "current_phase": null,
                "is_occluded": null,
                "is_site_boundary": null,
                "score": 0.0
            },
            "geometry": {
                "type": "MultiPolygon",
                "coordinates": [
                    [
                        [
                            [
                                100.521765,
                                13.849499
                            ],
                            [
                                100.522528,
                                13.849039
                            ],
                            [
                                100.522535,
                                13.848613
                            ],
                            [
                                100.522195,
                                13.84853
                            ],
                            [
                                100.521466,
                                13.849104
                            ],
                            [
                                100.521765,
                                13.849499
                            ]
                        ]
                    ]
                ]
            }
        },
        {
            "type": "Feature",
            "properties": {
                "observation_date": "2022-10-29",
                "source": null,
                "sensor_name": null,
                "type": "observation",
                "current_phase": null,
                "is_occluded": null,
                "is_site_boundary": null,
                "score": 0.0
            },
            "geometry": {
                "type": "MultiPolygon",
                "coordinates": [
                    [
                        [
                            [
                                100.521765,
                                13.849499
                            ],
                            [
                                100.522528,
                                13.849039
                            ],
                            [
                                100.522535,
                                13.848613
                            ],
                            [
                                100.522195,
                                13.84853
                            ],
                            [
                                100.521466,
                                13.849104
                            ],
                            [
                                100.521765,
                                13.849499
                            ]
                        ]
                    ]
                ]
            }
        }
    ]
}