{
    "type": "FeatureCollection",
    "features": [
        {
            "type": "Feature",
            "properties": {
                "type": "site",
                "region_id": "TH_C001",
                "site_id": "TH_C001_1706",
                "version": "2.0.1",
                "status": "positive_pending",
                "mgrs": "47PPR",
                "score": 0.0,
                "start_date": "2018-04-14",
                "end_date": "2023-04-19",
                "model_content": "annotation",
                "originator": "iMERIT",
                "validated": "True",
                "misc_info": {
                    "commit_hash": "09ad7a622ce4c3b3840401c27b2fc588d36033b7"
                }
            },
            "geometry": {
                "type": "Polygon",
                "coordinates": [
                    [
                        [
                            100.66827,
                            13.62955
                        ],
                        [
                            100.667309,
                            13.629214
                        ],
                        [
                            100.667308,
                            13.629053
                        ],
                        [
                            100.667755,
                            13.629111
                        ],
                        [
                            100.667995,
                            13.627186
                        ],
                        [
                            100.666941,
                            13.627034
                        ],
                        [
                            100.666757,
                            13.628688
                        ],
                        [
                            100.66675,
                            13.628815
                        ],
                        [
                            100.666346,
                            13.628783
                        ],
                        [
                            100.66625,
                            13.628642
                        ],
                        [
                            100.666035,
                            13.628613
                        ],
                        [
                            100.666047,
                            13.62875
                        ],
                        [
                            100.664738,
                            13.628706
                        ],
                        [
                            100.664752,
                            13.629146
                        ],
                        [
                            100.664738,
                            13.629277
                        ],
                        [
                            100.666165,
                            13.629321
                        ],
                        [
                            100.666457,
                            13.629526
                        ],
                        [
                            100.666466,
                            13.62981
                        ],
                        [
                            100.672879,
                            13.631791
                        ],
                        [
                            100.671509,
                            13.629982
                        ],
                        [
                            100.669684,
                            13.630149
                        ],
                        [
                            100.668285,
                            13.629717
                        ],
                        [
                            100.66827,
                            13.62955
                        ]
                    ]
                ]
            }
        },
        {
            "type": "Feature",
            "properties": {
                "observation_date": "2018-04-14",
                "source": null,
                "sensor_name": null,
                "type": "observation",
                "current_phase": null,
                "is_occluded": null,
                "is_site_boundary": null,
                "score": 0.0
            },
            "geometry": {
                "type": "MultiPolygon",
                "coordinates": [
                    [
                        [
                            [
                                100.66827,
                                13.62955
                            ],
                            [
                                100.667309,
                                13.629214
                            ],
                            [
                                100.667308,
                                13.629053
                            ],
                            [
                                100.667755,
                                13.629111
                            ],
                            [
                                100.667995,
                                13.627186
                            ],
                            [
                                100.666941,
                                13.627034
                            ],
                            [
                                100.666757,
                                13.628688
                            ],
                            [
                                100.66675,
                                13.628815
                            ],
                            [
                                100.666346,
                                13.628783
                            ],
                            [
                                100.66625,
                                13.628642
                            ],
                            [
                                100.666035,
                                13.628613
                            ],
                            [
                                100.666047,
                                13.62875
                            ],
                            [
                                100.664738,
                                13.628706
                            ],
                            [
                                100.664752,
                                13.629146
                            ],
                            [
                                100.664738,
                                13.629277
                            ],
                            [
                                100.666165,
                                13.629321
                            ],
                            [
                                100.666457,
                                13.629526
                            ],
                            [
                                100.666466,
                                13.62981
                            ],
                            [
                                100.672879,
                                13.631791
                            ],
                            [
                                100.671509,
                                13.629982
                            ],
                            [
                                100.669684,
                                13.630149
                            ],
                            [
                                100.668285,
                                13.629717
                            ],
                            [
                                100.66827,
                                13.62955
                            ]
                        ]
                    ]
                ]
            }
        },
        {
            "type": "Feature",
            "properties": {
                "observation_date": "2023-04-19",
                "source": null,
                "sensor_name": null,
                "type": "observation",
                "current_phase": null,
                "is_occluded": null,
                "is_site_boundary": null,
                "score": 0.0
            },
            "geometry": {
                "type": "MultiPolygon",
                "coordinates": [
                    [
                        [
                            [
                                100.66827,
                                13.62955
                            ],
                            [
                                100.667309,
                                13.629214
                            ],
                            [
                                100.667308,
                                13.629053
                            ],
                            [
                                100.667755,
                                13.629111
                            ],
                            [
                                100.667995,
                                13.627186
                            ],
                            [
                                100.666941,
                                13.627034
                            ],
                            [
                                100.666757,
                                13.628688
                            ],
                            [
                                100.66675,
                                13.628815
                            ],
                            [
                                100.666346,
                                13.628783
                            ],
                            [
                                100.66625,
                                13.628642
                            ],
                            [
                                100.666035,
                                13.628613
                            ],
                            [
                                100.666047,
                                13.62875
                            ],
                            [
                                100.664738,
                                13.628706
                            ],
                            [
                                100.664752,
                                13.629146
                            ],
                            [
                                100.664738,
                                13.629277
                            ],
                            [
                                100.666165,
                                13.629321
                            ],
                            [
                                100.666457,
                                13.629526
                            ],
                            [
                                100.666466,
                                13.62981
                            ],
                            [
                                100.672879,
                                13.631791
                            ],
                            [
                                100.671509,
                                13.629982
                            ],
                            [
                                100.669684,
                                13.630149
                            ],
                            [
                                100.668285,
                                13.629717
                            ],
                            [
                                100.66827,
                                13.62955
                            ]
                        ]
                    ]
                ]
            }
        }
    ]
}