{
    "type": "FeatureCollection",
    "features": [
        {
            "type": "Feature",
            "properties": {
                "type": "site",
                "region_id": "US_C015",
                "version": "2.0.0",
                "mgrs": "11SLT",
                "start_date": "2019-08-27",
                "end_date": "2021-04-28",
                "site_id": "US_C015_0122",
                "status": "positive_pending",
                "originator": "iMERIT",
                "model_content": "annotation",
                "validated": "False",
                "score": 0.0,
                "misc_info": {
                    "commit_hash": "b8980b308111f4d719b33abcdfd4475cdb0511ce"
                }
            },
            "geometry": {
                "type": "Polygon",
                "coordinates": [
                    [
                        [
                            -118.25225116974318,
                            33.77754490664664
                        ],
                        [
                            -118.25223421851183,
                            33.77665553204159
                        ],
                        [
                            -118.25190423454147,
                            33.77666457269831
                        ],
                        [
                            -118.25189632396686,
                            33.77621140978012
                        ],
                        [
                            -118.2529925035944,
                            33.77617976748159
                        ],
                        [
                            -118.25299137351232,
                            33.777555077385465
                        ],
                        [
                            -118.25225116974318,
                            33.77754490664664
                        ]
                    ]
                ]
            }
        },
        {
            "type": "Feature",
            "properties": {
                "type": "observation",
                "score": 0.0,
                "observation_date": "2019-08-27",
                "source": null,
                "sensor_name": null,
                "current_phase": null,
                "is_occluded": null,
                "is_site_boundary": null
            },
            "geometry": {
                "type": "Polygon",
                "coordinates": [
                    [
                        [
                            -118.25225116974318,
                            33.77754490664664
                        ],
                        [
                            -118.25223421851183,
                            33.77665553204159
                        ],
                        [
                            -118.25190423454147,
                            33.77666457269831
                        ],
                        [
                            -118.25189632396686,
                            33.77621140978012
                        ],
                        [
                            -118.2529925035944,
                            33.77617976748159
                        ],
                        [
                            -118.25299137351232,
                            33.777555077385465
                        ],
                        [
                            -118.25225116974318,
                            33.77754490664664
                        ]
                    ]
                ]
            }
        },
        {
            "type": "Feature",
            "properties": {
                "type": "observation",
                "score": 0.0,
                "observation_date": "2021-04-28",
                "source": null,
                "sensor_name": null,
                "current_phase": null,
                "is_occluded": null,
                "is_site_boundary": null
            },
            "geometry": {
                "type": "Polygon",
                "coordinates": [
                    [
                        [
                            -118.25225116974318,
                            33.77754490664664
                        ],
                        [
                            -118.25223421851183,
                            33.77665553204159
                        ],
                        [
                            -118.25190423454147,
                            33.77666457269831
                        ],
                        [
                            -118.25189632396686,
                            33.77621140978012
                        ],
                        [
                            -118.2529925035944,
                            33.77617976748159
                        ],
                        [
                            -118.25299137351232,
                            33.777555077385465
                        ],
                        [
                            -118.25225116974318,
                            33.77754490664664
                        ]
                    ]
                ]
            }
        }
    ]
}