{
    "type": "FeatureCollection",
    "features": [
        {
            "type": "Feature",
            "properties": {
                "type": "site",
                "region_id": "US_C015",
                "version": "2.0.0",
                "mgrs": "11SLT",
                "start_date": "2021-05-03",
                "end_date": null,
                "site_id": "US_C015_0182",
                "status": "positive_pending",
                "originator": "iMERIT",
                "model_content": "annotation",
                "validated": "False",
                "score": 0.0,
                "misc_info": {
                    "commit_hash": "b8980b308111f4d719b33abcdfd4475cdb0511ce"
                }
            },
            "geometry": {
                "type": "Polygon",
                "coordinates": [
                    [
                        [
                            -118.26772641689878,
                            34.06544820016261
                        ],
                        [
                            -118.266570622174,
                            34.064972284687705
                        ],
                        [
                            -118.26686297025144,
                            34.06438758853282
                        ],
                        [
                            -118.26810035048621,
                            34.06484990642273
                        ],
                        [
                            -118.26772641689878,
                            34.06544820016261
                        ]
                    ]
                ]
            }
        },
        {
            "type": "Feature",
            "properties": {
                "type": "observation",
                "score": 0.0,
                "observation_date": "2021-05-03",
                "source": null,
                "sensor_name": null,
                "current_phase": null,
                "is_occluded": null,
                "is_site_boundary": null
            },
            "geometry": {
                "type": "Polygon",
                "coordinates": [
                    [
                        [
                            -118.26772641689878,
                            34.06544820016261
                        ],
                        [
                            -118.266570622174,
                            34.064972284687705
                        ],
                        [
                            -118.26686297025144,
                            34.06438758853282
                        ],
                        [
                            -118.26810035048621,
                            34.06484990642273
                        ],
                        [
                            -118.26772641689878,
                            34.06544820016261
                        ]
                    ]
                ]
            }
        },
        {
            "type": "Feature",
            "properties": {
                "type": "observation",
                "score": 0.0,
                "observation_date": null,
                "source": null,
                "sensor_name": null,
                "current_phase": null,
                "is_occluded": null,
                "is_site_boundary": null
            },
            "geometry": {
                "type": "Polygon",
                "coordinates": [
                    [
                        [
                            -118.26772641689878,
                            34.06544820016261
                        ],
                        [
                            -118.266570622174,
                            34.064972284687705
                        ],
                        [
                            -118.26686297025144,
                            34.06438758853282
                        ],
                        [
                            -118.26810035048621,
                            34.06484990642273
                        ],
                        [
                            -118.26772641689878,
                            34.06544820016261
                        ]
                    ]
                ]
            }
        }
    ]
}