{
    "type": "FeatureCollection",
    "features": [
        {
            "type": "Feature",
            "properties": {
                "type": "site",
                "region_id": "US_C015",
                "version": "2.0.0",
                "mgrs": "11SLT",
                "start_date": "2017-01-14",
                "end_date": "2018-05-09",
                "site_id": "US_C015_0071",
                "status": "positive_pending",
                "originator": "iMERIT",
                "model_content": "annotation",
                "validated": "False",
                "score": 0.0,
                "misc_info": {
                    "commit_hash": "b8980b308111f4d719b33abcdfd4475cdb0511ce"
                }
            },
            "geometry": {
                "type": "Polygon",
                "coordinates": [
                    [
                        [
                            -118.2847538230414,
                            33.91754259731967
                        ],
                        [
                            -118.2841401338443,
                            33.91755181890341
                        ],
                        [
                            -118.2841228764052,
                            33.917044790157
                        ],
                        [
                            -118.2838909655483,
                            33.91704211137043
                        ],
                        [
                            -118.283903722541,
                            33.91661570372952
                        ],
                        [
                            -118.2851329285252,
                            33.91663006747523
                        ],
                        [
                            -118.2851417165822,
                            33.91658031292012
                        ],
                        [
                            -118.2853910391179,
                            33.91658032873114
                        ],
                        [
                            -118.2852158897141,
                            33.91693133709815
                        ],
                        [
                            -118.2851068698615,
                            33.91692095952396
                        ],
                        [
                            -118.2847538230414,
                            33.91754259731967
                        ]
                    ]
                ]
            }
        },
        {
            "type": "Feature",
            "properties": {
                "type": "observation",
                "score": 0.0,
                "observation_date": "2017-01-14",
                "source": null,
                "sensor_name": null,
                "current_phase": null,
                "is_occluded": null,
                "is_site_boundary": null
            },
            "geometry": {
                "type": "Polygon",
                "coordinates": [
                    [
                        [
                            -118.2847538230414,
                            33.91754259731967
                        ],
                        [
                            -118.2841401338443,
                            33.91755181890341
                        ],
                        [
                            -118.2841228764052,
                            33.917044790157
                        ],
                        [
                            -118.2838909655483,
                            33.91704211137043
                        ],
                        [
                            -118.283903722541,
                            33.91661570372952
                        ],
                        [
                            -118.2851329285252,
                            33.91663006747523
                        ],
                        [
                            -118.2851417165822,
                            33.91658031292012
                        ],
                        [
                            -118.2853910391179,
                            33.91658032873114
                        ],
                        [
                            -118.2852158897141,
                            33.91693133709815
                        ],
                        [
                            -118.2851068698615,
                            33.91692095952396
                        ],
                        [
                            -118.2847538230414,
                            33.91754259731967
                        ]
                    ]
                ]
            }
        },
        {
            "type": "Feature",
            "properties": {
                "type": "observation",
                "score": 0.0,
                "observation_date": "2018-05-09",
                "source": null,
                "sensor_name": null,
                "current_phase": null,
                "is_occluded": null,
                "is_site_boundary": null
            },
            "geometry": {
                "type": "Polygon",
                "coordinates": [
                    [
                        [
                            -118.2847538230414,
                            33.91754259731967
                        ],
                        [
                            -118.2841401338443,
                            33.91755181890341
                        ],
                        [
                            -118.2841228764052,
                            33.917044790157
                        ],
                        [
                            -118.2838909655483,
                            33.91704211137043
                        ],
                        [
                            -118.283903722541,
                            33.91661570372952
                        ],
                        [
                            -118.2851329285252,
                            33.91663006747523
                        ],
                        [
                            -118.2851417165822,
                            33.91658031292012
                        ],
                        [
                            -118.2853910391179,
                            33.91658032873114
                        ],
                        [
                            -118.2852158897141,
                            33.91693133709815
                        ],
                        [
                            -118.2851068698615,
                            33.91692095952396
                        ],
                        [
                            -118.2847538230414,
                            33.91754259731967
                        ]
                    ]
                ]
            }
        }
    ]
}