{
    "type": "FeatureCollection",
    "features": [
        {
            "type": "Feature",
            "properties": {
                "type": "site",
                "region_id": "US_C015",
                "version": "2.0.0",
                "mgrs": "11SLT",
                "start_date": "2017-10-16",
                "end_date": "2018-12-30",
                "site_id": "US_C015_0059",
                "status": "positive_pending",
                "originator": "iMERIT",
                "model_content": "annotation",
                "validated": "False",
                "score": 0.0,
                "misc_info": {
                    "commit_hash": "b8980b308111f4d719b33abcdfd4475cdb0511ce"
                }
            },
            "geometry": {
                "type": "Polygon",
                "coordinates": [
                    [
                        [
                            -118.39424049565736,
                            33.90077904132709
                        ],
                        [
                            -118.39308781071838,
                            33.90079473815013
                        ],
                        [
                            -118.392976350727,
                            33.90173488432193
                        ],
                        [
                            -118.3931682254524,
                            33.90172128722429
                        ],
                        [
                            -118.3942600579912,
                            33.90172467312602
                        ],
                        [
                            -118.39424049565736,
                            33.90077904132709
                        ]
                    ]
                ]
            }
        },
        {
            "type": "Feature",
            "properties": {
                "type": "observation",
                "score": 0.0,
                "observation_date": "2017-10-16",
                "source": null,
                "sensor_name": null,
                "current_phase": null,
                "is_occluded": null,
                "is_site_boundary": null
            },
            "geometry": {
                "type": "Polygon",
                "coordinates": [
                    [
                        [
                            -118.39424049565736,
                            33.90077904132709
                        ],
                        [
                            -118.39308781071838,
                            33.90079473815013
                        ],
                        [
                            -118.392976350727,
                            33.90173488432193
                        ],
                        [
                            -118.3931682254524,
                            33.90172128722429
                        ],
                        [
                            -118.3942600579912,
                            33.90172467312602
                        ],
                        [
                            -118.39424049565736,
                            33.90077904132709
                        ]
                    ]
                ]
            }
        },
        {
            "type": "Feature",
            "properties": {
                "type": "observation",
                "score": 0.0,
                "observation_date": "2018-12-30",
                "source": null,
                "sensor_name": null,
                "current_phase": null,
                "is_occluded": null,
                "is_site_boundary": null
            },
            "geometry": {
                "type": "Polygon",
                "coordinates": [
                    [
                        [
                            -118.39424049565736,
                            33.90077904132709
                        ],
                        [
                            -118.39308781071838,
                            33.90079473815013
                        ],
                        [
                            -118.392976350727,
                            33.90173488432193
                        ],
                        [
                            -118.3931682254524,
                            33.90172128722429
                        ],
                        [
                            -118.3942600579912,
                            33.90172467312602
                        ],
                        [
                            -118.39424049565736,
                            33.90077904132709
                        ]
                    ]
                ]
            }
        }
    ]
}