{
    "type": "FeatureCollection",
    "features": [
        {
            "type": "Feature",
            "properties": {
                "type": "site",
                "region_id": "US_C015",
                "version": "2.0.0",
                "mgrs": "11SLT",
                "start_date": "2019-01-19",
                "end_date": "2020-03-04",
                "site_id": "US_C015_0139",
                "status": "positive_pending",
                "originator": "iMERIT",
                "model_content": "annotation",
                "validated": "False",
                "score": 0.0,
                "misc_info": {
                    "commit_hash": "b8980b308111f4d719b33abcdfd4475cdb0511ce"
                }
            },
            "geometry": {
                "type": "Polygon",
                "coordinates": [
                    [
                        [
                            -118.45801466444614,
                            34.04268964206489
                        ],
                        [
                            -118.45716481538373,
                            34.043192752709835
                        ],
                        [
                            -118.45673649145628,
                            34.0426216541399
                        ],
                        [
                            -118.45767472482117,
                            34.04212534228746
                        ],
                        [
                            -118.45801466444614,
                            34.04268964206489
                        ]
                    ]
                ]
            }
        },
        {
            "type": "Feature",
            "properties": {
                "type": "observation",
                "score": 0.0,
                "observation_date": "2019-01-19",
                "source": null,
                "sensor_name": null,
                "current_phase": null,
                "is_occluded": null,
                "is_site_boundary": null
            },
            "geometry": {
                "type": "Polygon",
                "coordinates": [
                    [
                        [
                            -118.45801466444614,
                            34.04268964206489
                        ],
                        [
                            -118.45716481538373,
                            34.043192752709835
                        ],
                        [
                            -118.45673649145628,
                            34.0426216541399
                        ],
                        [
                            -118.45767472482117,
                            34.04212534228746
                        ],
                        [
                            -118.45801466444614,
                            34.04268964206489
                        ]
                    ]
                ]
            }
        },
        {
            "type": "Feature",
            "properties": {
                "type": "observation",
                "score": 0.0,
                "observation_date": "2020-03-04",
                "source": null,
                "sensor_name": null,
                "current_phase": null,
                "is_occluded": null,
                "is_site_boundary": null
            },
            "geometry": {
                "type": "Polygon",
                "coordinates": [
                    [
                        [
                            -118.45801466444614,
                            34.04268964206489
                        ],
                        [
                            -118.45716481538373,
                            34.043192752709835
                        ],
                        [
                            -118.45673649145628,
                            34.0426216541399
                        ],
                        [
                            -118.45767472482117,
                            34.04212534228746
                        ],
                        [
                            -118.45801466444614,
                            34.04268964206489
                        ]
                    ]
                ]
            }
        }
    ]
}