{
    "type": "FeatureCollection",
    "features": [
        {
            "type": "Feature",
            "properties": {
                "type": "site",
                "region_id": "US_C015",
                "version": "2.0.1",
                "mgrs": "11SLT",
                "start_date": "2016-02-03",
                "end_date": "2018-04-14",
                "site_id": "US_C015_0198",
                "status": "positive_pending",
                "originator": "iMERIT",
                "model_content": "annotation",
                "validated": "False",
                "score": 0.0,
                "misc_info": {
                    "commit_hash": "b8980b308111f4d719b33abcdfd4475cdb0511ce"
                }
            },
            "geometry": {
                "type": "Polygon",
                "coordinates": [
                    [
                        [
                            -118.23433882171082,
                            34.04573467638806
                        ],
                        [
                            -118.23306064872106,
                            34.04578906672805
                        ],
                        [
                            -118.23314223423105,
                            34.04354546520347
                        ],
                        [
                            -118.23399888208588,
                            34.04402138067838
                        ],
                        [
                            -118.23433882171082,
                            34.04573467638806
                        ]
                    ]
                ]
            }
        },
        {
            "type": "Feature",
            "properties": {
                "type": "observation",
                "score": 0.0,
                "observation_date": "2016-02-03",
                "source": null,
                "sensor_name": null,
                "current_phase": null,
                "is_occluded": null,
                "is_site_boundary": null
            },
            "geometry": {
                "type": "Polygon",
                "coordinates": [
                    [
                        [
                            -118.23433882171082,
                            34.04573467638806
                        ],
                        [
                            -118.23306064872106,
                            34.04578906672805
                        ],
                        [
                            -118.23314223423105,
                            34.04354546520347
                        ],
                        [
                            -118.23399888208588,
                            34.04402138067838
                        ],
                        [
                            -118.23433882171082,
                            34.04573467638806
                        ]
                    ]
                ]
            }
        },
        {
            "type": "Feature",
            "properties": {
                "type": "observation",
                "score": 0.0,
                "observation_date": "2018-04-14",
                "source": null,
                "sensor_name": null,
                "current_phase": null,
                "is_occluded": null,
                "is_site_boundary": null
            },
            "geometry": {
                "type": "Polygon",
                "coordinates": [
                    [
                        [
                            -118.23433882171082,
                            34.04573467638806
                        ],
                        [
                            -118.23306064872106,
                            34.04578906672805
                        ],
                        [
                            -118.23314223423105,
                            34.04354546520347
                        ],
                        [
                            -118.23399888208588,
                            34.04402138067838
                        ],
                        [
                            -118.23433882171082,
                            34.04573467638806
                        ]
                    ]
                ]
            }
        }
    ]
}