{
    "type": "FeatureCollection",
    "features": [
        {
            "type": "Feature",
            "properties": {
                "type": "site",
                "region_id": "US_C001",
                "site_id": "US_C001_0264",
                "version": "2.0.1",
                "status": "positive_pending",
                "mgrs": "14SPB",
                "score": 1.0,
                "start_date": "2018-03-20",
                "end_date": "2019-10-26",
                "model_content": "annotation",
                "originator": "iMERIT",
                "validated": "True",
                "misc_info": {
                    "commit_hash": "09ad7a622ce4c3b3840401c27b2fc588d36033b7"
                }
            },
            "geometry": {
                "type": "Polygon",
                "coordinates": [
                    [
                        [
                            -96.972221,
                            33.03725
                        ],
                        [
                            -96.972262,
                            33.036488
                        ],
                        [
                            -96.973973,
                            33.036558
                        ],
                        [
                            -96.974468,
                            33.03711
                        ],
                        [
                            -96.974426,
                            33.037965
                        ],
                        [
                            -96.97412,
                            33.038212
                        ],
                        [
                            -96.97388,
                            33.038385
                        ],
                        [
                            -96.972221,
                            33.03725
                        ]
                    ]
                ]
            }
        },
        {
            "type": "Feature",
            "properties": {
                "observation_date": "2018-03-20",
                "source": null,
                "sensor_name": null,
                "type": "observation",
                "current_phase": null,
                "is_occluded": null,
                "is_site_boundary": null,
                "score": 1.0
            },
            "geometry": {
                "type": "MultiPolygon",
                "coordinates": [
                    [
                        [
                            [
                                -96.972221,
                                33.03725
                            ],
                            [
                                -96.972262,
                                33.036488
                            ],
                            [
                                -96.973973,
                                33.036558
                            ],
                            [
                                -96.974468,
                                33.03711
                            ],
                            [
                                -96.974426,
                                33.037965
                            ],
                            [
                                -96.97412,
                                33.038212
                            ],
                            [
                                -96.97388,
                                33.038385
                            ],
                            [
                                -96.972221,
                                33.03725
                            ]
                        ]
                    ]
                ]
            }
        },
        {
            "type": "Feature",
            "properties": {
                "observation_date": "2019-10-26",
                "source": null,
                "sensor_name": null,
                "type": "observation",
                "current_phase": null,
                "is_occluded": null,
                "is_site_boundary": null,
                "score": 1.0
            },
            "geometry": {
                "type": "MultiPolygon",
                "coordinates": [
                    [
                        [
                            [
                                -96.972221,
                                33.03725
                            ],
                            [
                                -96.972262,
                                33.036488
                            ],
                            [
                                -96.973973,
                                33.036558
                            ],
                            [
                                -96.974468,
                                33.03711
                            ],
                            [
                                -96.974426,
                                33.037965
                            ],
                            [
                                -96.97412,
                                33.038212
                            ],
                            [
                                -96.97388,
                                33.038385
                            ],
                            [
                                -96.972221,
                                33.03725
                            ]
                        ]
                    ]
                ]
            }
        }
    ]
}