{
    "type": "FeatureCollection",
    "features": [
        {
            "type": "Feature",
            "properties": {
                "type": "site",
                "region_id": "US_C015",
                "version": "2.0.0",
                "mgrs": "11SLT",
                "start_date": "2021-09-05",
                "end_date": null,
                "site_id": "US_C015_0039",
                "status": "positive_pending",
                "originator": "iMERIT",
                "model_content": "annotation",
                "validated": "False",
                "score": 0.0,
                "misc_info": {
                    "commit_hash": "b8980b308111f4d719b33abcdfd4475cdb0511ce"
                }
            },
            "geometry": {
                "type": "Polygon",
                "coordinates": [
                    [
                        [
                            -118.29138771353188,
                            33.962380824199975
                        ],
                        [
                            -118.29068756506518,
                            33.96238729967606
                        ],
                        [
                            -118.2906758464292,
                            33.96133524441142
                        ],
                        [
                            -118.2913769654765,
                            33.961324411052715
                        ],
                        [
                            -118.29138771353188,
                            33.962380824199975
                        ]
                    ]
                ]
            }
        },
        {
            "type": "Feature",
            "properties": {
                "type": "observation",
                "score": 0.0,
                "observation_date": "2021-09-05",
                "source": null,
                "sensor_name": null,
                "current_phase": null,
                "is_occluded": null,
                "is_site_boundary": null
            },
            "geometry": {
                "type": "Polygon",
                "coordinates": [
                    [
                        [
                            -118.29138771353188,
                            33.962380824199975
                        ],
                        [
                            -118.29068756506518,
                            33.96238729967606
                        ],
                        [
                            -118.2906758464292,
                            33.96133524441142
                        ],
                        [
                            -118.2913769654765,
                            33.961324411052715
                        ],
                        [
                            -118.29138771353188,
                            33.962380824199975
                        ]
                    ]
                ]
            }
        },
        {
            "type": "Feature",
            "properties": {
                "type": "observation",
                "score": 0.0,
                "observation_date": null,
                "source": null,
                "sensor_name": null,
                "current_phase": null,
                "is_occluded": null,
                "is_site_boundary": null
            },
            "geometry": {
                "type": "Polygon",
                "coordinates": [
                    [
                        [
                            -118.29138771353188,
                            33.962380824199975
                        ],
                        [
                            -118.29068756506518,
                            33.96238729967606
                        ],
                        [
                            -118.2906758464292,
                            33.96133524441142
                        ],
                        [
                            -118.2913769654765,
                            33.961324411052715
                        ],
                        [
                            -118.29138771353188,
                            33.962380824199975
                        ]
                    ]
                ]
            }
        }
    ]
}