{
    "type": "FeatureCollection",
    "features": [
        {
            "type": "Feature",
            "properties": {
                "type": "site",
                "region_id": "US_C015",
                "version": "2.0.1",
                "mgrs": "11SLT",
                "start_date": "2016-02-03",
                "end_date": "2019-10-21",
                "site_id": "US_C015_0055",
                "status": "positive_pending",
                "originator": "iMERIT",
                "model_content": "annotation",
                "validated": "False",
                "score": 0.0,
                "misc_info": {
                    "commit_hash": "b8980b308111f4d719b33abcdfd4475cdb0511ce"
                }
            },
            "geometry": {
                "type": "Polygon",
                "coordinates": [
                    [
                        [
                            -118.3323454144997,
                            33.88611599582706
                        ],
                        [
                            -118.3323162604676,
                            33.88724500910903
                        ],
                        [
                            -118.3292269981945,
                            33.88723118122335
                        ],
                        [
                            -118.3292177256305,
                            33.88614133281257
                        ],
                        [
                            -118.3302069176281,
                            33.88613776897309
                        ],
                        [
                            -118.3323454144997,
                            33.88611599582706
                        ]
                    ]
                ]
            }
        },
        {
            "type": "Feature",
            "properties": {
                "type": "observation",
                "score": 0.0,
                "observation_date": "2016-02-03",
                "source": null,
                "sensor_name": null,
                "current_phase": null,
                "is_occluded": null,
                "is_site_boundary": null
            },
            "geometry": {
                "type": "Polygon",
                "coordinates": [
                    [
                        [
                            -118.3323454144997,
                            33.88611599582706
                        ],
                        [
                            -118.3323162604676,
                            33.88724500910903
                        ],
                        [
                            -118.3292269981945,
                            33.88723118122335
                        ],
                        [
                            -118.3292177256305,
                            33.88614133281257
                        ],
                        [
                            -118.3302069176281,
                            33.88613776897309
                        ],
                        [
                            -118.3323454144997,
                            33.88611599582706
                        ]
                    ]
                ]
            }
        },
        {
            "type": "Feature",
            "properties": {
                "type": "observation",
                "score": 0.0,
                "observation_date": "2019-10-21",
                "source": null,
                "sensor_name": null,
                "current_phase": null,
                "is_occluded": null,
                "is_site_boundary": null
            },
            "geometry": {
                "type": "Polygon",
                "coordinates": [
                    [
                        [
                            -118.3323454144997,
                            33.88611599582706
                        ],
                        [
                            -118.3323162604676,
                            33.88724500910903
                        ],
                        [
                            -118.3292269981945,
                            33.88723118122335
                        ],
                        [
                            -118.3292177256305,
                            33.88614133281257
                        ],
                        [
                            -118.3302069176281,
                            33.88613776897309
                        ],
                        [
                            -118.3323454144997,
                            33.88611599582706
                        ]
                    ]
                ]
            }
        }
    ]
}