{
    "type": "FeatureCollection",
    "features": [
        {
            "type": "Feature",
            "properties": {
                "type": "site",
                "region_id": "US_C015",
                "version": "2.0.1",
                "mgrs": "11SLT",
                "start_date": "2019-06-23",
                "end_date": "2021-10-30",
                "site_id": "US_C015_0051",
                "status": "positive_pending",
                "originator": "iMERIT",
                "model_content": "annotation",
                "validated": "False",
                "score": 0.0,
                "misc_info": {
                    "commit_hash": "b8980b308111f4d719b33abcdfd4475cdb0511ce"
                }
            },
            "geometry": {
                "type": "Polygon",
                "coordinates": [
                    [
                        [
                            -118.19274967543059,
                            33.96385445684482
                        ],
                        [
                            -118.1929157163215,
                            33.96277439342544
                        ],
                        [
                            -118.19231453995823,
                            33.96271408763426
                        ],
                        [
                            -118.1921566788486,
                            33.96379746254441
                        ],
                        [
                            -118.19274967543059,
                            33.96385445684482
                        ]
                    ]
                ]
            }
        },
        {
            "type": "Feature",
            "properties": {
                "type": "observation",
                "score": 0.0,
                "observation_date": "2019-06-23",
                "source": null,
                "sensor_name": null,
                "current_phase": null,
                "is_occluded": null,
                "is_site_boundary": null
            },
            "geometry": {
                "type": "Polygon",
                "coordinates": [
                    [
                        [
                            -118.19274967543059,
                            33.96385445684482
                        ],
                        [
                            -118.1929157163215,
                            33.96277439342544
                        ],
                        [
                            -118.19231453995823,
                            33.96271408763426
                        ],
                        [
                            -118.1921566788486,
                            33.96379746254441
                        ],
                        [
                            -118.19274967543059,
                            33.96385445684482
                        ]
                    ]
                ]
            }
        },
        {
            "type": "Feature",
            "properties": {
                "type": "observation",
                "score": 0.0,
                "observation_date": "2021-10-30",
                "source": null,
                "sensor_name": null,
                "current_phase": null,
                "is_occluded": null,
                "is_site_boundary": null
            },
            "geometry": {
                "type": "Polygon",
                "coordinates": [
                    [
                        [
                            -118.19274967543059,
                            33.96385445684482
                        ],
                        [
                            -118.1929157163215,
                            33.96277439342544
                        ],
                        [
                            -118.19231453995823,
                            33.96271408763426
                        ],
                        [
                            -118.1921566788486,
                            33.96379746254441
                        ],
                        [
                            -118.19274967543059,
                            33.96385445684482
                        ]
                    ]
                ]
            }
        }
    ]
}