{
    "type": "FeatureCollection",
    "features": [
        {
            "type": "Feature",
            "properties": {
                "type": "site",
                "region_id": "US_C015",
                "version": "2.0.0",
                "mgrs": "11SLT",
                "start_date": "2017-08-12",
                "end_date": "2018-12-20",
                "site_id": "US_C015_0067",
                "status": "positive_pending",
                "originator": "iMERIT",
                "model_content": "annotation",
                "validated": "False",
                "score": 0.0,
                "misc_info": {
                    "commit_hash": "b8980b308111f4d719b33abcdfd4475cdb0511ce"
                }
            },
            "geometry": {
                "type": "Polygon",
                "coordinates": [
                    [
                        [
                            -118.3432079546155,
                            33.92359260051489
                        ],
                        [
                            -118.3396135685538,
                            33.92361613597007
                        ],
                        [
                            -118.3396131050427,
                            33.92320187254205
                        ],
                        [
                            -118.3432005568223,
                            33.92303017549241
                        ],
                        [
                            -118.3432079546155,
                            33.92359260051489
                        ]
                    ]
                ]
            }
        },
        {
            "type": "Feature",
            "properties": {
                "type": "observation",
                "score": 0.0,
                "observation_date": "2017-08-12",
                "source": null,
                "sensor_name": null,
                "current_phase": null,
                "is_occluded": null,
                "is_site_boundary": null
            },
            "geometry": {
                "type": "Polygon",
                "coordinates": [
                    [
                        [
                            -118.3432079546155,
                            33.92359260051489
                        ],
                        [
                            -118.3396135685538,
                            33.92361613597007
                        ],
                        [
                            -118.3396131050427,
                            33.92320187254205
                        ],
                        [
                            -118.3432005568223,
                            33.92303017549241
                        ],
                        [
                            -118.3432079546155,
                            33.92359260051489
                        ]
                    ]
                ]
            }
        },
        {
            "type": "Feature",
            "properties": {
                "type": "observation",
                "score": 0.0,
                "observation_date": "2018-12-20",
                "source": null,
                "sensor_name": null,
                "current_phase": null,
                "is_occluded": null,
                "is_site_boundary": null
            },
            "geometry": {
                "type": "Polygon",
                "coordinates": [
                    [
                        [
                            -118.3432079546155,
                            33.92359260051489
                        ],
                        [
                            -118.3396135685538,
                            33.92361613597007
                        ],
                        [
                            -118.3396131050427,
                            33.92320187254205
                        ],
                        [
                            -118.3432005568223,
                            33.92303017549241
                        ],
                        [
                            -118.3432079546155,
                            33.92359260051489
                        ]
                    ]
                ]
            }
        }
    ]
}