{
    "type": "FeatureCollection",
    "features": [
        {
            "type": "Feature",
            "properties": {
                "type": "site",
                "region_id": "US_C015",
                "version": "2.0.1",
                "mgrs": "11SLT",
                "start_date": "2019-05-29",
                "end_date": "2022-04-23",
                "site_id": "US_C015_0031",
                "status": "positive_pending",
                "originator": "iMERIT",
                "model_content": "annotation",
                "validated": "False",
                "score": 0.0,
                "misc_info": {
                    "commit_hash": "b8980b308111f4d719b33abcdfd4475cdb0511ce"
                }
            },
            "geometry": {
                "type": "Polygon",
                "coordinates": [
                    [
                        [
                            -118.37104138156431,
                            33.97715872668585
                        ],
                        [
                            -118.37103209195709,
                            33.9767101392994
                        ],
                        [
                            -118.37135448297114,
                            33.97670219862982
                        ],
                        [
                            -118.37213630307372,
                            33.975990880919454
                        ],
                        [
                            -118.37201332333693,
                            33.97587225360607
                        ],
                        [
                            -118.37148296101279,
                            33.975603386826045
                        ],
                        [
                            -118.37095444458186,
                            33.97544927857948
                        ],
                        [
                            -118.37034490065219,
                            33.975449112347626
                        ],
                        [
                            -118.37036417563937,
                            33.97717061892892
                        ],
                        [
                            -118.37104138156431,
                            33.97715872668585
                        ]
                    ]
                ]
            }
        },
        {
            "type": "Feature",
            "properties": {
                "type": "observation",
                "score": 0.0,
                "observation_date": "2019-05-29",
                "source": null,
                "sensor_name": null,
                "current_phase": null,
                "is_occluded": null,
                "is_site_boundary": null
            },
            "geometry": {
                "type": "Polygon",
                "coordinates": [
                    [
                        [
                            -118.37104138156431,
                            33.97715872668585
                        ],
                        [
                            -118.37103209195709,
                            33.9767101392994
                        ],
                        [
                            -118.37135448297114,
                            33.97670219862982
                        ],
                        [
                            -118.37213630307372,
                            33.975990880919454
                        ],
                        [
                            -118.37201332333693,
                            33.97587225360607
                        ],
                        [
                            -118.37148296101279,
                            33.975603386826045
                        ],
                        [
                            -118.37095444458186,
                            33.97544927857948
                        ],
                        [
                            -118.37034490065219,
                            33.975449112347626
                        ],
                        [
                            -118.37036417563937,
                            33.97717061892892
                        ],
                        [
                            -118.37104138156431,
                            33.97715872668585
                        ]
                    ]
                ]
            }
        },
        {
            "type": "Feature",
            "properties": {
                "type": "observation",
                "score": 0.0,
                "observation_date": "2022-04-23",
                "source": null,
                "sensor_name": null,
                "current_phase": null,
                "is_occluded": null,
                "is_site_boundary": null
            },
            "geometry": {
                "type": "Polygon",
                "coordinates": [
                    [
                        [
                            -118.37104138156431,
                            33.97715872668585
                        ],
                        [
                            -118.37103209195709,
                            33.9767101392994
                        ],
                        [
                            -118.37135448297114,
                            33.97670219862982
                        ],
                        [
                            -118.37213630307372,
                            33.975990880919454
                        ],
                        [
                            -118.37201332333693,
                            33.97587225360607
                        ],
                        [
                            -118.37148296101279,
                            33.975603386826045
                        ],
                        [
                            -118.37095444458186,
                            33.97544927857948
                        ],
                        [
                            -118.37034490065219,
                            33.975449112347626
                        ],
                        [
                            -118.37036417563937,
                            33.97717061892892
                        ],
                        [
                            -118.37104138156431,
                            33.97715872668585
                        ]
                    ]
                ]
            }
        }
    ]
}