{
    "type": "FeatureCollection",
    "features": [
        {
            "type": "Feature",
            "properties": {
                "type": "site",
                "region_id": "US_C015",
                "version": "2.0.0",
                "mgrs": "11SLT",
                "start_date": "2021-08-01",
                "end_date": null,
                "site_id": "US_C015_0096",
                "status": "positive_pending",
                "originator": "iMERIT",
                "model_content": "annotation",
                "validated": "False",
                "score": 0.0,
                "misc_info": {
                    "commit_hash": "b8980b308111f4d719b33abcdfd4475cdb0511ce"
                }
            },
            "geometry": {
                "type": "Polygon",
                "coordinates": [
                    [
                        [
                            -118.4116674747533,
                            33.89430200034266
                        ],
                        [
                            -118.4119118688948,
                            33.8953205945789
                        ],
                        [
                            -118.411861054387,
                            33.89589109555271
                        ],
                        [
                            -118.4115245485666,
                            33.89643803363424
                        ],
                        [
                            -118.4112870390826,
                            33.89596185530051
                        ],
                        [
                            -118.4104198516925,
                            33.89536567751441
                        ],
                        [
                            -118.4100693617958,
                            33.89500307963176
                        ],
                        [
                            -118.4098410930994,
                            33.89471404540572
                        ],
                        [
                            -118.4116674747533,
                            33.89430200034266
                        ]
                    ]
                ]
            }
        },
        {
            "type": "Feature",
            "properties": {
                "type": "observation",
                "score": 0.0,
                "observation_date": "2021-08-01",
                "source": null,
                "sensor_name": null,
                "current_phase": null,
                "is_occluded": null,
                "is_site_boundary": null
            },
            "geometry": {
                "type": "Polygon",
                "coordinates": [
                    [
                        [
                            -118.4116674747533,
                            33.89430200034266
                        ],
                        [
                            -118.4119118688948,
                            33.8953205945789
                        ],
                        [
                            -118.411861054387,
                            33.89589109555271
                        ],
                        [
                            -118.4115245485666,
                            33.89643803363424
                        ],
                        [
                            -118.4112870390826,
                            33.89596185530051
                        ],
                        [
                            -118.4104198516925,
                            33.89536567751441
                        ],
                        [
                            -118.4100693617958,
                            33.89500307963176
                        ],
                        [
                            -118.4098410930994,
                            33.89471404540572
                        ],
                        [
                            -118.4116674747533,
                            33.89430200034266
                        ]
                    ]
                ]
            }
        },
        {
            "type": "Feature",
            "properties": {
                "type": "observation",
                "score": 0.0,
                "observation_date": null,
                "source": null,
                "sensor_name": null,
                "current_phase": null,
                "is_occluded": null,
                "is_site_boundary": null
            },
            "geometry": {
                "type": "Polygon",
                "coordinates": [
                    [
                        [
                            -118.4116674747533,
                            33.89430200034266
                        ],
                        [
                            -118.4119118688948,
                            33.8953205945789
                        ],
                        [
                            -118.411861054387,
                            33.89589109555271
                        ],
                        [
                            -118.4115245485666,
                            33.89643803363424
                        ],
                        [
                            -118.4112870390826,
                            33.89596185530051
                        ],
                        [
                            -118.4104198516925,
                            33.89536567751441
                        ],
                        [
                            -118.4100693617958,
                            33.89500307963176
                        ],
                        [
                            -118.4098410930994,
                            33.89471404540572
                        ],
                        [
                            -118.4116674747533,
                            33.89430200034266
                        ]
                    ]
                ]
            }
        }
    ]
}