{
    "type": "FeatureCollection",
    "features": [
        {
            "type": "Feature",
            "properties": {
                "type": "site",
                "region_id": "US_C015",
                "version": "2.0.0",
                "mgrs": "11SLT",
                "start_date": "2017-11-30",
                "end_date": "2019-09-16",
                "site_id": "US_C015_0145",
                "status": "positive_pending",
                "originator": "iMERIT",
                "model_content": "annotation",
                "validated": "False",
                "score": 0.0,
                "misc_info": {
                    "commit_hash": "b8980b308111f4d719b33abcdfd4475cdb0511ce"
                }
            },
            "geometry": {
                "type": "Polygon",
                "coordinates": [
                    [
                        [
                            -118.39342273630713,
                            34.02498643624611
                        ],
                        [
                            -118.39255249086722,
                            34.024469728016165
                        ],
                        [
                            -118.39381026747958,
                            34.02370826325626
                        ],
                        [
                            -118.39418420106703,
                            34.024129788391214
                        ],
                        [
                            -118.39342273630713,
                            34.02498643624611
                        ]
                    ]
                ]
            }
        },
        {
            "type": "Feature",
            "properties": {
                "type": "observation",
                "score": 0.0,
                "observation_date": "2017-11-30",
                "source": null,
                "sensor_name": null,
                "current_phase": null,
                "is_occluded": null,
                "is_site_boundary": null
            },
            "geometry": {
                "type": "Polygon",
                "coordinates": [
                    [
                        [
                            -118.39342273630713,
                            34.02498643624611
                        ],
                        [
                            -118.39255249086722,
                            34.024469728016165
                        ],
                        [
                            -118.39381026747958,
                            34.02370826325626
                        ],
                        [
                            -118.39418420106703,
                            34.024129788391214
                        ],
                        [
                            -118.39342273630713,
                            34.02498643624611
                        ]
                    ]
                ]
            }
        },
        {
            "type": "Feature",
            "properties": {
                "type": "observation",
                "score": 0.0,
                "observation_date": "2019-09-16",
                "source": null,
                "sensor_name": null,
                "current_phase": null,
                "is_occluded": null,
                "is_site_boundary": null
            },
            "geometry": {
                "type": "Polygon",
                "coordinates": [
                    [
                        [
                            -118.39342273630713,
                            34.02498643624611
                        ],
                        [
                            -118.39255249086722,
                            34.024469728016165
                        ],
                        [
                            -118.39381026747958,
                            34.02370826325626
                        ],
                        [
                            -118.39418420106703,
                            34.024129788391214
                        ],
                        [
                            -118.39342273630713,
                            34.02498643624611
                        ]
                    ]
                ]
            }
        }
    ]
}