{
    "type": "FeatureCollection",
    "features": [
        {
            "type": "Feature",
            "properties": {
                "type": "site",
                "region_id": "US_C015",
                "version": "2.0.1",
                "mgrs": "11SLT",
                "start_date": "2014-04-24",
                "end_date": "2018-09-26",
                "site_id": "US_C015_0156",
                "status": "positive_pending",
                "originator": "iMERIT",
                "model_content": "annotation",
                "validated": "False",
                "score": 0.0,
                "misc_info": {
                    "commit_hash": "b8980b308111f4d719b33abcdfd4475cdb0511ce"
                }
            },
            "geometry": {
                "type": "Polygon",
                "coordinates": [
                    [
                        [
                            -118.34180120455879,
                            34.062146936348924
                        ],
                        [
                            -118.34069300138142,
                            34.06213673816017
                        ],
                        [
                            -118.3408153796464,
                            34.061569038986484
                        ],
                        [
                            -118.34148506070758,
                            34.06157243838274
                        ],
                        [
                            -118.34153265225507,
                            34.061429663740256
                        ],
                        [
                            -118.34200176893752,
                            34.061453459514
                        ],
                        [
                            -118.34180120455879,
                            34.062146936348924
                        ]
                    ]
                ]
            }
        },
        {
            "type": "Feature",
            "properties": {
                "type": "observation",
                "score": 0.0,
                "observation_date": "2014-04-24",
                "source": null,
                "sensor_name": null,
                "current_phase": null,
                "is_occluded": null,
                "is_site_boundary": null
            },
            "geometry": {
                "type": "Polygon",
                "coordinates": [
                    [
                        [
                            -118.34180120455879,
                            34.062146936348924
                        ],
                        [
                            -118.34069300138142,
                            34.06213673816017
                        ],
                        [
                            -118.3408153796464,
                            34.061569038986484
                        ],
                        [
                            -118.34148506070758,
                            34.06157243838274
                        ],
                        [
                            -118.34153265225507,
                            34.061429663740256
                        ],
                        [
                            -118.34200176893752,
                            34.061453459514
                        ],
                        [
                            -118.34180120455879,
                            34.062146936348924
                        ]
                    ]
                ]
            }
        },
        {
            "type": "Feature",
            "properties": {
                "type": "observation",
                "score": 0.0,
                "observation_date": "2018-09-26",
                "source": null,
                "sensor_name": null,
                "current_phase": null,
                "is_occluded": null,
                "is_site_boundary": null
            },
            "geometry": {
                "type": "Polygon",
                "coordinates": [
                    [
                        [
                            -118.34180120455879,
                            34.062146936348924
                        ],
                        [
                            -118.34069300138142,
                            34.06213673816017
                        ],
                        [
                            -118.3408153796464,
                            34.061569038986484
                        ],
                        [
                            -118.34148506070758,
                            34.06157243838274
                        ],
                        [
                            -118.34153265225507,
                            34.061429663740256
                        ],
                        [
                            -118.34200176893752,
                            34.061453459514
                        ],
                        [
                            -118.34180120455879,
                            34.062146936348924
                        ]
                    ]
                ]
            }
        }
    ]
}