{
    "type": "FeatureCollection",
    "features": [
        {
            "type": "Feature",
            "properties": {
                "type": "site",
                "region_id": "US_C015",
                "version": "2.0.0",
                "mgrs": "11SLT",
                "start_date": "2019-04-24",
                "end_date": "2020-05-03",
                "site_id": "US_C015_0037",
                "status": "positive_pending",
                "originator": "iMERIT",
                "model_content": "annotation",
                "validated": "False",
                "score": 0.0,
                "misc_info": {
                    "commit_hash": "b8980b308111f4d719b33abcdfd4475cdb0511ce"
                }
            },
            "geometry": {
                "type": "Polygon",
                "coordinates": [
                    [
                        [
                            -118.32744470719706,
                            33.93976999707771
                        ],
                        [
                            -118.32966817877967,
                            33.939748609544
                        ],
                        [
                            -118.32967796177184,
                            33.940511983296346
                        ],
                        [
                            -118.32816910175536,
                            33.940530880652574
                        ],
                        [
                            -118.32805661165062,
                            33.940408615807726
                        ],
                        [
                            -118.32745712619402,
                            33.940402038261055
                        ],
                        [
                            -118.32744470719706,
                            33.93976999707771
                        ]
                    ]
                ]
            }
        },
        {
            "type": "Feature",
            "properties": {
                "type": "observation",
                "score": 0.0,
                "observation_date": "2019-04-24",
                "source": null,
                "sensor_name": null,
                "current_phase": null,
                "is_occluded": null,
                "is_site_boundary": null
            },
            "geometry": {
                "type": "Polygon",
                "coordinates": [
                    [
                        [
                            -118.32744470719706,
                            33.93976999707771
                        ],
                        [
                            -118.32966817877967,
                            33.939748609544
                        ],
                        [
                            -118.32967796177184,
                            33.940511983296346
                        ],
                        [
                            -118.32816910175536,
                            33.940530880652574
                        ],
                        [
                            -118.32805661165062,
                            33.940408615807726
                        ],
                        [
                            -118.32745712619402,
                            33.940402038261055
                        ],
                        [
                            -118.32744470719706,
                            33.93976999707771
                        ]
                    ]
                ]
            }
        },
        {
            "type": "Feature",
            "properties": {
                "type": "observation",
                "score": 0.0,
                "observation_date": "2020-05-03",
                "source": null,
                "sensor_name": null,
                "current_phase": null,
                "is_occluded": null,
                "is_site_boundary": null
            },
            "geometry": {
                "type": "Polygon",
                "coordinates": [
                    [
                        [
                            -118.32744470719706,
                            33.93976999707771
                        ],
                        [
                            -118.32966817877967,
                            33.939748609544
                        ],
                        [
                            -118.32967796177184,
                            33.940511983296346
                        ],
                        [
                            -118.32816910175536,
                            33.940530880652574
                        ],
                        [
                            -118.32805661165062,
                            33.940408615807726
                        ],
                        [
                            -118.32745712619402,
                            33.940402038261055
                        ],
                        [
                            -118.32744470719706,
                            33.93976999707771
                        ]
                    ]
                ]
            }
        }
    ]
}