{
    "type": "FeatureCollection",
    "features": [
        {
            "type": "Feature",
            "properties": {
                "type": "site",
                "region_id": "US_C015",
                "version": "2.0.1",
                "mgrs": "11SLT",
                "start_date": "2020-01-04",
                "end_date": "2022-10-25",
                "site_id": "US_C015_0141",
                "status": "positive_pending",
                "originator": "iMERIT",
                "model_content": "annotation",
                "validated": "False",
                "score": 0.0,
                "misc_info": {
                    "commit_hash": "b8980b308111f4d719b33abcdfd4475cdb0511ce"
                }
            },
            "geometry": {
                "type": "Polygon",
                "coordinates": [
                    [
                        [
                            -118.45660731439875,
                            34.03282374429945
                        ],
                        [
                            -118.45550591001388,
                            34.03369398973935
                        ],
                        [
                            -118.45417334668403,
                            34.03247020708949
                        ],
                        [
                            -118.45568267861886,
                            34.032130267464524
                        ],
                        [
                            -118.45660731439875,
                            34.03282374429945
                        ]
                    ]
                ]
            }
        },
        {
            "type": "Feature",
            "properties": {
                "type": "observation",
                "score": 0.0,
                "observation_date": "2020-01-04",
                "source": null,
                "sensor_name": null,
                "current_phase": null,
                "is_occluded": null,
                "is_site_boundary": null
            },
            "geometry": {
                "type": "Polygon",
                "coordinates": [
                    [
                        [
                            -118.45660731439875,
                            34.03282374429945
                        ],
                        [
                            -118.45550591001388,
                            34.03369398973935
                        ],
                        [
                            -118.45417334668403,
                            34.03247020708949
                        ],
                        [
                            -118.45568267861886,
                            34.032130267464524
                        ],
                        [
                            -118.45660731439875,
                            34.03282374429945
                        ]
                    ]
                ]
            }
        },
        {
            "type": "Feature",
            "properties": {
                "type": "observation",
                "score": 0.0,
                "observation_date": "2022-10-25",
                "source": null,
                "sensor_name": null,
                "current_phase": null,
                "is_occluded": null,
                "is_site_boundary": null
            },
            "geometry": {
                "type": "Polygon",
                "coordinates": [
                    [
                        [
                            -118.45660731439875,
                            34.03282374429945
                        ],
                        [
                            -118.45550591001388,
                            34.03369398973935
                        ],
                        [
                            -118.45417334668403,
                            34.03247020708949
                        ],
                        [
                            -118.45568267861886,
                            34.032130267464524
                        ],
                        [
                            -118.45660731439875,
                            34.03282374429945
                        ]
                    ]
                ]
            }
        }
    ]
}