{
    "type": "FeatureCollection",
    "features": [
        {
            "type": "Feature",
            "properties": {
                "type": "site",
                "region_id": "US_C015",
                "version": "2.0.1",
                "mgrs": "11SLT",
                "start_date": "2021-02-22",
                "end_date": "2022-09-05",
                "site_id": "US_C015_0171",
                "status": "positive_pending",
                "originator": "iMERIT",
                "model_content": "annotation",
                "validated": "False",
                "score": 0.0,
                "misc_info": {
                    "commit_hash": "b8980b308111f4d719b33abcdfd4475cdb0511ce"
                }
            },
            "geometry": {
                "type": "Polygon",
                "coordinates": [
                    [
                        [
                            -118.28944200382405,
                            34.07581420897056
                        ],
                        [
                            -118.28804485196545,
                            34.07585500172556
                        ],
                        [
                            -118.2880414525692,
                            34.07549126632685
                        ],
                        [
                            -118.28942840623905,
                            34.07541647960936
                        ],
                        [
                            -118.28944200382405,
                            34.07581420897056
                        ]
                    ]
                ]
            }
        },
        {
            "type": "Feature",
            "properties": {
                "type": "observation",
                "score": 0.0,
                "observation_date": "2021-02-22",
                "source": null,
                "sensor_name": null,
                "current_phase": null,
                "is_occluded": null,
                "is_site_boundary": null
            },
            "geometry": {
                "type": "Polygon",
                "coordinates": [
                    [
                        [
                            -118.28944200382405,
                            34.07581420897056
                        ],
                        [
                            -118.28804485196545,
                            34.07585500172556
                        ],
                        [
                            -118.2880414525692,
                            34.07549126632685
                        ],
                        [
                            -118.28942840623905,
                            34.07541647960936
                        ],
                        [
                            -118.28944200382405,
                            34.07581420897056
                        ]
                    ]
                ]
            }
        },
        {
            "type": "Feature",
            "properties": {
                "type": "observation",
                "score": 0.0,
                "observation_date": "2022-09-05",
                "source": null,
                "sensor_name": null,
                "current_phase": null,
                "is_occluded": null,
                "is_site_boundary": null
            },
            "geometry": {
                "type": "Polygon",
                "coordinates": [
                    [
                        [
                            -118.28944200382405,
                            34.07581420897056
                        ],
                        [
                            -118.28804485196545,
                            34.07585500172556
                        ],
                        [
                            -118.2880414525692,
                            34.07549126632685
                        ],
                        [
                            -118.28942840623905,
                            34.07541647960936
                        ],
                        [
                            -118.28944200382405,
                            34.07581420897056
                        ]
                    ]
                ]
            }
        }
    ]
}