{
    "type": "FeatureCollection",
    "features": [
        {
            "type": "Feature",
            "properties": {
                "type": "site",
                "region_id": "US_C016",
                "site_id": "US_C016_0104",
                "version": "2.0.2",
                "status": "positive_pending",
                "mgrs": "17SKT",
                "score": 1.0,
                "start_date": "2017-10-25",
                "end_date": "2021-04-04",
                "model_content": "annotation",
                "originator": "iMERIT",
                "validated": "True",
                "misc_info": {
                    "commit_hash": "09ad7a622ce4c3b3840401c27b2fc588d36033b7"
                }
            },
            "geometry": {
                "type": "Polygon",
                "coordinates": [
                    [
                        [
                            -83.636952,
                            34.096624
                        ],
                        [
                            -83.636492,
                            34.096487
                        ],
                        [
                            -83.636555,
                            34.096403
                        ],
                        [
                            -83.636383,
                            34.096326
                        ],
                        [
                            -83.636209,
                            34.096419
                        ],
                        [
                            -83.635881,
                            34.096185
                        ],
                        [
                            -83.635708,
                            34.096292
                        ],
                        [
                            -83.635507,
                            34.096074
                        ],
                        [
                            -83.636505,
                            34.095655
                        ],
                        [
                            -83.637087,
                            34.096081
                        ],
                        [
                            -83.636952,
                            34.096624
                        ]
                    ]
                ]
            }
        },
        {
            "type": "Feature",
            "properties": {
                "observation_date": "2017-10-25",
                "source": null,
                "sensor_name": null,
                "type": "observation",
                "current_phase": null,
                "is_occluded": null,
                "is_site_boundary": null,
                "score": 1.0
            },
            "geometry": {
                "type": "MultiPolygon",
                "coordinates": [
                    [
                        [
                            [
                                -83.636952,
                                34.096624
                            ],
                            [
                                -83.636492,
                                34.096487
                            ],
                            [
                                -83.636555,
                                34.096403
                            ],
                            [
                                -83.636383,
                                34.096326
                            ],
                            [
                                -83.636209,
                                34.096419
                            ],
                            [
                                -83.635881,
                                34.096185
                            ],
                            [
                                -83.635708,
                                34.096292
                            ],
                            [
                                -83.635507,
                                34.096074
                            ],
                            [
                                -83.636505,
                                34.095655
                            ],
                            [
                                -83.637087,
                                34.096081
                            ],
                            [
                                -83.636952,
                                34.096624
                            ]
                        ]
                    ]
                ]
            }
        },
        {
            "type": "Feature",
            "properties": {
                "observation_date": "2021-04-04",
                "source": null,
                "sensor_name": null,
                "type": "observation",
                "current_phase": null,
                "is_occluded": null,
                "is_site_boundary": null,
                "score": 1.0
            },
            "geometry": {
                "type": "MultiPolygon",
                "coordinates": [
                    [
                        [
                            [
                                -83.636952,
                                34.096624
                            ],
                            [
                                -83.636492,
                                34.096487
                            ],
                            [
                                -83.636555,
                                34.096403
                            ],
                            [
                                -83.636383,
                                34.096326
                            ],
                            [
                                -83.636209,
                                34.096419
                            ],
                            [
                                -83.635881,
                                34.096185
                            ],
                            [
                                -83.635708,
                                34.096292
                            ],
                            [
                                -83.635507,
                                34.096074
                            ],
                            [
                                -83.636505,
                                34.095655
                            ],
                            [
                                -83.637087,
                                34.096081
                            ],
                            [
                                -83.636952,
                                34.096624
                            ]
                        ]
                    ]
                ]
            }
        }
    ]
}