{
    "type": "FeatureCollection",
    "features": [
        {
            "type": "Feature",
            "properties": {
                "type": "site",
                "region_id": "US_C015",
                "version": "2.0.1",
                "mgrs": "11SLT",
                "start_date": "2021-02-27",
                "end_date": "2022-03-29",
                "site_id": "US_C015_0058",
                "status": "positive_pending",
                "originator": "iMERIT",
                "model_content": "annotation",
                "validated": "False",
                "score": 0.0,
                "misc_info": {
                    "commit_hash": "b8980b308111f4d719b33abcdfd4475cdb0511ce"
                }
            },
            "geometry": {
                "type": "Polygon",
                "coordinates": [
                    [
                        [
                            -118.3956880463707,
                            33.90963018687685
                        ],
                        [
                            -118.3957536026718,
                            33.91119741500469
                        ],
                        [
                            -118.3946249346504,
                            33.9111479587935
                        ],
                        [
                            -118.3926547724661,
                            33.9113319789094
                        ],
                        [
                            -118.3923186630547,
                            33.91075484082734
                        ],
                        [
                            -118.39449866923,
                            33.90985633963982
                        ],
                        [
                            -118.3945918698492,
                            33.90960719037358
                        ],
                        [
                            -118.3956880463707,
                            33.90963018687685
                        ]
                    ]
                ]
            }
        },
        {
            "type": "Feature",
            "properties": {
                "type": "observation",
                "score": 0.0,
                "observation_date": "2021-02-27",
                "source": null,
                "sensor_name": null,
                "current_phase": null,
                "is_occluded": null,
                "is_site_boundary": null
            },
            "geometry": {
                "type": "Polygon",
                "coordinates": [
                    [
                        [
                            -118.3956880463707,
                            33.90963018687685
                        ],
                        [
                            -118.3957536026718,
                            33.91119741500469
                        ],
                        [
                            -118.3946249346504,
                            33.9111479587935
                        ],
                        [
                            -118.3926547724661,
                            33.9113319789094
                        ],
                        [
                            -118.3923186630547,
                            33.91075484082734
                        ],
                        [
                            -118.39449866923,
                            33.90985633963982
                        ],
                        [
                            -118.3945918698492,
                            33.90960719037358
                        ],
                        [
                            -118.3956880463707,
                            33.90963018687685
                        ]
                    ]
                ]
            }
        },
        {
            "type": "Feature",
            "properties": {
                "type": "observation",
                "score": 0.0,
                "observation_date": "2022-03-29",
                "source": null,
                "sensor_name": null,
                "current_phase": null,
                "is_occluded": null,
                "is_site_boundary": null
            },
            "geometry": {
                "type": "Polygon",
                "coordinates": [
                    [
                        [
                            -118.3956880463707,
                            33.90963018687685
                        ],
                        [
                            -118.3957536026718,
                            33.91119741500469
                        ],
                        [
                            -118.3946249346504,
                            33.9111479587935
                        ],
                        [
                            -118.3926547724661,
                            33.9113319789094
                        ],
                        [
                            -118.3923186630547,
                            33.91075484082734
                        ],
                        [
                            -118.39449866923,
                            33.90985633963982
                        ],
                        [
                            -118.3945918698492,
                            33.90960719037358
                        ],
                        [
                            -118.3956880463707,
                            33.90963018687685
                        ]
                    ]
                ]
            }
        }
    ]
}