{
    "type": "FeatureCollection",
    "features": [
        {
            "type": "Feature",
            "properties": {
                "type": "site",
                "region_id": "US_C015",
                "version": "2.0.1",
                "mgrs": "11SLT",
                "start_date": "2018-10-21",
                "end_date": "2022-02-27",
                "site_id": "US_C015_0069",
                "status": "positive_pending",
                "originator": "iMERIT",
                "model_content": "annotation",
                "validated": "False",
                "score": 0.0,
                "misc_info": {
                    "commit_hash": "b8980b308111f4d719b33abcdfd4475cdb0511ce"
                }
            },
            "geometry": {
                "type": "Polygon",
                "coordinates": [
                    [
                        [
                            -118.31322468253177,
                            33.85064325106646
                        ],
                        [
                            -118.31319432157689,
                            33.851971542842556
                        ],
                        [
                            -118.31760425027355,
                            33.85200949403616
                        ],
                        [
                            -118.3175892794041,
                            33.85411286022615
                        ],
                        [
                            -118.3096229048768,
                            33.85408796690362
                        ],
                        [
                            -118.30954341675228,
                            33.85055216820181
                        ],
                        [
                            -118.31322468253177,
                            33.85064325106646
                        ]
                    ]
                ]
            }
        },
        {
            "type": "Feature",
            "properties": {
                "type": "observation",
                "score": 0.0,
                "observation_date": "2018-10-21",
                "source": null,
                "sensor_name": null,
                "current_phase": null,
                "is_occluded": null,
                "is_site_boundary": null
            },
            "geometry": {
                "type": "Polygon",
                "coordinates": [
                    [
                        [
                            -118.31322468253177,
                            33.85064325106646
                        ],
                        [
                            -118.31319432157689,
                            33.851971542842556
                        ],
                        [
                            -118.31760425027355,
                            33.85200949403616
                        ],
                        [
                            -118.3175892794041,
                            33.85411286022615
                        ],
                        [
                            -118.3096229048768,
                            33.85408796690362
                        ],
                        [
                            -118.30954341675228,
                            33.85055216820181
                        ],
                        [
                            -118.31322468253177,
                            33.85064325106646
                        ]
                    ]
                ]
            }
        },
        {
            "type": "Feature",
            "properties": {
                "type": "observation",
                "score": 0.0,
                "observation_date": "2022-02-27",
                "source": null,
                "sensor_name": null,
                "current_phase": null,
                "is_occluded": null,
                "is_site_boundary": null
            },
            "geometry": {
                "type": "Polygon",
                "coordinates": [
                    [
                        [
                            -118.31322468253177,
                            33.85064325106646
                        ],
                        [
                            -118.31319432157689,
                            33.851971542842556
                        ],
                        [
                            -118.31760425027355,
                            33.85200949403616
                        ],
                        [
                            -118.3175892794041,
                            33.85411286022615
                        ],
                        [
                            -118.3096229048768,
                            33.85408796690362
                        ],
                        [
                            -118.30954341675228,
                            33.85055216820181
                        ],
                        [
                            -118.31322468253177,
                            33.85064325106646
                        ]
                    ]
                ]
            }
        }
    ]
}