{
    "type": "FeatureCollection",
    "features": [
        {
            "type": "Feature",
            "properties": {
                "type": "site",
                "region_id": "US_C015",
                "version": "2.0.1",
                "mgrs": "11SLT",
                "start_date": "2020-02-18",
                "end_date": "2022-02-17",
                "site_id": "US_C015_0128",
                "status": "positive_pending",
                "originator": "iMERIT",
                "model_content": "annotation",
                "validated": "False",
                "score": 0.0,
                "misc_info": {
                    "commit_hash": "b8980b308111f4d719b33abcdfd4475cdb0511ce"
                }
            },
            "geometry": {
                "type": "Polygon",
                "coordinates": [
                    [
                        [
                            -118.19064361450938,
                            33.82033603003606
                        ],
                        [
                            -118.1894434673295,
                            33.8203428105286
                        ],
                        [
                            -118.1894434673295,
                            33.81965798078189
                        ],
                        [
                            -118.19063683401683,
                            33.81961729782664
                        ],
                        [
                            -118.19064361450938,
                            33.82033603003606
                        ]
                    ]
                ]
            }
        },
        {
            "type": "Feature",
            "properties": {
                "type": "observation",
                "score": 0.0,
                "observation_date": "2020-02-18",
                "source": null,
                "sensor_name": null,
                "current_phase": null,
                "is_occluded": null,
                "is_site_boundary": null
            },
            "geometry": {
                "type": "Polygon",
                "coordinates": [
                    [
                        [
                            -118.19064361450938,
                            33.82033603003606
                        ],
                        [
                            -118.1894434673295,
                            33.8203428105286
                        ],
                        [
                            -118.1894434673295,
                            33.81965798078189
                        ],
                        [
                            -118.19063683401683,
                            33.81961729782664
                        ],
                        [
                            -118.19064361450938,
                            33.82033603003606
                        ]
                    ]
                ]
            }
        },
        {
            "type": "Feature",
            "properties": {
                "type": "observation",
                "score": 0.0,
                "observation_date": "2022-02-17",
                "source": null,
                "sensor_name": null,
                "current_phase": null,
                "is_occluded": null,
                "is_site_boundary": null
            },
            "geometry": {
                "type": "Polygon",
                "coordinates": [
                    [
                        [
                            -118.19064361450938,
                            33.82033603003606
                        ],
                        [
                            -118.1894434673295,
                            33.8203428105286
                        ],
                        [
                            -118.1894434673295,
                            33.81965798078189
                        ],
                        [
                            -118.19063683401683,
                            33.81961729782664
                        ],
                        [
                            -118.19064361450938,
                            33.82033603003606
                        ]
                    ]
                ]
            }
        }
    ]
}