{
    "type": "FeatureCollection",
    "features": [
        {
            "type": "Feature",
            "properties": {
                "type": "site",
                "region_id": "US_C015",
                "version": "2.0.1",
                "mgrs": "11SLT",
                "start_date": "2021-05-23",
                "end_date": "2022-09-05",
                "site_id": "US_C015_0005",
                "status": "positive_pending",
                "originator": "iMERIT",
                "model_content": "annotation",
                "validated": "False",
                "score": 0.0,
                "misc_info": {
                    "commit_hash": "b8980b308111f4d719b33abcdfd4475cdb0511ce"
                }
            },
            "geometry": {
                "type": "Polygon",
                "coordinates": [
                    [
                        [
                            -118.4382818115374,
                            33.950612358434576
                        ],
                        [
                            -118.43561673211964,
                            33.950640016898305
                        ],
                        [
                            -118.43563161595416,
                            33.95195832532169
                        ],
                        [
                            -118.43794329068722,
                            33.95193652328343
                        ],
                        [
                            -118.43885369850325,
                            33.95157336691597
                        ],
                        [
                            -118.4382818115374,
                            33.950612358434576
                        ]
                    ]
                ]
            }
        },
        {
            "type": "Feature",
            "properties": {
                "type": "observation",
                "score": 0.0,
                "observation_date": "2021-05-23",
                "source": null,
                "sensor_name": null,
                "current_phase": null,
                "is_occluded": null,
                "is_site_boundary": null
            },
            "geometry": {
                "type": "Polygon",
                "coordinates": [
                    [
                        [
                            -118.4382818115374,
                            33.950612358434576
                        ],
                        [
                            -118.43561673211964,
                            33.950640016898305
                        ],
                        [
                            -118.43563161595416,
                            33.95195832532169
                        ],
                        [
                            -118.43794329068722,
                            33.95193652328343
                        ],
                        [
                            -118.43885369850325,
                            33.95157336691597
                        ],
                        [
                            -118.4382818115374,
                            33.950612358434576
                        ]
                    ]
                ]
            }
        },
        {
            "type": "Feature",
            "properties": {
                "type": "observation",
                "score": 0.0,
                "observation_date": "2022-09-05",
                "source": null,
                "sensor_name": null,
                "current_phase": null,
                "is_occluded": null,
                "is_site_boundary": null
            },
            "geometry": {
                "type": "Polygon",
                "coordinates": [
                    [
                        [
                            -118.4382818115374,
                            33.950612358434576
                        ],
                        [
                            -118.43561673211964,
                            33.950640016898305
                        ],
                        [
                            -118.43563161595416,
                            33.95195832532169
                        ],
                        [
                            -118.43794329068722,
                            33.95193652328343
                        ],
                        [
                            -118.43885369850325,
                            33.95157336691597
                        ],
                        [
                            -118.4382818115374,
                            33.950612358434576
                        ]
                    ]
                ]
            }
        }
    ]
}