{
    "type": "FeatureCollection",
    "features": [
        {
            "type": "Feature",
            "properties": {
                "type": "site",
                "region_id": "US_C015",
                "version": "2.0.0",
                "mgrs": "11SLT",
                "start_date": "2019-10-26",
                "end_date": "2021-01-18",
                "site_id": "US_C015_0114",
                "status": "positive_pending",
                "originator": "iMERIT",
                "model_content": "annotation",
                "validated": "False",
                "score": 0.0,
                "misc_info": {
                    "commit_hash": "b8980b308111f4d719b33abcdfd4475cdb0511ce"
                }
            },
            "geometry": {
                "type": "Polygon",
                "coordinates": [
                    [
                        [
                            -118.2889483254605,
                            33.82801663296271
                        ],
                        [
                            -118.28775495877316,
                            33.82803923460452
                        ],
                        [
                            -118.28774591811644,
                            33.827135168932294
                        ],
                        [
                            -118.28891216283361,
                            33.82712160794721
                        ],
                        [
                            -118.2889483254605,
                            33.82801663296271
                        ]
                    ]
                ]
            }
        },
        {
            "type": "Feature",
            "properties": {
                "type": "observation",
                "score": 0.0,
                "observation_date": "2019-10-26",
                "source": null,
                "sensor_name": null,
                "current_phase": null,
                "is_occluded": null,
                "is_site_boundary": null
            },
            "geometry": {
                "type": "Polygon",
                "coordinates": [
                    [
                        [
                            -118.2889483254605,
                            33.82801663296271
                        ],
                        [
                            -118.28775495877316,
                            33.82803923460452
                        ],
                        [
                            -118.28774591811644,
                            33.827135168932294
                        ],
                        [
                            -118.28891216283361,
                            33.82712160794721
                        ],
                        [
                            -118.2889483254605,
                            33.82801663296271
                        ]
                    ]
                ]
            }
        },
        {
            "type": "Feature",
            "properties": {
                "type": "observation",
                "score": 0.0,
                "observation_date": "2021-01-18",
                "source": null,
                "sensor_name": null,
                "current_phase": null,
                "is_occluded": null,
                "is_site_boundary": null
            },
            "geometry": {
                "type": "Polygon",
                "coordinates": [
                    [
                        [
                            -118.2889483254605,
                            33.82801663296271
                        ],
                        [
                            -118.28775495877316,
                            33.82803923460452
                        ],
                        [
                            -118.28774591811644,
                            33.827135168932294
                        ],
                        [
                            -118.28891216283361,
                            33.82712160794721
                        ],
                        [
                            -118.2889483254605,
                            33.82801663296271
                        ]
                    ]
                ]
            }
        }
    ]
}