{
    "type": "FeatureCollection",
    "features": [
        {
            "type": "Feature",
            "properties": {
                "type": "site",
                "region_id": "US_C015",
                "version": "2.0.0",
                "mgrs": "11SLT",
                "start_date": "2021-05-23",
                "end_date": null,
                "site_id": "US_C015_0056",
                "status": "positive_pending",
                "originator": "iMERIT",
                "model_content": "annotation",
                "validated": "False",
                "score": 0.0,
                "misc_info": {
                    "commit_hash": "b8980b308111f4d719b33abcdfd4475cdb0511ce"
                }
            },
            "geometry": {
                "type": "Polygon",
                "coordinates": [
                    [
                        [
                            -118.3868235708568,
                            33.91621290701532
                        ],
                        [
                            -118.3862479939243,
                            33.91572914078174
                        ],
                        [
                            -118.3858858784425,
                            33.91539836198197
                        ],
                        [
                            -118.3862072957052,
                            33.91514486886436
                        ],
                        [
                            -118.3865073289947,
                            33.91524125543655
                        ],
                        [
                            -118.3866698351665,
                            33.91528630741944
                        ],
                        [
                            -118.3867793946554,
                            33.91530920031332
                        ],
                        [
                            -118.3868912007952,
                            33.91532570230649
                        ],
                        [
                            -118.3869614660268,
                            33.91533400017008
                        ],
                        [
                            -118.3870531431571,
                            33.91533398831354
                        ],
                        [
                            -118.3871257398674,
                            33.91534231849779
                        ],
                        [
                            -118.3871770485918,
                            33.91535572382498
                        ],
                        [
                            -118.3872411095694,
                            33.91539304061377
                        ],
                        [
                            -118.3872660921315,
                            33.91617184448353
                        ],
                        [
                            -118.3868235708568,
                            33.91621290701532
                        ]
                    ]
                ]
            }
        },
        {
            "type": "Feature",
            "properties": {
                "type": "observation",
                "score": 0.0,
                "observation_date": "2021-05-23",
                "source": null,
                "sensor_name": null,
                "current_phase": null,
                "is_occluded": null,
                "is_site_boundary": null
            },
            "geometry": {
                "type": "Polygon",
                "coordinates": [
                    [
                        [
                            -118.3868235708568,
                            33.91621290701532
                        ],
                        [
                            -118.3862479939243,
                            33.91572914078174
                        ],
                        [
                            -118.3858858784425,
                            33.91539836198197
                        ],
                        [
                            -118.3862072957052,
                            33.91514486886436
                        ],
                        [
                            -118.3865073289947,
                            33.91524125543655
                        ],
                        [
                            -118.3866698351665,
                            33.91528630741944
                        ],
                        [
                            -118.3867793946554,
                            33.91530920031332
                        ],
                        [
                            -118.3868912007952,
                            33.91532570230649
                        ],
                        [
                            -118.3869614660268,
                            33.91533400017008
                        ],
                        [
                            -118.3870531431571,
                            33.91533398831354
                        ],
                        [
                            -118.3871257398674,
                            33.91534231849779
                        ],
                        [
                            -118.3871770485918,
                            33.91535572382498
                        ],
                        [
                            -118.3872411095694,
                            33.91539304061377
                        ],
                        [
                            -118.3872660921315,
                            33.91617184448353
                        ],
                        [
                            -118.3868235708568,
                            33.91621290701532
                        ]
                    ]
                ]
            }
        },
        {
            "type": "Feature",
            "properties": {
                "type": "observation",
                "score": 0.0,
                "observation_date": null,
                "source": null,
                "sensor_name": null,
                "current_phase": null,
                "is_occluded": null,
                "is_site_boundary": null
            },
            "geometry": {
                "type": "Polygon",
                "coordinates": [
                    [
                        [
                            -118.3868235708568,
                            33.91621290701532
                        ],
                        [
                            -118.3862479939243,
                            33.91572914078174
                        ],
                        [
                            -118.3858858784425,
                            33.91539836198197
                        ],
                        [
                            -118.3862072957052,
                            33.91514486886436
                        ],
                        [
                            -118.3865073289947,
                            33.91524125543655
                        ],
                        [
                            -118.3866698351665,
                            33.91528630741944
                        ],
                        [
                            -118.3867793946554,
                            33.91530920031332
                        ],
                        [
                            -118.3868912007952,
                            33.91532570230649
                        ],
                        [
                            -118.3869614660268,
                            33.91533400017008
                        ],
                        [
                            -118.3870531431571,
                            33.91533398831354
                        ],
                        [
                            -118.3871257398674,
                            33.91534231849779
                        ],
                        [
                            -118.3871770485918,
                            33.91535572382498
                        ],
                        [
                            -118.3872411095694,
                            33.91539304061377
                        ],
                        [
                            -118.3872660921315,
                            33.91617184448353
                        ],
                        [
                            -118.3868235708568,
                            33.91621290701532
                        ]
                    ]
                ]
            }
        }
    ]
}