{
    "type": "FeatureCollection",
    "features": [
        {
            "type": "Feature",
            "properties": {
                "type": "site",
                "region_id": "US_C015",
                "version": "2.0.0",
                "mgrs": "11SLT",
                "start_date": "2019-05-04",
                "end_date": "2020-04-23",
                "site_id": "US_C015_0050",
                "status": "positive_pending",
                "originator": "iMERIT",
                "model_content": "annotation",
                "validated": "False",
                "score": 0.0,
                "misc_info": {
                    "commit_hash": "b8980b308111f4d719b33abcdfd4475cdb0511ce"
                }
            },
            "geometry": {
                "type": "Polygon",
                "coordinates": [
                    [
                        [
                            -118.20861038103989,
                            34.00563763560961
                        ],
                        [
                            -118.20752818615499,
                            34.00564821154773
                        ],
                        [
                            -118.20751799470601,
                            34.00492707587771
                        ],
                        [
                            -118.20860013919844,
                            34.00491643104091
                        ],
                        [
                            -118.20861038103989,
                            34.00563763560961
                        ]
                    ]
                ]
            }
        },
        {
            "type": "Feature",
            "properties": {
                "type": "observation",
                "score": 0.0,
                "observation_date": "2019-05-04",
                "source": null,
                "sensor_name": null,
                "current_phase": null,
                "is_occluded": null,
                "is_site_boundary": null
            },
            "geometry": {
                "type": "Polygon",
                "coordinates": [
                    [
                        [
                            -118.20861038103989,
                            34.00563763560961
                        ],
                        [
                            -118.20752818615499,
                            34.00564821154773
                        ],
                        [
                            -118.20751799470601,
                            34.00492707587771
                        ],
                        [
                            -118.20860013919844,
                            34.00491643104091
                        ],
                        [
                            -118.20861038103989,
                            34.00563763560961
                        ]
                    ]
                ]
            }
        },
        {
            "type": "Feature",
            "properties": {
                "type": "observation",
                "score": 0.0,
                "observation_date": "2020-04-23",
                "source": null,
                "sensor_name": null,
                "current_phase": null,
                "is_occluded": null,
                "is_site_boundary": null
            },
            "geometry": {
                "type": "Polygon",
                "coordinates": [
                    [
                        [
                            -118.20861038103989,
                            34.00563763560961
                        ],
                        [
                            -118.20752818615499,
                            34.00564821154773
                        ],
                        [
                            -118.20751799470601,
                            34.00492707587771
                        ],
                        [
                            -118.20860013919844,
                            34.00491643104091
                        ],
                        [
                            -118.20861038103989,
                            34.00563763560961
                        ]
                    ]
                ]
            }
        }
    ]
}