{
    "type": "FeatureCollection",
    "features": [
        {
            "type": "Feature",
            "properties": {
                "type": "site",
                "region_id": "US_C015",
                "version": "2.0.0",
                "mgrs": "11SLT",
                "start_date": "2017-02-23",
                "end_date": "2018-12-25",
                "site_id": "US_C015_0197",
                "status": "positive_pending",
                "originator": "iMERIT",
                "model_content": "annotation",
                "validated": "False",
                "score": 0.0,
                "misc_info": {
                    "commit_hash": "b8980b308111f4d719b33abcdfd4475cdb0511ce"
                }
            },
            "geometry": {
                "type": "Polygon",
                "coordinates": [
                    [
                        [
                            -118.23760224211019,
                            34.05339011674163
                        ],
                        [
                            -118.23399888208587,
                            34.052914201266724
                        ],
                        [
                            -118.23416205310583,
                            34.05226151718684
                        ],
                        [
                            -118.23768382762017,
                            34.05275103024675
                        ],
                        [
                            -118.23760224211019,
                            34.05339011674163
                        ]
                    ]
                ]
            }
        },
        {
            "type": "Feature",
            "properties": {
                "type": "observation",
                "score": 0.0,
                "observation_date": "2017-02-23",
                "source": null,
                "sensor_name": null,
                "current_phase": null,
                "is_occluded": null,
                "is_site_boundary": null
            },
            "geometry": {
                "type": "Polygon",
                "coordinates": [
                    [
                        [
                            -118.23760224211019,
                            34.05339011674163
                        ],
                        [
                            -118.23399888208587,
                            34.052914201266724
                        ],
                        [
                            -118.23416205310583,
                            34.05226151718684
                        ],
                        [
                            -118.23768382762017,
                            34.05275103024675
                        ],
                        [
                            -118.23760224211019,
                            34.05339011674163
                        ]
                    ]
                ]
            }
        },
        {
            "type": "Feature",
            "properties": {
                "type": "observation",
                "score": 0.0,
                "observation_date": "2018-12-25",
                "source": null,
                "sensor_name": null,
                "current_phase": null,
                "is_occluded": null,
                "is_site_boundary": null
            },
            "geometry": {
                "type": "Polygon",
                "coordinates": [
                    [
                        [
                            -118.23760224211019,
                            34.05339011674163
                        ],
                        [
                            -118.23399888208587,
                            34.052914201266724
                        ],
                        [
                            -118.23416205310583,
                            34.05226151718684
                        ],
                        [
                            -118.23768382762017,
                            34.05275103024675
                        ],
                        [
                            -118.23760224211019,
                            34.05339011674163
                        ]
                    ]
                ]
            }
        }
    ]
}