{
    "type": "FeatureCollection",
    "features": [
        {
            "type": "Feature",
            "properties": {
                "type": "site",
                "region_id": "US_C015",
                "version": "2.0.0",
                "mgrs": "11SLT",
                "start_date": "2017-03-15",
                "end_date": "2017-12-30",
                "site_id": "US_C015_0080",
                "status": "positive_pending",
                "originator": "iMERIT",
                "model_content": "annotation",
                "validated": "False",
                "score": 0.0,
                "misc_info": {
                    "commit_hash": "b8980b308111f4d719b33abcdfd4475cdb0511ce"
                }
            },
            "geometry": {
                "type": "Polygon",
                "coordinates": [
                    [
                        [
                            -118.2651830794936,
                            33.88591216134112
                        ],
                        [
                            -118.2639450242673,
                            33.88593182782223
                        ],
                        [
                            -118.2638259464046,
                            33.88533220229784
                        ],
                        [
                            -118.265049998548,
                            33.88527924720846
                        ],
                        [
                            -118.2651830794936,
                            33.88591216134112
                        ]
                    ]
                ]
            }
        },
        {
            "type": "Feature",
            "properties": {
                "type": "observation",
                "score": 0.0,
                "observation_date": "2017-03-15",
                "source": null,
                "sensor_name": null,
                "current_phase": null,
                "is_occluded": null,
                "is_site_boundary": null
            },
            "geometry": {
                "type": "Polygon",
                "coordinates": [
                    [
                        [
                            -118.2651830794936,
                            33.88591216134112
                        ],
                        [
                            -118.2639450242673,
                            33.88593182782223
                        ],
                        [
                            -118.2638259464046,
                            33.88533220229784
                        ],
                        [
                            -118.265049998548,
                            33.88527924720846
                        ],
                        [
                            -118.2651830794936,
                            33.88591216134112
                        ]
                    ]
                ]
            }
        },
        {
            "type": "Feature",
            "properties": {
                "type": "observation",
                "score": 0.0,
                "observation_date": "2017-12-30",
                "source": null,
                "sensor_name": null,
                "current_phase": null,
                "is_occluded": null,
                "is_site_boundary": null
            },
            "geometry": {
                "type": "Polygon",
                "coordinates": [
                    [
                        [
                            -118.2651830794936,
                            33.88591216134112
                        ],
                        [
                            -118.2639450242673,
                            33.88593182782223
                        ],
                        [
                            -118.2638259464046,
                            33.88533220229784
                        ],
                        [
                            -118.265049998548,
                            33.88527924720846
                        ],
                        [
                            -118.2651830794936,
                            33.88591216134112
                        ]
                    ]
                ]
            }
        }
    ]
}