{
    "type": "FeatureCollection",
    "features": [
        {
            "type": "Feature",
            "properties": {
                "type": "site",
                "region_id": "US_C015",
                "version": "2.0.1",
                "mgrs": "11SLT",
                "start_date": "2021-05-03",
                "end_date": "2022-11-04",
                "site_id": "US_C015_0110",
                "status": "positive_pending",
                "originator": "iMERIT",
                "model_content": "annotation",
                "validated": "False",
                "score": 0.0,
                "misc_info": {
                    "commit_hash": "b8980b308111f4d719b33abcdfd4475cdb0511ce"
                }
            },
            "geometry": {
                "type": "Polygon",
                "coordinates": [
                    [
                        [
                            -118.29525810318586,
                            33.85416366262138
                        ],
                        [
                            -118.29527166417094,
                            33.85151022987342
                        ],
                        [
                            -118.2968696002466,
                            33.85148988839579
                        ],
                        [
                            -118.29684247827645,
                            33.85417722360647
                        ],
                        [
                            -118.29525810318586,
                            33.85416366262138
                        ]
                    ]
                ]
            }
        },
        {
            "type": "Feature",
            "properties": {
                "type": "observation",
                "score": 0.0,
                "observation_date": "2021-05-03",
                "source": null,
                "sensor_name": null,
                "current_phase": null,
                "is_occluded": null,
                "is_site_boundary": null
            },
            "geometry": {
                "type": "Polygon",
                "coordinates": [
                    [
                        [
                            -118.29525810318586,
                            33.85416366262138
                        ],
                        [
                            -118.29527166417094,
                            33.85151022987342
                        ],
                        [
                            -118.2968696002466,
                            33.85148988839579
                        ],
                        [
                            -118.29684247827645,
                            33.85417722360647
                        ],
                        [
                            -118.29525810318586,
                            33.85416366262138
                        ]
                    ]
                ]
            }
        },
        {
            "type": "Feature",
            "properties": {
                "type": "observation",
                "score": 0.0,
                "observation_date": "2022-11-04",
                "source": null,
                "sensor_name": null,
                "current_phase": null,
                "is_occluded": null,
                "is_site_boundary": null
            },
            "geometry": {
                "type": "Polygon",
                "coordinates": [
                    [
                        [
                            -118.29525810318586,
                            33.85416366262138
                        ],
                        [
                            -118.29527166417094,
                            33.85151022987342
                        ],
                        [
                            -118.2968696002466,
                            33.85148988839579
                        ],
                        [
                            -118.29684247827645,
                            33.85417722360647
                        ],
                        [
                            -118.29525810318586,
                            33.85416366262138
                        ]
                    ]
                ]
            }
        }
    ]
}