{
    "type": "FeatureCollection",
    "features": [
        {
            "type": "Feature",
            "properties": {
                "type": "site",
                "region_id": "US_C015",
                "version": "2.0.0",
                "mgrs": "11SLT",
                "start_date": "2018-09-26",
                "end_date": null,
                "site_id": "US_C015_0179",
                "status": "positive_pending",
                "originator": "iMERIT",
                "model_content": "annotation",
                "validated": "False",
                "score": 0.0,
                "misc_info": {
                    "commit_hash": "b8980b308111f4d719b33abcdfd4475cdb0511ce"
                }
            },
            "geometry": {
                "type": "Polygon",
                "coordinates": [
                    [
                        [
                            -118.26640065236161,
                            34.037858700202776
                        ],
                        [
                            -118.26520406488183,
                            34.037477967822845
                        ],
                        [
                            -118.26584995016921,
                            34.03643775257054
                        ],
                        [
                            -118.26701254368649,
                            34.036920466837955
                        ],
                        [
                            -118.26640065236161,
                            34.037858700202776
                        ]
                    ]
                ]
            }
        },
        {
            "type": "Feature",
            "properties": {
                "type": "observation",
                "score": 0.0,
                "observation_date": "2018-09-26",
                "source": null,
                "sensor_name": null,
                "current_phase": null,
                "is_occluded": null,
                "is_site_boundary": null
            },
            "geometry": {
                "type": "Polygon",
                "coordinates": [
                    [
                        [
                            -118.26640065236161,
                            34.037858700202776
                        ],
                        [
                            -118.26520406488183,
                            34.037477967822845
                        ],
                        [
                            -118.26584995016921,
                            34.03643775257054
                        ],
                        [
                            -118.26701254368649,
                            34.036920466837955
                        ],
                        [
                            -118.26640065236161,
                            34.037858700202776
                        ]
                    ]
                ]
            }
        },
        {
            "type": "Feature",
            "properties": {
                "type": "observation",
                "score": 0.0,
                "observation_date": null,
                "source": null,
                "sensor_name": null,
                "current_phase": null,
                "is_occluded": null,
                "is_site_boundary": null
            },
            "geometry": {
                "type": "Polygon",
                "coordinates": [
                    [
                        [
                            -118.26640065236161,
                            34.037858700202776
                        ],
                        [
                            -118.26520406488183,
                            34.037477967822845
                        ],
                        [
                            -118.26584995016921,
                            34.03643775257054
                        ],
                        [
                            -118.26701254368649,
                            34.036920466837955
                        ],
                        [
                            -118.26640065236161,
                            34.037858700202776
                        ]
                    ]
                ]
            }
        }
    ]
}