{
    "type": "FeatureCollection",
    "features": [
        {
            "type": "Feature",
            "properties": {
                "type": "site",
                "region_id": "US_C015",
                "version": "2.0.1",
                "mgrs": "11SLT",
                "start_date": "2019-10-31",
                "end_date": "2022-02-02",
                "site_id": "US_C015_0033",
                "status": "positive_pending",
                "originator": "iMERIT",
                "model_content": "annotation",
                "validated": "False",
                "score": 0.0,
                "misc_info": {
                    "commit_hash": "b8980b308111f4d719b33abcdfd4475cdb0511ce"
                }
            },
            "geometry": {
                "type": "Polygon",
                "coordinates": [
                    [
                        [
                            -118.3532178606344,
                            33.96545611562623
                        ],
                        [
                            -118.35320371519263,
                            33.964554809150826
                        ],
                        [
                            -118.35212211068827,
                            33.964566725289224
                        ],
                        [
                            -118.3521419530144,
                            33.96582870101597
                        ],
                        [
                            -118.35246656171883,
                            33.96582524250477
                        ],
                        [
                            -118.3532178606344,
                            33.96545611562623
                        ]
                    ]
                ]
            }
        },
        {
            "type": "Feature",
            "properties": {
                "type": "observation",
                "score": 0.0,
                "observation_date": "2019-10-31",
                "source": null,
                "sensor_name": null,
                "current_phase": null,
                "is_occluded": null,
                "is_site_boundary": null
            },
            "geometry": {
                "type": "Polygon",
                "coordinates": [
                    [
                        [
                            -118.3532178606344,
                            33.96545611562623
                        ],
                        [
                            -118.35320371519263,
                            33.964554809150826
                        ],
                        [
                            -118.35212211068827,
                            33.964566725289224
                        ],
                        [
                            -118.3521419530144,
                            33.96582870101597
                        ],
                        [
                            -118.35246656171883,
                            33.96582524250477
                        ],
                        [
                            -118.3532178606344,
                            33.96545611562623
                        ]
                    ]
                ]
            }
        },
        {
            "type": "Feature",
            "properties": {
                "type": "observation",
                "score": 0.0,
                "observation_date": "2022-02-02",
                "source": null,
                "sensor_name": null,
                "current_phase": null,
                "is_occluded": null,
                "is_site_boundary": null
            },
            "geometry": {
                "type": "Polygon",
                "coordinates": [
                    [
                        [
                            -118.3532178606344,
                            33.96545611562623
                        ],
                        [
                            -118.35320371519263,
                            33.964554809150826
                        ],
                        [
                            -118.35212211068827,
                            33.964566725289224
                        ],
                        [
                            -118.3521419530144,
                            33.96582870101597
                        ],
                        [
                            -118.35246656171883,
                            33.96582524250477
                        ],
                        [
                            -118.3532178606344,
                            33.96545611562623
                        ]
                    ]
                ]
            }
        }
    ]
}