{
    "type": "FeatureCollection",
    "features": [
        {
            "type": "Feature",
            "properties": {
                "type": "site",
                "region_id": "US_C015",
                "version": "2.0.0",
                "mgrs": "11SLT",
                "start_date": "2017-02-23",
                "end_date": "2017-11-30",
                "site_id": "US_C015_0032",
                "status": "positive_pending",
                "originator": "iMERIT",
                "model_content": "annotation",
                "validated": "False",
                "score": 0.0,
                "misc_info": {
                    "commit_hash": "b8980b308111f4d719b33abcdfd4475cdb0511ce"
                }
            },
            "geometry": {
                "type": "Polygon",
                "coordinates": [
                    [
                        [
                            -118.36098857205756,
                            33.971140825241
                        ],
                        [
                            -118.36097236903149,
                            33.97005840445037
                        ],
                        [
                            -118.35901849824641,
                            33.96916522379261
                        ],
                        [
                            -118.35887313082775,
                            33.9692120462485
                        ],
                        [
                            -118.3588595139913,
                            33.970193058869434
                        ],
                        [
                            -118.35925792129807,
                            33.971159520452005
                        ],
                        [
                            -118.36098857205756,
                            33.971140825241
                        ]
                    ]
                ]
            }
        },
        {
            "type": "Feature",
            "properties": {
                "type": "observation",
                "score": 0.0,
                "observation_date": "2017-02-23",
                "source": null,
                "sensor_name": null,
                "current_phase": null,
                "is_occluded": null,
                "is_site_boundary": null
            },
            "geometry": {
                "type": "Polygon",
                "coordinates": [
                    [
                        [
                            -118.36098857205756,
                            33.971140825241
                        ],
                        [
                            -118.36097236903149,
                            33.97005840445037
                        ],
                        [
                            -118.35901849824641,
                            33.96916522379261
                        ],
                        [
                            -118.35887313082775,
                            33.9692120462485
                        ],
                        [
                            -118.3588595139913,
                            33.970193058869434
                        ],
                        [
                            -118.35925792129807,
                            33.971159520452005
                        ],
                        [
                            -118.36098857205756,
                            33.971140825241
                        ]
                    ]
                ]
            }
        },
        {
            "type": "Feature",
            "properties": {
                "type": "observation",
                "score": 0.0,
                "observation_date": "2017-11-30",
                "source": null,
                "sensor_name": null,
                "current_phase": null,
                "is_occluded": null,
                "is_site_boundary": null
            },
            "geometry": {
                "type": "Polygon",
                "coordinates": [
                    [
                        [
                            -118.36098857205756,
                            33.971140825241
                        ],
                        [
                            -118.36097236903149,
                            33.97005840445037
                        ],
                        [
                            -118.35901849824641,
                            33.96916522379261
                        ],
                        [
                            -118.35887313082775,
                            33.9692120462485
                        ],
                        [
                            -118.3588595139913,
                            33.970193058869434
                        ],
                        [
                            -118.35925792129807,
                            33.971159520452005
                        ],
                        [
                            -118.36098857205756,
                            33.971140825241
                        ]
                    ]
                ]
            }
        }
    ]
}