{
    "type": "FeatureCollection",
    "features": [
        {
            "type": "Feature",
            "properties": {
                "type": "site",
                "region_id": "US_C015",
                "version": "2.0.0",
                "mgrs": "11SLT",
                "start_date": "2017-10-01",
                "end_date": "2019-04-24",
                "site_id": "US_C015_0203",
                "status": "positive_pending",
                "originator": "iMERIT",
                "model_content": "annotation",
                "validated": "False",
                "score": 0.0,
                "misc_info": {
                    "commit_hash": "b8980b308111f4d719b33abcdfd4475cdb0511ce"
                }
            },
            "geometry": {
                "type": "Polygon",
                "coordinates": [
                    [
                        [
                            -118.20648416884349,
                            34.0743694906945
                        ],
                        [
                            -118.20528758136372,
                            34.07439668586449
                        ],
                        [
                            -118.20528758136372,
                            34.07398195952207
                        ],
                        [
                            -118.20647057125849,
                            34.07396156314457
                        ],
                        [
                            -118.20648416884349,
                            34.0743694906945
                        ]
                    ]
                ]
            }
        },
        {
            "type": "Feature",
            "properties": {
                "type": "observation",
                "score": 0.0,
                "observation_date": "2017-10-01",
                "source": null,
                "sensor_name": null,
                "current_phase": null,
                "is_occluded": null,
                "is_site_boundary": null
            },
            "geometry": {
                "type": "Polygon",
                "coordinates": [
                    [
                        [
                            -118.20648416884349,
                            34.0743694906945
                        ],
                        [
                            -118.20528758136372,
                            34.07439668586449
                        ],
                        [
                            -118.20528758136372,
                            34.07398195952207
                        ],
                        [
                            -118.20647057125849,
                            34.07396156314457
                        ],
                        [
                            -118.20648416884349,
                            34.0743694906945
                        ]
                    ]
                ]
            }
        },
        {
            "type": "Feature",
            "properties": {
                "type": "observation",
                "score": 0.0,
                "observation_date": "2019-04-24",
                "source": null,
                "sensor_name": null,
                "current_phase": null,
                "is_occluded": null,
                "is_site_boundary": null
            },
            "geometry": {
                "type": "Polygon",
                "coordinates": [
                    [
                        [
                            -118.20648416884349,
                            34.0743694906945
                        ],
                        [
                            -118.20528758136372,
                            34.07439668586449
                        ],
                        [
                            -118.20528758136372,
                            34.07398195952207
                        ],
                        [
                            -118.20647057125849,
                            34.07396156314457
                        ],
                        [
                            -118.20648416884349,
                            34.0743694906945
                        ]
                    ]
                ]
            }
        }
    ]
}