{
    "type": "FeatureCollection",
    "features": [
        {
            "type": "Feature",
            "properties": {
                "type": "site",
                "region_id": "US_C015",
                "version": "2.0.1",
                "mgrs": "11SLT",
                "start_date": "2021-03-19",
                "end_date": "2023-08-16",
                "site_id": "US_C015_0041",
                "status": "positive_pending",
                "originator": "iMERIT",
                "model_content": "annotation",
                "validated": "False",
                "score": 0.0,
                "misc_info": {
                    "commit_hash": "b8980b308111f4d719b33abcdfd4475cdb0511ce"
                }
            },
            "geometry": {
                "type": "Polygon",
                "coordinates": [
                    [
                        [
                            -118.27379671311768,
                            33.97874494948325
                        ],
                        [
                            -118.27378461335707,
                            33.97793379431414
                        ],
                        [
                            -118.27281098280362,
                            33.97794391094187
                        ],
                        [
                            -118.27282313956103,
                            33.97875513366678
                        ],
                        [
                            -118.27379671311768,
                            33.97874494948325
                        ]
                    ]
                ]
            }
        },
        {
            "type": "Feature",
            "properties": {
                "type": "observation",
                "score": 0.0,
                "observation_date": "2021-03-19",
                "source": null,
                "sensor_name": null,
                "current_phase": null,
                "is_occluded": null,
                "is_site_boundary": null
            },
            "geometry": {
                "type": "Polygon",
                "coordinates": [
                    [
                        [
                            -118.27379671311768,
                            33.97874494948325
                        ],
                        [
                            -118.27378461335707,
                            33.97793379431414
                        ],
                        [
                            -118.27281098280362,
                            33.97794391094187
                        ],
                        [
                            -118.27282313956103,
                            33.97875513366678
                        ],
                        [
                            -118.27379671311768,
                            33.97874494948325
                        ]
                    ]
                ]
            }
        },
        {
            "type": "Feature",
            "properties": {
                "type": "observation",
                "score": 0.0,
                "observation_date": "2023-08-16",
                "source": null,
                "sensor_name": null,
                "current_phase": null,
                "is_occluded": null,
                "is_site_boundary": null
            },
            "geometry": {
                "type": "Polygon",
                "coordinates": [
                    [
                        [
                            -118.27379671311768,
                            33.97874494948325
                        ],
                        [
                            -118.27378461335707,
                            33.97793379431414
                        ],
                        [
                            -118.27281098280362,
                            33.97794391094187
                        ],
                        [
                            -118.27282313956103,
                            33.97875513366678
                        ],
                        [
                            -118.27379671311768,
                            33.97874494948325
                        ]
                    ]
                ]
            }
        }
    ]
}