{
    "type": "FeatureCollection",
    "features": [
        {
            "type": "Feature",
            "properties": {
                "type": "site",
                "region_id": "US_C015",
                "version": "2.0.1",
                "mgrs": "11SLT",
                "start_date": "2021-05-18",
                "end_date": "2023-04-28",
                "site_id": "US_C015_0048",
                "status": "positive_pending",
                "originator": "iMERIT",
                "model_content": "annotation",
                "validated": "False",
                "score": 0.0,
                "misc_info": {
                    "commit_hash": "b8980b308111f4d719b33abcdfd4475cdb0511ce"
                }
            },
            "geometry": {
                "type": "Polygon",
                "coordinates": [
                    [
                        [
                            -118.21781417144196,
                            33.990761561337365
                        ],
                        [
                            -118.21608599546211,
                            33.9907777718127
                        ],
                        [
                            -118.21606689313458,
                            33.98942566387179
                        ],
                        [
                            -118.21779510726556,
                            33.98940953410274
                        ],
                        [
                            -118.21781417144196,
                            33.990761561337365
                        ]
                    ]
                ]
            }
        },
        {
            "type": "Feature",
            "properties": {
                "type": "observation",
                "score": 0.0,
                "observation_date": "2021-05-18",
                "source": null,
                "sensor_name": null,
                "current_phase": null,
                "is_occluded": null,
                "is_site_boundary": null
            },
            "geometry": {
                "type": "Polygon",
                "coordinates": [
                    [
                        [
                            -118.21781417144196,
                            33.990761561337365
                        ],
                        [
                            -118.21608599546211,
                            33.9907777718127
                        ],
                        [
                            -118.21606689313458,
                            33.98942566387179
                        ],
                        [
                            -118.21779510726556,
                            33.98940953410274
                        ],
                        [
                            -118.21781417144196,
                            33.990761561337365
                        ]
                    ]
                ]
            }
        },
        {
            "type": "Feature",
            "properties": {
                "type": "observation",
                "score": 0.0,
                "observation_date": "2023-04-28",
                "source": null,
                "sensor_name": null,
                "current_phase": null,
                "is_occluded": null,
                "is_site_boundary": null
            },
            "geometry": {
                "type": "Polygon",
                "coordinates": [
                    [
                        [
                            -118.21781417144196,
                            33.990761561337365
                        ],
                        [
                            -118.21608599546211,
                            33.9907777718127
                        ],
                        [
                            -118.21606689313458,
                            33.98942566387179
                        ],
                        [
                            -118.21779510726556,
                            33.98940953410274
                        ],
                        [
                            -118.21781417144196,
                            33.990761561337365
                        ]
                    ]
                ]
            }
        }
    ]
}