{
    "type": "FeatureCollection",
    "features": [
        {
            "type": "Feature",
            "properties": {
                "type": "site",
                "region_id": "US_C015",
                "version": "2.0.0",
                "mgrs": "11SLT",
                "start_date": "2021-05-08",
                "end_date": "2021-10-10",
                "site_id": "US_C015_0103",
                "status": "positive_pending",
                "originator": "iMERIT",
                "model_content": "annotation",
                "validated": "False",
                "score": 0.0,
                "misc_info": {
                    "commit_hash": "b8980b308111f4d719b33abcdfd4475cdb0511ce"
                }
            },
            "geometry": {
                "type": "Polygon",
                "coordinates": [
                    [
                        [
                            -118.34557405366034,
                            33.782435704393095
                        ],
                        [
                            -118.34452448835317,
                            33.78287362646954
                        ],
                        [
                            -118.34449553482746,
                            33.782280079192375
                        ],
                        [
                            -118.34557043446964,
                            33.78187834902308
                        ],
                        [
                            -118.34557405366034,
                            33.782435704393095
                        ]
                    ]
                ]
            }
        },
        {
            "type": "Feature",
            "properties": {
                "type": "observation",
                "score": 0.0,
                "observation_date": "2021-05-08",
                "source": null,
                "sensor_name": null,
                "current_phase": null,
                "is_occluded": null,
                "is_site_boundary": null
            },
            "geometry": {
                "type": "Polygon",
                "coordinates": [
                    [
                        [
                            -118.34557405366034,
                            33.782435704393095
                        ],
                        [
                            -118.34452448835317,
                            33.78287362646954
                        ],
                        [
                            -118.34449553482746,
                            33.782280079192375
                        ],
                        [
                            -118.34557043446964,
                            33.78187834902308
                        ],
                        [
                            -118.34557405366034,
                            33.782435704393095
                        ]
                    ]
                ]
            }
        },
        {
            "type": "Feature",
            "properties": {
                "type": "observation",
                "score": 0.0,
                "observation_date": "2021-10-10",
                "source": null,
                "sensor_name": null,
                "current_phase": null,
                "is_occluded": null,
                "is_site_boundary": null
            },
            "geometry": {
                "type": "Polygon",
                "coordinates": [
                    [
                        [
                            -118.34557405366034,
                            33.782435704393095
                        ],
                        [
                            -118.34452448835317,
                            33.78287362646954
                        ],
                        [
                            -118.34449553482746,
                            33.782280079192375
                        ],
                        [
                            -118.34557043446964,
                            33.78187834902308
                        ],
                        [
                            -118.34557405366034,
                            33.782435704393095
                        ]
                    ]
                ]
            }
        }
    ]
}