{
    "type": "FeatureCollection",
    "features": [
        {
            "type": "Feature",
            "properties": {
                "type": "site",
                "region_id": "US_C015",
                "version": "2.0.1",
                "mgrs": "11SLT",
                "start_date": "2014-04-24",
                "end_date": "2017-11-30",
                "site_id": "US_C015_0180",
                "status": "positive_pending",
                "originator": "iMERIT",
                "model_content": "annotation",
                "validated": "False",
                "score": 0.0,
                "misc_info": {
                    "commit_hash": "b8980b308111f4d719b33abcdfd4475cdb0511ce"
                }
            },
            "geometry": {
                "type": "Polygon",
                "coordinates": [
                    [
                        [
                            -118.26550321175175,
                            34.047825730005904
                        ],
                        [
                            -118.26357235468211,
                            34.04910390299567
                        ],
                        [
                            -118.26266811527978,
                            34.048641585105756
                        ],
                        [
                            -118.26427942910198,
                            34.046989478528566
                        ],
                        [
                            -118.26550321175175,
                            34.047825730005904
                        ]
                    ]
                ]
            }
        },
        {
            "type": "Feature",
            "properties": {
                "type": "observation",
                "score": 0.0,
                "observation_date": "2014-04-24",
                "source": null,
                "sensor_name": null,
                "current_phase": null,
                "is_occluded": null,
                "is_site_boundary": null
            },
            "geometry": {
                "type": "Polygon",
                "coordinates": [
                    [
                        [
                            -118.26550321175175,
                            34.047825730005904
                        ],
                        [
                            -118.26357235468211,
                            34.04910390299567
                        ],
                        [
                            -118.26266811527978,
                            34.048641585105756
                        ],
                        [
                            -118.26427942910198,
                            34.046989478528566
                        ],
                        [
                            -118.26550321175175,
                            34.047825730005904
                        ]
                    ]
                ]
            }
        },
        {
            "type": "Feature",
            "properties": {
                "type": "observation",
                "score": 0.0,
                "observation_date": "2017-11-30",
                "source": null,
                "sensor_name": null,
                "current_phase": null,
                "is_occluded": null,
                "is_site_boundary": null
            },
            "geometry": {
                "type": "Polygon",
                "coordinates": [
                    [
                        [
                            -118.26550321175175,
                            34.047825730005904
                        ],
                        [
                            -118.26357235468211,
                            34.04910390299567
                        ],
                        [
                            -118.26266811527978,
                            34.048641585105756
                        ],
                        [
                            -118.26427942910198,
                            34.046989478528566
                        ],
                        [
                            -118.26550321175175,
                            34.047825730005904
                        ]
                    ]
                ]
            }
        }
    ]
}