{
    "type": "FeatureCollection",
    "features": [
        {
            "type": "Feature",
            "properties": {
                "type": "site",
                "region_id": "US_C015",
                "version": "2.0.1",
                "mgrs": "11SLT",
                "start_date": "2018-07-28",
                "end_date": "2023-04-28",
                "site_id": "US_C015_0201",
                "status": "positive_pending",
                "originator": "iMERIT",
                "model_content": "annotation",
                "validated": "False",
                "score": 0.0,
                "misc_info": {
                    "commit_hash": "b8980b308111f4d719b33abcdfd4475cdb0511ce"
                }
            },
            "geometry": {
                "type": "Polygon",
                "coordinates": [
                    [
                        [
                            -118.20999234577283,
                            34.03957667008229
                        ],
                        [
                            -118.20896572810551,
                            34.039155144947365
                        ],
                        [
                            -118.21099176827013,
                            34.03633364606039
                        ],
                        [
                            -118.21159006201003,
                            34.036619195345345
                        ],
                        [
                            -118.21039639785464,
                            34.038303364414595
                        ],
                        [
                            -118.21071518788091,
                            34.03849312038261
                        ],
                        [
                            -118.20999234577283,
                            34.03957667008229
                        ]
                    ]
                ]
            }
        },
        {
            "type": "Feature",
            "properties": {
                "type": "observation",
                "score": 0.0,
                "observation_date": "2018-07-28",
                "source": null,
                "sensor_name": null,
                "current_phase": null,
                "is_occluded": null,
                "is_site_boundary": null
            },
            "geometry": {
                "type": "Polygon",
                "coordinates": [
                    [
                        [
                            -118.20999234577283,
                            34.03957667008229
                        ],
                        [
                            -118.20896572810551,
                            34.039155144947365
                        ],
                        [
                            -118.21099176827013,
                            34.03633364606039
                        ],
                        [
                            -118.21159006201003,
                            34.036619195345345
                        ],
                        [
                            -118.21039639785464,
                            34.038303364414595
                        ],
                        [
                            -118.21071518788091,
                            34.03849312038261
                        ],
                        [
                            -118.20999234577283,
                            34.03957667008229
                        ]
                    ]
                ]
            }
        },
        {
            "type": "Feature",
            "properties": {
                "type": "observation",
                "score": 0.0,
                "observation_date": "2023-04-28",
                "source": null,
                "sensor_name": null,
                "current_phase": null,
                "is_occluded": null,
                "is_site_boundary": null
            },
            "geometry": {
                "type": "Polygon",
                "coordinates": [
                    [
                        [
                            -118.20999234577283,
                            34.03957667008229
                        ],
                        [
                            -118.20896572810551,
                            34.039155144947365
                        ],
                        [
                            -118.21099176827013,
                            34.03633364606039
                        ],
                        [
                            -118.21159006201003,
                            34.036619195345345
                        ],
                        [
                            -118.21039639785464,
                            34.038303364414595
                        ],
                        [
                            -118.21071518788091,
                            34.03849312038261
                        ],
                        [
                            -118.20999234577283,
                            34.03957667008229
                        ]
                    ]
                ]
            }
        }
    ]
}