{
    "type": "FeatureCollection",
    "features": [
        {
            "type": "Feature",
            "properties": {
                "type": "site",
                "region_id": "US_C015",
                "version": "2.0.1",
                "mgrs": "11SLT",
                "start_date": "2019-10-26",
                "end_date": "2022-09-25",
                "site_id": "US_C015_0054",
                "status": "positive_pending",
                "originator": "iMERIT",
                "model_content": "annotation",
                "validated": "False",
                "score": 0.0,
                "misc_info": {
                    "commit_hash": "b8980b308111f4d719b33abcdfd4475cdb0511ce"
                }
            },
            "geometry": {
                "type": "Polygon",
                "coordinates": [
                    [
                        [
                            -118.3905092207679,
                            33.91531290552108
                        ],
                        [
                            -118.3906525362752,
                            33.9153748369429
                        ],
                        [
                            -118.3907218502896,
                            33.91549566836903
                        ],
                        [
                            -118.3907563825709,
                            33.91562874666064
                        ],
                        [
                            -118.3907566532672,
                            33.91583099575995
                        ],
                        [
                            -118.3907206671592,
                            33.91609274903882
                        ],
                        [
                            -118.3906847986669,
                            33.91617869941935
                        ],
                        [
                            -118.3906258443544,
                            33.91621665364844
                        ],
                        [
                            -118.3904899620589,
                            33.91620581685136
                        ],
                        [
                            -118.387864562099,
                            33.91619546539561
                        ],
                        [
                            -118.3876887581776,
                            33.91617926120888
                        ],
                        [
                            -118.3875752842583,
                            33.91612543508594
                        ],
                        [
                            -118.3875616902314,
                            33.9160613775519
                        ],
                        [
                            -118.3875161889921,
                            33.91549131660948
                        ],
                        [
                            -118.3875825692785,
                            33.91539931896395
                        ],
                        [
                            -118.3876703570801,
                            33.91532284698638
                        ],
                        [
                            -118.3878122803547,
                            33.91529911739642
                        ],
                        [
                            -118.3905092207679,
                            33.91531290552108
                        ]
                    ]
                ]
            }
        },
        {
            "type": "Feature",
            "properties": {
                "type": "observation",
                "score": 0.0,
                "observation_date": "2019-10-26",
                "source": null,
                "sensor_name": null,
                "current_phase": null,
                "is_occluded": null,
                "is_site_boundary": null
            },
            "geometry": {
                "type": "Polygon",
                "coordinates": [
                    [
                        [
                            -118.3905092207679,
                            33.91531290552108
                        ],
                        [
                            -118.3906525362752,
                            33.9153748369429
                        ],
                        [
                            -118.3907218502896,
                            33.91549566836903
                        ],
                        [
                            -118.3907563825709,
                            33.91562874666064
                        ],
                        [
                            -118.3907566532672,
                            33.91583099575995
                        ],
                        [
                            -118.3907206671592,
                            33.91609274903882
                        ],
                        [
                            -118.3906847986669,
                            33.91617869941935
                        ],
                        [
                            -118.3906258443544,
                            33.91621665364844
                        ],
                        [
                            -118.3904899620589,
                            33.91620581685136
                        ],
                        [
                            -118.387864562099,
                            33.91619546539561
                        ],
                        [
                            -118.3876887581776,
                            33.91617926120888
                        ],
                        [
                            -118.3875752842583,
                            33.91612543508594
                        ],
                        [
                            -118.3875616902314,
                            33.9160613775519
                        ],
                        [
                            -118.3875161889921,
                            33.91549131660948
                        ],
                        [
                            -118.3875825692785,
                            33.91539931896395
                        ],
                        [
                            -118.3876703570801,
                            33.91532284698638
                        ],
                        [
                            -118.3878122803547,
                            33.91529911739642
                        ],
                        [
                            -118.3905092207679,
                            33.91531290552108
                        ]
                    ]
                ]
            }
        },
        {
            "type": "Feature",
            "properties": {
                "type": "observation",
                "score": 0.0,
                "observation_date": "2022-09-25",
                "source": null,
                "sensor_name": null,
                "current_phase": null,
                "is_occluded": null,
                "is_site_boundary": null
            },
            "geometry": {
                "type": "Polygon",
                "coordinates": [
                    [
                        [
                            -118.3905092207679,
                            33.91531290552108
                        ],
                        [
                            -118.3906525362752,
                            33.9153748369429
                        ],
                        [
                            -118.3907218502896,
                            33.91549566836903
                        ],
                        [
                            -118.3907563825709,
                            33.91562874666064
                        ],
                        [
                            -118.3907566532672,
                            33.91583099575995
                        ],
                        [
                            -118.3907206671592,
                            33.91609274903882
                        ],
                        [
                            -118.3906847986669,
                            33.91617869941935
                        ],
                        [
                            -118.3906258443544,
                            33.91621665364844
                        ],
                        [
                            -118.3904899620589,
                            33.91620581685136
                        ],
                        [
                            -118.387864562099,
                            33.91619546539561
                        ],
                        [
                            -118.3876887581776,
                            33.91617926120888
                        ],
                        [
                            -118.3875752842583,
                            33.91612543508594
                        ],
                        [
                            -118.3875616902314,
                            33.9160613775519
                        ],
                        [
                            -118.3875161889921,
                            33.91549131660948
                        ],
                        [
                            -118.3875825692785,
                            33.91539931896395
                        ],
                        [
                            -118.3876703570801,
                            33.91532284698638
                        ],
                        [
                            -118.3878122803547,
                            33.91529911739642
                        ],
                        [
                            -118.3905092207679,
                            33.91531290552108
                        ]
                    ]
                ]
            }
        }
    ]
}