{
    "type": "FeatureCollection",
    "features": [
        {
            "type": "Feature",
            "properties": {
                "type": "site",
                "region_id": "US_C015",
                "version": "2.0.1",
                "mgrs": "11SLT",
                "start_date": "2016-02-03",
                "end_date": "2017-08-12",
                "site_id": "US_C015_0184",
                "status": "positive_pending",
                "originator": "iMERIT",
                "model_content": "annotation",
                "validated": "False",
                "score": 0.0,
                "misc_info": {
                    "commit_hash": "b8980b308111f4d719b33abcdfd4475cdb0511ce"
                }
            },
            "geometry": {
                "type": "Polygon",
                "coordinates": [
                    [
                        [
                            -118.26307843327284,
                            34.04015149227194
                        ],
                        [
                            -118.26235776126798,
                            34.04101493891928
                        ],
                        [
                            -118.26188184579307,
                            34.040736188426834
                        ],
                        [
                            -118.26259571900543,
                            34.039838747817
                        ],
                        [
                            -118.26307843327284,
                            34.04015149227194
                        ]
                    ]
                ]
            }
        },
        {
            "type": "Feature",
            "properties": {
                "type": "observation",
                "score": 0.0,
                "observation_date": "2016-02-03",
                "source": null,
                "sensor_name": null,
                "current_phase": null,
                "is_occluded": null,
                "is_site_boundary": null
            },
            "geometry": {
                "type": "Polygon",
                "coordinates": [
                    [
                        [
                            -118.26307843327284,
                            34.04015149227194
                        ],
                        [
                            -118.26235776126798,
                            34.04101493891928
                        ],
                        [
                            -118.26188184579307,
                            34.040736188426834
                        ],
                        [
                            -118.26259571900543,
                            34.039838747817
                        ],
                        [
                            -118.26307843327284,
                            34.04015149227194
                        ]
                    ]
                ]
            }
        },
        {
            "type": "Feature",
            "properties": {
                "type": "observation",
                "score": 0.0,
                "observation_date": "2017-08-12",
                "source": null,
                "sensor_name": null,
                "current_phase": null,
                "is_occluded": null,
                "is_site_boundary": null
            },
            "geometry": {
                "type": "Polygon",
                "coordinates": [
                    [
                        [
                            -118.26307843327284,
                            34.04015149227194
                        ],
                        [
                            -118.26235776126798,
                            34.04101493891928
                        ],
                        [
                            -118.26188184579307,
                            34.040736188426834
                        ],
                        [
                            -118.26259571900543,
                            34.039838747817
                        ],
                        [
                            -118.26307843327284,
                            34.04015149227194
                        ]
                    ]
                ]
            }
        }
    ]
}