{
    "type": "FeatureCollection",
    "features": [
        {
            "type": "Feature",
            "properties": {
                "type": "site",
                "region_id": "US_C015",
                "version": "2.0.0",
                "mgrs": "11SLT",
                "start_date": "2020-11-24",
                "end_date": "2021-05-18",
                "site_id": "US_C015_0196",
                "status": "positive_pending",
                "originator": "iMERIT",
                "model_content": "annotation",
                "validated": "False",
                "score": 0.0,
                "misc_info": {
                    "commit_hash": "b8980b308111f4d719b33abcdfd4475cdb0511ce"
                }
            },
            "geometry": {
                "type": "Polygon",
                "coordinates": [
                    [
                        [
                            -118.23478074322323,
                            34.061140740190176
                        ],
                        [
                            -118.23340058834597,
                            34.06149427740011
                        ],
                        [
                            -118.23255073928364,
                            34.06093677641521
                        ],
                        [
                            -118.233251014911,
                            34.059801378067924
                        ],
                        [
                            -118.23478074322323,
                            34.061140740190176
                        ]
                    ]
                ]
            }
        },
        {
            "type": "Feature",
            "properties": {
                "type": "observation",
                "score": 0.0,
                "observation_date": "2020-11-24",
                "source": null,
                "sensor_name": null,
                "current_phase": null,
                "is_occluded": null,
                "is_site_boundary": null
            },
            "geometry": {
                "type": "Polygon",
                "coordinates": [
                    [
                        [
                            -118.23478074322323,
                            34.061140740190176
                        ],
                        [
                            -118.23340058834597,
                            34.06149427740011
                        ],
                        [
                            -118.23255073928364,
                            34.06093677641521
                        ],
                        [
                            -118.233251014911,
                            34.059801378067924
                        ],
                        [
                            -118.23478074322323,
                            34.061140740190176
                        ]
                    ]
                ]
            }
        },
        {
            "type": "Feature",
            "properties": {
                "type": "observation",
                "score": 0.0,
                "observation_date": "2021-05-18",
                "source": null,
                "sensor_name": null,
                "current_phase": null,
                "is_occluded": null,
                "is_site_boundary": null
            },
            "geometry": {
                "type": "Polygon",
                "coordinates": [
                    [
                        [
                            -118.23478074322323,
                            34.061140740190176
                        ],
                        [
                            -118.23340058834597,
                            34.06149427740011
                        ],
                        [
                            -118.23255073928364,
                            34.06093677641521
                        ],
                        [
                            -118.233251014911,
                            34.059801378067924
                        ],
                        [
                            -118.23478074322323,
                            34.061140740190176
                        ]
                    ]
                ]
            }
        }
    ]
}