{
    "type": "FeatureCollection",
    "features": [
        {
            "type": "Feature",
            "properties": {
                "type": "site",
                "region_id": "US_C015",
                "version": "2.0.0",
                "mgrs": "11SLT",
                "start_date": "2017-04-14",
                "end_date": "2018-02-03",
                "site_id": "US_C015_0149",
                "status": "positive_pending",
                "originator": "iMERIT",
                "model_content": "annotation",
                "validated": "False",
                "score": 0.0,
                "misc_info": {
                    "commit_hash": "b8980b308111f4d719b33abcdfd4475cdb0511ce"
                }
            },
            "geometry": {
                "type": "Polygon",
                "coordinates": [
                    [
                        [
                            -118.37548582199614,
                            34.039272398985204
                        ],
                        [
                            -118.37649204328602,
                            34.039449167590185
                        ],
                        [
                            -118.3766348179285,
                            34.03878968471776
                        ],
                        [
                            -118.37712433098845,
                            34.03890526419025
                        ],
                        [
                            -118.37696115996847,
                            34.039727918082654
                        ],
                        [
                            -118.37547902320364,
                            34.03943557000519
                        ],
                        [
                            -118.37548582199614,
                            34.039272398985204
                        ]
                    ]
                ]
            }
        },
        {
            "type": "Feature",
            "properties": {
                "type": "observation",
                "score": 0.0,
                "observation_date": "2017-04-14",
                "source": null,
                "sensor_name": null,
                "current_phase": null,
                "is_occluded": null,
                "is_site_boundary": null
            },
            "geometry": {
                "type": "Polygon",
                "coordinates": [
                    [
                        [
                            -118.37548582199614,
                            34.039272398985204
                        ],
                        [
                            -118.37649204328602,
                            34.039449167590185
                        ],
                        [
                            -118.3766348179285,
                            34.03878968471776
                        ],
                        [
                            -118.37712433098845,
                            34.03890526419025
                        ],
                        [
                            -118.37696115996847,
                            34.039727918082654
                        ],
                        [
                            -118.37547902320364,
                            34.03943557000519
                        ],
                        [
                            -118.37548582199614,
                            34.039272398985204
                        ]
                    ]
                ]
            }
        },
        {
            "type": "Feature",
            "properties": {
                "type": "observation",
                "score": 0.0,
                "observation_date": "2018-02-03",
                "source": null,
                "sensor_name": null,
                "current_phase": null,
                "is_occluded": null,
                "is_site_boundary": null
            },
            "geometry": {
                "type": "Polygon",
                "coordinates": [
                    [
                        [
                            -118.37548582199614,
                            34.039272398985204
                        ],
                        [
                            -118.37649204328602,
                            34.039449167590185
                        ],
                        [
                            -118.3766348179285,
                            34.03878968471776
                        ],
                        [
                            -118.37712433098845,
                            34.03890526419025
                        ],
                        [
                            -118.37696115996847,
                            34.039727918082654
                        ],
                        [
                            -118.37547902320364,
                            34.03943557000519
                        ],
                        [
                            -118.37548582199614,
                            34.039272398985204
                        ]
                    ]
                ]
            }
        }
    ]
}