{
    "type": "FeatureCollection",
    "features": [
        {
            "type": "Feature",
            "properties": {
                "type": "site",
                "region_id": "US_C015",
                "version": "2.0.0",
                "mgrs": "11SLT",
                "start_date": "2017-02-13",
                "end_date": "2020-12-29",
                "site_id": "US_C015_0006",
                "status": "positive_pending",
                "originator": "iMERIT",
                "model_content": "annotation",
                "validated": "False",
                "score": 0.0,
                "misc_info": {
                    "commit_hash": "b8980b308111f4d719b33abcdfd4475cdb0511ce"
                }
            },
            "geometry": {
                "type": "Polygon",
                "coordinates": [
                    [
                        [
                            -118.4284710878315,
                            33.98219388664912
                        ],
                        [
                            -118.42652526049194,
                            33.98442141513454
                        ],
                        [
                            -118.42705390779732,
                            33.98477471157055
                        ],
                        [
                            -118.42968981165868,
                            33.98312668318149
                        ],
                        [
                            -118.4284710878315,
                            33.98219388664912
                        ]
                    ]
                ]
            }
        },
        {
            "type": "Feature",
            "properties": {
                "type": "observation",
                "score": 0.0,
                "observation_date": "2017-02-13",
                "source": null,
                "sensor_name": null,
                "current_phase": null,
                "is_occluded": null,
                "is_site_boundary": null
            },
            "geometry": {
                "type": "Polygon",
                "coordinates": [
                    [
                        [
                            -118.4284710878315,
                            33.98219388664912
                        ],
                        [
                            -118.42652526049194,
                            33.98442141513454
                        ],
                        [
                            -118.42705390779732,
                            33.98477471157055
                        ],
                        [
                            -118.42968981165868,
                            33.98312668318149
                        ],
                        [
                            -118.4284710878315,
                            33.98219388664912
                        ]
                    ]
                ]
            }
        },
        {
            "type": "Feature",
            "properties": {
                "type": "observation",
                "score": 0.0,
                "observation_date": "2020-12-29",
                "source": null,
                "sensor_name": null,
                "current_phase": null,
                "is_occluded": null,
                "is_site_boundary": null
            },
            "geometry": {
                "type": "Polygon",
                "coordinates": [
                    [
                        [
                            -118.4284710878315,
                            33.98219388664912
                        ],
                        [
                            -118.42652526049194,
                            33.98442141513454
                        ],
                        [
                            -118.42705390779732,
                            33.98477471157055
                        ],
                        [
                            -118.42968981165868,
                            33.98312668318149
                        ],
                        [
                            -118.4284710878315,
                            33.98219388664912
                        ]
                    ]
                ]
            }
        }
    ]
}