{
    "type": "FeatureCollection",
    "features": [
        {
            "type": "Feature",
            "properties": {
                "type": "site",
                "region_id": "US_C015",
                "version": "2.0.0",
                "mgrs": "11SLT",
                "start_date": "2018-06-28",
                "end_date": "2019-08-22",
                "site_id": "US_C015_0088",
                "status": "positive_pending",
                "originator": "iMERIT",
                "model_content": "annotation",
                "validated": "False",
                "score": 0.0,
                "misc_info": {
                    "commit_hash": "b8980b308111f4d719b33abcdfd4475cdb0511ce"
                }
            },
            "geometry": {
                "type": "Polygon",
                "coordinates": [
                    [
                        [
                            -118.2542544257216,
                            33.91729079350913
                        ],
                        [
                            -118.2526267172061,
                            33.91728277102048
                        ],
                        [
                            -118.2526316208563,
                            33.91648663147722
                        ],
                        [
                            -118.253808008526,
                            33.91650092946684
                        ],
                        [
                            -118.2538049039419,
                            33.91689711342228
                        ],
                        [
                            -118.254257498834,
                            33.9169089502375
                        ],
                        [
                            -118.2542544257216,
                            33.91729079350913
                        ]
                    ]
                ]
            }
        },
        {
            "type": "Feature",
            "properties": {
                "type": "observation",
                "score": 0.0,
                "observation_date": "2018-06-28",
                "source": null,
                "sensor_name": null,
                "current_phase": null,
                "is_occluded": null,
                "is_site_boundary": null
            },
            "geometry": {
                "type": "Polygon",
                "coordinates": [
                    [
                        [
                            -118.2542544257216,
                            33.91729079350913
                        ],
                        [
                            -118.2526267172061,
                            33.91728277102048
                        ],
                        [
                            -118.2526316208563,
                            33.91648663147722
                        ],
                        [
                            -118.253808008526,
                            33.91650092946684
                        ],
                        [
                            -118.2538049039419,
                            33.91689711342228
                        ],
                        [
                            -118.254257498834,
                            33.9169089502375
                        ],
                        [
                            -118.2542544257216,
                            33.91729079350913
                        ]
                    ]
                ]
            }
        },
        {
            "type": "Feature",
            "properties": {
                "type": "observation",
                "score": 0.0,
                "observation_date": "2019-08-22",
                "source": null,
                "sensor_name": null,
                "current_phase": null,
                "is_occluded": null,
                "is_site_boundary": null
            },
            "geometry": {
                "type": "Polygon",
                "coordinates": [
                    [
                        [
                            -118.2542544257216,
                            33.91729079350913
                        ],
                        [
                            -118.2526267172061,
                            33.91728277102048
                        ],
                        [
                            -118.2526316208563,
                            33.91648663147722
                        ],
                        [
                            -118.253808008526,
                            33.91650092946684
                        ],
                        [
                            -118.2538049039419,
                            33.91689711342228
                        ],
                        [
                            -118.254257498834,
                            33.9169089502375
                        ],
                        [
                            -118.2542544257216,
                            33.91729079350913
                        ]
                    ]
                ]
            }
        }
    ]
}