{
    "type": "FeatureCollection",
    "features": [
        {
            "type": "Feature",
            "properties": {
                "type": "site",
                "region_id": "US_C015",
                "version": "2.0.0",
                "mgrs": "11SLT",
                "start_date": "2017-03-05",
                "end_date": "2018-07-28",
                "site_id": "US_C015_0168",
                "status": "positive_pending",
                "originator": "iMERIT",
                "model_content": "annotation",
                "validated": "False",
                "score": 0.0,
                "misc_info": {
                    "commit_hash": "b8980b308111f4d719b33abcdfd4475cdb0511ce"
                }
            },
            "geometry": {
                "type": "Polygon",
                "coordinates": [
                    [
                        [
                            -118.29148164157385,
                            34.05647504370648
                        ],
                        [
                            -118.28993831567654,
                            34.056447848536486
                        ],
                        [
                            -118.28996551084653,
                            34.05603312219403
                        ],
                        [
                            -118.29146804398886,
                            34.05603992098653
                        ],
                        [
                            -118.29148164157385,
                            34.05647504370648
                        ]
                    ]
                ]
            }
        },
        {
            "type": "Feature",
            "properties": {
                "type": "observation",
                "score": 0.0,
                "observation_date": "2017-03-05",
                "source": null,
                "sensor_name": null,
                "current_phase": null,
                "is_occluded": null,
                "is_site_boundary": null
            },
            "geometry": {
                "type": "Polygon",
                "coordinates": [
                    [
                        [
                            -118.29148164157385,
                            34.05647504370648
                        ],
                        [
                            -118.28993831567654,
                            34.056447848536486
                        ],
                        [
                            -118.28996551084653,
                            34.05603312219403
                        ],
                        [
                            -118.29146804398886,
                            34.05603992098653
                        ],
                        [
                            -118.29148164157385,
                            34.05647504370648
                        ]
                    ]
                ]
            }
        },
        {
            "type": "Feature",
            "properties": {
                "type": "observation",
                "score": 0.0,
                "observation_date": "2018-07-28",
                "source": null,
                "sensor_name": null,
                "current_phase": null,
                "is_occluded": null,
                "is_site_boundary": null
            },
            "geometry": {
                "type": "Polygon",
                "coordinates": [
                    [
                        [
                            -118.29148164157385,
                            34.05647504370648
                        ],
                        [
                            -118.28993831567654,
                            34.056447848536486
                        ],
                        [
                            -118.28996551084653,
                            34.05603312219403
                        ],
                        [
                            -118.29146804398886,
                            34.05603992098653
                        ],
                        [
                            -118.29148164157385,
                            34.05647504370648
                        ]
                    ]
                ]
            }
        }
    ]
}