{
    "type": "FeatureCollection",
    "features": [
        {
            "type": "Feature",
            "properties": {
                "type": "site",
                "region_id": "US_C015",
                "version": "2.0.0",
                "mgrs": "11SLT",
                "start_date": "2018-01-24",
                "end_date": "2020-10-15",
                "site_id": "US_C015_0004",
                "status": "positive_pending",
                "originator": "iMERIT",
                "model_content": "annotation",
                "validated": "False",
                "score": 0.0,
                "misc_info": {
                    "commit_hash": "b8980b308111f4d719b33abcdfd4475cdb0511ce"
                }
            },
            "geometry": {
                "type": "Polygon",
                "coordinates": [
                    [
                        [
                            -118.44185342219208,
                            33.98187339691125
                        ],
                        [
                            -118.44375164586056,
                            33.98101793523062
                        ],
                        [
                            -118.44350970700131,
                            33.98066309157044
                        ],
                        [
                            -118.44223359811642,
                            33.9813177496601
                        ],
                        [
                            -118.44121271100849,
                            33.979833857990215
                        ],
                        [
                            -118.44262449541053,
                            33.97915832674408
                        ],
                        [
                            -118.44242335408443,
                            33.97881676600166
                        ],
                        [
                            -118.44024899256769,
                            33.97976015519597
                        ],
                        [
                            -118.44185342219208,
                            33.98187339691125
                        ]
                    ]
                ]
            }
        },
        {
            "type": "Feature",
            "properties": {
                "type": "observation",
                "score": 0.0,
                "observation_date": "2018-01-24",
                "source": null,
                "sensor_name": null,
                "current_phase": null,
                "is_occluded": null,
                "is_site_boundary": null
            },
            "geometry": {
                "type": "Polygon",
                "coordinates": [
                    [
                        [
                            -118.44185342219208,
                            33.98187339691125
                        ],
                        [
                            -118.44375164586056,
                            33.98101793523062
                        ],
                        [
                            -118.44350970700131,
                            33.98066309157044
                        ],
                        [
                            -118.44223359811642,
                            33.9813177496601
                        ],
                        [
                            -118.44121271100849,
                            33.979833857990215
                        ],
                        [
                            -118.44262449541053,
                            33.97915832674408
                        ],
                        [
                            -118.44242335408443,
                            33.97881676600166
                        ],
                        [
                            -118.44024899256769,
                            33.97976015519597
                        ],
                        [
                            -118.44185342219208,
                            33.98187339691125
                        ]
                    ]
                ]
            }
        },
        {
            "type": "Feature",
            "properties": {
                "type": "observation",
                "score": 0.0,
                "observation_date": "2020-10-15",
                "source": null,
                "sensor_name": null,
                "current_phase": null,
                "is_occluded": null,
                "is_site_boundary": null
            },
            "geometry": {
                "type": "Polygon",
                "coordinates": [
                    [
                        [
                            -118.44185342219208,
                            33.98187339691125
                        ],
                        [
                            -118.44375164586056,
                            33.98101793523062
                        ],
                        [
                            -118.44350970700131,
                            33.98066309157044
                        ],
                        [
                            -118.44223359811642,
                            33.9813177496601
                        ],
                        [
                            -118.44121271100849,
                            33.979833857990215
                        ],
                        [
                            -118.44262449541053,
                            33.97915832674408
                        ],
                        [
                            -118.44242335408443,
                            33.97881676600166
                        ],
                        [
                            -118.44024899256769,
                            33.97976015519597
                        ],
                        [
                            -118.44185342219208,
                            33.98187339691125
                        ]
                    ]
                ]
            }
        }
    ]
}