{
    "type": "FeatureCollection",
    "features": [
        {
            "type": "Feature",
            "properties": {
                "type": "site",
                "region_id": "VN_C001",
                "site_id": "VN_C001_0875",
                "version": "2.0.2",
                "status": "positive_pending",
                "mgrs": "48PYT",
                "score": 0.0,
                "start_date": "2018-02-23",
                "end_date": "2020-01-13",
                "model_content": "annotation",
                "originator": "iMERIT",
                "validated": "True",
                "misc_info": {
                    "commit_hash": "09ad7a622ce4c3b3840401c27b2fc588d36033b7"
                }
            },
            "geometry": {
                "type": "Polygon",
                "coordinates": [
                    [
                        [
                            106.956766,
                            10.980325
                        ],
                        [
                            106.95763,
                            10.979723
                        ],
                        [
                            106.957925,
                            10.980094
                        ],
                        [
                            106.957067,
                            10.980726
                        ],
                        [
                            106.956766,
                            10.980325
                        ]
                    ]
                ]
            }
        },
        {
            "type": "Feature",
            "properties": {
                "observation_date": "2018-02-23",
                "source": null,
                "sensor_name": null,
                "type": "observation",
                "current_phase": null,
                "is_occluded": null,
                "is_site_boundary": null,
                "score": 0.0
            },
            "geometry": {
                "type": "MultiPolygon",
                "coordinates": [
                    [
                        [
                            [
                                106.956766,
                                10.980325
                            ],
                            [
                                106.95763,
                                10.979723
                            ],
                            [
                                106.957925,
                                10.980094
                            ],
                            [
                                106.957067,
                                10.980726
                            ],
                            [
                                106.956766,
                                10.980325
                            ]
                        ]
                    ]
                ]
            }
        },
        {
            "type": "Feature",
            "properties": {
                "observation_date": "2020-01-13",
                "source": null,
                "sensor_name": null,
                "type": "observation",
                "current_phase": null,
                "is_occluded": null,
                "is_site_boundary": null,
                "score": 0.0
            },
            "geometry": {
                "type": "MultiPolygon",
                "coordinates": [
                    [
                        [
                            [
                                106.956766,
                                10.980325
                            ],
                            [
                                106.95763,
                                10.979723
                            ],
                            [
                                106.957925,
                                10.980094
                            ],
                            [
                                106.957067,
                                10.980726
                            ],
                            [
                                106.956766,
                                10.980325
                            ]
                        ]
                    ]
                ]
            }
        }
    ]
}