{
    "type": "FeatureCollection",
    "features": [
        {
            "type": "Feature",
            "properties": {
                "type": "site",
                "region_id": "VN_C001",
                "site_id": "VN_C001_2445",
                "version": "2.0.2",
                "status": "positive_pending",
                "mgrs": "48PXT",
                "score": 0.0,
                "start_date": "2019-01-14",
                "end_date": "2020-12-08",
                "model_content": "annotation",
                "originator": "iMERIT",
                "validated": "False",
                "misc_info": {
                    "commit_hash": "b2a36269f1cbef9c8830197db1fd1e207add163e"
                }
            },
            "geometry": {
                "type": "Polygon",
                "coordinates": [
                    [
                        [
                            106.777198,
                            11.099265
                        ],
                        [
                            106.775768,
                            11.099248
                        ],
                        [
                            106.775796,
                            11.098185
                        ],
                        [
                            106.772863,
                            11.098155
                        ],
                        [
                            106.772843,
                            11.100492
                        ],
                        [
                            106.77728,
                            11.100519
                        ],
                        [
                            106.777289,
                            11.099379
                        ],
                        [
                            106.778625,
                            11.099393
                        ],
                        [
                            106.778625,
                            11.098227
                        ],
                        [
                            106.777232,
                            11.098222
                        ],
                        [
                            106.777198,
                            11.099265
                        ]
                    ]
                ]
            }
        },
        {
            "type": "Feature",
            "properties": {
                "observation_date": "2019-01-14",
                "source": null,
                "sensor_name": null,
                "type": "observation",
                "current_phase": null,
                "is_occluded": null,
                "is_site_boundary": null,
                "score": 0.0
            },
            "geometry": {
                "type": "MultiPolygon",
                "coordinates": [
                    [
                        [
                            [
                                106.777198,
                                11.099265
                            ],
                            [
                                106.775768,
                                11.099248
                            ],
                            [
                                106.775796,
                                11.098185
                            ],
                            [
                                106.772863,
                                11.098155
                            ],
                            [
                                106.772843,
                                11.100492
                            ],
                            [
                                106.77728,
                                11.100519
                            ],
                            [
                                106.777289,
                                11.099379
                            ],
                            [
                                106.778625,
                                11.099393
                            ],
                            [
                                106.778625,
                                11.098227
                            ],
                            [
                                106.777232,
                                11.098222
                            ],
                            [
                                106.777198,
                                11.099265
                            ]
                        ]
                    ]
                ]
            }
        },
        {
            "type": "Feature",
            "properties": {
                "observation_date": "2020-12-08",
                "source": null,
                "sensor_name": null,
                "type": "observation",
                "current_phase": null,
                "is_occluded": null,
                "is_site_boundary": null,
                "score": 0.0
            },
            "geometry": {
                "type": "MultiPolygon",
                "coordinates": [
                    [
                        [
                            [
                                106.777198,
                                11.099265
                            ],
                            [
                                106.775768,
                                11.099248
                            ],
                            [
                                106.775796,
                                11.098185
                            ],
                            [
                                106.772863,
                                11.098155
                            ],
                            [
                                106.772843,
                                11.100492
                            ],
                            [
                                106.77728,
                                11.100519
                            ],
                            [
                                106.777289,
                                11.099379
                            ],
                            [
                                106.778625,
                                11.099393
                            ],
                            [
                                106.778625,
                                11.098227
                            ],
                            [
                                106.777232,
                                11.098222
                            ],
                            [
                                106.777198,
                                11.099265
                            ]
                        ]
                    ]
                ]
            }
        }
    ]
}