{
    "type": "FeatureCollection",
    "features": [
        {
            "type": "Feature",
            "properties": {
                "type": "site",
                "region_id": "ZA_C000",
                "version": "2.0.1",
                "mgrs": "35HLC",
                "start_date": "2020-06-20",
                "end_date": "2022-01-09",
                "site_id": "ZA_C000_0043",
                "status": "positive_pending",
                "originator": "iMERIT",
                "model_content": "annotation",
                "validated": "False",
                "score": 0.0,
                "misc_info": {
                    "commit_hash": "b8980b308111f4d719b33abcdfd4475cdb0511ce"
                }
            },
            "geometry": {
                "type": "Polygon",
                "coordinates": [
                    [
                        [
                            25.508121094173784,
                            -33.9805989484443
                        ],
                        [
                            25.50885583225709,
                            -33.9804116622662
                        ],
                        [
                            25.509100744951528,
                            -33.98111758709134
                        ],
                        [
                            25.50836600686822,
                            -33.98126885669673
                        ],
                        [
                            25.508121094173784,
                            -33.9805989484443
                        ]
                    ]
                ]
            }
        },
        {
            "type": "Feature",
            "properties": {
                "type": "observation",
                "score": 0.0,
                "observation_date": "2020-06-20",
                "source": null,
                "sensor_name": null,
                "current_phase": null,
                "is_occluded": null,
                "is_site_boundary": null
            },
            "geometry": {
                "type": "Polygon",
                "coordinates": [
                    [
                        [
                            25.508121094173784,
                            -33.9805989484443
                        ],
                        [
                            25.50885583225709,
                            -33.9804116622662
                        ],
                        [
                            25.509100744951528,
                            -33.98111758709134
                        ],
                        [
                            25.50836600686822,
                            -33.98126885669673
                        ],
                        [
                            25.508121094173784,
                            -33.9805989484443
                        ]
                    ]
                ]
            }
        },
        {
            "type": "Feature",
            "properties": {
                "type": "observation",
                "score": 0.0,
                "observation_date": "2022-01-09",
                "source": null,
                "sensor_name": null,
                "current_phase": null,
                "is_occluded": null,
                "is_site_boundary": null
            },
            "geometry": {
                "type": "Polygon",
                "coordinates": [
                    [
                        [
                            25.508121094173784,
                            -33.9805989484443
                        ],
                        [
                            25.50885583225709,
                            -33.9804116622662
                        ],
                        [
                            25.509100744951528,
                            -33.98111758709134
                        ],
                        [
                            25.50836600686822,
                            -33.98126885669673
                        ],
                        [
                            25.508121094173784,
                            -33.9805989484443
                        ]
                    ]
                ]
            }
        }
    ]
}