{
    "type": "FeatureCollection",
    "features": [
        {
            "type": "Feature",
            "properties": {
                "type": "site",
                "region_id": "ZA_C000",
                "version": "2.0.1",
                "mgrs": "35HLC",
                "start_date": "2016-05-12",
                "end_date": "2017-08-08",
                "site_id": "ZA_C000_0028",
                "status": "positive_pending",
                "originator": "iMERIT",
                "model_content": "annotation",
                "validated": "False",
                "score": 0.0,
                "misc_info": {
                    "commit_hash": "b8980b308111f4d719b33abcdfd4475cdb0511ce"
                }
            },
            "geometry": {
                "type": "Polygon",
                "coordinates": [
                    [
                        [
                            25.62822207119577,
                            -33.8151214068715
                        ],
                        [
                            25.62962413355759,
                            -33.81423899000045
                        ],
                        [
                            25.629825128511563,
                            -33.81448900811392
                        ],
                        [
                            25.628393210540665,
                            -33.815394512472785
                        ],
                        [
                            25.62822207119577,
                            -33.8151214068715
                        ]
                    ]
                ]
            }
        },
        {
            "type": "Feature",
            "properties": {
                "type": "observation",
                "score": 0.0,
                "observation_date": "2016-05-12",
                "source": null,
                "sensor_name": null,
                "current_phase": null,
                "is_occluded": null,
                "is_site_boundary": null
            },
            "geometry": {
                "type": "Polygon",
                "coordinates": [
                    [
                        [
                            25.62822207119577,
                            -33.8151214068715
                        ],
                        [
                            25.62962413355759,
                            -33.81423899000045
                        ],
                        [
                            25.629825128511563,
                            -33.81448900811392
                        ],
                        [
                            25.628393210540665,
                            -33.815394512472785
                        ],
                        [
                            25.62822207119577,
                            -33.8151214068715
                        ]
                    ]
                ]
            }
        },
        {
            "type": "Feature",
            "properties": {
                "type": "observation",
                "score": 0.0,
                "observation_date": "2017-08-08",
                "source": null,
                "sensor_name": null,
                "current_phase": null,
                "is_occluded": null,
                "is_site_boundary": null
            },
            "geometry": {
                "type": "Polygon",
                "coordinates": [
                    [
                        [
                            25.62822207119577,
                            -33.8151214068715
                        ],
                        [
                            25.62962413355759,
                            -33.81423899000045
                        ],
                        [
                            25.629825128511563,
                            -33.81448900811392
                        ],
                        [
                            25.628393210540665,
                            -33.815394512472785
                        ],
                        [
                            25.62822207119577,
                            -33.8151214068715
                        ]
                    ]
                ]
            }
        }
    ]
}