{
    "type": "FeatureCollection",
    "features": [
        {
            "type": "Feature",
            "properties": {
                "type": "site",
                "region_id": "ZA_C000",
                "version": "2.0.1",
                "mgrs": "35HLC",
                "start_date": "2017-02-24",
                "end_date": "2021-09-18",
                "site_id": "ZA_C000_0052",
                "status": "positive_pending",
                "originator": "iMERIT",
                "model_content": "annotation",
                "validated": "False",
                "score": 0.0,
                "misc_info": {
                    "commit_hash": "b8980b308111f4d719b33abcdfd4475cdb0511ce"
                }
            },
            "geometry": {
                "type": "Polygon",
                "coordinates": [
                    [
                        [
                            25.604883218419626,
                            -33.93522527014286
                        ],
                        [
                            25.60756285142934,
                            -33.93494434087571
                        ],
                        [
                            25.607591664687508,
                            -33.935657469015396
                        ],
                        [
                            25.606316678013535,
                            -33.93573670547536
                        ],
                        [
                            25.606323881328077,
                            -33.93607526125884
                        ],
                        [
                            25.604969658194136,
                            -33.936168904347895
                        ],
                        [
                            25.604883218419626,
                            -33.93522527014286
                        ]
                    ]
                ]
            }
        },
        {
            "type": "Feature",
            "properties": {
                "type": "observation",
                "score": 0.0,
                "observation_date": "2017-02-24",
                "source": null,
                "sensor_name": null,
                "current_phase": null,
                "is_occluded": null,
                "is_site_boundary": null
            },
            "geometry": {
                "type": "Polygon",
                "coordinates": [
                    [
                        [
                            25.604883218419626,
                            -33.93522527014286
                        ],
                        [
                            25.60756285142934,
                            -33.93494434087571
                        ],
                        [
                            25.607591664687508,
                            -33.935657469015396
                        ],
                        [
                            25.606316678013535,
                            -33.93573670547536
                        ],
                        [
                            25.606323881328077,
                            -33.93607526125884
                        ],
                        [
                            25.604969658194136,
                            -33.936168904347895
                        ],
                        [
                            25.604883218419626,
                            -33.93522527014286
                        ]
                    ]
                ]
            }
        },
        {
            "type": "Feature",
            "properties": {
                "type": "observation",
                "score": 0.0,
                "observation_date": "2021-09-18",
                "source": null,
                "sensor_name": null,
                "current_phase": null,
                "is_occluded": null,
                "is_site_boundary": null
            },
            "geometry": {
                "type": "Polygon",
                "coordinates": [
                    [
                        [
                            25.604883218419626,
                            -33.93522527014286
                        ],
                        [
                            25.60756285142934,
                            -33.93494434087571
                        ],
                        [
                            25.607591664687508,
                            -33.935657469015396
                        ],
                        [
                            25.606316678013535,
                            -33.93573670547536
                        ],
                        [
                            25.606323881328077,
                            -33.93607526125884
                        ],
                        [
                            25.604969658194136,
                            -33.936168904347895
                        ],
                        [
                            25.604883218419626,
                            -33.93522527014286
                        ]
                    ]
                ]
            }
        }
    ]
}