{
    "type": "FeatureCollection",
    "features": [
        {
            "type": "Feature",
            "properties": {
                "type": "site",
                "region_id": "ZA_C000",
                "version": "2.0.1",
                "mgrs": "35HLC",
                "start_date": "2019-01-30",
                "end_date": "2022-01-10",
                "site_id": "ZA_C000_0039",
                "status": "positive_pending",
                "originator": "iMERIT",
                "model_content": "annotation",
                "validated": "False",
                "score": 0.0,
                "misc_info": {
                    "commit_hash": "b8980b308111f4d719b33abcdfd4475cdb0511ce"
                }
            },
            "geometry": {
                "type": "Polygon",
                "coordinates": [
                    [
                        [
                            25.553445699895015,
                            -33.96924247286128
                        ],
                        [
                            25.554670263367196,
                            -33.96927128611945
                        ],
                        [
                            25.554540603705437,
                            -33.97097126835142
                        ],
                        [
                            25.553272820346002,
                            -33.97094965840779
                        ],
                        [
                            25.553445699895015,
                            -33.96924247286128
                        ]
                    ]
                ]
            }
        },
        {
            "type": "Feature",
            "properties": {
                "type": "observation",
                "score": 0.0,
                "observation_date": "2019-01-30",
                "source": null,
                "sensor_name": null,
                "current_phase": null,
                "is_occluded": null,
                "is_site_boundary": null
            },
            "geometry": {
                "type": "Polygon",
                "coordinates": [
                    [
                        [
                            25.553445699895015,
                            -33.96924247286128
                        ],
                        [
                            25.554670263367196,
                            -33.96927128611945
                        ],
                        [
                            25.554540603705437,
                            -33.97097126835142
                        ],
                        [
                            25.553272820346002,
                            -33.97094965840779
                        ],
                        [
                            25.553445699895015,
                            -33.96924247286128
                        ]
                    ]
                ]
            }
        },
        {
            "type": "Feature",
            "properties": {
                "type": "observation",
                "score": 0.0,
                "observation_date": "2022-01-10",
                "source": null,
                "sensor_name": null,
                "current_phase": null,
                "is_occluded": null,
                "is_site_boundary": null
            },
            "geometry": {
                "type": "Polygon",
                "coordinates": [
                    [
                        [
                            25.553445699895015,
                            -33.96924247286128
                        ],
                        [
                            25.554670263367196,
                            -33.96927128611945
                        ],
                        [
                            25.554540603705437,
                            -33.97097126835142
                        ],
                        [
                            25.553272820346002,
                            -33.97094965840779
                        ],
                        [
                            25.553445699895015,
                            -33.96924247286128
                        ]
                    ]
                ]
            }
        }
    ]
}