{
    "type": "FeatureCollection",
    "features": [
        {
            "type": "Feature",
            "properties": {
                "type": "site",
                "region_id": "ZA_C000",
                "version": "2.0.1",
                "mgrs": "35HLC",
                "start_date": "2017-08-08",
                "end_date": "2019-08-05",
                "site_id": "ZA_C000_0031",
                "status": "positive_pending",
                "originator": "iMERIT",
                "model_content": "annotation",
                "validated": "False",
                "score": 0.0,
                "misc_info": {
                    "commit_hash": "b8980b308111f4d719b33abcdfd4475cdb0511ce"
                }
            },
            "geometry": {
                "type": "Polygon",
                "coordinates": [
                    [
                        [
                            25.640384717068923,
                            -33.78081499984999
                        ],
                        [
                            25.643218255688303,
                            -33.777471620371756
                        ],
                        [
                            25.645156125829768,
                            -33.779113979523906
                        ],
                        [
                            25.642322587210387,
                            -33.78245735900214
                        ],
                        [
                            25.640384717068923,
                            -33.78081499984999
                        ]
                    ]
                ]
            }
        },
        {
            "type": "Feature",
            "properties": {
                "type": "observation",
                "score": 0.0,
                "observation_date": "2017-08-08",
                "source": null,
                "sensor_name": null,
                "current_phase": null,
                "is_occluded": null,
                "is_site_boundary": null
            },
            "geometry": {
                "type": "Polygon",
                "coordinates": [
                    [
                        [
                            25.640384717068923,
                            -33.78081499984999
                        ],
                        [
                            25.643218255688303,
                            -33.777471620371756
                        ],
                        [
                            25.645156125829768,
                            -33.779113979523906
                        ],
                        [
                            25.642322587210387,
                            -33.78245735900214
                        ],
                        [
                            25.640384717068923,
                            -33.78081499984999
                        ]
                    ]
                ]
            }
        },
        {
            "type": "Feature",
            "properties": {
                "type": "observation",
                "score": 0.0,
                "observation_date": "2019-08-05",
                "source": null,
                "sensor_name": null,
                "current_phase": null,
                "is_occluded": null,
                "is_site_boundary": null
            },
            "geometry": {
                "type": "Polygon",
                "coordinates": [
                    [
                        [
                            25.640384717068923,
                            -33.78081499984999
                        ],
                        [
                            25.643218255688303,
                            -33.777471620371756
                        ],
                        [
                            25.645156125829768,
                            -33.779113979523906
                        ],
                        [
                            25.642322587210387,
                            -33.78245735900214
                        ],
                        [
                            25.640384717068923,
                            -33.78081499984999
                        ]
                    ]
                ]
            }
        }
    ]
}