{
    "type": "FeatureCollection",
    "features": [
        {
            "type": "Feature",
            "properties": {
                "type": "site",
                "region_id": "ZA_C000",
                "version": "2.0.1",
                "mgrs": "35HLC",
                "start_date": "2017-08-10",
                "end_date": "2018-06-06",
                "site_id": "ZA_C000_0010",
                "status": "positive_pending",
                "originator": "iMERIT",
                "model_content": "annotation",
                "validated": "False",
                "score": 0.0,
                "misc_info": {
                    "commit_hash": "b8980b308111f4d719b33abcdfd4475cdb0511ce"
                }
            },
            "geometry": {
                "type": "Polygon",
                "coordinates": [
                    [
                        [
                            25.576202572898147,
                            -33.90430186121697
                        ],
                        [
                            25.578095133465702,
                            -33.903379272781244
                        ],
                        [
                            25.577819193117854,
                            -33.90301135231745
                        ],
                        [
                            25.575965654417672,
                            -33.903900493438286
                        ],
                        [
                            25.576202572898147,
                            -33.90430186121697
                        ]
                    ]
                ]
            }
        },
        {
            "type": "Feature",
            "properties": {
                "type": "observation",
                "score": 0.0,
                "observation_date": "2017-08-10",
                "source": null,
                "sensor_name": null,
                "current_phase": null,
                "is_occluded": null,
                "is_site_boundary": null
            },
            "geometry": {
                "type": "Polygon",
                "coordinates": [
                    [
                        [
                            25.576202572898147,
                            -33.90430186121697
                        ],
                        [
                            25.578095133465702,
                            -33.903379272781244
                        ],
                        [
                            25.577819193117854,
                            -33.90301135231745
                        ],
                        [
                            25.575965654417672,
                            -33.903900493438286
                        ],
                        [
                            25.576202572898147,
                            -33.90430186121697
                        ]
                    ]
                ]
            }
        },
        {
            "type": "Feature",
            "properties": {
                "type": "observation",
                "score": 0.0,
                "observation_date": "2018-06-06",
                "source": null,
                "sensor_name": null,
                "current_phase": null,
                "is_occluded": null,
                "is_site_boundary": null
            },
            "geometry": {
                "type": "Polygon",
                "coordinates": [
                    [
                        [
                            25.576202572898147,
                            -33.90430186121697
                        ],
                        [
                            25.578095133465702,
                            -33.903379272781244
                        ],
                        [
                            25.577819193117854,
                            -33.90301135231745
                        ],
                        [
                            25.575965654417672,
                            -33.903900493438286
                        ],
                        [
                            25.576202572898147,
                            -33.90430186121697
                        ]
                    ]
                ]
            }
        }
    ]
}