{
    "type": "FeatureCollection",
    "features": [
        {
            "type": "Feature",
            "properties": {
                "type": "site",
                "region_id": "ZA_C000",
                "version": "2.0.1",
                "mgrs": "35HLC",
                "start_date": "2020-08-27",
                "end_date": "2021-04-11",
                "site_id": "ZA_C000_0004",
                "status": "positive_pending",
                "originator": "iMERIT",
                "model_content": "annotation",
                "validated": "False",
                "score": 0.0,
                "misc_info": {
                    "commit_hash": "b8980b308111f4d719b33abcdfd4475cdb0511ce"
                }
            },
            "geometry": {
                "type": "Polygon",
                "coordinates": [
                    [
                        [
                            25.39615147821244,
                            -33.77957624909173
                        ],
                        [
                            25.394495444235837,
                            -33.78049685583911
                        ],
                        [
                            25.39486051242876,
                            -33.78106826692369
                        ],
                        [
                            25.39525732568194,
                            -33.781306354875596
                        ],
                        [
                            25.396738761827145,
                            -33.780232313670325
                        ],
                        [
                            25.39615147821244,
                            -33.77957624909173
                        ]
                    ]
                ]
            }
        },
        {
            "type": "Feature",
            "properties": {
                "type": "observation",
                "score": 0.0,
                "observation_date": "2020-08-27",
                "source": null,
                "sensor_name": null,
                "current_phase": null,
                "is_occluded": null,
                "is_site_boundary": null
            },
            "geometry": {
                "type": "Polygon",
                "coordinates": [
                    [
                        [
                            25.39615147821244,
                            -33.77957624909173
                        ],
                        [
                            25.394495444235837,
                            -33.78049685583911
                        ],
                        [
                            25.39486051242876,
                            -33.78106826692369
                        ],
                        [
                            25.39525732568194,
                            -33.781306354875596
                        ],
                        [
                            25.396738761827145,
                            -33.780232313670325
                        ],
                        [
                            25.39615147821244,
                            -33.77957624909173
                        ]
                    ]
                ]
            }
        },
        {
            "type": "Feature",
            "properties": {
                "type": "observation",
                "score": 0.0,
                "observation_date": "2021-04-11",
                "source": null,
                "sensor_name": null,
                "current_phase": null,
                "is_occluded": null,
                "is_site_boundary": null
            },
            "geometry": {
                "type": "Polygon",
                "coordinates": [
                    [
                        [
                            25.39615147821244,
                            -33.77957624909173
                        ],
                        [
                            25.394495444235837,
                            -33.78049685583911
                        ],
                        [
                            25.39486051242876,
                            -33.78106826692369
                        ],
                        [
                            25.39525732568194,
                            -33.781306354875596
                        ],
                        [
                            25.396738761827145,
                            -33.780232313670325
                        ],
                        [
                            25.39615147821244,
                            -33.77957624909173
                        ]
                    ]
                ]
            }
        }
    ]
}