{
    "type": "FeatureCollection",
    "features": [
        {
            "type": "Feature",
            "properties": {
                "type": "site",
                "region_id": "ZA_C000",
                "version": "2.0.1",
                "mgrs": "35HLC",
                "start_date": "2017-11-13",
                "end_date": "2019-05-15",
                "site_id": "ZA_C000_0045",
                "status": "positive_pending",
                "originator": "iMERIT",
                "model_content": "annotation",
                "validated": "False",
                "score": 0.0,
                "misc_info": {
                    "commit_hash": "b8980b308111f4d719b33abcdfd4475cdb0511ce"
                }
            },
            "geometry": {
                "type": "Polygon",
                "coordinates": [
                    [
                        [
                            25.549270028496313,
                            -33.97673797184967
                        ],
                        [
                            25.550156036185008,
                            -33.976932461342315
                        ],
                        [
                            25.55001196989416,
                            -33.97806338172545
                        ],
                        [
                            25.549248418552686,
                            -33.97806338172545
                        ],
                        [
                            25.549270028496313,
                            -33.97673797184967
                        ]
                    ]
                ]
            }
        },
        {
            "type": "Feature",
            "properties": {
                "type": "observation",
                "score": 0.0,
                "observation_date": "2017-11-13",
                "source": null,
                "sensor_name": null,
                "current_phase": null,
                "is_occluded": null,
                "is_site_boundary": null
            },
            "geometry": {
                "type": "Polygon",
                "coordinates": [
                    [
                        [
                            25.549270028496313,
                            -33.97673797184967
                        ],
                        [
                            25.550156036185008,
                            -33.976932461342315
                        ],
                        [
                            25.55001196989416,
                            -33.97806338172545
                        ],
                        [
                            25.549248418552686,
                            -33.97806338172545
                        ],
                        [
                            25.549270028496313,
                            -33.97673797184967
                        ]
                    ]
                ]
            }
        },
        {
            "type": "Feature",
            "properties": {
                "type": "observation",
                "score": 0.0,
                "observation_date": "2019-05-15",
                "source": null,
                "sensor_name": null,
                "current_phase": null,
                "is_occluded": null,
                "is_site_boundary": null
            },
            "geometry": {
                "type": "Polygon",
                "coordinates": [
                    [
                        [
                            25.549270028496313,
                            -33.97673797184967
                        ],
                        [
                            25.550156036185008,
                            -33.976932461342315
                        ],
                        [
                            25.55001196989416,
                            -33.97806338172545
                        ],
                        [
                            25.549248418552686,
                            -33.97806338172545
                        ],
                        [
                            25.549270028496313,
                            -33.97673797184967
                        ]
                    ]
                ]
            }
        }
    ]
}