{
    "type": "FeatureCollection",
    "features": [
        {
            "type": "Feature",
            "properties": {
                "type": "site",
                "region_id": "ZA_C000",
                "version": "2.0.1",
                "mgrs": "35HLC",
                "start_date": "2017-07-31",
                "end_date": "2021-06-05",
                "site_id": "ZA_C000_0042",
                "status": "positive_pending",
                "originator": "iMERIT",
                "model_content": "annotation",
                "validated": "False",
                "score": 0.0,
                "misc_info": {
                    "commit_hash": "b8980b308111f4d719b33abcdfd4475cdb0511ce"
                }
            },
            "geometry": {
                "type": "Polygon",
                "coordinates": [
                    [
                        [
                            25.534494976226625,
                            -33.978339215965214
                        ],
                        [
                            25.534333955792988,
                            -33.978322701048945
                        ],
                        [
                            25.535328013199816,
                            -33.977537539763844
                        ],
                        [
                            25.53804366278224,
                            -33.97780406240191
                        ],
                        [
                            25.537986036265902,
                            -33.97881252643782
                        ],
                        [
                            25.53548523090641,
                            -33.978684280009126
                        ],
                        [
                            25.535479282805206,
                            -33.97831549773441
                        ],
                        [
                            25.534494976226625,
                            -33.978339215965214
                        ]
                    ]
                ]
            }
        },
        {
            "type": "Feature",
            "properties": {
                "type": "observation",
                "score": 0.0,
                "observation_date": "2017-07-31",
                "source": null,
                "sensor_name": null,
                "current_phase": null,
                "is_occluded": null,
                "is_site_boundary": null
            },
            "geometry": {
                "type": "Polygon",
                "coordinates": [
                    [
                        [
                            25.534494976226625,
                            -33.978339215965214
                        ],
                        [
                            25.534333955792988,
                            -33.978322701048945
                        ],
                        [
                            25.535328013199816,
                            -33.977537539763844
                        ],
                        [
                            25.53804366278224,
                            -33.97780406240191
                        ],
                        [
                            25.537986036265902,
                            -33.97881252643782
                        ],
                        [
                            25.53548523090641,
                            -33.978684280009126
                        ],
                        [
                            25.535479282805206,
                            -33.97831549773441
                        ],
                        [
                            25.534494976226625,
                            -33.978339215965214
                        ]
                    ]
                ]
            }
        },
        {
            "type": "Feature",
            "properties": {
                "type": "observation",
                "score": 0.0,
                "observation_date": "2021-06-05",
                "source": null,
                "sensor_name": null,
                "current_phase": null,
                "is_occluded": null,
                "is_site_boundary": null
            },
            "geometry": {
                "type": "Polygon",
                "coordinates": [
                    [
                        [
                            25.534494976226625,
                            -33.978339215965214
                        ],
                        [
                            25.534333955792988,
                            -33.978322701048945
                        ],
                        [
                            25.535328013199816,
                            -33.977537539763844
                        ],
                        [
                            25.53804366278224,
                            -33.97780406240191
                        ],
                        [
                            25.537986036265902,
                            -33.97881252643782
                        ],
                        [
                            25.53548523090641,
                            -33.978684280009126
                        ],
                        [
                            25.535479282805206,
                            -33.97831549773441
                        ],
                        [
                            25.534494976226625,
                            -33.978339215965214
                        ]
                    ]
                ]
            }
        }
    ]
}