{
    "type": "FeatureCollection",
    "features": [
        {
            "type": "Feature",
            "properties": {
                "type": "site",
                "region_id": "ZA_C000",
                "version": "2.0.1",
                "mgrs": "35HLC",
                "start_date": "2018-03-26",
                "end_date": "2019-07-04",
                "site_id": "ZA_C000_0008",
                "status": "positive_pending",
                "originator": "iMERIT",
                "model_content": "annotation",
                "validated": "False",
                "score": 0.0,
                "misc_info": {
                    "commit_hash": "b8980b308111f4d719b33abcdfd4475cdb0511ce"
                }
            },
            "geometry": {
                "type": "Polygon",
                "coordinates": [
                    [
                        [
                            25.611591225690734,
                            -33.910022745701816
                        ],
                        [
                            25.61132364717161,
                            -33.911210125380435
                        ],
                        [
                            25.61014741659795,
                            -33.91099550510989
                        ],
                        [
                            25.610445655155726,
                            -33.90981927453623
                        ],
                        [
                            25.611591225690734,
                            -33.910022745701816
                        ]
                    ]
                ]
            }
        },
        {
            "type": "Feature",
            "properties": {
                "type": "observation",
                "score": 0.0,
                "observation_date": "2018-03-26",
                "source": null,
                "sensor_name": null,
                "current_phase": null,
                "is_occluded": null,
                "is_site_boundary": null
            },
            "geometry": {
                "type": "Polygon",
                "coordinates": [
                    [
                        [
                            25.611591225690734,
                            -33.910022745701816
                        ],
                        [
                            25.61132364717161,
                            -33.911210125380435
                        ],
                        [
                            25.61014741659795,
                            -33.91099550510989
                        ],
                        [
                            25.610445655155726,
                            -33.90981927453623
                        ],
                        [
                            25.611591225690734,
                            -33.910022745701816
                        ]
                    ]
                ]
            }
        },
        {
            "type": "Feature",
            "properties": {
                "type": "observation",
                "score": 0.0,
                "observation_date": "2019-07-04",
                "source": null,
                "sensor_name": null,
                "current_phase": null,
                "is_occluded": null,
                "is_site_boundary": null
            },
            "geometry": {
                "type": "Polygon",
                "coordinates": [
                    [
                        [
                            25.611591225690734,
                            -33.910022745701816
                        ],
                        [
                            25.61132364717161,
                            -33.911210125380435
                        ],
                        [
                            25.61014741659795,
                            -33.91099550510989
                        ],
                        [
                            25.610445655155726,
                            -33.90981927453623
                        ],
                        [
                            25.611591225690734,
                            -33.910022745701816
                        ]
                    ]
                ]
            }
        }
    ]
}