{
    "type": "FeatureCollection",
    "features": [
        {
            "type": "Feature",
            "properties": {
                "type": "site",
                "region_id": "ZA_C000",
                "version": "2.0.1",
                "mgrs": "35HLC",
                "start_date": "2017-03-03",
                "end_date": "2019-07-31",
                "site_id": "ZA_C000_0024",
                "status": "positive_pending",
                "originator": "iMERIT",
                "model_content": "annotation",
                "validated": "False",
                "score": 0.0,
                "misc_info": {
                    "commit_hash": "b8980b308111f4d719b33abcdfd4475cdb0511ce"
                }
            },
            "geometry": {
                "type": "Polygon",
                "coordinates": [
                    [
                        [
                            25.663539322725644,
                            -33.801470561937535
                        ],
                        [
                            25.664391842997226,
                            -33.80011657052956
                        ],
                        [
                            25.66624953794302,
                            -33.80128624013779
                        ],
                        [
                            25.665397017671445,
                            -33.80264023154576
                        ],
                        [
                            25.663539322725644,
                            -33.801470561937535
                        ]
                    ]
                ]
            }
        },
        {
            "type": "Feature",
            "properties": {
                "type": "observation",
                "score": 0.0,
                "observation_date": "2017-03-03",
                "source": null,
                "sensor_name": null,
                "current_phase": null,
                "is_occluded": null,
                "is_site_boundary": null
            },
            "geometry": {
                "type": "Polygon",
                "coordinates": [
                    [
                        [
                            25.663539322725644,
                            -33.801470561937535
                        ],
                        [
                            25.664391842997226,
                            -33.80011657052956
                        ],
                        [
                            25.66624953794302,
                            -33.80128624013779
                        ],
                        [
                            25.665397017671445,
                            -33.80264023154576
                        ],
                        [
                            25.663539322725644,
                            -33.801470561937535
                        ]
                    ]
                ]
            }
        },
        {
            "type": "Feature",
            "properties": {
                "type": "observation",
                "score": 0.0,
                "observation_date": "2019-07-31",
                "source": null,
                "sensor_name": null,
                "current_phase": null,
                "is_occluded": null,
                "is_site_boundary": null
            },
            "geometry": {
                "type": "Polygon",
                "coordinates": [
                    [
                        [
                            25.663539322725644,
                            -33.801470561937535
                        ],
                        [
                            25.664391842997226,
                            -33.80011657052956
                        ],
                        [
                            25.66624953794302,
                            -33.80128624013779
                        ],
                        [
                            25.665397017671445,
                            -33.80264023154576
                        ],
                        [
                            25.663539322725644,
                            -33.801470561937535
                        ]
                    ]
                ]
            }
        }
    ]
}