{
    "type": "FeatureCollection",
    "features": [
        {
            "type": "Feature",
            "properties": {
                "type": "site",
                "region_id": "ZA_C000",
                "version": "2.0.1",
                "mgrs": "35HLC",
                "start_date": "2018-12-21",
                "end_date": "2022-04-11",
                "site_id": "ZA_C000_0006",
                "status": "positive_pending",
                "originator": "iMERIT",
                "model_content": "annotation",
                "validated": "False",
                "score": 0.0,
                "misc_info": {
                    "commit_hash": "b8980b308111f4d719b33abcdfd4475cdb0511ce"
                }
            },
            "geometry": {
                "type": "Polygon",
                "coordinates": [
                    [
                        [
                            25.567939058232962,
                            -33.885134394481696
                        ],
                        [
                            25.566907640043304,
                            -33.88448093527545
                        ],
                        [
                            25.568253265098686,
                            -33.882871194303966
                        ],
                        [
                            25.56865854641823,
                            -33.88310343416123
                        ],
                        [
                            25.56797548801449,
                            -33.88389805877092
                        ],
                        [
                            25.56865399269555,
                            -33.88432838556528
                        ],
                        [
                            25.567939058232962,
                            -33.885134394481696
                        ]
                    ]
                ]
            }
        },
        {
            "type": "Feature",
            "properties": {
                "type": "observation",
                "score": 0.0,
                "observation_date": "2018-12-21",
                "source": null,
                "sensor_name": null,
                "current_phase": null,
                "is_occluded": null,
                "is_site_boundary": null
            },
            "geometry": {
                "type": "Polygon",
                "coordinates": [
                    [
                        [
                            25.567939058232962,
                            -33.885134394481696
                        ],
                        [
                            25.566907640043304,
                            -33.88448093527545
                        ],
                        [
                            25.568253265098686,
                            -33.882871194303966
                        ],
                        [
                            25.56865854641823,
                            -33.88310343416123
                        ],
                        [
                            25.56797548801449,
                            -33.88389805877092
                        ],
                        [
                            25.56865399269555,
                            -33.88432838556528
                        ],
                        [
                            25.567939058232962,
                            -33.885134394481696
                        ]
                    ]
                ]
            }
        },
        {
            "type": "Feature",
            "properties": {
                "type": "observation",
                "score": 0.0,
                "observation_date": "2022-04-11",
                "source": null,
                "sensor_name": null,
                "current_phase": null,
                "is_occluded": null,
                "is_site_boundary": null
            },
            "geometry": {
                "type": "Polygon",
                "coordinates": [
                    [
                        [
                            25.567939058232962,
                            -33.885134394481696
                        ],
                        [
                            25.566907640043304,
                            -33.88448093527545
                        ],
                        [
                            25.568253265098686,
                            -33.882871194303966
                        ],
                        [
                            25.56865854641823,
                            -33.88310343416123
                        ],
                        [
                            25.56797548801449,
                            -33.88389805877092
                        ],
                        [
                            25.56865399269555,
                            -33.88432838556528
                        ],
                        [
                            25.567939058232962,
                            -33.885134394481696
                        ]
                    ]
                ]
            }
        }
    ]
}