{
    "type": "FeatureCollection",
    "features": [
        {
            "type": "Feature",
            "properties": {
                "type": "site",
                "region_id": "ZA_C000",
                "version": "2.0.1",
                "mgrs": "35HLC",
                "start_date": "2018-08-18",
                "end_date": "2019-07-31",
                "site_id": "ZA_C000_0029",
                "status": "positive_pending",
                "originator": "iMERIT",
                "model_content": "annotation",
                "validated": "False",
                "score": 0.0,
                "misc_info": {
                    "commit_hash": "b8980b308111f4d719b33abcdfd4475cdb0511ce"
                }
            },
            "geometry": {
                "type": "Polygon",
                "coordinates": [
                    [
                        [
                            25.629450419335974,
                            -33.78727947144359
                        ],
                        [
                            25.63037418789803,
                            -33.788050818192914
                        ],
                        [
                            25.63108516079225,
                            -33.78719935364895
                        ],
                        [
                            25.630157210143736,
                            -33.78642451485744
                        ],
                        [
                            25.629450419335974,
                            -33.78727947144359
                        ]
                    ]
                ]
            }
        },
        {
            "type": "Feature",
            "properties": {
                "type": "observation",
                "score": 0.0,
                "observation_date": "2018-08-18",
                "source": null,
                "sensor_name": null,
                "current_phase": null,
                "is_occluded": null,
                "is_site_boundary": null
            },
            "geometry": {
                "type": "Polygon",
                "coordinates": [
                    [
                        [
                            25.629450419335974,
                            -33.78727947144359
                        ],
                        [
                            25.63037418789803,
                            -33.788050818192914
                        ],
                        [
                            25.63108516079225,
                            -33.78719935364895
                        ],
                        [
                            25.630157210143736,
                            -33.78642451485744
                        ],
                        [
                            25.629450419335974,
                            -33.78727947144359
                        ]
                    ]
                ]
            }
        },
        {
            "type": "Feature",
            "properties": {
                "type": "observation",
                "score": 0.0,
                "observation_date": "2019-07-31",
                "source": null,
                "sensor_name": null,
                "current_phase": null,
                "is_occluded": null,
                "is_site_boundary": null
            },
            "geometry": {
                "type": "Polygon",
                "coordinates": [
                    [
                        [
                            25.629450419335974,
                            -33.78727947144359
                        ],
                        [
                            25.63037418789803,
                            -33.788050818192914
                        ],
                        [
                            25.63108516079225,
                            -33.78719935364895
                        ],
                        [
                            25.630157210143736,
                            -33.78642451485744
                        ],
                        [
                            25.629450419335974,
                            -33.78727947144359
                        ]
                    ]
                ]
            }
        }
    ]
}