{
    "type": "FeatureCollection",
    "features": [
        {
            "type": "Feature",
            "properties": {
                "type": "site",
                "region_id": "ZA_C000",
                "version": "2.0.1",
                "mgrs": "35HLC",
                "start_date": "2018-04-12",
                "end_date": "2019-07-31",
                "site_id": "ZA_C000_0023",
                "status": "positive_pending",
                "originator": "iMERIT",
                "model_content": "annotation",
                "validated": "False",
                "score": 0.0,
                "misc_info": {
                    "commit_hash": "b8980b308111f4d719b33abcdfd4475cdb0511ce"
                }
            },
            "geometry": {
                "type": "Polygon",
                "coordinates": [
                    [
                        [
                            25.694492019727328,
                            -33.79455966266433
                        ],
                        [
                            25.69438372726348,
                            -33.79526702727199
                        ],
                        [
                            25.695461034030483,
                            -33.795388915289145
                        ],
                        [
                            25.695502962533986,
                            -33.79463886094872
                        ],
                        [
                            25.694492019727328,
                            -33.79455966266433
                        ]
                    ]
                ]
            }
        },
        {
            "type": "Feature",
            "properties": {
                "type": "observation",
                "score": 0.0,
                "observation_date": "2018-04-12",
                "source": null,
                "sensor_name": null,
                "current_phase": null,
                "is_occluded": null,
                "is_site_boundary": null
            },
            "geometry": {
                "type": "Polygon",
                "coordinates": [
                    [
                        [
                            25.694492019727328,
                            -33.79455966266433
                        ],
                        [
                            25.69438372726348,
                            -33.79526702727199
                        ],
                        [
                            25.695461034030483,
                            -33.795388915289145
                        ],
                        [
                            25.695502962533986,
                            -33.79463886094872
                        ],
                        [
                            25.694492019727328,
                            -33.79455966266433
                        ]
                    ]
                ]
            }
        },
        {
            "type": "Feature",
            "properties": {
                "type": "observation",
                "score": 0.0,
                "observation_date": "2019-07-31",
                "source": null,
                "sensor_name": null,
                "current_phase": null,
                "is_occluded": null,
                "is_site_boundary": null
            },
            "geometry": {
                "type": "Polygon",
                "coordinates": [
                    [
                        [
                            25.694492019727328,
                            -33.79455966266433
                        ],
                        [
                            25.69438372726348,
                            -33.79526702727199
                        ],
                        [
                            25.695461034030483,
                            -33.795388915289145
                        ],
                        [
                            25.695502962533986,
                            -33.79463886094872
                        ],
                        [
                            25.694492019727328,
                            -33.79455966266433
                        ]
                    ]
                ]
            }
        }
    ]
}