{
    "type": "FeatureCollection",
    "features": [
        {
            "type": "Feature",
            "properties": {
                "type": "site",
                "region_id": "ZA_C000",
                "version": "2.0.1",
                "mgrs": "35HLC",
                "start_date": "2017-07-24",
                "end_date": "2022-04-20",
                "site_id": "ZA_C000_0001",
                "status": "positive_pending",
                "originator": "iMERIT",
                "model_content": "annotation",
                "validated": "False",
                "score": 0.0,
                "misc_info": {
                    "commit_hash": "b8980b308111f4d719b33abcdfd4475cdb0511ce"
                }
            },
            "geometry": {
                "type": "Polygon",
                "coordinates": [
                    [
                        [
                            25.36457889517299,
                            -33.80771371725109
                        ],
                        [
                            25.365896315173547,
                            -33.808718977492475
                        ],
                        [
                            25.36466619408869,
                            -33.810168668577425
                        ],
                        [
                            25.3633778737267,
                            -33.80902055556489
                        ],
                        [
                            25.36457889517299,
                            -33.80771371725109
                        ]
                    ]
                ]
            }
        },
        {
            "type": "Feature",
            "properties": {
                "type": "observation",
                "score": 0.0,
                "observation_date": "2017-07-24",
                "source": null,
                "sensor_name": null,
                "current_phase": null,
                "is_occluded": null,
                "is_site_boundary": null
            },
            "geometry": {
                "type": "Polygon",
                "coordinates": [
                    [
                        [
                            25.36457889517299,
                            -33.80771371725109
                        ],
                        [
                            25.365896315173547,
                            -33.808718977492475
                        ],
                        [
                            25.36466619408869,
                            -33.810168668577425
                        ],
                        [
                            25.3633778737267,
                            -33.80902055556489
                        ],
                        [
                            25.36457889517299,
                            -33.80771371725109
                        ]
                    ]
                ]
            }
        },
        {
            "type": "Feature",
            "properties": {
                "type": "observation",
                "score": 0.0,
                "observation_date": "2022-04-20",
                "source": null,
                "sensor_name": null,
                "current_phase": null,
                "is_occluded": null,
                "is_site_boundary": null
            },
            "geometry": {
                "type": "Polygon",
                "coordinates": [
                    [
                        [
                            25.36457889517299,
                            -33.80771371725109
                        ],
                        [
                            25.365896315173547,
                            -33.808718977492475
                        ],
                        [
                            25.36466619408869,
                            -33.810168668577425
                        ],
                        [
                            25.3633778737267,
                            -33.80902055556489
                        ],
                        [
                            25.36457889517299,
                            -33.80771371725109
                        ]
                    ]
                ]
            }
        }
    ]
}