{
    "type": "FeatureCollection",
    "features": [
        {
            "type": "Feature",
            "properties": {
                "type": "site",
                "region_id": "ZA_C000",
                "version": "2.0.1",
                "mgrs": "35HLC",
                "start_date": "2021-05-09",
                "end_date": "2022-04-11",
                "site_id": "ZA_C000_0041",
                "status": "positive_pending",
                "originator": "iMERIT",
                "model_content": "annotation",
                "validated": "False",
                "score": 0.0,
                "misc_info": {
                    "commit_hash": "b8980b308111f4d719b33abcdfd4475cdb0511ce"
                }
            },
            "geometry": {
                "type": "Polygon",
                "coordinates": [
                    [
                        [
                            25.55376984904942,
                            -33.97858877347985
                        ],
                        [
                            25.555909233468466,
                            -33.9787328397707
                        ],
                        [
                            25.555844403637586,
                            -33.97979893032295
                        ],
                        [
                            25.55376984904942,
                            -33.97971969386298
                        ],
                        [
                            25.55376984904942,
                            -33.97858877347985
                        ]
                    ]
                ]
            }
        },
        {
            "type": "Feature",
            "properties": {
                "type": "observation",
                "score": 0.0,
                "observation_date": "2021-05-09",
                "source": null,
                "sensor_name": null,
                "current_phase": null,
                "is_occluded": null,
                "is_site_boundary": null
            },
            "geometry": {
                "type": "Polygon",
                "coordinates": [
                    [
                        [
                            25.55376984904942,
                            -33.97858877347985
                        ],
                        [
                            25.555909233468466,
                            -33.9787328397707
                        ],
                        [
                            25.555844403637586,
                            -33.97979893032295
                        ],
                        [
                            25.55376984904942,
                            -33.97971969386298
                        ],
                        [
                            25.55376984904942,
                            -33.97858877347985
                        ]
                    ]
                ]
            }
        },
        {
            "type": "Feature",
            "properties": {
                "type": "observation",
                "score": 0.0,
                "observation_date": "2022-04-11",
                "source": null,
                "sensor_name": null,
                "current_phase": null,
                "is_occluded": null,
                "is_site_boundary": null
            },
            "geometry": {
                "type": "Polygon",
                "coordinates": [
                    [
                        [
                            25.55376984904942,
                            -33.97858877347985
                        ],
                        [
                            25.555909233468466,
                            -33.9787328397707
                        ],
                        [
                            25.555844403637586,
                            -33.97979893032295
                        ],
                        [
                            25.55376984904942,
                            -33.97971969386298
                        ],
                        [
                            25.55376984904942,
                            -33.97858877347985
                        ]
                    ]
                ]
            }
        }
    ]
}