{
    "type": "FeatureCollection",
    "features": [
        {
            "type": "Feature",
            "properties": {
                "type": "site",
                "region_id": "ZA_C000",
                "version": "2.0.1",
                "mgrs": "35HLC",
                "start_date": "2017-01-15",
                "end_date": "2021-09-23",
                "site_id": "ZA_C000_0027",
                "status": "positive_pending",
                "originator": "iMERIT",
                "model_content": "annotation",
                "validated": "False",
                "score": 0.0,
                "misc_info": {
                    "commit_hash": "b8980b308111f4d719b33abcdfd4475cdb0511ce"
                }
            },
            "geometry": {
                "type": "Polygon",
                "coordinates": [
                    [
                        [
                            25.64857932224866,
                            -33.822748926673995
                        ],
                        [
                            25.65201608767119,
                            -33.813223935527525
                        ],
                        [
                            25.657038825198427,
                            -33.815053141749715
                        ],
                        [
                            25.655573994620177,
                            -33.81964625457982
                        ],
                        [
                            25.653380756653654,
                            -33.818957469102735
                        ],
                        [
                            25.651652056325705,
                            -33.82260983596103
                        ],
                        [
                            25.65011603443946,
                            -33.82329824913134
                        ],
                        [
                            25.64857932224866,
                            -33.822748926673995
                        ]
                    ]
                ]
            }
        },
        {
            "type": "Feature",
            "properties": {
                "type": "observation",
                "score": 0.0,
                "observation_date": "2017-01-15",
                "source": null,
                "sensor_name": null,
                "current_phase": null,
                "is_occluded": null,
                "is_site_boundary": null
            },
            "geometry": {
                "type": "Polygon",
                "coordinates": [
                    [
                        [
                            25.64857932224866,
                            -33.822748926673995
                        ],
                        [
                            25.65201608767119,
                            -33.813223935527525
                        ],
                        [
                            25.657038825198427,
                            -33.815053141749715
                        ],
                        [
                            25.655573994620177,
                            -33.81964625457982
                        ],
                        [
                            25.653380756653654,
                            -33.818957469102735
                        ],
                        [
                            25.651652056325705,
                            -33.82260983596103
                        ],
                        [
                            25.65011603443946,
                            -33.82329824913134
                        ],
                        [
                            25.64857932224866,
                            -33.822748926673995
                        ]
                    ]
                ]
            }
        },
        {
            "type": "Feature",
            "properties": {
                "type": "observation",
                "score": 0.0,
                "observation_date": "2021-09-23",
                "source": null,
                "sensor_name": null,
                "current_phase": null,
                "is_occluded": null,
                "is_site_boundary": null
            },
            "geometry": {
                "type": "Polygon",
                "coordinates": [
                    [
                        [
                            25.64857932224866,
                            -33.822748926673995
                        ],
                        [
                            25.65201608767119,
                            -33.813223935527525
                        ],
                        [
                            25.657038825198427,
                            -33.815053141749715
                        ],
                        [
                            25.655573994620177,
                            -33.81964625457982
                        ],
                        [
                            25.653380756653654,
                            -33.818957469102735
                        ],
                        [
                            25.651652056325705,
                            -33.82260983596103
                        ],
                        [
                            25.65011603443946,
                            -33.82329824913134
                        ],
                        [
                            25.64857932224866,
                            -33.822748926673995
                        ]
                    ]
                ]
            }
        }
    ]
}